{
"type": "FeatureCollection",
"name": "spain_fires_modis_ba",
"crs": { "type": "name", "properties": { "name": "urn:ogc:def:crs:OGC:1.3:CRS84" } },
"features": [
{ "type": "Feature", "properties": { }, "geometry": { "type": "MultiPolygon", "coordinates": [ [ [ [ 4.221502488933333, 36.870000666232805 ], [ 4.221502488933333, 36.869542384708119 ], [ 4.220762272965825, 36.869542384708119 ], [ 4.220762272965825, 36.868167523639144 ], [ 4.217801409095792, 36.868167523639144 ], [ 4.217801409095792, 36.869084100434264 ], [ 4.2185416250633, 36.869084100434264 ], [ 4.2185416250633, 36.869542384708119 ], [ 4.220022056998316, 36.869542384708119 ], [ 4.220022056998316, 36.870000666232805 ], [ 4.221502488933333, 36.870000666232805 ] ] ], [ [ [ -0.766812916105331, 42.47841308812648 ], [ -0.765332484170315, 42.47841308812648 ], [ -0.765332484170315, 42.477990590887998 ], [ -0.764592268202806, 42.477990590887998 ], [ -0.764592268202806, 42.477568090796886 ], [ -0.76311183626779, 42.477568090796886 ], [ -0.76311183626779, 42.477145587853137 ], [ -0.757190108527723, 42.477145587853137 ], [ -0.757190108527723, 42.476723082056779 ], [ -0.756449892560215, 42.476723082056779 ], [ -0.756449892560215, 42.476300573407791 ], [ -0.755709676592706, 42.476300573407791 ], [ -0.755709676592706, 42.475878061906194 ], [ -0.75422924465769, 42.475878061906194 ], [ -0.75422924465769, 42.475455547551981 ], [ -0.753489028690181, 42.475455547551981 ], [ -0.753489028690181, 42.475033030345152 ], [ -0.752748812722673, 42.475033030345152 ], [ -0.752748812722673, 42.474610510285736 ], [ -0.752008596755165, 42.474610510285736 ], [ -0.752008596755165, 42.474187987373703 ], [ -0.751268380787656, 42.474187987373703 ], [ -0.751268380787656, 42.473765461609084 ], [ -0.750528164820148, 42.473765461609084 ], [ -0.750528164820148, 42.473342932991862 ], [ -0.74978794885264, 42.473342932991862 ], [ -0.74978794885264, 42.472497867199664 ], [ -0.748307516917623, 42.472497867199664 ], [ -0.748307516917623, 42.472075330024687 ], [ -0.747567300950115, 42.472075330024687 ], [ -0.747567300950115, 42.471652789997137 ], [ -0.746827084982606, 42.471652789997137 ], [ -0.746827084982606, 42.471230247116999 ], [ -0.746086869015098, 42.471230247116999 ], [ -0.746086869015098, 42.470807701384302 ], [ -0.74534665304759, 42.470807701384302 ], [ -0.74534665304759, 42.470385152799032 ], [ -0.744606437080081, 42.470385152799032 ], [ -0.744606437080081, 42.469962601361203 ], [ -0.743866221112573, 42.469962601361203 ], [ -0.743866221112573, 42.469540047070808 ], [ -0.743126005145065, 42.469540047070808 ], [ -0.743126005145065, 42.469117489927854 ], [ -0.741645573210048, 42.469117489927854 ], [ -0.741645573210048, 42.468694929932354 ], [ -0.74090535724254, 42.468694929932354 ], [ -0.74090535724254, 42.468272367084303 ], [ -0.738684709340015, 42.468272367084303 ], [ -0.738684709340015, 42.467849801383707 ], [ -0.737204277404998, 42.467849801383707 ], [ -0.737204277404998, 42.467427232830566 ], [ -0.73646406143749, 42.467427232830566 ], [ -0.73646406143749, 42.467004661424888 ], [ -0.734983629502473, 42.467004661424888 ], [ -0.734983629502473, 42.466582087166685 ], [ -0.734243413534964, 42.466582087166685 ], [ -0.734243413534964, 42.466159510055938 ], [ -0.733503197567456, 42.466159510055938 ], [ -0.733503197567456, 42.465736930092682 ], [ -0.732762981599948, 42.465736930092682 ], [ -0.732762981599948, 42.464891761608577 ], [ -0.73202276563244, 42.464891761608577 ], [ -0.73202276563244, 42.46404658171442 ], [ -0.731282549664931, 42.46404658171442 ], [ -0.731282549664931, 42.46193358206019 ], [ -0.730542333697423, 42.46193358206019 ], [ -0.730542333697423, 42.460665748037762 ], [ -0.729802117729914, 42.460665748037762 ], [ -0.729802117729914, 42.457284731802517 ], [ -0.729061901762406, 42.457284731802517 ], [ -0.729061901762406, 42.456862091937047 ], [ -0.728321685794898, 42.456862091937047 ], [ -0.728321685794898, 42.45643944921914 ], [ -0.726841253859881, 42.45643944921914 ], [ -0.726841253859881, 42.456016803648794 ], [ -0.726101037892373, 42.456016803648794 ], [ -0.726101037892373, 42.455171503950794 ], [ -0.725360821924865, 42.455171503950794 ], [ -0.725360821924865, 42.454326192843084 ], [ -0.724620605957356, 42.454326192843084 ], [ -0.724620605957356, 42.453058204788348 ], [ -0.723880389989848, 42.453058204788348 ], [ -0.723880389989848, 42.450522151663897 ], [ -0.72314017402234, 42.450522151663897 ], [ -0.72314017402234, 42.447985995853479 ], [ -0.723880389989848, 42.447985995853479 ], [ -0.723880389989848, 42.442067899632733 ], [ -0.724620605957356, 42.442067899632733 ], [ -0.724620605957356, 42.44037691231452 ], [ -0.725360821924865, 42.44037691231452 ], [ -0.725360821924865, 42.439108641876722 ], [ -0.726101037892373, 42.439108641876722 ], [ -0.726101037892373, 42.437840345768343 ], [ -0.726841253859881, 42.437840345768343 ], [ -0.726841253859881, 42.436572023989484 ], [ -0.72758146982739, 42.436572023989484 ], [ -0.72758146982739, 42.435726461875589 ], [ -0.728321685794898, 42.435726461875589 ], [ -0.728321685794898, 42.433189707079883 ], [ -0.729061901762406, 42.433189707079883 ], [ -0.729061901762406, 42.43107566631366 ], [ -0.728321685794898, 42.43107566631366 ], [ -0.728321685794898, 42.428115889448051 ], [ -0.72758146982739, 42.428115889448051 ], [ -0.72758146982739, 42.423041661101124 ], [ -0.728321685794898, 42.423041661101124 ], [ -0.728321685794898, 42.421773039840922 ], [ -0.729061901762406, 42.421773039840922 ], [ -0.729061901762406, 42.420927278073464 ], [ -0.729802117729914, 42.420927278073464 ], [ -0.729802117729914, 42.420504392911546 ], [ -0.730542333697423, 42.420504392911546 ], [ -0.730542333697423, 42.419658614031349 ], [ -0.731282549664931, 42.419658614031349 ], [ -0.731282549664931, 42.419235720313083 ], [ -0.73202276563244, 42.419235720313083 ], [ -0.73202276563244, 42.418812823742712 ], [ -0.732762981599948, 42.418812823742712 ], [ -0.732762981599948, 42.417544116918982 ], [ -0.733503197567456, 42.417544116918982 ], [ -0.733503197567456, 42.413314908787711 ], [ -0.734243413534964, 42.413314908787711 ], [ -0.734243413534964, 42.412469032936677 ], [ -0.734983629502473, 42.412469032936677 ], [ -0.734983629502473, 42.410777247010074 ], [ -0.735723845469981, 42.410777247010074 ], [ -0.735723845469981, 42.409508377618756 ], [ -0.73646406143749, 42.409508377618756 ], [ -0.73646406143749, 42.408239482559253 ], [ -0.737204277404998, 42.408239482559253 ], [ -0.737204277404998, 42.406547582551823 ], [ -0.737944493372506, 42.406547582551823 ], [ -0.737944493372506, 42.405278627600282 ], [ -0.738684709340015, 42.405278627600282 ], [ -0.738684709340015, 42.404009646980903 ], [ -0.739424925307523, 42.404009646980903 ], [ -0.739424925307523, 42.401471608739044 ], [ -0.740165141275031, 42.401471608739044 ], [ -0.740165141275031, 42.396395224245737 ], [ -0.74090535724254, 42.396395224245737 ], [ -0.74090535724254, 42.395972173667168 ], [ -0.746086869015098, 42.395972173667168 ], [ -0.746086869015098, 42.396395224245737 ], [ -0.746827084982606, 42.396395224245737 ], [ -0.746827084982606, 42.396818271972393 ], [ -0.748307516917623, 42.396818271972393 ], [ -0.748307516917623, 42.397241316847158 ], [ -0.74978794885264, 42.397241316847158 ], [ -0.74978794885264, 42.397664358870003 ], [ -0.750528164820148, 42.397664358870003 ], [ -0.750528164820148, 42.398087398040929 ], [ -0.752008596755165, 42.398087398040929 ], [ -0.752008596755165, 42.398510434359949 ], [ -0.752748812722673, 42.398510434359949 ], [ -0.752748812722673, 42.398933467827035 ], [ -0.753489028690181, 42.398933467827035 ], [ -0.753489028690181, 42.399356498442209 ], [ -0.75422924465769, 42.399356498442209 ], [ -0.75422924465769, 42.399779526205457 ], [ -0.754969460625198, 42.399779526205457 ], [ -0.754969460625198, 42.400202551116756 ], [ -0.755709676592706, 42.400202551116756 ], [ -0.755709676592706, 42.400625573176129 ], [ -0.756449892560215, 42.400625573176129 ], [ -0.756449892560215, 42.401048592383553 ], [ -0.757190108527723, 42.401048592383553 ], [ -0.757190108527723, 42.401471608739044 ], [ -0.757930324495231, 42.401471608739044 ], [ -0.757930324495231, 42.401894622242587 ], [ -0.75867054046274, 42.401894622242587 ], [ -0.75867054046274, 42.402317632894167 ], [ -0.759410756430248, 42.402317632894167 ], [ -0.759410756430248, 42.403163645641456 ], [ -0.760150972397756, 42.403163645641456 ], [ -0.760150972397756, 42.403586647737171 ], [ -0.760891188365265, 42.403586647737171 ], [ -0.760891188365265, 42.404432643372679 ], [ -0.761631404332773, 42.404432643372679 ], [ -0.761631404332773, 42.404855636912473 ], [ -0.762371620300281, 42.404855636912473 ], [ -0.762371620300281, 42.405701615436115 ], [ -0.76311183626779, 42.405701615436115 ], [ -0.76311183626779, 42.406124600419957 ], [ -0.763852052235298, 42.406124600419957 ], [ -0.763852052235298, 42.406970561831677 ], [ -0.764592268202806, 42.406970561831677 ], [ -0.764592268202806, 42.407816511835406 ], [ -0.765332484170315, 42.407816511835406 ], [ -0.765332484170315, 42.408662450431109 ], [ -0.766072700137823, 42.408662450431109 ], [ -0.766072700137823, 42.409508377618756 ], [ -0.766812916105331, 42.409508377618756 ], [ -0.766812916105331, 42.410354293398328 ], [ -0.76755313207284, 42.410354293398328 ], [ -0.76755313207284, 42.411623145677453 ], [ -0.768293348040348, 42.411623145677453 ], [ -0.768293348040348, 42.412469032936677 ], [ -0.769033564007856, 42.412469032936677 ], [ -0.769033564007856, 42.413314908787711 ], [ -0.769773779975365, 42.413314908787711 ], [ -0.769773779975365, 42.414583701173846 ], [ -0.770513995942873, 42.414583701173846 ], [ -0.770513995942873, 42.415429548504278 ], [ -0.771254211910381, 42.415429548504278 ], [ -0.771254211910381, 42.415852467891376 ], [ -0.77199442787789, 42.415852467891376 ], [ -0.77199442787789, 42.416698298109353 ], [ -0.772734643845398, 42.416698298109353 ], [ -0.772734643845398, 42.417544116918982 ], [ -0.773474859812906, 42.417544116918982 ], [ -0.773474859812906, 42.417967022045659 ], [ -0.774215075780415, 42.417967022045659 ], [ -0.774215075780415, 42.41838992432023 ], [ -0.774955291747923, 42.41838992432023 ], [ -0.774955291747923, 42.419235720313083 ], [ -0.775695507715431, 42.419235720313083 ], [ -0.775695507715431, 42.419658614031349 ], [ -0.77643572368294, 42.419658614031349 ], [ -0.77643572368294, 42.420081504897503 ], [ -0.777175939650448, 42.420081504897503 ], [ -0.777175939650448, 42.420504392911546 ], [ -0.777916155617956, 42.420504392911546 ], [ -0.777916155617956, 42.421350160383255 ], [ -0.778656371585465, 42.421350160383255 ], [ -0.778656371585465, 42.421773039840922 ], [ -0.779396587552973, 42.421773039840922 ], [ -0.779396587552973, 42.422195916446462 ], [ -0.780136803520481, 42.422195916446462 ], [ -0.780136803520481, 42.422618790199856 ], [ -0.78087701948799, 42.422618790199856 ], [ -0.78087701948799, 42.423464529150245 ], [ -0.781617235455498, 42.423464529150245 ], [ -0.781617235455498, 42.423887394347204 ], [ -0.782357451423006, 42.423887394347204 ], [ -0.782357451423006, 42.424733116184697 ], [ -0.783097667390515, 42.424733116184697 ], [ -0.783097667390515, 42.42557882661356 ], [ -0.783837883358023, 42.42557882661356 ], [ -0.783837883358023, 42.426424525633763 ], [ -0.784578099325531, 42.426424525633763 ], [ -0.784578099325531, 42.426847370865595 ], [ -0.78531831529304, 42.426847370865595 ], [ -0.78531831529304, 42.427693052772746 ], [ -0.786058531260548, 42.427693052772746 ], [ -0.786058531260548, 42.42853872327116 ], [ -0.786798747228056, 42.42853872327116 ], [ -0.786798747228056, 42.42980720762732 ], [ -0.787538963195565, 42.42980720762732 ], [ -0.787538963195565, 42.43065284960376 ], [ -0.788279179163073, 42.43065284960376 ], [ -0.788279179163073, 42.431498480171356 ], [ -0.789019395130581, 42.431498480171356 ], [ -0.789019395130581, 42.432766904631094 ], [ -0.78975961109809, 42.432766904631094 ], [ -0.78975961109809, 42.434035303420757 ], [ -0.790499827065598, 42.434035303420757 ], [ -0.790499827065598, 42.435303676540258 ], [ -0.791240043033106, 42.435303676540258 ], [ -0.791240043033106, 42.436149244358667 ], [ -0.791980259000615, 42.436149244358667 ], [ -0.791980259000615, 42.437840345768343 ], [ -0.792720474968123, 42.437840345768343 ], [ -0.792720474968123, 42.439954158354219 ], [ -0.793460690935631, 42.439954158354219 ], [ -0.793460690935631, 42.44418156960343 ], [ -0.792720474968123, 42.44418156960343 ], [ -0.792720474968123, 42.446295168265841 ], [ -0.791980259000615, 42.446295168265841 ], [ -0.791980259000615, 42.44714058776438 ], [ -0.792720474968123, 42.44714058776438 ], [ -0.792720474968123, 42.449676777803276 ], [ -0.793460690935631, 42.449676777803276 ], [ -0.793460690935631, 42.456016803648794 ], [ -0.792720474968123, 42.456016803648794 ], [ -0.792720474968123, 42.463201390410227 ], [ -0.791980259000615, 42.463201390410227 ], [ -0.791980259000615, 42.464469173087757 ], [ -0.792720474968123, 42.464469173087757 ], [ -0.792720474968123, 42.470807701384302 ], [ -0.791980259000615, 42.470807701384302 ], [ -0.791980259000615, 42.472497867199664 ], [ -0.791240043033106, 42.472497867199664 ], [ -0.791240043033106, 42.473342932991862 ], [ -0.790499827065598, 42.473342932991862 ], [ -0.790499827065598, 42.474187987373703 ], [ -0.78975961109809, 42.474187987373703 ], [ -0.78975961109809, 42.474610510285736 ], [ -0.789019395130581, 42.474610510285736 ], [ -0.789019395130581, 42.475033030345152 ], [ -0.788279179163073, 42.475033030345152 ], [ -0.788279179163073, 42.475455547551981 ], [ -0.786798747228056, 42.475455547551981 ], [ -0.786798747228056, 42.475878061906194 ], [ -0.786058531260548, 42.475878061906194 ], [ -0.786058531260548, 42.476300573407791 ], [ -0.784578099325531, 42.476300573407791 ], [ -0.784578099325531, 42.476723082056779 ], [ -0.783097667390515, 42.476723082056779 ], [ -0.783097667390515, 42.477145587853137 ], [ -0.779396587552973, 42.477145587853137 ], [ -0.779396587552973, 42.477568090796886 ], [ -0.773474859812906, 42.477568090796886 ], [ -0.773474859812906, 42.477145587853137 ], [ -0.772734643845398, 42.477145587853137 ], [ -0.772734643845398, 42.477568090796886 ], [ -0.771254211910381, 42.477568090796886 ], [ -0.771254211910381, 42.477990590887998 ], [ -0.770513995942873, 42.477990590887998 ], [ -0.770513995942873, 42.47841308812648 ], [ -0.769773779975365, 42.47841308812648 ], [ -0.769773779975365, 42.478835582512332 ], [ -0.766812916105331, 42.478835582512332 ], [ -0.766812916105331, 42.47841308812648 ] ] ], [ [ [ -5.252521679205839, 42.630326701371303 ], [ -5.25178146323833, 42.630326701371303 ], [ -5.25178146323833, 42.629483758407098 ], [ -5.251041247270821, 42.629483758407098 ], [ -5.251041247270821, 42.623582838019971 ], [ -5.25178146323833, 42.623582838019971 ], [ -5.25178146323833, 42.620210632371553 ], [ -5.252521679205839, 42.620210632371553 ], [ -5.252521679205839, 42.618524461054932 ], [ -5.253261895173347, 42.618524461054932 ], [ -5.253261895173347, 42.617681358273622 ], [ -5.254002111140855, 42.617681358273622 ], [ -5.254002111140855, 42.61725980260222 ], [ -5.256962975010889, 42.61725980260222 ], [ -5.256962975010889, 42.617681358273622 ], [ -5.257703190978397, 42.617681358273622 ], [ -5.257703190978397, 42.618102911091185 ], [ -5.258443406945904, 42.618102911091185 ], [ -5.258443406945904, 42.618524461054932 ], [ -5.259183622913413, 42.618524461054932 ], [ -5.259183622913413, 42.620210632371553 ], [ -5.259923838880921, 42.620210632371553 ], [ -5.259923838880921, 42.625690373799451 ], [ -5.259183622913413, 42.625690373799451 ], [ -5.259183622913413, 42.626533368134034 ], [ -5.258443406945904, 42.626533368134034 ], [ -5.258443406945904, 42.627797838231658 ], [ -5.257703190978397, 42.627797838231658 ], [ -5.257703190978397, 42.629062282644114 ], [ -5.256962975010889, 42.629062282644114 ], [ -5.256962975010889, 42.629905231316165 ], [ -5.256222759043379, 42.629905231316165 ], [ -5.256222759043379, 42.630326701371303 ], [ -5.254742327108364, 42.630326701371303 ], [ -5.254742327108364, 42.630748168572502 ], [ -5.252521679205839, 42.630748168572502 ], [ -5.252521679205839, 42.630326701371303 ] ] ] ] } }
]
}
