{
"type": "FeatureCollection",
"name": "spain_fires_modis_ba",
"crs": { "type": "name", "properties": { "name": "urn:ogc:def:crs:OGC:1.3:CRS84" } },
"features": [
{ "type": "Feature", "properties": { }, "geometry": { "type": "MultiPolygon", "coordinates": [ [ [ [ -8.180816046668809, 40.89698779663744 ], [ -8.180816046668809, 40.896554784116866 ], [ -8.180075830701302, 40.896554784116866 ], [ -8.180075830701302, 40.896121768761887 ], [ -8.179335614733793, 40.896121768761887 ], [ -8.179335614733793, 40.895688750572525 ], [ -8.178595398766284, 40.895688750572525 ], [ -8.178595398766284, 40.894389678998174 ], [ -8.177855182798776, 40.894389678998174 ], [ -8.177855182798776, 40.891791459321851 ], [ -8.177114966831267, 40.891791459321851 ], [ -8.177114966831267, 40.889626198314232 ], [ -8.17637475086376, 40.889626198314232 ], [ -8.17637475086376, 40.888327007698088 ], [ -8.17563453489625, 40.888327007698088 ], [ -8.17563453489625, 40.887460866449253 ], [ -8.174894318928741, 40.887460866449253 ], [ -8.174894318928741, 40.886594713863374 ], [ -8.174154102961234, 40.886594713863374 ], [ -8.174154102961234, 40.886161633319063 ], [ -8.173413886993727, 40.886161633319063 ], [ -8.173413886993727, 40.88529546372768 ], [ -8.172673671026217, 40.88529546372768 ], [ -8.172673671026217, 40.884862374680651 ], [ -8.17193345505871, 40.884862374680651 ], [ -8.17193345505871, 40.883996188083906 ], [ -8.171193239091201, 40.883996188083906 ], [ -8.171193239091201, 40.883563090534203 ], [ -8.170453023123693, 40.883563090534203 ], [ -8.170453023123693, 40.883129990150302 ], [ -8.169712807156186, 40.883129990150302 ], [ -8.169712807156186, 40.882696886932195 ], [ -8.168972591188677, 40.882696886932195 ], [ -8.168972591188677, 40.881830671993399 ], [ -8.168232375221168, 40.881830671993399 ], [ -8.168232375221168, 40.881397560272717 ], [ -8.16749215925366, 40.881397560272717 ], [ -8.16749215925366, 40.880964445717872 ], [ -8.166751943286151, 40.880964445717872 ], [ -8.166751943286151, 40.88053132832885 ], [ -8.166011727318642, 40.88053132832885 ], [ -8.166011727318642, 40.880098208105657 ], [ -8.165271511351134, 40.880098208105657 ], [ -8.165271511351134, 40.879665085048316 ], [ -8.164531295383625, 40.879665085048316 ], [ -8.164531295383625, 40.879231959156819 ], [ -8.163791079416116, 40.879231959156819 ], [ -8.163791079416116, 40.877932564477469 ], [ -8.163050863448609, 40.877932564477469 ], [ -8.163050863448609, 40.875333698597522 ], [ -8.162310647481101, 40.875333698597522 ], [ -8.162310647481101, 40.871002028737735 ], [ -8.163050863448609, 40.871002028737735 ], [ -8.163050863448609, 40.868836087531399 ], [ -8.163791079416116, 40.868836087531399 ], [ -8.163791079416116, 40.867969691210853 ], [ -8.164531295383625, 40.867969691210853 ], [ -8.164531295383625, 40.867536488799594 ], [ -8.165271511351134, 40.867536488799594 ], [ -8.165271511351134, 40.867103283554357 ], [ -8.166011727318642, 40.867103283554357 ], [ -8.166011727318642, 40.866670075475156 ], [ -8.16749215925366, 40.866670075475156 ], [ -8.16749215925366, 40.866236864561991 ], [ -8.168972591188677, 40.866236864561991 ], [ -8.168972591188677, 40.865803650814854 ], [ -8.169712807156186, 40.865803650814854 ], [ -8.169712807156186, 40.864503992569773 ], [ -8.170453023123693, 40.864503992569773 ], [ -8.170453023123693, 40.863637539570036 ], [ -8.171193239091201, 40.863637539570036 ], [ -8.171193239091201, 40.863204308819277 ], [ -8.17193345505871, 40.863204308819277 ], [ -8.17193345505871, 40.862771075234612 ], [ -8.172673671026217, 40.862771075234612 ], [ -8.172673671026217, 40.863204308819277 ], [ -8.174894318928741, 40.863204308819277 ], [ -8.174894318928741, 40.863637539570036 ], [ -8.177114966831267, 40.863637539570036 ], [ -8.177114966831267, 40.864070767486872 ], [ -8.180075830701302, 40.864070767486872 ], [ -8.180075830701302, 40.864503992569773 ], [ -8.181556262636317, 40.864503992569773 ], [ -8.181556262636317, 40.864070767486872 ], [ -8.185257342473859, 40.864070767486872 ], [ -8.185257342473859, 40.863637539570036 ], [ -8.187477990376385, 40.863637539570036 ], [ -8.187477990376385, 40.863204308819277 ], [ -8.189698638278909, 40.863204308819277 ], [ -8.189698638278909, 40.862771075234612 ], [ -8.195620366018975, 40.862771075234612 ], [ -8.195620366018975, 40.862337838816032 ], [ -8.197841013921501, 40.862337838816032 ], [ -8.197841013921501, 40.861904599563545 ], [ -8.201542093759043, 40.861904599563545 ], [ -8.201542093759043, 40.862337838816032 ], [ -8.202282309726552, 40.862337838816032 ], [ -8.202282309726552, 40.862771075234612 ], [ -8.203762741661567, 40.862771075234612 ], [ -8.203762741661567, 40.863204308819277 ], [ -8.204502957629076, 40.863204308819277 ], [ -8.204502957629076, 40.863637539570036 ], [ -8.205243173596585, 40.863637539570036 ], [ -8.205243173596585, 40.864070767486872 ], [ -8.205983389564093, 40.864070767486872 ], [ -8.205983389564093, 40.864503992569773 ], [ -8.206723605531602, 40.864503992569773 ], [ -8.206723605531602, 40.864937214818745 ], [ -8.208204037466617, 40.864937214818745 ], [ -8.208204037466617, 40.865370434233768 ], [ -8.210424685369142, 40.865370434233768 ], [ -8.210424685369142, 40.865803650814854 ], [ -8.21116490133665, 40.865803650814854 ], [ -8.21116490133665, 40.866236864561991 ], [ -8.211905117304159, 40.866236864561991 ], [ -8.211905117304159, 40.866670075475156 ], [ -8.212645333271668, 40.866670075475156 ], [ -8.212645333271668, 40.867103283554357 ], [ -8.213385549239176, 40.867103283554357 ], [ -8.213385549239176, 40.867969691210853 ], [ -8.214125765206683, 40.867969691210853 ], [ -8.214125765206683, 40.869269281440687 ], [ -8.214865981174192, 40.869269281440687 ], [ -8.214865981174192, 40.870568846164495 ], [ -8.2156061971417, 40.870568846164495 ], [ -8.2156061971417, 40.872301559453241 ], [ -8.216346413109209, 40.872301559453241 ], [ -8.216346413109209, 40.873601064662338 ], [ -8.217086629076718, 40.873601064662338 ], [ -8.217086629076718, 40.874900544364834 ], [ -8.217826845044225, 40.874900544364834 ], [ -8.217826845044225, 40.875766849996104 ], [ -8.218567061011735, 40.875766849996104 ], [ -8.218567061011735, 40.876633144290992 ], [ -8.219307276979244, 40.876633144290992 ], [ -8.219307276979244, 40.878365698871391 ], [ -8.220047492946753, 40.878365698871391 ], [ -8.220047492946753, 40.880098208105657 ], [ -8.22078770891426, 40.880098208105657 ], [ -8.22078770891426, 40.883129990150302 ], [ -8.220047492946753, 40.883129990150302 ], [ -8.220047492946753, 40.883563090534203 ], [ -8.219307276979244, 40.883563090534203 ], [ -8.219307276979244, 40.883996188083906 ], [ -8.218567061011735, 40.883996188083906 ], [ -8.218567061011735, 40.884429282799388 ], [ -8.217826845044225, 40.884429282799388 ], [ -8.217826845044225, 40.884862374680651 ], [ -8.216346413109209, 40.884862374680651 ], [ -8.216346413109209, 40.88529546372768 ], [ -8.2156061971417, 40.88529546372768 ], [ -8.2156061971417, 40.885728549940488 ], [ -8.214865981174192, 40.885728549940488 ], [ -8.214865981174192, 40.886161633319063 ], [ -8.213385549239176, 40.886161633319063 ], [ -8.213385549239176, 40.886594713863374 ], [ -8.211905117304159, 40.886594713863374 ], [ -8.211905117304159, 40.887027791573445 ], [ -8.210424685369142, 40.887027791573445 ], [ -8.210424685369142, 40.887460866449253 ], [ -8.208944253434126, 40.887460866449253 ], [ -8.208944253434126, 40.888327007698088 ], [ -8.208204037466617, 40.888327007698088 ], [ -8.208204037466617, 40.888760074071079 ], [ -8.207463821499109, 40.888760074071079 ], [ -8.207463821499109, 40.889193137609809 ], [ -8.206723605531602, 40.889193137609809 ], [ -8.206723605531602, 40.889626198314232 ], [ -8.205983389564093, 40.889626198314232 ], [ -8.205983389564093, 40.890492311220214 ], [ -8.205243173596585, 40.890492311220214 ], [ -8.205243173596585, 40.891358412788954 ], [ -8.204502957629076, 40.891358412788954 ], [ -8.204502957629076, 40.891791459321851 ], [ -8.203762741661567, 40.891791459321851 ], [ -8.203762741661567, 40.893090581914564 ], [ -8.20302252569406, 40.893090581914564 ], [ -8.20302252569406, 40.89352361711012 ], [ -8.202282309726552, 40.89352361711012 ], [ -8.202282309726552, 40.893956649471328 ], [ -8.201542093759043, 40.893956649471328 ], [ -8.201542093759043, 40.894389678998174 ], [ -8.200061661824025, 40.894389678998174 ], [ -8.200061661824025, 40.894822705690665 ], [ -8.199321445856517, 40.894822705690665 ], [ -8.199321445856517, 40.895255729548779 ], [ -8.19858122988901, 40.895255729548779 ], [ -8.19858122988901, 40.895688750572525 ], [ -8.197841013921501, 40.895688750572525 ], [ -8.197841013921501, 40.896121768761887 ], [ -8.197100797953992, 40.896121768761887 ], [ -8.197100797953992, 40.896554784116866 ], [ -8.195620366018975, 40.896554784116866 ], [ -8.195620366018975, 40.89698779663744 ], [ -8.193399718116451, 40.89698779663744 ], [ -8.193399718116451, 40.897420806323623 ], [ -8.190438854246418, 40.897420806323623 ], [ -8.190438854246418, 40.897853813175402 ], [ -8.187477990376385, 40.897853813175402 ], [ -8.187477990376385, 40.898286817192762 ], [ -8.185257342473859, 40.898286817192762 ], [ -8.185257342473859, 40.897853813175402 ], [ -8.183776910538842, 40.897853813175402 ], [ -8.183776910538842, 40.897420806323623 ], [ -8.182296478603824, 40.897420806323623 ], [ -8.182296478603824, 40.89698779663744 ], [ -8.180816046668809, 40.89698779663744 ] ] ], [ [ [ -8.556845758163044, 41.788093868143903 ], [ -8.556845758163044, 41.786812477408915 ], [ -8.556105542195535, 41.786812477408915 ], [ -8.556105542195535, 41.785958202690288 ], [ -8.555365326228026, 41.785958202690288 ], [ -8.555365326228026, 41.785531061062386 ], [ -8.554625110260519, 41.785531061062386 ], [ -8.554625110260519, 41.785103916588781 ], [ -8.553884894293011, 41.785103916588781 ], [ -8.553884894293011, 41.78424961910445 ], [ -8.556845758163044, 41.78424961910445 ], [ -8.556845758163044, 41.783822466093739 ], [ -8.558326190098061, 41.783822466093739 ], [ -8.558326190098061, 41.785103916588781 ], [ -8.559066406065568, 41.785103916588781 ], [ -8.559066406065568, 41.785531061062386 ], [ -8.559806622033076, 41.785531061062386 ], [ -8.559806622033076, 41.785958202690288 ], [ -8.560546838000585, 41.785958202690288 ], [ -8.560546838000585, 41.78638534147246 ], [ -8.561287053968092, 41.78638534147246 ], [ -8.561287053968092, 41.786812477408915 ], [ -8.562027269935601, 41.786812477408915 ], [ -8.562027269935601, 41.78766674074464 ], [ -8.562767485903109, 41.78766674074464 ], [ -8.562767485903109, 41.788093868143903 ], [ -8.562027269935601, 41.788093868143903 ], [ -8.562027269935601, 41.788948114405194 ], [ -8.561287053968092, 41.788948114405194 ], [ -8.561287053968092, 41.789802349283491 ], [ -8.559066406065568, 41.789802349283491 ], [ -8.559066406065568, 41.788948114405194 ], [ -8.558326190098061, 41.788948114405194 ], [ -8.558326190098061, 41.788520992697428 ], [ -8.557585974130552, 41.788520992697428 ], [ -8.557585974130552, 41.788093868143903 ], [ -8.556845758163044, 41.788093868143903 ] ] ], [ [ [ -8.482083945444701, 41.83804812843843 ], [ -8.482083945444701, 41.839328494606654 ], [ -8.481343729477194, 41.839328494606654 ], [ -8.481343729477194, 41.839755277636776 ], [ -8.480603513509685, 41.839755277636776 ], [ -8.480603513509685, 41.840182057820591 ], [ -8.479863297542176, 41.840182057820591 ], [ -8.479863297542176, 41.840608835158093 ], [ -8.479123081574667, 41.840608835158093 ], [ -8.479123081574667, 41.841035609649261 ], [ -8.478382865607159, 41.841035609649261 ], [ -8.478382865607159, 41.841462381294107 ], [ -8.476162217704635, 41.841462381294107 ], [ -8.476162217704635, 41.841889150092619 ], [ -8.475422001737126, 41.841889150092619 ], [ -8.475422001737126, 41.83804812843843 ], [ -8.476902433672143, 41.83804812843843 ], [ -8.476902433672143, 41.838474920007478 ], [ -8.480603513509685, 41.838474920007478 ], [ -8.480603513509685, 41.83804812843843 ], [ -8.482083945444701, 41.83804812843843 ] ] ], [ [ [ -8.486525241249751, 41.84829034050717 ], [ -8.486525241249751, 41.848717063763722 ], [ -8.485785025282244, 41.848717063763722 ], [ -8.485785025282244, 41.84829034050717 ], [ -8.486525241249751, 41.84829034050717 ] ] ], [ [ [ -8.485785025282244, 41.849143784173854 ], [ -8.485785025282244, 41.850850637350192 ], [ -8.486525241249751, 41.850850637350192 ], [ -8.486525241249751, 41.851277343528182 ], [ -8.485785025282244, 41.851277343528182 ], [ -8.485785025282244, 41.852130747344866 ], [ -8.485044809314735, 41.852130747344866 ], [ -8.485044809314735, 41.852984139775749 ], [ -8.484304593347227, 41.852984139775749 ], [ -8.484304593347227, 41.853410831721504 ], [ -8.483564377379718, 41.853410831721504 ], [ -8.483564377379718, 41.851704046859751 ], [ -8.484304593347227, 41.851704046859751 ], [ -8.484304593347227, 41.850423928325746 ], [ -8.485044809314735, 41.850423928325746 ], [ -8.485044809314735, 41.849143784173854 ], [ -8.485785025282244, 41.849143784173854 ] ] ], [ [ [ -8.482824161412211, 41.945935648636308 ], [ -8.482824161412211, 41.947213854015367 ], [ -8.482083945444701, 41.947213854015367 ], [ -8.482083945444701, 41.945935648636308 ], [ -8.482824161412211, 41.945935648636308 ] ] ], [ [ [ -8.519094743820117, 41.996192405607744 ], [ -8.519094743820117, 41.994915182695145 ], [ -8.519834959787627, 41.994915182695145 ], [ -8.519834959787627, 41.993212178939984 ], [ -8.520575175755136, 41.993212178939984 ], [ -8.520575175755136, 41.990231812722101 ], [ -8.519834959787627, 41.990231812722101 ], [ -8.519834959787627, 41.989806034727778 ], [ -8.521315391722643, 41.989806034727778 ], [ -8.521315391722643, 41.989380253885535 ], [ -8.522055607690151, 41.989380253885535 ], [ -8.522055607690151, 41.988954470195374 ], [ -8.52279582365766, 41.988954470195374 ], [ -8.52279582365766, 41.989806034727778 ], [ -8.525756687527693, 41.989806034727778 ], [ -8.525756687527693, 41.991509129617434 ], [ -8.5264969034952, 41.991509129617434 ], [ -8.5264969034952, 41.991934896219995 ], [ -8.527237119462709, 41.991934896219995 ], [ -8.527237119462709, 41.992360659974615 ], [ -8.528717551397726, 41.992360659974615 ], [ -8.528717551397726, 41.992786420881281 ], [ -8.530197983332743, 41.992786420881281 ], [ -8.530197983332743, 41.993212178939984 ], [ -8.531678415267759, 41.993212178939984 ], [ -8.531678415267759, 41.994063686513513 ], [ -8.53093819930025, 41.994063686513513 ], [ -8.53093819930025, 41.99448943602831 ], [ -8.530197983332743, 41.99448943602831 ], [ -8.530197983332743, 41.994915182695145 ], [ -8.528717551397726, 41.994915182695145 ], [ -8.528717551397726, 41.995340926513997 ], [ -8.527237119462709, 41.995340926513997 ], [ -8.527237119462709, 41.995766667484865 ], [ -8.5264969034952, 41.995766667484865 ], [ -8.5264969034952, 41.996192405607744 ], [ -8.525016471560185, 41.996192405607744 ], [ -8.525016471560185, 41.996618140882624 ], [ -8.522055607690151, 41.996618140882624 ], [ -8.522055607690151, 41.997043873309515 ], [ -8.519834959787627, 41.997043873309515 ], [ -8.519834959787627, 41.997469602888401 ], [ -8.51835452785261, 41.997469602888401 ], [ -8.51835452785261, 41.997895329619276 ], [ -8.516874095917593, 41.997895329619276 ], [ -8.516874095917593, 41.997469602888401 ], [ -8.517614311885103, 41.997469602888401 ], [ -8.517614311885103, 41.997043873309515 ], [ -8.51835452785261, 41.997043873309515 ], [ -8.51835452785261, 41.996192405607744 ], [ -8.519094743820117, 41.996192405607744 ] ] ], [ [ [ -8.515393663982575, 41.999172492723837 ], [ -8.515393663982575, 41.998321053502153 ], [ -8.516133879950084, 41.998321053502153 ], [ -8.516133879950084, 41.997895329619276 ], [ -8.516874095917593, 41.997895329619276 ], [ -8.516874095917593, 41.998746774536997 ], [ -8.516133879950084, 41.998746774536997 ], [ -8.516133879950084, 41.999172492723837 ], [ -8.515393663982575, 41.999172492723837 ] ] ], [ [ [ -8.535379495105303, 42.118261527649871 ], [ -8.535379495105303, 42.118686445369249 ], [ -8.536119711072811, 42.118686445369249 ], [ -8.536119711072811, 42.119536272260248 ], [ -8.535379495105303, 42.119536272260248 ], [ -8.535379495105303, 42.119961181431862 ], [ -8.533158847202776, 42.119961181431862 ], [ -8.533158847202776, 42.12038608775422 ], [ -8.531678415267759, 42.12038608775422 ], [ -8.531678415267759, 42.120810991227316 ], [ -8.530197983332743, 42.120810991227316 ], [ -8.530197983332743, 42.121235891851121 ], [ -8.529457767365233, 42.121235891851121 ], [ -8.529457767365233, 42.120810991227316 ], [ -8.528717551397726, 42.120810991227316 ], [ -8.528717551397726, 42.118261527649871 ], [ -8.531678415267759, 42.118261527649871 ], [ -8.531678415267759, 42.118686445369249 ], [ -8.534639279137794, 42.118686445369249 ], [ -8.534639279137794, 42.118261527649871 ], [ -8.535379495105303, 42.118261527649871 ] ] ], [ [ [ 3.668561161204607, 36.564177017718634 ], [ 3.667820945237099, 36.564177017718634 ], [ 3.667820945237099, 36.564637124565685 ], [ 3.668561161204607, 36.564637124565685 ], [ 3.668561161204607, 36.564177017718634 ] ] ], [ [ [ 3.666340513302083, 36.565097228672265 ], [ 3.666340513302083, 36.565557330038352 ], [ 3.667080729269591, 36.565557330038352 ], [ 3.667080729269591, 36.565097228672265 ], [ 3.666340513302083, 36.565097228672265 ] ] ], [ [ [ 3.672262241042149, 36.565097228672265 ], [ 3.672262241042149, 36.565557330038352 ], [ 3.673002457009657, 36.565557330038352 ], [ 3.673002457009657, 36.565097228672265 ], [ 3.672262241042149, 36.565097228672265 ] ] ], [ [ [ 3.708532823450057, 36.596837793024264 ], [ 3.70779260748255, 36.596837793024264 ], [ 3.70779260748255, 36.597297705264687 ], [ 3.708532823450057, 36.597297705264687 ], [ 3.708532823450057, 36.596837793024264 ] ] ], [ [ [ 3.710753471352583, 36.598217521521264 ], [ 3.710753471352583, 36.598677425537396 ], [ 3.711493687320091, 36.598677425537396 ], [ 3.711493687320091, 36.598217521521264 ], [ 3.710753471352583, 36.598217521521264 ] ] ], [ [ [ 3.70705239151504, 36.599137326812055 ], [ 3.70705239151504, 36.599597225345263 ], [ 3.70779260748255, 36.599597225345263 ], [ 3.70779260748255, 36.599137326812055 ], [ 3.70705239151504, 36.599137326812055 ] ] ], [ [ [ -6.339158719508074, 40.120867775788895 ], [ -6.339158719508074, 40.120429722837081 ], [ -6.338418503540565, 40.120429722837081 ], [ -6.338418503540565, 40.11999166706299 ], [ -6.337678287573057, 40.11999166706299 ], [ -6.337678287573057, 40.116049038094765 ], [ -6.338418503540565, 40.116049038094765 ], [ -6.338418503540565, 40.115172867279597 ], [ -6.339158719508074, 40.115172867279597 ], [ -6.339158719508074, 40.114734777638724 ], [ -6.34063915144309, 40.114734777638724 ], [ -6.34063915144309, 40.114296685175667 ], [ -6.342119583378107, 40.114296685175667 ], [ -6.342119583378107, 40.113858589890434 ], [ -6.344340231280632, 40.113858589890434 ], [ -6.344340231280632, 40.113420491783032 ], [ -6.347301095150666, 40.113420491783032 ], [ -6.347301095150666, 40.112982390853468 ], [ -6.348041311118173, 40.112982390853468 ], [ -6.348041311118173, 40.112544287101748 ], [ -6.348781527085682, 40.112544287101748 ], [ -6.348781527085682, 40.112106180527888 ], [ -6.349521743053189, 40.112106180527888 ], [ -6.349521743053189, 40.111668071131888 ], [ -6.350261959020698, 40.111668071131888 ], [ -6.350261959020698, 40.1107918438735 ], [ -6.351002174988206, 40.1107918438735 ], [ -6.351002174988206, 40.109915605326641 ], [ -6.351742390955714, 40.109915605326641 ], [ -6.351742390955714, 40.109039355491383 ], [ -6.352482606923223, 40.109039355491383 ], [ -6.352482606923223, 40.107724959572856 ], [ -6.351742390955714, 40.107724959572856 ], [ -6.351742390955714, 40.107286821955881 ], [ -6.352482606923223, 40.107286821955881 ], [ -6.352482606923223, 40.106410538255751 ], [ -6.353222822890732, 40.106410538255751 ], [ -6.353222822890732, 40.105096091540275 ], [ -6.35396303885824, 40.105096091540275 ], [ -6.35396303885824, 40.10465793699106 ], [ -6.354703254825749, 40.10465793699106 ], [ -6.354703254825749, 40.104219779619839 ], [ -6.355443470793257, 40.104219779619839 ], [ -6.355443470793257, 40.103781619426613 ], [ -6.356183686760765, 40.103781619426613 ], [ -6.356183686760765, 40.103343456411388 ], [ -6.356923902728273, 40.103343456411388 ], [ -6.356923902728273, 40.102905290574178 ], [ -6.357664118695782, 40.102905290574178 ], [ -6.357664118695782, 40.102467121914977 ], [ -6.35840433466329, 40.102467121914977 ], [ -6.35840433466329, 40.101590776130671 ], [ -6.359144550630798, 40.101590776130671 ], [ -6.359144550630798, 40.101152599005566 ], [ -6.359884766598306, 40.101152599005566 ], [ -6.359884766598306, 40.100714419058512 ], [ -6.360624982565815, 40.100714419058512 ], [ -6.360624982565815, 40.100276236289517 ], [ -6.362845630468341, 40.100276236289517 ], [ -6.362845630468341, 40.09983805069858 ], [ -6.364326062403356, 40.09983805069858 ], [ -6.364326062403356, 40.099399862285722 ], [ -6.36728692627339, 40.099399862285722 ], [ -6.36728692627339, 40.09896167105093 ], [ -6.368027142240899, 40.09896167105093 ], [ -6.368027142240899, 40.099399862285722 ], [ -6.368767358208406, 40.099399862285722 ], [ -6.368767358208406, 40.09983805069858 ], [ -6.369507574175914, 40.09983805069858 ], [ -6.369507574175914, 40.100276236289517 ], [ -6.370247790143424, 40.100276236289517 ], [ -6.370247790143424, 40.101152599005566 ], [ -6.370988006110932, 40.101152599005566 ], [ -6.370988006110932, 40.101590776130671 ], [ -6.37172822207844, 40.101590776130671 ], [ -6.37172822207844, 40.102028950433805 ], [ -6.372468438045948, 40.102028950433805 ], [ -6.372468438045948, 40.102467121914977 ], [ -6.373208654013458, 40.102467121914977 ], [ -6.373208654013458, 40.102905290574178 ], [ -6.373948869980965, 40.102905290574178 ], [ -6.373948869980965, 40.104219779619839 ], [ -6.374689085948473, 40.104219779619839 ], [ -6.374689085948473, 40.105096091540275 ], [ -6.373948869980965, 40.105096091540275 ], [ -6.373948869980965, 40.105972392172625 ], [ -6.373208654013458, 40.105972392172625 ], [ -6.373208654013458, 40.106410538255751 ], [ -6.372468438045948, 40.106410538255751 ], [ -6.372468438045948, 40.108163094367768 ], [ -6.37172822207844, 40.108163094367768 ], [ -6.37172822207844, 40.109039355491383 ], [ -6.370988006110932, 40.109039355491383 ], [ -6.370988006110932, 40.109915605326641 ], [ -6.370247790143424, 40.109915605326641 ], [ -6.370247790143424, 40.111668071131888 ], [ -6.369507574175914, 40.111668071131888 ], [ -6.369507574175914, 40.112544287101748 ], [ -6.368767358208406, 40.112544287101748 ], [ -6.368767358208406, 40.113420491783032 ], [ -6.368027142240899, 40.113420491783032 ], [ -6.368027142240899, 40.113858589890434 ], [ -6.36728692627339, 40.113858589890434 ], [ -6.36728692627339, 40.114734777638724 ], [ -6.366546710305881, 40.114734777638724 ], [ -6.366546710305881, 40.115172867279597 ], [ -6.365066278370866, 40.115172867279597 ], [ -6.365066278370866, 40.11561095409828 ], [ -6.364326062403356, 40.11561095409828 ], [ -6.364326062403356, 40.116049038094765 ], [ -6.363585846435849, 40.116049038094765 ], [ -6.363585846435849, 40.116487119269053 ], [ -6.362845630468341, 40.116487119269053 ], [ -6.362845630468341, 40.116925197621121 ], [ -6.362105414500832, 40.116925197621121 ], [ -6.362105414500832, 40.117363273150964 ], [ -6.361365198533323, 40.117363273150964 ], [ -6.361365198533323, 40.118239415743957 ], [ -6.360624982565815, 40.118239415743957 ], [ -6.360624982565815, 40.118677482807108 ], [ -6.359144550630798, 40.118677482807108 ], [ -6.359144550630798, 40.118239415743957 ], [ -6.35840433466329, 40.118239415743957 ], [ -6.35840433466329, 40.117363273150964 ], [ -6.357664118695782, 40.117363273150964 ], [ -6.357664118695782, 40.116049038094765 ], [ -6.351742390955714, 40.116049038094765 ], [ -6.351742390955714, 40.116487119269053 ], [ -6.350261959020698, 40.116487119269053 ], [ -6.350261959020698, 40.116925197621121 ], [ -6.349521743053189, 40.116925197621121 ], [ -6.349521743053189, 40.117801345858574 ], [ -6.348781527085682, 40.117801345858574 ], [ -6.348781527085682, 40.118677482807108 ], [ -6.348041311118173, 40.118677482807108 ], [ -6.348041311118173, 40.11911554704799 ], [ -6.347301095150666, 40.11911554704799 ], [ -6.347301095150666, 40.11999166706299 ], [ -6.346560879183157, 40.11999166706299 ], [ -6.346560879183157, 40.120429722837081 ], [ -6.345820663215648, 40.120429722837081 ], [ -6.345820663215648, 40.120867775788895 ], [ -6.34508044724814, 40.120867775788895 ], [ -6.34508044724814, 40.121305825918427 ], [ -6.343600015313123, 40.121305825918427 ], [ -6.343600015313123, 40.121743873225661 ], [ -6.34063915144309, 40.121743873225661 ], [ -6.34063915144309, 40.121305825918427 ], [ -6.339898935475582, 40.121305825918427 ], [ -6.339898935475582, 40.120867775788895 ], [ -6.339158719508074, 40.120867775788895 ] ] ], [ [ [ -6.34063915144309, 40.408930559749109 ], [ -6.339898935475582, 40.408930559749109 ], [ -6.339898935475582, 40.408494368260193 ], [ -6.339158719508074, 40.408494368260193 ], [ -6.339158719508074, 40.407621976801302 ], [ -6.338418503540565, 40.407621976801302 ], [ -6.338418503540565, 40.407185776831341 ], [ -6.337678287573057, 40.407185776831341 ], [ -6.337678287573057, 40.406313368410451 ], [ -6.336938071605549, 40.406313368410451 ], [ -6.336938071605549, 40.405440948681608 ], [ -6.336197855638041, 40.405440948681608 ], [ -6.336197855638041, 40.405004734576742 ], [ -6.333977207735515, 40.405004734576742 ], [ -6.333977207735515, 40.404568517644904 ], [ -6.331016343865481, 40.404568517644904 ], [ -6.331016343865481, 40.404132297886122 ], [ -6.330276127897974, 40.404132297886122 ], [ -6.330276127897974, 40.403696075300381 ], [ -6.329535911930465, 40.403696075300381 ], [ -6.329535911930465, 40.403259849887696 ], [ -6.328795695962957, 40.403259849887696 ], [ -6.328795695962957, 40.402823621648082 ], [ -6.328055479995448, 40.402823621648082 ], [ -6.328055479995448, 40.401951156688078 ], [ -6.32731526402794, 40.401951156688078 ], [ -6.32731526402794, 40.401514919967696 ], [ -6.326575048060431, 40.401514919967696 ], [ -6.326575048060431, 40.400642438046226 ], [ -6.325834832092924, 40.400642438046226 ], [ -6.325834832092924, 40.399769944817194 ], [ -6.325094616125415, 40.399769944817194 ], [ -6.325094616125415, 40.39933369396234 ], [ -6.324354400157906, 40.39933369396234 ], [ -6.324354400157906, 40.398461183772056 ], [ -6.323614184190399, 40.398461183772056 ], [ -6.323614184190399, 40.398024924436619 ], [ -6.32287396822289, 40.398024924436619 ], [ -6.32287396822289, 40.39758866227433 ], [ -6.322133752255382, 40.39758866227433 ], [ -6.322133752255382, 40.397152397285204 ], [ -6.321393536287873, 40.397152397285204 ], [ -6.321393536287873, 40.396716129469226 ], [ -6.320653320320365, 40.396716129469226 ], [ -6.320653320320365, 40.396279858826432 ], [ -6.319913104352857, 40.396279858826432 ], [ -6.319913104352857, 40.395843585356808 ], [ -6.31843267241784, 40.395843585356808 ], [ -6.31843267241784, 40.395407309060367 ], [ -6.317692456450331, 40.395407309060367 ], [ -6.317692456450331, 40.394971029937125 ], [ -6.316952240482823, 40.394971029937125 ], [ -6.316952240482823, 40.394534747987073 ], [ -6.315471808547807, 40.394534747987073 ], [ -6.315471808547807, 40.394098463210227 ], [ -6.314731592580298, 40.394098463210227 ], [ -6.314731592580298, 40.393662175606593 ], [ -6.312510944677773, 40.393662175606593 ], [ -6.312510944677773, 40.393225885176186 ], [ -6.310290296775248, 40.393225885176186 ], [ -6.310290296775248, 40.392789591918991 ], [ -6.307329432905214, 40.392789591918991 ], [ -6.307329432905214, 40.392353295835036 ], [ -6.301407705165149, 40.392353295835036 ], [ -6.301407705165149, 40.392789591918991 ], [ -6.299927273230131, 40.392789591918991 ], [ -6.299927273230131, 40.393225885176186 ], [ -6.297706625327606, 40.393225885176186 ], [ -6.297706625327606, 40.393662175606593 ], [ -6.29622619339259, 40.393662175606593 ], [ -6.29622619339259, 40.394098463210227 ], [ -6.295485977425082, 40.394098463210227 ], [ -6.295485977425082, 40.394534747987073 ], [ -6.294005545490065, 40.394534747987073 ], [ -6.294005545490065, 40.394971029937125 ], [ -6.293265329522557, 40.394971029937125 ], [ -6.293265329522557, 40.395407309060367 ], [ -6.286603385814981, 40.395407309060367 ], [ -6.286603385814981, 40.395843585356808 ], [ -6.283642521944948, 40.395843585356808 ], [ -6.283642521944948, 40.396279858826432 ], [ -6.281421874042422, 40.396279858826432 ], [ -6.281421874042422, 40.396716129469226 ], [ -6.277720794204882, 40.396716129469226 ], [ -6.277720794204882, 40.397152397285204 ], [ -6.276980578237374, 40.397152397285204 ], [ -6.276980578237374, 40.396716129469226 ], [ -6.275500146302357, 40.396716129469226 ], [ -6.275500146302357, 40.396279858826432 ], [ -6.273279498399831, 40.396279858826432 ], [ -6.273279498399831, 40.395843585356808 ], [ -6.272539282432323, 40.395843585356808 ], [ -6.272539282432323, 40.394971029937125 ], [ -6.271799066464815, 40.394971029937125 ], [ -6.271799066464815, 40.394534747987073 ], [ -6.271058850497305, 40.394534747987073 ], [ -6.271058850497305, 40.393662175606593 ], [ -6.270318634529798, 40.393662175606593 ], [ -6.270318634529798, 40.392353295835036 ], [ -6.26957841856229, 40.392353295835036 ], [ -6.26957841856229, 40.389735459969579 ], [ -6.268838202594782, 40.389735459969579 ], [ -6.268838202594782, 40.389299144098459 ], [ -6.26957841856229, 40.389299144098459 ], [ -6.26957841856229, 40.384499482954602 ], [ -6.270318634529798, 40.384499482954602 ], [ -6.270318634529798, 40.382754066830046 ], [ -6.271058850497305, 40.382754066830046 ], [ -6.271058850497305, 40.380135857845154 ], [ -6.271799066464815, 40.380135857845154 ], [ -6.271799066464815, 40.376644754244623 ], [ -6.272539282432323, 40.376644754244623 ], [ -6.272539282432323, 40.370534887663545 ], [ -6.271799066464815, 40.370534887663545 ], [ -6.271799066464815, 40.367916203828798 ], [ -6.271058850497305, 40.367916203828798 ], [ -6.271058850497305, 40.367479746630671 ], [ -6.26957841856229, 40.367479746630671 ], [ -6.26957841856229, 40.36704328660619 ], [ -6.268838202594782, 40.36704328660619 ], [ -6.268838202594782, 40.366606823755355 ], [ -6.267357770659765, 40.366606823755355 ], [ -6.267357770659765, 40.366170358078165 ], [ -6.266617554692258, 40.366170358078165 ], [ -6.266617554692258, 40.365733889574642 ], [ -6.265137122757239, 40.365733889574642 ], [ -6.265137122757239, 40.365297418244779 ], [ -6.264396906789731, 40.365297418244779 ], [ -6.264396906789731, 40.364860944088605 ], [ -6.263656690822224, 40.364860944088605 ], [ -6.263656690822224, 40.364424467106097 ], [ -6.262916474854714, 40.364424467106097 ], [ -6.262916474854714, 40.363987987297278 ], [ -6.262176258887206, 40.363987987297278 ], [ -6.262176258887206, 40.363551504662162 ], [ -6.261436042919699, 40.363551504662162 ], [ -6.261436042919699, 40.362678530913037 ], [ -6.26069582695219, 40.362678530913037 ], [ -6.26069582695219, 40.361805545858779 ], [ -6.259955610984681, 40.361805545858779 ], [ -6.259955610984681, 40.360496047080389 ], [ -6.259215395017174, 40.360496047080389 ], [ -6.259215395017174, 40.359186522865755 ], [ -6.258475179049666, 40.359186522865755 ], [ -6.258475179049666, 40.355257797606349 ], [ -6.259215395017174, 40.355257797606349 ], [ -6.259215395017174, 40.354384716460721 ], [ -6.259955610984681, 40.354384716460721 ], [ -6.259955610984681, 40.353948171648675 ], [ -6.26069582695219, 40.353948171648675 ], [ -6.26069582695219, 40.35351162401048 ], [ -6.261436042919699, 40.35351162401048 ], [ -6.261436042919699, 40.353075073546165 ], [ -6.262176258887206, 40.353075073546165 ], [ -6.262176258887206, 40.352638520255709 ], [ -6.262916474854714, 40.352638520255709 ], [ -6.262916474854714, 40.352201964139134 ], [ -6.263656690822224, 40.352201964139134 ], [ -6.263656690822224, 40.351765405196446 ], [ -6.264396906789731, 40.351765405196446 ], [ -6.264396906789731, 40.35089227883276 ], [ -6.265137122757239, 40.35089227883276 ], [ -6.265137122757239, 40.350455711411769 ], [ -6.265877338724748, 40.350455711411769 ], [ -6.265877338724748, 40.350019141164694 ], [ -6.266617554692258, 40.350019141164694 ], [ -6.266617554692258, 40.349145992192305 ], [ -6.267357770659765, 40.349145992192305 ], [ -6.267357770659765, 40.348272831915658 ], [ -6.268097986627273, 40.348272831915658 ], [ -6.268097986627273, 40.347836247538254 ], [ -6.268838202594782, 40.347836247538254 ], [ -6.268838202594782, 40.346963070305314 ], [ -6.26957841856229, 40.346963070305314 ], [ -6.26957841856229, 40.346089881768265 ], [ -6.270318634529798, 40.346089881768265 ], [ -6.270318634529798, 40.345216681927148 ], [ -6.271058850497305, 40.345216681927148 ], [ -6.271058850497305, 40.344780077767581 ], [ -6.271799066464815, 40.344780077767581 ], [ -6.271799066464815, 40.344343470782029 ], [ -6.272539282432323, 40.344343470782029 ], [ -6.272539282432323, 40.343906860970478 ], [ -6.273279498399831, 40.343906860970478 ], [ -6.273279498399831, 40.343470248332949 ], [ -6.27401971436734, 40.343470248332949 ], [ -6.27401971436734, 40.343033632869449 ], [ -6.274759930334849, 40.343033632869449 ], [ -6.274759930334849, 40.342597014579979 ], [ -6.276240362269866, 40.342597014579979 ], [ -6.276240362269866, 40.342160393464553 ], [ -6.276980578237374, 40.342160393464553 ], [ -6.276980578237374, 40.341723769523171 ], [ -6.277720794204882, 40.341723769523171 ], [ -6.277720794204882, 40.341287142755839 ], [ -6.279201226139898, 40.341287142755839 ], [ -6.279201226139898, 40.340850513162572 ], [ -6.279941442107407, 40.340850513162572 ], [ -6.279941442107407, 40.340413880743384 ], [ -6.280681658074914, 40.340413880743384 ], [ -6.280681658074914, 40.339977245498261 ], [ -6.281421874042422, 40.339977245498261 ], [ -6.281421874042422, 40.339540607427224 ], [ -6.282162090009932, 40.339540607427224 ], [ -6.282162090009932, 40.339103966530281 ], [ -6.28290230597744, 40.339103966530281 ], [ -6.28290230597744, 40.338230676258689 ], [ -6.283642521944948, 40.338230676258689 ], [ -6.283642521944948, 40.337794026884048 ], [ -6.284382737912457, 40.337794026884048 ], [ -6.284382737912457, 40.337357374683528 ], [ -6.285122953879966, 40.337357374683528 ], [ -6.285122953879966, 40.336920719657151 ], [ -6.285863169847473, 40.336920719657151 ], [ -6.285863169847473, 40.336484061804882 ], [ -6.286603385814981, 40.336484061804882 ], [ -6.286603385814981, 40.335610737622801 ], [ -6.28734360178249, 40.335610737622801 ], [ -6.28734360178249, 40.335174071292975 ], [ -6.288083817749998, 40.335174071292975 ], [ -6.288083817749998, 40.334737402137328 ], [ -6.288824033717506, 40.334737402137328 ], [ -6.288824033717506, 40.334300730155832 ], [ -6.289564249685015, 40.334300730155832 ], [ -6.289564249685015, 40.333864055348521 ], [ -6.290304465652524, 40.333864055348521 ], [ -6.290304465652524, 40.333427377715388 ], [ -6.291044681620031, 40.333427377715388 ], [ -6.291044681620031, 40.332554013971695 ], [ -6.29178489758754, 40.332554013971695 ], [ -6.29178489758754, 40.332117327861148 ], [ -6.293265329522557, 40.332117327861148 ], [ -6.293265329522557, 40.331680638924809 ], [ -6.294005545490065, 40.331680638924809 ], [ -6.294005545490065, 40.331243947162697 ], [ -6.295485977425082, 40.331243947162697 ], [ -6.295485977425082, 40.3308072525748 ], [ -6.296966409360098, 40.3308072525748 ], [ -6.296966409360098, 40.330370555161139 ], [ -6.298446841295115, 40.330370555161139 ], [ -6.298446841295115, 40.32993385492172 ], [ -6.299927273230131, 40.32993385492172 ], [ -6.299927273230131, 40.329497151856543 ], [ -6.302147921132656, 40.329497151856543 ], [ -6.302147921132656, 40.329060445965617 ], [ -6.303628353067674, 40.329060445965617 ], [ -6.303628353067674, 40.329497151856543 ], [ -6.306589216937707, 40.329497151856543 ], [ -6.306589216937707, 40.32993385492172 ], [ -6.307329432905214, 40.32993385492172 ], [ -6.307329432905214, 40.330370555161139 ], [ -6.308069648872723, 40.330370555161139 ], [ -6.308069648872723, 40.3308072525748 ], [ -6.308809864840232, 40.3308072525748 ], [ -6.308809864840232, 40.331243947162697 ], [ -6.30955008080774, 40.331243947162697 ], [ -6.30955008080774, 40.331680638924809 ], [ -6.310290296775248, 40.331680638924809 ], [ -6.310290296775248, 40.332554013971695 ], [ -6.311030512742757, 40.332554013971695 ], [ -6.311030512742757, 40.332990697256449 ], [ -6.311770728710265, 40.332990697256449 ], [ -6.311770728710265, 40.334300730155832 ], [ -6.312510944677773, 40.334300730155832 ], [ -6.312510944677773, 40.335610737622801 ], [ -6.313251160645282, 40.335610737622801 ], [ -6.313251160645282, 40.339103966530281 ], [ -6.31399137661279, 40.339103966530281 ], [ -6.31399137661279, 40.341723769523171 ], [ -6.314731592580298, 40.341723769523171 ], [ -6.314731592580298, 40.343033632869449 ], [ -6.315471808547807, 40.343033632869449 ], [ -6.315471808547807, 40.343906860970478 ], [ -6.316212024515315, 40.343906860970478 ], [ -6.316212024515315, 40.344780077767581 ], [ -6.316952240482823, 40.344780077767581 ], [ -6.316952240482823, 40.345216681927148 ], [ -6.317692456450331, 40.345216681927148 ], [ -6.317692456450331, 40.345653283260717 ], [ -6.31843267241784, 40.345653283260717 ], [ -6.31843267241784, 40.346089881768265 ], [ -6.319172888385348, 40.346089881768265 ], [ -6.319172888385348, 40.346526477449807 ], [ -6.320653320320365, 40.346526477449807 ], [ -6.320653320320365, 40.346963070305314 ], [ -6.322133752255382, 40.346963070305314 ], [ -6.322133752255382, 40.347399660334808 ], [ -6.323614184190399, 40.347399660334808 ], [ -6.323614184190399, 40.347836247538254 ], [ -6.325834832092924, 40.347836247538254 ], [ -6.325834832092924, 40.348272831915658 ], [ -6.329535911930465, 40.348272831915658 ], [ -6.329535911930465, 40.347836247538254 ], [ -6.33175655983299, 40.347836247538254 ], [ -6.33175655983299, 40.347399660334808 ], [ -6.333236991768006, 40.347399660334808 ], [ -6.333236991768006, 40.346963070305314 ], [ -6.335457639670532, 40.346963070305314 ], [ -6.335457639670532, 40.346526477449807 ], [ -6.336938071605549, 40.346526477449807 ], [ -6.336938071605549, 40.346089881768265 ], [ -6.338418503540565, 40.346089881768265 ], [ -6.338418503540565, 40.345653283260717 ], [ -6.339158719508074, 40.345653283260717 ], [ -6.339158719508074, 40.345216681927148 ], [ -6.34063915144309, 40.345216681927148 ], [ -6.34063915144309, 40.344780077767581 ], [ -6.342859799345614, 40.344780077767581 ], [ -6.342859799345614, 40.345216681927148 ], [ -6.343600015313123, 40.345216681927148 ], [ -6.343600015313123, 40.345653283260717 ], [ -6.344340231280632, 40.345653283260717 ], [ -6.344340231280632, 40.346089881768265 ], [ -6.345820663215648, 40.346089881768265 ], [ -6.345820663215648, 40.346526477449807 ], [ -6.346560879183157, 40.346526477449807 ], [ -6.346560879183157, 40.346963070305314 ], [ -6.348041311118173, 40.346963070305314 ], [ -6.348041311118173, 40.347399660334808 ], [ -6.349521743053189, 40.347399660334808 ], [ -6.349521743053189, 40.347836247538254 ], [ -6.351002174988206, 40.347836247538254 ], [ -6.351002174988206, 40.348272831915658 ], [ -6.351742390955714, 40.348272831915658 ], [ -6.351742390955714, 40.349145992192305 ], [ -6.352482606923223, 40.349145992192305 ], [ -6.352482606923223, 40.349582568091535 ], [ -6.353222822890732, 40.349582568091535 ], [ -6.353222822890732, 40.350455711411769 ], [ -6.35396303885824, 40.350455711411769 ], [ -6.35396303885824, 40.351328843427652 ], [ -6.354703254825749, 40.351328843427652 ], [ -6.354703254825749, 40.352638520255709 ], [ -6.355443470793257, 40.352638520255709 ], [ -6.355443470793257, 40.354821258446613 ], [ -6.356183686760765, 40.354821258446613 ], [ -6.356183686760765, 40.358313492591527 ], [ -6.356923902728273, 40.358313492591527 ], [ -6.356923902728273, 40.360496047080389 ], [ -6.356183686760765, 40.360496047080389 ], [ -6.356183686760765, 40.360932549499445 ], [ -6.356923902728273, 40.360932549499445 ], [ -6.356923902728273, 40.361805545858779 ], [ -6.357664118695782, 40.361805545858779 ], [ -6.357664118695782, 40.36224203979905 ], [ -6.35840433466329, 40.36224203979905 ], [ -6.35840433466329, 40.362678530913037 ], [ -6.359884766598306, 40.362678530913037 ], [ -6.359884766598306, 40.363115019200748 ], [ -6.360624982565815, 40.363115019200748 ], [ -6.360624982565815, 40.363987987297278 ], [ -6.361365198533323, 40.363987987297278 ], [ -6.361365198533323, 40.367479746630671 ], [ -6.362105414500832, 40.367479746630671 ], [ -6.362105414500832, 40.373589890202332 ], [ -6.361365198533323, 40.373589890202332 ], [ -6.361365198533323, 40.375335543756833 ], [ -6.360624982565815, 40.375335543756833 ], [ -6.360624982565815, 40.376644754244623 ], [ -6.359884766598306, 40.376644754244623 ], [ -6.359884766598306, 40.377081152087541 ], [ -6.359144550630798, 40.377081152087541 ], [ -6.359144550630798, 40.377953939293825 ], [ -6.35840433466329, 40.377953939293825 ], [ -6.35840433466329, 40.378826715193988 ], [ -6.357664118695782, 40.378826715193988 ], [ -6.357664118695782, 40.380135857845154 ], [ -6.356923902728273, 40.380135857845154 ], [ -6.356923902728273, 40.381881341808104 ], [ -6.356183686760765, 40.381881341808104 ], [ -6.356183686760765, 40.391044390622632 ], [ -6.355443470793257, 40.391044390622632 ], [ -6.355443470793257, 40.392789591918991 ], [ -6.354703254825749, 40.392789591918991 ], [ -6.354703254825749, 40.394098463210227 ], [ -6.355443470793257, 40.394098463210227 ], [ -6.355443470793257, 40.398024924436619 ], [ -6.354703254825749, 40.398024924436619 ], [ -6.354703254825749, 40.400206192845147 ], [ -6.35396303885824, 40.400206192845147 ], [ -6.35396303885824, 40.401078680420419 ], [ -6.353222822890732, 40.401078680420419 ], [ -6.353222822890732, 40.401951156688078 ], [ -6.352482606923223, 40.401951156688078 ], [ -6.352482606923223, 40.403259849887696 ], [ -6.351742390955714, 40.403259849887696 ], [ -6.351742390955714, 40.404568517644904 ], [ -6.351002174988206, 40.404568517644904 ], [ -6.351002174988206, 40.405440948681608 ], [ -6.350261959020698, 40.405440948681608 ], [ -6.350261959020698, 40.406749574034386 ], [ -6.349521743053189, 40.406749574034386 ], [ -6.349521743053189, 40.407621976801302 ], [ -6.348781527085682, 40.407621976801302 ], [ -6.348781527085682, 40.408058173944248 ], [ -6.348041311118173, 40.408058173944248 ], [ -6.348041311118173, 40.408930559749109 ], [ -6.347301095150666, 40.408930559749109 ], [ -6.347301095150666, 40.40936674841101 ], [ -6.346560879183157, 40.40936674841101 ], [ -6.346560879183157, 40.409802934245867 ], [ -6.344340231280632, 40.409802934245867 ], [ -6.344340231280632, 40.410239117253695 ], [ -6.342119583378107, 40.410239117253695 ], [ -6.342119583378107, 40.409802934245867 ], [ -6.341379367410598, 40.409802934245867 ], [ -6.341379367410598, 40.40936674841101 ], [ -6.34063915144309, 40.40936674841101 ], [ -6.34063915144309, 40.408930559749109 ] ] ], [ [ [ -7.187446218272625, 41.282535852242994 ], [ -7.187446218272625, 41.282105373220801 ], [ -7.186706002305116, 41.282105373220801 ], [ -7.186706002305116, 41.281674891358975 ], [ -7.183745138435084, 41.281674891358975 ], [ -7.183745138435084, 41.280383428735696 ], [ -7.182264706500066, 41.280383428735696 ], [ -7.182264706500066, 41.279952935515368 ], [ -7.181524490532558, 41.279952935515368 ], [ -7.181524490532558, 41.27909194055588 ], [ -7.180044058597542, 41.27909194055588 ], [ -7.180044058597542, 41.278230934237996 ], [ -7.179303842630032, 41.278230934237996 ], [ -7.179303842630032, 41.277369916561767 ], [ -7.178563626662525, 41.277369916561767 ], [ -7.178563626662525, 41.276508887527228 ], [ -7.177823410695016, 41.276508887527228 ], [ -7.177823410695016, 41.272634116313917 ], [ -7.178563626662525, 41.272634116313917 ], [ -7.178563626662525, 41.270911921947018 ], [ -7.179303842630032, 41.270911921947018 ], [ -7.179303842630032, 41.270050807726591 ], [ -7.180044058597542, 41.270050807726591 ], [ -7.180044058597542, 41.26962024635715 ], [ -7.180784274565049, 41.26962024635715 ], [ -7.180784274565049, 41.26918968214823 ], [ -7.181524490532558, 41.26918968214823 ], [ -7.181524490532558, 41.26875911509984 ], [ -7.182264706500066, 41.26875911509984 ], [ -7.182264706500066, 41.26918968214823 ], [ -7.183004922467575, 41.26918968214823 ], [ -7.183004922467575, 41.26962024635715 ], [ -7.185965786337607, 41.26962024635715 ], [ -7.185965786337607, 41.26918968214823 ], [ -7.186706002305116, 41.26918968214823 ], [ -7.186706002305116, 41.26962024635715 ], [ -7.188186434240133, 41.26962024635715 ], [ -7.188186434240133, 41.27048136625654 ], [ -7.187446218272625, 41.27048136625654 ], [ -7.187446218272625, 41.271342474797997 ], [ -7.186706002305116, 41.271342474797997 ], [ -7.186706002305116, 41.273064657806863 ], [ -7.185965786337607, 41.273064657806863 ], [ -7.185965786337607, 41.273495196460289 ], [ -7.186706002305116, 41.273495196460289 ], [ -7.186706002305116, 41.273925732274193 ], [ -7.187446218272625, 41.273925732274193 ], [ -7.187446218272625, 41.275217322678678 ], [ -7.188186434240133, 41.275217322678678 ], [ -7.188186434240133, 41.275647847134415 ], [ -7.188926650207642, 41.275647847134415 ], [ -7.188926650207642, 41.276508887527228 ], [ -7.189666866175149, 41.276508887527228 ], [ -7.189666866175149, 41.278661438816741 ], [ -7.190407082142658, 41.278661438816741 ], [ -7.190407082142658, 41.279522439455427 ], [ -7.189666866175149, 41.279522439455427 ], [ -7.189666866175149, 41.282105373220801 ], [ -7.190407082142658, 41.282105373220801 ], [ -7.190407082142658, 41.282535852242994 ], [ -7.192627730045183, 41.282535852242994 ], [ -7.192627730045183, 41.282966328425545 ], [ -7.191887514077675, 41.282966328425545 ], [ -7.191887514077675, 41.283827272271687 ], [ -7.191147298110166, 41.283827272271687 ], [ -7.191147298110166, 41.285118666743436 ], [ -7.190407082142658, 41.285118666743436 ], [ -7.190407082142658, 41.285979582192901 ], [ -7.189666866175149, 41.285979582192901 ], [ -7.189666866175149, 41.285549125888011 ], [ -7.188186434240133, 41.285549125888011 ], [ -7.188186434240133, 41.282535852242994 ], [ -7.187446218272625, 41.282535852242994 ] ] ] ] } }
]
}
