{
"type": "FeatureCollection",
"name": "spain_fires_nrt_ba",
"crs": { "type": "name", "properties": { "name": "urn:ogc:def:crs:OGC:1.3:CRS84" } },
"features": [
{ "type": "Feature", "properties": { }, "geometry": { "type": "MultiPolygon", "coordinates": [ [ [ [ -1.343441154794324, 35.31848552382354 ], [ -1.343441154794324, 35.318018104095017 ], [ -1.339740074956782, 35.318018104095017 ], [ -1.339740074956782, 35.31755068166477 ], [ -1.338999858989274, 35.31755068166477 ], [ -1.338999858989274, 35.31661582869917 ], [ -1.338259643021765, 35.31661582869917 ], [ -1.338259643021765, 35.315680964926855 ], [ -1.337519427054257, 35.315680964926855 ], [ -1.337519427054257, 35.314746090347946 ], [ -1.336779211086749, 35.314746090347946 ], [ -1.336779211086749, 35.313811204962576 ], [ -1.33603899511924, 35.313811204962576 ], [ -1.33603899511924, 35.312876308770875 ], [ -1.335298779151732, 35.312876308770875 ], [ -1.335298779151732, 35.307266704694499 ], [ -1.33603899511924, 35.307266704694499 ], [ -1.33603899511924, 35.306331732861899 ], [ -1.336779211086749, 35.306331732861899 ], [ -1.336779211086749, 35.305864242893584 ], [ -1.337519427054257, 35.305864242893584 ], [ -1.337519427054257, 35.305396750223949 ], [ -1.338259643021765, 35.305396750223949 ], [ -1.338259643021765, 35.304929254853015 ], [ -1.338999858989274, 35.304929254853015 ], [ -1.338999858989274, 35.303994256007286 ], [ -1.339740074956782, 35.303994256007286 ], [ -1.339740074956782, 35.30352675253252 ], [ -1.343441154794324, 35.30352675253252 ], [ -1.343441154794324, 35.303994256007286 ], [ -1.347882450599374, 35.303994256007286 ], [ -1.347882450599374, 35.304461756780782 ], [ -1.348622666566882, 35.304461756780782 ], [ -1.348622666566882, 35.305396750223949 ], [ -1.34936288253439, 35.305396750223949 ], [ -1.34936288253439, 35.305864242893584 ], [ -1.350103098501899, 35.305864242893584 ], [ -1.350103098501899, 35.306799220128873 ], [ -1.350843314469407, 35.306799220128873 ], [ -1.350843314469407, 35.316148398163833 ], [ -1.350103098501899, 35.316148398163833 ], [ -1.350103098501899, 35.31661582869917 ], [ -1.34936288253439, 35.31661582869917 ], [ -1.34936288253439, 35.31755068166477 ], [ -1.348622666566882, 35.31755068166477 ], [ -1.348622666566882, 35.31848552382354 ], [ -1.347882450599374, 35.31848552382354 ], [ -1.347882450599374, 35.31895294085033 ], [ -1.347142234631865, 35.31895294085033 ], [ -1.347142234631865, 35.31848552382354 ], [ -1.343441154794324, 35.31848552382354 ] ] ], [ [ [ -0.261985626264647, 35.774790994830965 ], [ -0.261985626264647, 35.774326227395719 ], [ -0.259764978362122, 35.774326227395719 ], [ -0.259764978362122, 35.773861457243981 ], [ -0.259024762394614, 35.773861457243981 ], [ -0.259024762394614, 35.772931908791044 ], [ -0.258284546427106, 35.772931908791044 ], [ -0.258284546427106, 35.772002349472274 ], [ -0.257544330459597, 35.772002349472274 ], [ -0.257544330459597, 35.771072779287771 ], [ -0.256804114492089, 35.771072779287771 ], [ -0.256804114492089, 35.770143198237669 ], [ -0.256063898524581, 35.770143198237669 ], [ -0.256063898524581, 35.769213606322069 ], [ -0.255323682557072, 35.769213606322069 ], [ -0.255323682557072, 35.768748806289743 ], [ -0.254583466589564, 35.768748806289743 ], [ -0.254583466589564, 35.76781919807614 ], [ -0.253843250622056, 35.76781919807614 ], [ -0.253843250622056, 35.766889578997329 ], [ -0.253103034654547, 35.766889578997329 ], [ -0.253103034654547, 35.762241320629499 ], [ -0.253843250622056, 35.762241320629499 ], [ -0.253843250622056, 35.7617764798538 ], [ -0.254583466589564, 35.7617764798538 ], [ -0.254583466589564, 35.760846790154098 ], [ -0.255323682557072, 35.760846790154098 ], [ -0.255323682557072, 35.759917089590083 ], [ -0.256063898524581, 35.759917089590083 ], [ -0.256063898524581, 35.759452235233987 ], [ -0.261245410297139, 35.759452235233987 ], [ -0.261245410297139, 35.759917089590083 ], [ -0.261985626264647, 35.759917089590083 ], [ -0.261985626264647, 35.760846790154098 ], [ -0.262725842232156, 35.760846790154098 ], [ -0.262725842232156, 35.761311636361988 ], [ -0.263466058199664, 35.761311636361988 ], [ -0.263466058199664, 35.762241320629499 ], [ -0.264206274167172, 35.762241320629499 ], [ -0.264206274167172, 35.762706158689063 ], [ -0.264946490134681, 35.762706158689063 ], [ -0.264946490134681, 35.763635826659794 ], [ -0.266426922069697, 35.763635826659794 ], [ -0.266426922069697, 35.760846790154098 ], [ -0.267167138037206, 35.760846790154098 ], [ -0.267167138037206, 35.760381941230115 ], [ -0.267907354004714, 35.760381941230115 ], [ -0.267907354004714, 35.759917089590083 ], [ -0.268647569972222, 35.759917089590083 ], [ -0.268647569972222, 35.759452235233987 ], [ -0.269387785939731, 35.759452235233987 ], [ -0.269387785939731, 35.758987378161876 ], [ -0.270868217874747, 35.758987378161876 ], [ -0.270868217874747, 35.758522518373731 ], [ -0.271608433842256, 35.758522518373731 ], [ -0.271608433842256, 35.758057655869585 ], [ -0.273088865777272, 35.758057655869585 ], [ -0.273088865777272, 35.758522518373731 ], [ -0.274569297712289, 35.758522518373731 ], [ -0.274569297712289, 35.758987378161876 ], [ -0.275309513679797, 35.758987378161876 ], [ -0.275309513679797, 35.759452235233987 ], [ -0.276789945614814, 35.759452235233987 ], [ -0.276789945614814, 35.760846790154098 ], [ -0.277530161582322, 35.760846790154098 ], [ -0.277530161582322, 35.762706158689063 ], [ -0.278270377549831, 35.762706158689063 ], [ -0.278270377549831, 35.764100656570925 ], [ -0.277530161582322, 35.764100656570925 ], [ -0.277530161582322, 35.765030308244604 ], [ -0.276789945614814, 35.765030308244604 ], [ -0.276789945614814, 35.765959949053446 ], [ -0.276049729647306, 35.765959949053446 ], [ -0.276049729647306, 35.767354389894869 ], [ -0.275309513679797, 35.767354389894869 ], [ -0.275309513679797, 35.768284003541098 ], [ -0.274569297712289, 35.768284003541098 ], [ -0.274569297712289, 35.772467130489886 ], [ -0.273829081744781, 35.772467130489886 ], [ -0.273829081744781, 35.772931908791044 ], [ -0.273088865777272, 35.772931908791044 ], [ -0.273088865777272, 35.773861457243981 ], [ -0.272348649809764, 35.773861457243981 ], [ -0.272348649809764, 35.774326227395719 ], [ -0.271608433842256, 35.774326227395719 ], [ -0.271608433842256, 35.775255759549673 ], [ -0.270868217874747, 35.775255759549673 ], [ -0.270868217874747, 35.775720521551847 ], [ -0.267907354004714, 35.775720521551847 ], [ -0.267907354004714, 35.775255759549673 ], [ -0.264946490134681, 35.775255759549673 ], [ -0.264946490134681, 35.774790994830965 ], [ -0.261985626264647, 35.774790994830965 ] ] ], [ [ [ -8.903266830956944, 39.691545623518266 ], [ -8.903266830956944, 39.690664007363281 ], [ -8.902526614989435, 39.690664007363281 ], [ -8.902526614989435, 39.690223195063759 ], [ -8.901786399021928, 39.690223195063759 ], [ -8.901786399021928, 39.68978237994957 ], [ -8.901046183054419, 39.68978237994957 ], [ -8.901046183054419, 39.688900741277202 ], [ -8.90030596708691, 39.688900741277202 ], [ -8.90030596708691, 39.688459917719037 ], [ -8.8995657511194, 39.688459917719037 ], [ -8.8995657511194, 39.682288092371302 ], [ -8.90030596708691, 39.682288092371302 ], [ -8.90030596708691, 39.681847226594385 ], [ -8.901046183054419, 39.681847226594385 ], [ -8.901046183054419, 39.680965486597032 ], [ -8.901786399021928, 39.680965486597032 ], [ -8.901786399021928, 39.680083735341661 ], [ -8.902526614989435, 39.680083735341661 ], [ -8.902526614989435, 39.679642855492247 ], [ -8.904747262891961, 39.679642855492247 ], [ -8.904747262891961, 39.680083735341661 ], [ -8.909188558697011, 39.680083735341661 ], [ -8.909188558697011, 39.680524612376594 ], [ -8.911409206599535, 39.680524612376594 ], [ -8.911409206599535, 39.680965486597032 ], [ -8.912149422567044, 39.680965486597032 ], [ -8.912149422567044, 39.681406358002967 ], [ -8.912889638534551, 39.681406358002967 ], [ -8.912889638534551, 39.682288092371302 ], [ -8.91362985450206, 39.682288092371302 ], [ -8.91362985450206, 39.683169815481513 ], [ -8.914370070469568, 39.683169815481513 ], [ -8.914370070469568, 39.688019091346234 ], [ -8.91362985450206, 39.688019091346234 ], [ -8.91362985450206, 39.688900741277202 ], [ -8.912889638534551, 39.688900741277202 ], [ -8.912889638534551, 39.68978237994957 ], [ -8.912149422567044, 39.68978237994957 ], [ -8.912149422567044, 39.690223195063759 ], [ -8.911409206599535, 39.690223195063759 ], [ -8.911409206599535, 39.691104816848117 ], [ -8.910668990632026, 39.691104816848117 ], [ -8.910668990632026, 39.69198642737372 ], [ -8.909928774664518, 39.69198642737372 ], [ -8.909928774664518, 39.692427228414473 ], [ -8.904747262891961, 39.692427228414473 ], [ -8.904747262891961, 39.69198642737372 ], [ -8.904007046924452, 39.69198642737372 ], [ -8.904007046924452, 39.691545623518266 ], [ -8.903266830956944, 39.691545623518266 ] ] ], [ [ [ -3.476743573153344, 40.253904997399822 ], [ -3.476743573153344, 40.253467802761868 ], [ -3.475263141218327, 40.253467802761868 ], [ -3.475263141218327, 40.253030605299436 ], [ -3.47378270928331, 40.253030605299436 ], [ -3.47378270928331, 40.252593405012497 ], [ -3.473042493315802, 40.252593405012497 ], [ -3.473042493315802, 40.252156201901066 ], [ -3.471562061380785, 40.252156201901066 ], [ -3.471562061380785, 40.251718995965156 ], [ -3.470081629445768, 40.251718995965156 ], [ -3.470081629445768, 40.251281787204768 ], [ -3.468601197510752, 40.251281787204768 ], [ -3.468601197510752, 40.250844575619915 ], [ -3.467860981543244, 40.250844575619915 ], [ -3.467860981543244, 40.249970143976832 ], [ -3.467120765575736, 40.249970143976832 ], [ -3.467120765575736, 40.248658475328888 ], [ -3.466380549608227, 40.248658475328888 ], [ -3.466380549608227, 40.246909544256376 ], [ -3.465640333640719, 40.246909544256376 ], [ -3.465640333640719, 40.24559781629582 ], [ -3.46490011767321, 40.24559781629582 ], [ -3.46490011767321, 40.243848806140534 ], [ -3.464159901705703, 40.243848806140534 ], [ -3.464159901705703, 40.241662479898736 ], [ -3.46490011767321, 40.241662479898736 ], [ -3.46490011767321, 40.240350650261888 ], [ -3.465640333640719, 40.240350650261888 ], [ -3.465640333640719, 40.239476083049205 ], [ -3.466380549608227, 40.239476083049205 ], [ -3.466380549608227, 40.238164211048165 ], [ -3.467120765575736, 40.238164211048165 ], [ -3.467120765575736, 40.237726914732633 ], [ -3.467860981543244, 40.237726914732633 ], [ -3.467860981543244, 40.237289615592864 ], [ -3.470821845413277, 40.237289615592864 ], [ -3.470821845413277, 40.236852313628852 ], [ -3.474522925250819, 40.236852313628852 ], [ -3.474522925250819, 40.236415008840616 ], [ -3.477483789120852, 40.236415008840616 ], [ -3.477483789120852, 40.236852313628852 ], [ -3.478964221055869, 40.236852313628852 ], [ -3.478964221055869, 40.237289615592864 ], [ -3.481184868958394, 40.237289615592864 ], [ -3.481184868958394, 40.237726914732633 ], [ -3.482665300893411, 40.237726914732633 ], [ -3.482665300893411, 40.238164211048165 ], [ -3.483405516860918, 40.238164211048165 ], [ -3.483405516860918, 40.239476083049205 ], [ -3.484145732828428, 40.239476083049205 ], [ -3.484145732828428, 40.240350650261888 ], [ -3.484885948795936, 40.240350650261888 ], [ -3.484885948795936, 40.241662479898736 ], [ -3.485626164763444, 40.241662479898736 ], [ -3.485626164763444, 40.242537018868425 ], [ -3.486366380730952, 40.242537018868425 ], [ -3.486366380730952, 40.243411546540848 ], [ -3.485626164763444, 40.243411546540848 ], [ -3.485626164763444, 40.247346781261115 ], [ -3.484885948795936, 40.247346781261115 ], [ -3.484885948795936, 40.250844575619915 ], [ -3.484145732828428, 40.250844575619915 ], [ -3.484145732828428, 40.251281787204768 ], [ -3.483405516860918, 40.251281787204768 ], [ -3.483405516860918, 40.252156201901066 ], [ -3.482665300893411, 40.252156201901066 ], [ -3.482665300893411, 40.252593405012497 ], [ -3.481925084925902, 40.252593405012497 ], [ -3.481925084925902, 40.253030605299436 ], [ -3.481184868958394, 40.253030605299436 ], [ -3.481184868958394, 40.253467802761868 ], [ -3.480444652990886, 40.253467802761868 ], [ -3.480444652990886, 40.253904997399822 ], [ -3.479704437023377, 40.253904997399822 ], [ -3.479704437023377, 40.25434218921324 ], [ -3.47822400508836, 40.25434218921324 ], [ -3.47822400508836, 40.253904997399822 ], [ -3.476743573153344, 40.253904997399822 ] ] ], [ [ [ -8.413984076433936, 40.29367788514655 ], [ -8.413984076433936, 40.293240947568535 ], [ -8.413243860466427, 40.293240947568535 ], [ -8.413243860466427, 40.287997476272118 ], [ -8.413984076433936, 40.287997476272118 ], [ -8.413984076433936, 40.287123524838051 ], [ -8.414724292401443, 40.287123524838051 ], [ -8.414724292401443, 40.28668654488343 ], [ -8.415464508368952, 40.28668654488343 ], [ -8.415464508368952, 40.286249562103755 ], [ -8.41620472433646, 40.286249562103755 ], [ -8.41620472433646, 40.285812576499055 ], [ -8.416944940303967, 40.285812576499055 ], [ -8.416944940303967, 40.2853755880693 ], [ -8.417685156271476, 40.2853755880693 ], [ -8.417685156271476, 40.284501602734736 ], [ -8.418425372238985, 40.284501602734736 ], [ -8.418425372238985, 40.284064605829919 ], [ -8.419165588206493, 40.284064605829919 ], [ -8.419165588206493, 40.283627606100119 ], [ -8.419905804174, 40.283627606100119 ], [ -8.419905804174, 40.2831906035453 ], [ -8.420646020141509, 40.2831906035453 ], [ -8.420646020141509, 40.282753598165492 ], [ -8.422866668044033, 40.282753598165492 ], [ -8.422866668044033, 40.2831906035453 ], [ -8.423606884011543, 40.2831906035453 ], [ -8.423606884011543, 40.283627606100119 ], [ -8.42434709997905, 40.283627606100119 ], [ -8.42434709997905, 40.284064605829919 ], [ -8.425087315946559, 40.284064605829919 ], [ -8.425087315946559, 40.284501602734736 ], [ -8.426567747881576, 40.284501602734736 ], [ -8.426567747881576, 40.285812576499055 ], [ -8.427307963849083, 40.285812576499055 ], [ -8.427307963849083, 40.289745345239332 ], [ -8.428048179816592, 40.289745345239332 ], [ -8.428048179816592, 40.291056217301232 ], [ -8.427307963849083, 40.291056217301232 ], [ -8.427307963849083, 40.291493169004966 ], [ -8.426567747881576, 40.291493169004966 ], [ -8.426567747881576, 40.292367063937036 ], [ -8.425827531914068, 40.292367063937036 ], [ -8.425827531914068, 40.293240947568535 ], [ -8.425087315946559, 40.293240947568535 ], [ -8.425087315946559, 40.29367788514655 ], [ -8.42434709997905, 40.29367788514655 ], [ -8.42434709997905, 40.294551751827093 ], [ -8.423606884011543, 40.294551751827093 ], [ -8.423606884011543, 40.294988680929592 ], [ -8.422866668044033, 40.294988680929592 ], [ -8.422866668044033, 40.295425607206923 ], [ -8.415464508368952, 40.295425607206923 ], [ -8.415464508368952, 40.294551751827093 ], [ -8.414724292401443, 40.294551751827093 ], [ -8.414724292401443, 40.29367788514655 ], [ -8.413984076433936, 40.29367788514655 ] ] ], [ [ [ -5.860238988530181, 43.55811844265704 ], [ -5.858018340627656, 43.55811844265704 ], [ -5.858018340627656, 43.55770331002217 ], [ -5.85653790869264, 43.55770331002217 ], [ -5.85653790869264, 43.557288174527208 ], [ -5.855797692725131, 43.557288174527208 ], [ -5.855797692725131, 43.556457894957013 ], [ -5.855057476757623, 43.556457894957013 ], [ -5.855057476757623, 43.553966987604447 ], [ -5.854317260790114, 43.553966987604447 ], [ -5.854317260790114, 43.551891152825284 ], [ -5.853577044822605, 43.551891152825284 ], [ -5.853577044822605, 43.552306325501249 ], [ -5.852836828855097, 43.552306325501249 ], [ -5.852836828855097, 43.552721495317144 ], [ -5.852096612887589, 43.552721495317144 ], [ -5.852096612887589, 43.553136662272983 ], [ -5.85135639692008, 43.553136662272983 ], [ -5.85135639692008, 43.553551826368746 ], [ -5.849875964985064, 43.553551826368746 ], [ -5.849875964985064, 43.553136662272983 ], [ -5.848395533050048, 43.553136662272983 ], [ -5.848395533050048, 43.552721495317144 ], [ -5.846174885147523, 43.552721495317144 ], [ -5.846174885147523, 43.552306325501249 ], [ -5.844694453212505, 43.552306325501249 ], [ -5.844694453212505, 43.551891152825284 ], [ -5.843214021277489, 43.551891152825284 ], [ -5.843214021277489, 43.551475977289243 ], [ -5.841733589342473, 43.551475977289243 ], [ -5.841733589342473, 43.551060798893154 ], [ -5.840253157407456, 43.551060798893154 ], [ -5.840253157407456, 43.550645617637002 ], [ -5.83877272547244, 43.550645617637002 ], [ -5.83877272547244, 43.550230433520795 ], [ -5.837292293537423, 43.550230433520795 ], [ -5.837292293537423, 43.549815246544526 ], [ -5.835811861602406, 43.549815246544526 ], [ -5.835811861602406, 43.549400056708208 ], [ -5.834331429667389, 43.549400056708208 ], [ -5.834331429667389, 43.548984864011857 ], [ -5.832850997732372, 43.548984864011857 ], [ -5.832850997732372, 43.548569668455436 ], [ -5.832110781764865, 43.548569668455436 ], [ -5.832110781764865, 43.548984864011857 ], [ -5.831370565797356, 43.548984864011857 ], [ -5.831370565797356, 43.549815246544526 ], [ -5.830630349829847, 43.549815246544526 ], [ -5.830630349829847, 43.550230433520795 ], [ -5.829890133862339, 43.550230433520795 ], [ -5.829890133862339, 43.550645617637002 ], [ -5.829149917894831, 43.550645617637002 ], [ -5.829149917894831, 43.551475977289243 ], [ -5.828409701927322, 43.551475977289243 ], [ -5.828409701927322, 43.551891152825284 ], [ -5.822487974187256, 43.551891152825284 ], [ -5.822487974187256, 43.551060798893154 ], [ -5.821747758219748, 43.551060798893154 ], [ -5.821747758219748, 43.550230433520795 ], [ -5.821007542252239, 43.550230433520795 ], [ -5.821007542252239, 43.549400056708208 ], [ -5.82026732628473, 43.549400056708208 ], [ -5.82026732628473, 43.546908857629347 ], [ -5.819527110317222, 43.546908857629347 ], [ -5.819527110317222, 43.54192615058799 ], [ -5.818786894349714, 43.54192615058799 ], [ -5.818786894349714, 43.541510906411077 ], [ -5.818046678382206, 43.541510906411077 ], [ -5.818046678382206, 43.541095659374164 ], [ -5.817306462414698, 43.541095659374164 ], [ -5.817306462414698, 43.540680409477226 ], [ -5.816566246447189, 43.540680409477226 ], [ -5.816566246447189, 43.539434642626411 ], [ -5.815826030479681, 43.539434642626411 ], [ -5.815826030479681, 43.537773580118674 ], [ -5.815085814512173, 43.537773580118674 ], [ -5.815085814512173, 43.536527753207956 ], [ -5.815826030479681, 43.536527753207956 ], [ -5.815826030479681, 43.535281900557365 ], [ -5.816566246447189, 43.535281900557365 ], [ -5.816566246447189, 43.53403602216698 ], [ -5.817306462414698, 43.53403602216698 ], [ -5.817306462414698, 43.533205422273518 ], [ -5.818046678382206, 43.533205422273518 ], [ -5.818046678382206, 43.531959500983589 ], [ -5.823968406122273, 43.531959500983589 ], [ -5.823968406122273, 43.531544188167018 ], [ -5.824708622089781, 43.531544188167018 ], [ -5.824708622089781, 43.531128872490477 ], [ -5.826189054024797, 43.531128872490477 ], [ -5.826189054024797, 43.530713553953994 ], [ -5.826929269992306, 43.530713553953994 ], [ -5.826929269992306, 43.530298232557548 ], [ -5.827669485959815, 43.530298232557548 ], [ -5.827669485959815, 43.529882908301154 ], [ -5.829149917894831, 43.529882908301154 ], [ -5.829149917894831, 43.529467581184797 ], [ -5.829890133862339, 43.529467581184797 ], [ -5.829890133862339, 43.529052251208505 ], [ -5.830630349829847, 43.529052251208505 ], [ -5.830630349829847, 43.528636918372264 ], [ -5.832110781764865, 43.528636918372264 ], [ -5.832110781764865, 43.529052251208505 ], [ -5.832850997732372, 43.529052251208505 ], [ -5.832850997732372, 43.529467581184797 ], [ -5.833591213699881, 43.529467581184797 ], [ -5.833591213699881, 43.529882908301154 ], [ -5.834331429667389, 43.529882908301154 ], [ -5.834331429667389, 43.530298232557548 ], [ -5.835071645634897, 43.530298232557548 ], [ -5.835071645634897, 43.530713553953994 ], [ -5.835811861602406, 43.530713553953994 ], [ -5.835811861602406, 43.531544188167018 ], [ -5.836552077569914, 43.531544188167018 ], [ -5.836552077569914, 43.531959500983589 ], [ -5.837292293537423, 43.531959500983589 ], [ -5.837292293537423, 43.53237481094019 ], [ -5.838032509504931, 43.53237481094019 ], [ -5.838032509504931, 43.532790118036843 ], [ -5.83877272547244, 43.532790118036843 ], [ -5.83877272547244, 43.533205422273518 ], [ -5.841733589342473, 43.533205422273518 ], [ -5.841733589342473, 43.532790118036843 ], [ -5.842473805309981, 43.532790118036843 ], [ -5.842473805309981, 43.53237481094019 ], [ -5.843954237244998, 43.53237481094019 ], [ -5.843954237244998, 43.531959500983589 ], [ -5.846174885147523, 43.531959500983589 ], [ -5.846174885147523, 43.53237481094019 ], [ -5.846915101115031, 43.53237481094019 ], [ -5.846915101115031, 43.532790118036843 ], [ -5.848395533050048, 43.532790118036843 ], [ -5.848395533050048, 43.533205422273518 ], [ -5.849135749017555, 43.533205422273518 ], [ -5.849135749017555, 43.533620723650237 ], [ -5.849875964985064, 43.533620723650237 ], [ -5.849875964985064, 43.53403602216698 ], [ -5.850616180952573, 43.53403602216698 ], [ -5.850616180952573, 43.537773580118674 ], [ -5.85135639692008, 43.537773580118674 ], [ -5.85135639692008, 43.540680409477226 ], [ -5.852096612887589, 43.540680409477226 ], [ -5.852096612887589, 43.541510906411077 ], [ -5.852836828855097, 43.541510906411077 ], [ -5.852836828855097, 43.542756630361758 ], [ -5.853577044822605, 43.542756630361758 ], [ -5.853577044822605, 43.543587098695482 ], [ -5.854317260790114, 43.543587098695482 ], [ -5.854317260790114, 43.544417555589114 ], [ -5.855057476757623, 43.544417555589114 ], [ -5.855057476757623, 43.545663219479366 ], [ -5.855797692725131, 43.545663219479366 ], [ -5.855797692725131, 43.54815447003898 ], [ -5.85653790869264, 43.54815447003898 ], [ -5.85653790869264, 43.54773926876247 ], [ -5.857278124660148, 43.54773926876247 ], [ -5.857278124660148, 43.547324064625933 ], [ -5.858018340627656, 43.547324064625933 ], [ -5.858018340627656, 43.546908857629347 ], [ -5.858758556595164, 43.546908857629347 ], [ -5.858758556595164, 43.54607843505606 ], [ -5.860238988530181, 43.54607843505606 ], [ -5.860238988530181, 43.546493647772721 ], [ -5.860979204497688, 43.546493647772721 ], [ -5.860979204497688, 43.546908857629347 ], [ -5.861719420465197, 43.546908857629347 ], [ -5.861719420465197, 43.547324064625933 ], [ -5.862459636432706, 43.547324064625933 ], [ -5.862459636432706, 43.54773926876247 ], [ -5.863199852400214, 43.54773926876247 ], [ -5.863199852400214, 43.54815447003898 ], [ -5.863940068367723, 43.54815447003898 ], [ -5.863940068367723, 43.548569668455436 ], [ -5.864680284335232, 43.548569668455436 ], [ -5.864680284335232, 43.548984864011857 ], [ -5.86542050030274, 43.548984864011857 ], [ -5.86542050030274, 43.549400056708208 ], [ -5.866160716270247, 43.549400056708208 ], [ -5.866160716270247, 43.550230433520795 ], [ -5.866900932237757, 43.550230433520795 ], [ -5.866900932237757, 43.550645617637002 ], [ -5.867641148205265, 43.550645617637002 ], [ -5.867641148205265, 43.554797301495626 ], [ -5.866900932237757, 43.554797301495626 ], [ -5.866900932237757, 43.555212454151096 ], [ -5.866160716270247, 43.555212454151096 ], [ -5.866160716270247, 43.556042750881794 ], [ -5.86542050030274, 43.556042750881794 ], [ -5.86542050030274, 43.556873036172156 ], [ -5.864680284335232, 43.556873036172156 ], [ -5.864680284335232, 43.557288174527208 ], [ -5.863940068367723, 43.557288174527208 ], [ -5.863940068367723, 43.55811844265704 ], [ -5.863199852400214, 43.55811844265704 ], [ -5.863199852400214, 43.558533572431813 ], [ -5.862459636432706, 43.558533572431813 ], [ -5.862459636432706, 43.558948699346487 ], [ -5.861719420465197, 43.558948699346487 ], [ -5.861719420465197, 43.558533572431813 ], [ -5.860238988530181, 43.558533572431813 ], [ -5.860238988530181, 43.55811844265704 ] ] ], [ [ [ -0.276789945614814, 35.824969885320684 ], [ -0.276789945614814, 35.824505411354338 ], [ -0.276049729647306, 35.824505411354338 ], [ -0.276049729647306, 35.824040934669902 ], [ -0.273088865777272, 35.824040934669902 ], [ -0.273088865777272, 35.8235764552674 ], [ -0.268647569972222, 35.8235764552674 ], [ -0.268647569972222, 35.82311197314683 ], [ -0.264946490134681, 35.82311197314683 ], [ -0.264946490134681, 35.822647488308213 ], [ -0.264206274167172, 35.822647488308213 ], [ -0.264206274167172, 35.822183000751579 ], [ -0.262725842232156, 35.822183000751579 ], [ -0.262725842232156, 35.821718510476927 ], [ -0.261245410297139, 35.821718510476927 ], [ -0.261245410297139, 35.821254017484272 ], [ -0.260505194329631, 35.821254017484272 ], [ -0.260505194329631, 35.820789521773627 ], [ -0.259024762394614, 35.820789521773627 ], [ -0.259024762394614, 35.820325023345006 ], [ -0.257544330459597, 35.820325023345006 ], [ -0.257544330459597, 35.819860522198454 ], [ -0.256804114492089, 35.819860522198454 ], [ -0.256804114492089, 35.81939601833394 ], [ -0.255323682557072, 35.81939601833394 ], [ -0.255323682557072, 35.818931511751508 ], [ -0.253843250622056, 35.818931511751508 ], [ -0.253843250622056, 35.818467002451158 ], [ -0.253103034654547, 35.818467002451158 ], [ -0.253103034654547, 35.818002490432896 ], [ -0.251622602719531, 35.818002490432896 ], [ -0.251622602719531, 35.81753797569678 ], [ -0.250142170784514, 35.81753797569678 ], [ -0.250142170784514, 35.817073458242774 ], [ -0.249401954817006, 35.817073458242774 ], [ -0.249401954817006, 35.816608938070921 ], [ -0.247921522881989, 35.816608938070921 ], [ -0.247921522881989, 35.817073458242774 ], [ -0.247181306914481, 35.817073458242774 ], [ -0.247181306914481, 35.81753797569678 ], [ -0.245700874979464, 35.81753797569678 ], [ -0.245700874979464, 35.818002490432896 ], [ -0.244960659011956, 35.818002490432896 ], [ -0.244960659011956, 35.818467002451158 ], [ -0.244220443044447, 35.818467002451158 ], [ -0.244220443044447, 35.818931511751508 ], [ -0.242740011109431, 35.818931511751508 ], [ -0.242740011109431, 35.81939601833394 ], [ -0.239779147239397, 35.81939601833394 ], [ -0.239779147239397, 35.818931511751508 ], [ -0.237558499336872, 35.818931511751508 ], [ -0.237558499336872, 35.818467002451158 ], [ -0.236078067401856, 35.818467002451158 ], [ -0.236078067401856, 35.818002490432896 ], [ -0.234597635466839, 35.818002490432896 ], [ -0.234597635466839, 35.81753797569678 ], [ -0.232376987564314, 35.81753797569678 ], [ -0.232376987564314, 35.817073458242774 ], [ -0.231636771596806, 35.817073458242774 ], [ -0.231636771596806, 35.816144415181228 ], [ -0.230896555629297, 35.816144415181228 ], [ -0.230896555629297, 35.815215361248384 ], [ -0.230156339661789, 35.815215361248384 ], [ -0.230156339661789, 35.814286296444358 ], [ -0.229416123694281, 35.814286296444358 ], [ -0.229416123694281, 35.813821759965677 ], [ -0.228675907726772, 35.813821759965677 ], [ -0.228675907726772, 35.813357220769255 ], [ -0.227195475791756, 35.813357220769255 ], [ -0.227195475791756, 35.812892678855093 ], [ -0.225715043856739, 35.812892678855093 ], [ -0.225715043856739, 35.812428134223211 ], [ -0.224234611921722, 35.812428134223211 ], [ -0.224234611921722, 35.810569928518746 ], [ -0.223494395954214, 35.810569928518746 ], [ -0.223494395954214, 35.805924224024189 ], [ -0.224234611921722, 35.805924224024189 ], [ -0.224234611921722, 35.803601269869652 ], [ -0.224974827889231, 35.803601269869652 ], [ -0.224974827889231, 35.803136670886389 ], [ -0.225715043856739, 35.803136670886389 ], [ -0.225715043856739, 35.80220746476764 ], [ -0.226455259824247, 35.80220746476764 ], [ -0.226455259824247, 35.801742857632192 ], [ -0.227195475791756, 35.801742857632192 ], [ -0.227195475791756, 35.801278247779365 ], [ -0.227935691759264, 35.801278247779365 ], [ -0.227935691759264, 35.800813635209181 ], [ -0.230896555629297, 35.800813635209181 ], [ -0.230896555629297, 35.800349019921647 ], [ -0.233117203531822, 35.800349019921647 ], [ -0.233117203531822, 35.799884401916799 ], [ -0.234597635466839, 35.799884401916799 ], [ -0.234597635466839, 35.800349019921647 ], [ -0.235337851434347, 35.800349019921647 ], [ -0.235337851434347, 35.800813635209181 ], [ -0.236078067401856, 35.800813635209181 ], [ -0.236078067401856, 35.801278247779365 ], [ -0.236818283369364, 35.801278247779365 ], [ -0.236818283369364, 35.801742857632192 ], [ -0.237558499336872, 35.801742857632192 ], [ -0.237558499336872, 35.80220746476764 ], [ -0.238298715304381, 35.80220746476764 ], [ -0.238298715304381, 35.800813635209181 ], [ -0.239038931271889, 35.800813635209181 ], [ -0.239038931271889, 35.799884401916799 ], [ -0.239779147239397, 35.799884401916799 ], [ -0.239779147239397, 35.798955157755167 ], [ -0.240519363206906, 35.798955157755167 ], [ -0.240519363206906, 35.798025902724412 ], [ -0.241259579174414, 35.798025902724412 ], [ -0.241259579174414, 35.797561271133148 ], [ -0.244220443044447, 35.797561271133148 ], [ -0.244220443044447, 35.798025902724412 ], [ -0.246441090946972, 35.798025902724412 ], [ -0.246441090946972, 35.798490531598425 ], [ -0.247921522881989, 35.798490531598425 ], [ -0.247921522881989, 35.798955157755167 ], [ -0.248661738849497, 35.798955157755167 ], [ -0.248661738849497, 35.798490531598425 ], [ -0.249401954817006, 35.798490531598425 ], [ -0.249401954817006, 35.798025902724412 ], [ -0.250142170784514, 35.798025902724412 ], [ -0.250142170784514, 35.797561271133148 ], [ -0.250882386752022, 35.797561271133148 ], [ -0.250882386752022, 35.797096636824634 ], [ -0.251622602719531, 35.797096636824634 ], [ -0.251622602719531, 35.796631999798905 ], [ -0.252362818687039, 35.796631999798905 ], [ -0.252362818687039, 35.796167360055968 ], [ -0.253103034654547, 35.796167360055968 ], [ -0.253103034654547, 35.79570271759583 ], [ -0.254583466589564, 35.79570271759583 ], [ -0.254583466589564, 35.796167360055968 ], [ -0.255323682557072, 35.796167360055968 ], [ -0.255323682557072, 35.796631999798905 ], [ -0.256804114492089, 35.796631999798905 ], [ -0.256804114492089, 35.797096636824634 ], [ -0.259764978362122, 35.797096636824634 ], [ -0.259764978362122, 35.796631999798905 ], [ -0.263466058199664, 35.796631999798905 ], [ -0.263466058199664, 35.797096636824634 ], [ -0.264206274167172, 35.797096636824634 ], [ -0.264206274167172, 35.797561271133148 ], [ -0.264946490134681, 35.797561271133148 ], [ -0.264946490134681, 35.798490531598425 ], [ -0.265686706102189, 35.798490531598425 ], [ -0.265686706102189, 35.798955157755167 ], [ -0.266426922069697, 35.798955157755167 ], [ -0.266426922069697, 35.799419781194644 ], [ -0.267167138037206, 35.799419781194644 ], [ -0.267167138037206, 35.799884401916799 ], [ -0.267907354004714, 35.799884401916799 ], [ -0.267907354004714, 35.800349019921647 ], [ -0.268647569972222, 35.800349019921647 ], [ -0.268647569972222, 35.800813635209181 ], [ -0.269387785939731, 35.800813635209181 ], [ -0.269387785939731, 35.801742857632192 ], [ -0.270128001907239, 35.801742857632192 ], [ -0.270128001907239, 35.80220746476764 ], [ -0.270868217874747, 35.80220746476764 ], [ -0.270868217874747, 35.802672069185711 ], [ -0.271608433842256, 35.802672069185711 ], [ -0.271608433842256, 35.803136670886389 ], [ -0.272348649809764, 35.803136670886389 ], [ -0.272348649809764, 35.803601269869652 ], [ -0.273088865777272, 35.803601269869652 ], [ -0.273088865777272, 35.804530459683846 ], [ -0.274569297712289, 35.804530459683846 ], [ -0.274569297712289, 35.804065866135467 ], [ -0.275309513679797, 35.804065866135467 ], [ -0.275309513679797, 35.803136670886389 ], [ -0.276049729647306, 35.803136670886389 ], [ -0.276049729647306, 35.80220746476764 ], [ -0.276789945614814, 35.80220746476764 ], [ -0.276789945614814, 35.801278247779365 ], [ -0.277530161582322, 35.801278247779365 ], [ -0.277530161582322, 35.800813635209181 ], [ -0.282711673354881, 35.800813635209181 ], [ -0.282711673354881, 35.801742857632192 ], [ -0.283451889322389, 35.801742857632192 ], [ -0.283451889322389, 35.802672069185711 ], [ -0.284192105289897, 35.802672069185711 ], [ -0.284192105289897, 35.803136670886389 ], [ -0.284932321257406, 35.803136670886389 ], [ -0.284932321257406, 35.804995050514783 ], [ -0.285672537224914, 35.804995050514783 ], [ -0.285672537224914, 35.811499036806339 ], [ -0.286412753192422, 35.811499036806339 ], [ -0.286412753192422, 35.81753797569678 ], [ -0.287152969159931, 35.81753797569678 ], [ -0.287152969159931, 35.821254017484272 ], [ -0.286412753192422, 35.821254017484272 ], [ -0.286412753192422, 35.822183000751579 ], [ -0.285672537224914, 35.822183000751579 ], [ -0.285672537224914, 35.822647488308213 ], [ -0.284932321257406, 35.822647488308213 ], [ -0.284932321257406, 35.82311197314683 ], [ -0.284192105289897, 35.82311197314683 ], [ -0.284192105289897, 35.8235764552674 ], [ -0.283451889322389, 35.8235764552674 ], [ -0.283451889322389, 35.824040934669902 ], [ -0.282711673354881, 35.824040934669902 ], [ -0.282711673354881, 35.824505411354338 ], [ -0.281971457387372, 35.824505411354338 ], [ -0.281971457387372, 35.824969885320684 ], [ -0.281231241419864, 35.824969885320684 ], [ -0.281231241419864, 35.82543435656892 ], [ -0.280491025452356, 35.82543435656892 ], [ -0.280491025452356, 35.825898825099053 ], [ -0.278270377549831, 35.825898825099053 ], [ -0.278270377549831, 35.82543435656892 ], [ -0.277530161582322, 35.82543435656892 ], [ -0.277530161582322, 35.824969885320684 ], [ -0.276789945614814, 35.824969885320684 ] ] ], [ [ [ 1.244353867614813, 36.135093078437173 ], [ 1.245094083582321, 36.135093078437173 ], [ 1.245094083582321, 36.13463042610794 ], [ 1.245834299549829, 36.13463042610794 ], [ 1.245834299549829, 36.13370511326643 ], [ 1.246574515517338, 36.13370511326643 ], [ 1.246574515517338, 36.132779789514281 ], [ 1.247314731484846, 36.132779789514281 ], [ 1.247314731484846, 36.132317123546741 ], [ 1.248054947452355, 36.132317123546741 ], [ 1.248054947452355, 36.131391783428839 ], [ 1.248795163419863, 36.131391783428839 ], [ 1.248795163419863, 36.130929109278505 ], [ 1.249535379387371, 36.130929109278505 ], [ 1.249535379387371, 36.130003752795091 ], [ 1.25027559535488, 36.130003752795091 ], [ 1.25027559535488, 36.128615697613419 ], [ 1.251015811322388, 36.128615697613419 ], [ 1.251015811322388, 36.126302217760696 ], [ 1.251756027289896, 36.126302217760696 ], [ 1.251756027289896, 36.123988669722088 ], [ 1.251015811322388, 36.123988669722088 ], [ 1.251015811322388, 36.122600508170429 ], [ 1.25027559535488, 36.122600508170429 ], [ 1.25027559535488, 36.121675053499345 ], [ 1.249535379387371, 36.121675053499345 ], [ 1.249535379387371, 36.120749587919107 ], [ 1.248795163419863, 36.120749587919107 ], [ 1.248795163419863, 36.119824111429786 ], [ 1.248054947452355, 36.119824111429786 ], [ 1.248054947452355, 36.119361369094264 ], [ 1.24139300374478, 36.119361369094264 ], [ 1.24139300374478, 36.119824111429786 ], [ 1.239912571809763, 36.119824111429786 ], [ 1.239912571809763, 36.120286851038067 ], [ 1.238432139874746, 36.120286851038067 ], [ 1.238432139874746, 36.120749587919107 ], [ 1.236951707939729, 36.120749587919107 ], [ 1.236951707939729, 36.121212322072857 ], [ 1.235471276004713, 36.121212322072857 ], [ 1.235471276004713, 36.121675053499345 ], [ 1.234731060037205, 36.121675053499345 ], [ 1.234731060037205, 36.122137782198543 ], [ 1.233990844069696, 36.122137782198543 ], [ 1.233990844069696, 36.122600508170429 ], [ 1.233250628102188, 36.122600508170429 ], [ 1.233250628102188, 36.123525951932208 ], [ 1.232510412134679, 36.123525951932208 ], [ 1.232510412134679, 36.123988669722088 ], [ 1.231770196167171, 36.123988669722088 ], [ 1.231770196167171, 36.124451384784592 ], [ 1.231029980199663, 36.124451384784592 ], [ 1.231029980199663, 36.124914097119721 ], [ 1.230289764232154, 36.124914097119721 ], [ 1.230289764232154, 36.125839513607794 ], [ 1.229549548264646, 36.125839513607794 ], [ 1.229549548264646, 36.126302217760696 ], [ 1.228809332297138, 36.126302217760696 ], [ 1.228809332297138, 36.130466432400581 ], [ 1.22806911632963, 36.130466432400581 ], [ 1.22806911632963, 36.132779789514281 ], [ 1.228809332297138, 36.132779789514281 ], [ 1.228809332297138, 36.13370511326643 ], [ 1.229549548264646, 36.13370511326643 ], [ 1.229549548264646, 36.134167771051025 ], [ 1.230289764232154, 36.134167771051025 ], [ 1.230289764232154, 36.135093078437173 ], [ 1.231029980199663, 36.135093078437173 ], [ 1.231029980199663, 36.135555728038689 ], [ 1.231770196167171, 36.135555728038689 ], [ 1.231770196167171, 36.136018374912496 ], [ 1.233250628102188, 36.136018374912496 ], [ 1.233250628102188, 36.136481019058579 ], [ 1.234731060037205, 36.136481019058579 ], [ 1.234731060037205, 36.136943660476909 ], [ 1.239912571809763, 36.136943660476909 ], [ 1.239912571809763, 36.136481019058579 ], [ 1.242133219712288, 36.136481019058579 ], [ 1.242133219712288, 36.136018374912496 ], [ 1.244353867614813, 36.136018374912496 ], [ 1.244353867614813, 36.135093078437173 ] ] ], [ [ [ 3.752945781500558, 36.186430528374551 ], [ 3.752945781500558, 36.185505826708528 ], [ 3.753685997468065, 36.185505826708528 ], [ 3.753685997468065, 36.185043471781654 ], [ 3.754426213435575, 36.185043471781654 ], [ 3.754426213435575, 36.184118753740272 ], [ 3.755166429403083, 36.184118753740272 ], [ 3.755166429403083, 36.176720616415025 ], [ 3.754426213435575, 36.176720616415025 ], [ 3.754426213435575, 36.176258209635364 ], [ 3.753685997468065, 36.176258209635364 ], [ 3.753685997468065, 36.175333387889239 ], [ 3.752945781500558, 36.175333387889239 ], [ 3.752945781500558, 36.174408555227394 ], [ 3.75220556553305, 36.174408555227394 ], [ 3.75220556553305, 36.173483711649958 ], [ 3.751465349565541, 36.173483711649958 ], [ 3.751465349565541, 36.172558857157064 ], [ 3.750725133598033, 36.172558857157064 ], [ 3.750725133598033, 36.171633991748799 ], [ 3.744803405857966, 36.171633991748799 ], [ 3.744803405857966, 36.172558857157064 ], [ 3.744063189890458, 36.172558857157064 ], [ 3.744063189890458, 36.173021285767938 ], [ 3.743322973922949, 36.173021285767938 ], [ 3.743322973922949, 36.173946134803117 ], [ 3.742582757955441, 36.173946134803117 ], [ 3.742582757955441, 36.174870972922768 ], [ 3.741842541987933, 36.174870972922768 ], [ 3.741842541987933, 36.175795800126778 ], [ 3.741102326020424, 36.175795800126778 ], [ 3.741102326020424, 36.176720616415025 ], [ 3.740362110052916, 36.176720616415025 ], [ 3.740362110052916, 36.17903260937846 ], [ 3.739621894085408, 36.17903260937846 ], [ 3.739621894085408, 36.180882154626616 ], [ 3.738881678117899, 36.180882154626616 ], [ 3.738881678117899, 36.183194024782118 ], [ 3.739621894085408, 36.183194024782118 ], [ 3.739621894085408, 36.184118753740272 ], [ 3.740362110052916, 36.184118753740272 ], [ 3.740362110052916, 36.185505826708528 ], [ 3.741102326020424, 36.185505826708528 ], [ 3.741102326020424, 36.186430528374551 ], [ 3.741842541987933, 36.186430528374551 ], [ 3.741842541987933, 36.187355219123539 ], [ 3.747764269728, 36.187355219123539 ], [ 3.747764269728, 36.186892875113685 ], [ 3.75220556553305, 36.186892875113685 ], [ 3.75220556553305, 36.186430528374551 ], [ 3.752945781500558, 36.186430528374551 ] ] ], [ [ [ 2.880231155808231, 36.603276314916315 ], [ 2.880231155808231, 36.602816438315351 ], [ 2.881711587743248, 36.602816438315351 ], [ 2.881711587743248, 36.602356558972815 ], [ 2.882451803710757, 36.602356558972815 ], [ 2.882451803710757, 36.601896676888721 ], [ 2.883192019678265, 36.601896676888721 ], [ 2.883192019678265, 36.601436792063076 ], [ 2.884672451613281, 36.601436792063076 ], [ 2.884672451613281, 36.600976904495894 ], [ 2.88541266758079, 36.600976904495894 ], [ 2.88541266758079, 36.598677425537396 ], [ 2.886152883548299, 36.598677425537396 ], [ 2.886152883548299, 36.596377878042439 ], [ 2.886893099515807, 36.596377878042439 ], [ 2.886893099515807, 36.594078262012708 ], [ 2.886152883548299, 36.594078262012708 ], [ 2.886152883548299, 36.592698459498877 ], [ 2.88541266758079, 36.592698459498877 ], [ 2.88541266758079, 36.591318632313481 ], [ 2.884672451613281, 36.591318632313481 ], [ 2.884672451613281, 36.590398733816969 ], [ 2.883932235645773, 36.590398733816969 ], [ 2.883932235645773, 36.58993878045689 ], [ 2.882451803710757, 36.58993878045689 ], [ 2.882451803710757, 36.589478824355602 ], [ 2.88097137177574, 36.589478824355602 ], [ 2.88097137177574, 36.589018865513104 ], [ 2.880231155808231, 36.589018865513104 ], [ 2.880231155808231, 36.588558903929453 ], [ 2.878750723873215, 36.588558903929453 ], [ 2.878750723873215, 36.589018865513104 ], [ 2.878010507905707, 36.589018865513104 ], [ 2.878010507905707, 36.589478824355602 ], [ 2.87653007597069, 36.589478824355602 ], [ 2.87653007597069, 36.58993878045689 ], [ 2.875049644035673, 36.58993878045689 ], [ 2.875049644035673, 36.590398733816969 ], [ 2.874309428068165, 36.590398733816969 ], [ 2.874309428068165, 36.590858684435844 ], [ 2.872828996133148, 36.590858684435844 ], [ 2.872828996133148, 36.591778577449873 ], [ 2.87208878016564, 36.591778577449873 ], [ 2.87208878016564, 36.592698459498877 ], [ 2.871348564198132, 36.592698459498877 ], [ 2.871348564198132, 36.594078262012708 ], [ 2.870608348230624, 36.594078262012708 ], [ 2.870608348230624, 36.594998116648675 ], [ 2.869868132263115, 36.594998116648675 ], [ 2.869868132263115, 36.595917960319227 ], [ 2.869127916295606, 36.595917960319227 ], [ 2.869127916295606, 36.596377878042439 ], [ 2.869868132263115, 36.596377878042439 ], [ 2.869868132263115, 36.597757614763687 ], [ 2.870608348230624, 36.597757614763687 ], [ 2.870608348230624, 36.598677425537396 ], [ 2.871348564198132, 36.598677425537396 ], [ 2.871348564198132, 36.600057121136963 ], [ 2.87208878016564, 36.600057121136963 ], [ 2.87208878016564, 36.601436792063076 ], [ 2.872828996133148, 36.601436792063076 ], [ 2.872828996133148, 36.602356558972815 ], [ 2.873569212100656, 36.602356558972815 ], [ 2.873569212100656, 36.602816438315351 ], [ 2.874309428068165, 36.602816438315351 ], [ 2.874309428068165, 36.603276314916315 ], [ 2.875049644035673, 36.603276314916315 ], [ 2.875049644035673, 36.603736188775677 ], [ 2.87653007597069, 36.603736188775677 ], [ 2.87653007597069, 36.604196059893432 ], [ 2.878750723873215, 36.604196059893432 ], [ 2.878750723873215, 36.603736188775677 ], [ 2.879490939840723, 36.603736188775677 ], [ 2.879490939840723, 36.603276314916315 ], [ 2.880231155808231, 36.603276314916315 ] ] ], [ [ [ 3.12524264105349, 36.688306303054155 ], [ 3.127463288956015, 36.688306303054155 ], [ 3.127463288956015, 36.687846933872635 ], [ 3.128943720891032, 36.687846933872635 ], [ 3.128943720891032, 36.686468809864046 ], [ 3.12968393685854, 36.686468809864046 ], [ 3.12968393685854, 36.685550046805048 ], [ 3.130424152826048, 36.685550046805048 ], [ 3.130424152826048, 36.684171881636921 ], [ 3.131164368793557, 36.684171881636921 ], [ 3.131164368793557, 36.683253091138575 ], [ 3.131904584761065, 36.683253091138575 ], [ 3.131904584761065, 36.681874884811897 ], [ 3.132644800728573, 36.681874884811897 ], [ 3.132644800728573, 36.680956066874856 ], [ 3.133385016696082, 36.680956066874856 ], [ 3.133385016696082, 36.679577819390644 ], [ 3.13412523266359, 36.679577819390644 ], [ 3.13412523266359, 36.676361812562291 ], [ 3.133385016696082, 36.676361812562291 ], [ 3.133385016696082, 36.67452403401316 ], [ 3.132644800728573, 36.67452403401316 ], [ 3.132644800728573, 36.674064582516735 ], [ 3.131164368793557, 36.674064582516735 ], [ 3.131164368793557, 36.673605128276698 ], [ 3.12968393685854, 36.673605128276698 ], [ 3.12968393685854, 36.673145671293035 ], [ 3.128943720891032, 36.673145671293035 ], [ 3.128943720891032, 36.672686211565782 ], [ 3.127463288956015, 36.672686211565782 ], [ 3.127463288956015, 36.672226749094932 ], [ 3.125982857020999, 36.672226749094932 ], [ 3.125982857020999, 36.671767283880513 ], [ 3.120061129280932, 36.671767283880513 ], [ 3.120061129280932, 36.672226749094932 ], [ 3.119320913313424, 36.672226749094932 ], [ 3.119320913313424, 36.672686211565782 ], [ 3.118580697345915, 36.672686211565782 ], [ 3.118580697345915, 36.673145671293035 ], [ 3.117840481378407, 36.673145671293035 ], [ 3.117840481378407, 36.674064582516735 ], [ 3.117100265410898, 36.674064582516735 ], [ 3.117100265410898, 36.67452403401316 ], [ 3.11636004944339, 36.67452403401316 ], [ 3.11636004944339, 36.674983482765938 ], [ 3.115619833475882, 36.674983482765938 ], [ 3.115619833475882, 36.675902372040525 ], [ 3.114879617508374, 36.675902372040525 ], [ 3.114879617508374, 36.676361812562291 ], [ 3.114139401540865, 36.676361812562291 ], [ 3.114139401540865, 36.676821250340389 ], [ 3.113399185573357, 36.676821250340389 ], [ 3.113399185573357, 36.677280685374775 ], [ 3.112658969605848, 36.677280685374775 ], [ 3.112658969605848, 36.678199547212365 ], [ 3.11191875363834, 36.678199547212365 ], [ 3.11191875363834, 36.678658974015555 ], [ 3.111178537670832, 36.678658974015555 ], [ 3.111178537670832, 36.679118398074984 ], [ 3.110438321703324, 36.679118398074984 ], [ 3.110438321703324, 36.684171881636921 ], [ 3.111178537670832, 36.684171881636921 ], [ 3.111178537670832, 36.684631272770233 ], [ 3.11191875363834, 36.684631272770233 ], [ 3.11191875363834, 36.685090661159613 ], [ 3.112658969605848, 36.685090661159613 ], [ 3.112658969605848, 36.685550046805048 ], [ 3.113399185573357, 36.685550046805048 ], [ 3.113399185573357, 36.68600942970653 ], [ 3.114139401540865, 36.68600942970653 ], [ 3.114139401540865, 36.686468809864046 ], [ 3.114879617508374, 36.686468809864046 ], [ 3.114879617508374, 36.68692818727758 ], [ 3.115619833475882, 36.68692818727758 ], [ 3.115619833475882, 36.687387561947112 ], [ 3.11636004944339, 36.687387561947112 ], [ 3.11636004944339, 36.687846933872635 ], [ 3.117100265410898, 36.687846933872635 ], [ 3.117100265410898, 36.688306303054155 ], [ 3.117840481378407, 36.688306303054155 ], [ 3.117840481378407, 36.688765669491623 ], [ 3.118580697345915, 36.688765669491623 ], [ 3.118580697345915, 36.689225033185046 ], [ 3.119320913313424, 36.689225033185046 ], [ 3.119320913313424, 36.689684394134424 ], [ 3.122281777183456, 36.689684394134424 ], [ 3.122281777183456, 36.689225033185046 ], [ 3.123762209118474, 36.689225033185046 ], [ 3.123762209118474, 36.688765669491623 ], [ 3.12524264105349, 36.688765669491623 ], [ 3.12524264105349, 36.688306303054155 ] ] ], [ [ [ 0.883128475470746, 41.513292750715252 ], [ 0.883868691438254, 41.513292750715252 ], [ 0.883868691438254, 41.512863797365782 ], [ 0.885349123373271, 41.512863797365782 ], [ 0.885349123373271, 41.512005882139263 ], [ 0.886089339340779, 41.512005882139263 ], [ 0.886089339340779, 41.510718987980589 ], [ 0.886829555308287, 41.510718987980589 ], [ 0.886829555308287, 41.509432068239363 ], [ 0.887569771275796, 41.509432068239363 ], [ 0.887569771275796, 41.508145122915721 ], [ 0.888309987243304, 41.508145122915721 ], [ 0.888309987243304, 41.506858152009826 ], [ 0.889050203210812, 41.506858152009826 ], [ 0.889050203210812, 41.505142151007568 ], [ 0.889790419178321, 41.505142151007568 ], [ 0.889790419178321, 41.502997085799933 ], [ 0.889050203210812, 41.502997085799933 ], [ 0.889050203210812, 41.501280982470398 ], [ 0.888309987243304, 41.501280982470398 ], [ 0.888309987243304, 41.499993875128112 ], [ 0.887569771275796, 41.499993875128112 ], [ 0.887569771275796, 41.499564833662596 ], [ 0.886829555308287, 41.499564833662596 ], [ 0.886829555308287, 41.499135789354717 ], [ 0.886089339340779, 41.499135789354717 ], [ 0.886089339340779, 41.498706742204462 ], [ 0.885349123373271, 41.498706742204462 ], [ 0.885349123373271, 41.498277692211857 ], [ 0.884608907405763, 41.498277692211857 ], [ 0.884608907405763, 41.49784863937689 ], [ 0.883868691438254, 41.49784863937689 ], [ 0.883868691438254, 41.497419583699582 ], [ 0.883128475470746, 41.497419583699582 ], [ 0.883128475470746, 41.496990525179918 ], [ 0.882388259503237, 41.496990525179918 ], [ 0.882388259503237, 41.497419583699582 ], [ 0.880907827568221, 41.497419583699582 ], [ 0.880907827568221, 41.49784863937689 ], [ 0.879427395633204, 41.49784863937689 ], [ 0.879427395633204, 41.498277692211857 ], [ 0.877206747730679, 41.498277692211857 ], [ 0.877206747730679, 41.498706742204462 ], [ 0.875726315795662, 41.498706742204462 ], [ 0.875726315795662, 41.499135789354717 ], [ 0.874245883860646, 41.499135789354717 ], [ 0.874245883860646, 41.501280982470398 ], [ 0.873505667893138, 41.501280982470398 ], [ 0.873505667893138, 41.503855120410257 ], [ 0.872765451925629, 41.503855120410257 ], [ 0.872765451925629, 41.506429156022932 ], [ 0.873505667893138, 41.506429156022932 ], [ 0.873505667893138, 41.507716135456235 ], [ 0.874245883860646, 41.507716135456235 ], [ 0.874245883860646, 41.509003089307306 ], [ 0.874986099828154, 41.509003089307306 ], [ 0.874986099828154, 41.509861044328936 ], [ 0.875726315795662, 41.509861044328936 ], [ 0.875726315795662, 41.511147955542661 ], [ 0.876466531763171, 41.511147955542661 ], [ 0.876466531763171, 41.512005882139263 ], [ 0.877206747730679, 41.512005882139263 ], [ 0.877206747730679, 41.512863797365782 ], [ 0.878687179665696, 41.512863797365782 ], [ 0.878687179665696, 41.513292750715252 ], [ 0.879427395633204, 41.513292750715252 ], [ 0.879427395633204, 41.513721701222174 ], [ 0.880907827568221, 41.513721701222174 ], [ 0.880907827568221, 41.51415064888657 ], [ 0.881648043535729, 41.51415064888657 ], [ 0.881648043535729, 41.513721701222174 ], [ 0.883128475470746, 41.513721701222174 ], [ 0.883128475470746, 41.513292750715252 ] ] ] ] } }
]
}
