{
"type": "FeatureCollection",
"name": "spain_fires_nrt_ba",
"crs": { "type": "name", "properties": { "name": "urn:ogc:def:crs:OGC:1.3:CRS84" } },
"features": [
{ "type": "Feature", "properties": { }, "geometry": { "type": "MultiPolygon", "coordinates": [ [ [ [ -0.277530161582322, 35.82543435656892 ], [ -0.277530161582322, 35.824969885320684 ], [ -0.276789945614814, 35.824969885320684 ], [ -0.276789945614814, 35.824505411354338 ], [ -0.276049729647306, 35.824505411354338 ], [ -0.276049729647306, 35.824040934669902 ], [ -0.274569297712289, 35.824040934669902 ], [ -0.274569297712289, 35.8235764552674 ], [ -0.272348649809764, 35.8235764552674 ], [ -0.272348649809764, 35.82311197314683 ], [ -0.270128001907239, 35.82311197314683 ], [ -0.270128001907239, 35.822647488308213 ], [ -0.267167138037206, 35.822647488308213 ], [ -0.267167138037206, 35.822183000751579 ], [ -0.264946490134681, 35.822183000751579 ], [ -0.264946490134681, 35.821718510476927 ], [ -0.262725842232156, 35.821718510476927 ], [ -0.262725842232156, 35.821254017484272 ], [ -0.260505194329631, 35.821254017484272 ], [ -0.260505194329631, 35.820789521773627 ], [ -0.259764978362122, 35.820789521773627 ], [ -0.259764978362122, 35.819860522198454 ], [ -0.259024762394614, 35.819860522198454 ], [ -0.259024762394614, 35.81939601833394 ], [ -0.258284546427106, 35.81939601833394 ], [ -0.258284546427106, 35.818467002451158 ], [ -0.257544330459597, 35.818467002451158 ], [ -0.257544330459597, 35.818002490432896 ], [ -0.256804114492089, 35.818002490432896 ], [ -0.256804114492089, 35.81753797569678 ], [ -0.253843250622056, 35.81753797569678 ], [ -0.253843250622056, 35.817073458242774 ], [ -0.252362818687039, 35.817073458242774 ], [ -0.252362818687039, 35.816608938070921 ], [ -0.251622602719531, 35.816608938070921 ], [ -0.251622602719531, 35.816144415181228 ], [ -0.250882386752022, 35.816144415181228 ], [ -0.250882386752022, 35.815215361248384 ], [ -0.250142170784514, 35.815215361248384 ], [ -0.250142170784514, 35.814750830205249 ], [ -0.249401954817006, 35.814750830205249 ], [ -0.249401954817006, 35.814286296444358 ], [ -0.248661738849497, 35.814286296444358 ], [ -0.248661738849497, 35.813357220769255 ], [ -0.247921522881989, 35.813357220769255 ], [ -0.247921522881989, 35.812892678855093 ], [ -0.247181306914481, 35.812892678855093 ], [ -0.247181306914481, 35.812428134223211 ], [ -0.244220443044447, 35.812428134223211 ], [ -0.244220443044447, 35.811963586873631 ], [ -0.243480227076939, 35.811963586873631 ], [ -0.243480227076939, 35.812428134223211 ], [ -0.242740011109431, 35.812428134223211 ], [ -0.242740011109431, 35.813357220769255 ], [ -0.241999795141922, 35.813357220769255 ], [ -0.241999795141922, 35.814286296444358 ], [ -0.241259579174414, 35.814286296444358 ], [ -0.241259579174414, 35.814750830205249 ], [ -0.239779147239397, 35.814750830205249 ], [ -0.239779147239397, 35.815215361248384 ], [ -0.238298715304381, 35.815215361248384 ], [ -0.238298715304381, 35.815679889573708 ], [ -0.237558499336872, 35.815679889573708 ], [ -0.237558499336872, 35.816144415181228 ], [ -0.235337851434347, 35.816144415181228 ], [ -0.235337851434347, 35.815679889573708 ], [ -0.233117203531822, 35.815679889573708 ], [ -0.233117203531822, 35.815215361248384 ], [ -0.231636771596806, 35.815215361248384 ], [ -0.231636771596806, 35.814750830205249 ], [ -0.230896555629297, 35.814750830205249 ], [ -0.230896555629297, 35.813357220769255 ], [ -0.230156339661789, 35.813357220769255 ], [ -0.230156339661789, 35.812428134223211 ], [ -0.229416123694281, 35.812428134223211 ], [ -0.229416123694281, 35.811034484021377 ], [ -0.228675907726772, 35.811034484021377 ], [ -0.228675907726772, 35.810105370298473 ], [ -0.227935691759264, 35.810105370298473 ], [ -0.227935691759264, 35.809176245705025 ], [ -0.227195475791756, 35.809176245705025 ], [ -0.227195475791756, 35.80731796390701 ], [ -0.227935691759264, 35.80731796390701 ], [ -0.227935691759264, 35.805924224024189 ], [ -0.228675907726772, 35.805924224024189 ], [ -0.228675907726772, 35.804530459683846 ], [ -0.229416123694281, 35.804530459683846 ], [ -0.229416123694281, 35.803601269869652 ], [ -0.230156339661789, 35.803601269869652 ], [ -0.230156339661789, 35.803136670886389 ], [ -0.230896555629297, 35.803136670886389 ], [ -0.230896555629297, 35.802672069185711 ], [ -0.231636771596806, 35.802672069185711 ], [ -0.231636771596806, 35.80220746476764 ], [ -0.232376987564314, 35.80220746476764 ], [ -0.232376987564314, 35.801742857632192 ], [ -0.237558499336872, 35.801742857632192 ], [ -0.237558499336872, 35.80220746476764 ], [ -0.238298715304381, 35.80220746476764 ], [ -0.238298715304381, 35.802672069185711 ], [ -0.239038931271889, 35.802672069185711 ], [ -0.239038931271889, 35.800813635209181 ], [ -0.239779147239397, 35.800813635209181 ], [ -0.239779147239397, 35.799884401916799 ], [ -0.240519363206906, 35.799884401916799 ], [ -0.240519363206906, 35.799419781194644 ], [ -0.241259579174414, 35.799419781194644 ], [ -0.241259579174414, 35.798955157755167 ], [ -0.242740011109431, 35.798955157755167 ], [ -0.242740011109431, 35.798490531598425 ], [ -0.245700874979464, 35.798490531598425 ], [ -0.245700874979464, 35.798955157755167 ], [ -0.247921522881989, 35.798955157755167 ], [ -0.247921522881989, 35.799419781194644 ], [ -0.249401954817006, 35.799419781194644 ], [ -0.249401954817006, 35.799884401916799 ], [ -0.250882386752022, 35.799884401916799 ], [ -0.250882386752022, 35.799419781194644 ], [ -0.252362818687039, 35.799419781194644 ], [ -0.252362818687039, 35.798955157755167 ], [ -0.253843250622056, 35.798955157755167 ], [ -0.253843250622056, 35.798490531598425 ], [ -0.255323682557072, 35.798490531598425 ], [ -0.255323682557072, 35.798025902724412 ], [ -0.261245410297139, 35.798025902724412 ], [ -0.261245410297139, 35.798490531598425 ], [ -0.266426922069697, 35.798490531598425 ], [ -0.266426922069697, 35.799419781194644 ], [ -0.267167138037206, 35.799419781194644 ], [ -0.267167138037206, 35.799884401916799 ], [ -0.267907354004714, 35.799884401916799 ], [ -0.267907354004714, 35.800349019921647 ], [ -0.268647569972222, 35.800349019921647 ], [ -0.268647569972222, 35.801278247779365 ], [ -0.269387785939731, 35.801278247779365 ], [ -0.269387785939731, 35.801742857632192 ], [ -0.270128001907239, 35.801742857632192 ], [ -0.270128001907239, 35.80220746476764 ], [ -0.270868217874747, 35.80220746476764 ], [ -0.270868217874747, 35.803136670886389 ], [ -0.271608433842256, 35.803136670886389 ], [ -0.271608433842256, 35.803601269869652 ], [ -0.272348649809764, 35.803601269869652 ], [ -0.272348649809764, 35.804530459683846 ], [ -0.273088865777272, 35.804530459683846 ], [ -0.273088865777272, 35.804995050514783 ], [ -0.273829081744781, 35.804995050514783 ], [ -0.273829081744781, 35.804065866135467 ], [ -0.274569297712289, 35.804065866135467 ], [ -0.274569297712289, 35.803136670886389 ], [ -0.275309513679797, 35.803136670886389 ], [ -0.275309513679797, 35.80220746476764 ], [ -0.276049729647306, 35.80220746476764 ], [ -0.276049729647306, 35.801742857632192 ], [ -0.276789945614814, 35.801742857632192 ], [ -0.276789945614814, 35.801278247779365 ], [ -0.278270377549831, 35.801278247779365 ], [ -0.278270377549831, 35.800813635209181 ], [ -0.279010593517339, 35.800813635209181 ], [ -0.279010593517339, 35.800349019921647 ], [ -0.280491025452356, 35.800349019921647 ], [ -0.280491025452356, 35.800813635209181 ], [ -0.281231241419864, 35.800813635209181 ], [ -0.281231241419864, 35.801278247779365 ], [ -0.282711673354881, 35.801278247779365 ], [ -0.282711673354881, 35.801742857632192 ], [ -0.283451889322389, 35.801742857632192 ], [ -0.283451889322389, 35.80220746476764 ], [ -0.284192105289897, 35.80220746476764 ], [ -0.284192105289897, 35.804065866135467 ], [ -0.284932321257406, 35.804065866135467 ], [ -0.284932321257406, 35.806388806702657 ], [ -0.285672537224914, 35.806388806702657 ], [ -0.285672537224914, 35.808711679331893 ], [ -0.286412753192422, 35.808711679331893 ], [ -0.286412753192422, 35.811034484021377 ], [ -0.287152969159931, 35.811034484021377 ], [ -0.287152969159931, 35.821254017484272 ], [ -0.286412753192422, 35.821254017484272 ], [ -0.286412753192422, 35.822183000751579 ], [ -0.285672537224914, 35.822183000751579 ], [ -0.285672537224914, 35.822647488308213 ], [ -0.284932321257406, 35.822647488308213 ], [ -0.284932321257406, 35.82311197314683 ], [ -0.284192105289897, 35.82311197314683 ], [ -0.284192105289897, 35.8235764552674 ], [ -0.283451889322389, 35.8235764552674 ], [ -0.283451889322389, 35.824040934669902 ], [ -0.282711673354881, 35.824040934669902 ], [ -0.282711673354881, 35.824505411354338 ], [ -0.281971457387372, 35.824505411354338 ], [ -0.281971457387372, 35.824969885320684 ], [ -0.281231241419864, 35.824969885320684 ], [ -0.281231241419864, 35.82543435656892 ], [ -0.280491025452356, 35.82543435656892 ], [ -0.280491025452356, 35.825898825099053 ], [ -0.278270377549831, 35.825898825099053 ], [ -0.278270377549831, 35.82543435656892 ], [ -0.277530161582322, 35.82543435656892 ] ] ], [ [ [ 2.889113747418332, 36.610633967666281 ], [ 2.88985396338584, 36.610633967666281 ], [ 2.88985396338584, 36.61017413493235 ], [ 2.890594179353348, 36.61017413493235 ], [ 2.890594179353348, 36.606495374357721 ], [ 2.891334395320857, 36.606495374357721 ], [ 2.891334395320857, 36.605115793904091 ], [ 2.892814827255873, 36.605115793904091 ], [ 2.892814827255873, 36.605575656796958 ], [ 2.893555043223381, 36.605575656796958 ], [ 2.893555043223381, 36.606035516948175 ], [ 2.895035475158398, 36.606035516948175 ], [ 2.895035475158398, 36.605575656796958 ], [ 2.895775691125907, 36.605575656796958 ], [ 2.895775691125907, 36.605115793904091 ], [ 2.896515907093415, 36.605115793904091 ], [ 2.896515907093415, 36.604655928269572 ], [ 2.897256123060923, 36.604655928269572 ], [ 2.897256123060923, 36.604196059893432 ], [ 2.897996339028431, 36.604196059893432 ], [ 2.897996339028431, 36.603736188775677 ], [ 2.89873655499594, 36.603736188775677 ], [ 2.89873655499594, 36.603276314916315 ], [ 2.899476770963448, 36.603276314916315 ], [ 2.899476770963448, 36.602816438315351 ], [ 2.900216986930956, 36.602816438315351 ], [ 2.900216986930956, 36.602356558972815 ], [ 2.901697418865973, 36.602356558972815 ], [ 2.901697418865973, 36.601896676888721 ], [ 2.902437634833482, 36.601896676888721 ], [ 2.902437634833482, 36.600057121136963 ], [ 2.90317785080099, 36.600057121136963 ], [ 2.90317785080099, 36.598217521521264 ], [ 2.903918066768498, 36.598217521521264 ], [ 2.903918066768498, 36.597757614763687 ], [ 2.90317785080099, 36.597757614763687 ], [ 2.90317785080099, 36.596377878042439 ], [ 2.902437634833482, 36.596377878042439 ], [ 2.902437634833482, 36.595458039854627 ], [ 2.901697418865973, 36.595458039854627 ], [ 2.901697418865973, 36.594078262012708 ], [ 2.900957202898465, 36.594078262012708 ], [ 2.900957202898465, 36.593158396411461 ], [ 2.900216986930956, 36.593158396411461 ], [ 2.900216986930956, 36.592698459498877 ], [ 2.899476770963448, 36.592698459498877 ], [ 2.899476770963448, 36.593158396411461 ], [ 2.896515907093415, 36.593158396411461 ], [ 2.896515907093415, 36.593618330582743 ], [ 2.89429525919089, 36.593618330582743 ], [ 2.89429525919089, 36.594078262012708 ], [ 2.891334395320857, 36.594078262012708 ], [ 2.891334395320857, 36.594538190701364 ], [ 2.889113747418332, 36.594538190701364 ], [ 2.889113747418332, 36.596377878042439 ], [ 2.888373531450823, 36.596377878042439 ], [ 2.888373531450823, 36.598217521521264 ], [ 2.887633315483315, 36.598217521521264 ], [ 2.887633315483315, 36.598677425537396 ], [ 2.888373531450823, 36.598677425537396 ], [ 2.888373531450823, 36.600976904495894 ], [ 2.889113747418332, 36.600976904495894 ], [ 2.889113747418332, 36.601896676888721 ], [ 2.888373531450823, 36.601896676888721 ], [ 2.888373531450823, 36.601436792063076 ], [ 2.88541266758079, 36.601436792063076 ], [ 2.88541266758079, 36.600976904495894 ], [ 2.886152883548299, 36.600976904495894 ], [ 2.886152883548299, 36.599597225345263 ], [ 2.886893099515807, 36.599597225345263 ], [ 2.886893099515807, 36.597757614763687 ], [ 2.887633315483315, 36.597757614763687 ], [ 2.887633315483315, 36.596377878042439 ], [ 2.886893099515807, 36.596377878042439 ], [ 2.886893099515807, 36.594078262012708 ], [ 2.886152883548299, 36.594078262012708 ], [ 2.886152883548299, 36.592238519845012 ], [ 2.88541266758079, 36.592238519845012 ], [ 2.88541266758079, 36.591318632313481 ], [ 2.884672451613281, 36.591318632313481 ], [ 2.884672451613281, 36.590858684435844 ], [ 2.883932235645773, 36.590858684435844 ], [ 2.883932235645773, 36.590398733816969 ], [ 2.883192019678265, 36.590398733816969 ], [ 2.883192019678265, 36.58993878045689 ], [ 2.882451803710757, 36.58993878045689 ], [ 2.882451803710757, 36.589478824355602 ], [ 2.88097137177574, 36.589478824355602 ], [ 2.88097137177574, 36.589018865513104 ], [ 2.880231155808231, 36.589018865513104 ], [ 2.880231155808231, 36.588558903929453 ], [ 2.879490939840723, 36.588558903929453 ], [ 2.879490939840723, 36.588098939604613 ], [ 2.878010507905707, 36.588098939604613 ], [ 2.878010507905707, 36.588558903929453 ], [ 2.875049644035673, 36.588558903929453 ], [ 2.875049644035673, 36.589018865513104 ], [ 2.874309428068165, 36.589018865513104 ], [ 2.874309428068165, 36.589478824355602 ], [ 2.873569212100656, 36.589478824355602 ], [ 2.873569212100656, 36.58993878045689 ], [ 2.872828996133148, 36.58993878045689 ], [ 2.872828996133148, 36.590398733816969 ], [ 2.87208878016564, 36.590398733816969 ], [ 2.87208878016564, 36.590858684435844 ], [ 2.871348564198132, 36.590858684435844 ], [ 2.871348564198132, 36.591318632313481 ], [ 2.870608348230624, 36.591318632313481 ], [ 2.870608348230624, 36.591778577449873 ], [ 2.869868132263115, 36.591778577449873 ], [ 2.869868132263115, 36.592698459498877 ], [ 2.869127916295606, 36.592698459498877 ], [ 2.869127916295606, 36.594998116648675 ], [ 2.868387700328098, 36.594998116648675 ], [ 2.868387700328098, 36.597297705264687 ], [ 2.86764748436059, 36.597297705264687 ], [ 2.86764748436059, 36.600976904495894 ], [ 2.868387700328098, 36.600976904495894 ], [ 2.868387700328098, 36.602816438315351 ], [ 2.869127916295606, 36.602816438315351 ], [ 2.869127916295606, 36.604655928269572 ], [ 2.869868132263115, 36.604655928269572 ], [ 2.869868132263115, 36.605115793904091 ], [ 2.870608348230624, 36.605115793904091 ], [ 2.870608348230624, 36.605575656796958 ], [ 2.87208878016564, 36.605575656796958 ], [ 2.87208878016564, 36.606035516948175 ], [ 2.873569212100656, 36.606035516948175 ], [ 2.873569212100656, 36.606495374357721 ], [ 2.87653007597069, 36.606495374357721 ], [ 2.87653007597069, 36.606035516948175 ], [ 2.878010507905707, 36.606035516948175 ], [ 2.878010507905707, 36.605575656796958 ], [ 2.878750723873215, 36.605575656796958 ], [ 2.878750723873215, 36.605115793904091 ], [ 2.880231155808231, 36.605115793904091 ], [ 2.880231155808231, 36.604655928269572 ], [ 2.88097137177574, 36.604655928269572 ], [ 2.88097137177574, 36.605575656796958 ], [ 2.880231155808231, 36.605575656796958 ], [ 2.880231155808231, 36.607415080951746 ], [ 2.88097137177574, 36.607415080951746 ], [ 2.88097137177574, 36.608794620279923 ], [ 2.881711587743248, 36.608794620279923 ], [ 2.881711587743248, 36.61017413493235 ], [ 2.882451803710757, 36.61017413493235 ], [ 2.882451803710757, 36.610633967666281 ], [ 2.883192019678265, 36.610633967666281 ], [ 2.883192019678265, 36.611093797658391 ], [ 2.884672451613281, 36.611093797658391 ], [ 2.884672451613281, 36.611553624908673 ], [ 2.88541266758079, 36.611553624908673 ], [ 2.88541266758079, 36.612013449417155 ], [ 2.886893099515807, 36.612013449417155 ], [ 2.886893099515807, 36.611553624908673 ], [ 2.887633315483315, 36.611553624908673 ], [ 2.887633315483315, 36.611093797658391 ], [ 2.889113747418332, 36.611093797658391 ], [ 2.889113747418332, 36.610633967666281 ] ] ], [ [ [ -8.080886891055185, 41.62600878447391 ], [ -8.078666243152659, 41.62600878447391 ], [ -8.078666243152659, 41.625580578888915 ], [ -8.076445595250133, 41.625580578888915 ], [ -8.076445595250133, 41.625152370460036 ], [ -8.074965163315117, 41.625152370460036 ], [ -8.074965163315117, 41.623867728110199 ], [ -8.074224947347609, 41.623867728110199 ], [ -8.074224947347609, 41.621726600650035 ], [ -8.0734847313801, 41.621726600650035 ], [ -8.0734847313801, 41.619157153851425 ], [ -8.072744515412591, 41.619157153851425 ], [ -8.072744515412591, 41.618728902764992 ], [ -8.0734847313801, 41.618728902764992 ], [ -8.0734847313801, 41.616587604675956 ], [ -8.074224947347609, 41.616587604675956 ], [ -8.074224947347609, 41.614874515016808 ], [ -8.074965163315117, 41.614874515016808 ], [ -8.074965163315117, 41.613161379857637 ], [ -8.075705379282624, 41.613161379857637 ], [ -8.075705379282624, 41.611019896924738 ], [ -8.076445595250133, 41.611019896924738 ], [ -8.076445595250133, 41.609306659391692 ], [ -8.077185811217642, 41.609306659391692 ], [ -8.077185811217642, 41.60802170138318 ], [ -8.079406459120168, 41.60802170138318 ], [ -8.079406459120168, 41.607593376359667 ], [ -8.081627107022694, 41.607593376359667 ], [ -8.081627107022694, 41.607165048492476 ], [ -8.083847754925218, 41.607165048492476 ], [ -8.083847754925218, 41.60802170138318 ], [ -8.084587970892727, 41.60802170138318 ], [ -8.084587970892727, 41.608878342899196 ], [ -8.085328186860234, 41.608878342899196 ], [ -8.085328186860234, 41.610163283845608 ], [ -8.086068402827742, 41.610163283845608 ], [ -8.086068402827742, 41.611019896924738 ], [ -8.086808618795251, 41.611019896924738 ], [ -8.086808618795251, 41.611876498629051 ], [ -8.088289050730268, 41.611876498629051 ], [ -8.088289050730268, 41.612304795215636 ], [ -8.089029266697777, 41.612304795215636 ], [ -8.089029266697777, 41.612733088958493 ], [ -8.089769482665284, 41.612733088958493 ], [ -8.089769482665284, 41.613589667913033 ], [ -8.090509698632792, 41.613589667913033 ], [ -8.090509698632792, 41.614446235492629 ], [ -8.091249914600301, 41.614446235492629 ], [ -8.091249914600301, 41.6157310655339 ], [ -8.09199013056781, 41.6157310655339 ], [ -8.09199013056781, 41.616587604675956 ], [ -8.092730346535317, 41.616587604675956 ], [ -8.092730346535317, 41.61744413244292 ], [ -8.093470562502825, 41.61744413244292 ], [ -8.093470562502825, 41.622154831829747 ], [ -8.092730346535317, 41.622154831829747 ], [ -8.092730346535317, 41.624295945070664 ], [ -8.09199013056781, 41.624295945070664 ], [ -8.09199013056781, 41.624724159187288 ], [ -8.090509698632792, 41.624724159187288 ], [ -8.090509698632792, 41.625152370460036 ], [ -8.089769482665284, 41.625152370460036 ], [ -8.089769482665284, 41.625580578888915 ], [ -8.089029266697777, 41.625580578888915 ], [ -8.089029266697777, 41.62600878447391 ], [ -8.087548834762758, 41.62600878447391 ], [ -8.087548834762758, 41.62643698721503 ], [ -8.086808618795251, 41.62643698721503 ], [ -8.086808618795251, 41.626865187112266 ], [ -8.083107538957709, 41.626865187112266 ], [ -8.083107538957709, 41.62643698721503 ], [ -8.080886891055185, 41.62643698721503 ], [ -8.080886891055185, 41.62600878447391 ] ] ], [ [ [ 2.291759461639106, 42.826001010951565 ], [ 2.293980109541631, 42.826001010951565 ], [ 2.293980109541631, 42.825580868338399 ], [ 2.295460541476648, 42.825580868338399 ], [ 2.295460541476648, 42.825160722869775 ], [ 2.296200757444156, 42.825160722869775 ], [ 2.296200757444156, 42.824740574545672 ], [ 2.296940973411664, 42.824740574545672 ], [ 2.296940973411664, 42.823900269331055 ], [ 2.297681189379173, 42.823900269331055 ], [ 2.297681189379173, 42.823480112440542 ], [ 2.298421405346681, 42.823480112440542 ], [ 2.298421405346681, 42.823059952694585 ], [ 2.299161621314189, 42.823059952694585 ], [ 2.299161621314189, 42.822219624636283 ], [ 2.299901837281698, 42.822219624636283 ], [ 2.299901837281698, 42.821799456323959 ], [ 2.300642053249205, 42.821799456323959 ], [ 2.300642053249205, 42.820538934254316 ], [ 2.301382269216714, 42.820538934254316 ], [ 2.301382269216714, 42.818858198185353 ], [ 2.302122485184223, 42.818858198185353 ], [ 2.302122485184223, 42.817177416429587 ], [ 2.301382269216714, 42.817177416429587 ], [ 2.301382269216714, 42.816337008419225 ], [ 2.300642053249205, 42.816337008419225 ], [ 2.300642053249205, 42.815076374988159 ], [ 2.299901837281698, 42.815076374988159 ], [ 2.299901837281698, 42.813815715858517 ], [ 2.299161621314189, 42.813815715858517 ], [ 2.299161621314189, 42.811294320503883 ], [ 2.299901837281698, 42.811294320503883 ], [ 2.299901837281698, 42.809613333160087 ], [ 2.299161621314189, 42.809613333160087 ], [ 2.299161621314189, 42.807932300130616 ], [ 2.298421405346681, 42.807932300130616 ], [ 2.298421405346681, 42.806671495377422 ], [ 2.297681189379173, 42.806671495377422 ], [ 2.297681189379173, 42.806251221415685 ], [ 2.296940973411664, 42.806251221415685 ], [ 2.296940973411664, 42.80583094459864 ], [ 2.296200757444156, 42.80583094459864 ], [ 2.296200757444156, 42.805410664926249 ], [ 2.294720325509139, 42.805410664926249 ], [ 2.294720325509139, 42.804990382398529 ], [ 2.293980109541631, 42.804990382398529 ], [ 2.293980109541631, 42.804570097015507 ], [ 2.293239893574123, 42.804570097015507 ], [ 2.293239893574123, 42.804149808777169 ], [ 2.292499677606614, 42.804149808777169 ], [ 2.292499677606614, 42.803729517683514 ], [ 2.291019245671597, 42.803729517683514 ], [ 2.291019245671597, 42.803309223734544 ], [ 2.290279029704089, 42.803309223734544 ], [ 2.290279029704089, 42.802888926930272 ], [ 2.289538813736581, 42.802888926930272 ], [ 2.289538813736581, 42.802468627270699 ], [ 2.288798597769073, 42.802468627270699 ], [ 2.288798597769073, 42.802048324755823 ], [ 2.285097517931531, 42.802048324755823 ], [ 2.285097517931531, 42.802468627270699 ], [ 2.281396438093989, 42.802468627270699 ], [ 2.281396438093989, 42.802888926930272 ], [ 2.278435574223955, 42.802888926930272 ], [ 2.278435574223955, 42.803309223734544 ], [ 2.277695358256447, 42.803309223734544 ], [ 2.277695358256447, 42.803729517683514 ], [ 2.276955142288939, 42.803729517683514 ], [ 2.276955142288939, 42.804149808777169 ], [ 2.276214926321431, 42.804149808777169 ], [ 2.276214926321431, 42.804570097015507 ], [ 2.275474710353923, 42.804570097015507 ], [ 2.275474710353923, 42.804990382398529 ], [ 2.274734494386414, 42.804990382398529 ], [ 2.274734494386414, 42.805410664926249 ], [ 2.273994278418905, 42.805410664926249 ], [ 2.273994278418905, 42.80583094459864 ], [ 2.272513846483889, 42.80583094459864 ], [ 2.272513846483889, 42.805410664926249 ], [ 2.271773630516381, 42.805410664926249 ], [ 2.271773630516381, 42.804570097015507 ], [ 2.266592118743822, 42.804570097015507 ], [ 2.266592118743822, 42.804990382398529 ], [ 2.265851902776314, 42.804990382398529 ], [ 2.265851902776314, 42.80583094459864 ], [ 2.265111686808806, 42.80583094459864 ], [ 2.265111686808806, 42.806671495377422 ], [ 2.264371470841298, 42.806671495377422 ], [ 2.264371470841298, 42.807091766483822 ], [ 2.263631254873789, 42.807091766483822 ], [ 2.263631254873789, 42.812134797043598 ], [ 2.264371470841298, 42.812134797043598 ], [ 2.264371470841298, 42.812975262161814 ], [ 2.265111686808806, 42.812975262161814 ], [ 2.265111686808806, 42.813395490437856 ], [ 2.265851902776314, 42.813395490437856 ], [ 2.265851902776314, 42.814235938423778 ], [ 2.266592118743822, 42.814235938423778 ], [ 2.266592118743822, 42.815076374988159 ], [ 2.265851902776314, 42.815076374988159 ], [ 2.265851902776314, 42.818438007029542 ], [ 2.266592118743822, 42.818438007029542 ], [ 2.266592118743822, 42.820118754520223 ], [ 2.267332334711331, 42.820118754520223 ], [ 2.267332334711331, 42.820959111132971 ], [ 2.268812766646347, 42.820959111132971 ], [ 2.268812766646347, 42.821379285156191 ], [ 2.270293198581364, 42.821379285156191 ], [ 2.270293198581364, 42.821799456323959 ], [ 2.271773630516381, 42.821799456323959 ], [ 2.271773630516381, 42.822639790093156 ], [ 2.272513846483889, 42.822639790093156 ], [ 2.272513846483889, 42.823059952694585 ], [ 2.273254062451397, 42.823059952694585 ], [ 2.273254062451397, 42.823900269331055 ], [ 2.273994278418905, 42.823900269331055 ], [ 2.273994278418905, 42.824740574545672 ], [ 2.275474710353923, 42.824740574545672 ], [ 2.275474710353923, 42.825160722869775 ], [ 2.277695358256447, 42.825160722869775 ], [ 2.277695358256447, 42.825580868338399 ], [ 2.280656222126481, 42.825580868338399 ], [ 2.280656222126481, 42.826001010951565 ], [ 2.282876870029006, 42.826001010951565 ], [ 2.282876870029006, 42.826421150709237 ], [ 2.285097517931531, 42.826421150709237 ], [ 2.285097517931531, 42.826841287611437 ], [ 2.290279029704089, 42.826841287611437 ], [ 2.290279029704089, 42.826421150709237 ], [ 2.291759461639106, 42.826421150709237 ], [ 2.291759461639106, 42.826001010951565 ] ] ], [ [ [ 0.462685805926012, 42.907035074093123 ], [ 0.462685805926012, 42.906615482645627 ], [ 0.464166237861029, 42.906615482645627 ], [ 0.464166237861029, 42.90619588834204 ], [ 0.464906453828537, 42.90619588834204 ], [ 0.464906453828537, 42.905776291182399 ], [ 0.466386885763553, 42.905776291182399 ], [ 0.466386885763553, 42.905356691166666 ], [ 0.467127101731062, 42.905356691166666 ], [ 0.467127101731062, 42.904937088294879 ], [ 0.46786731769857, 42.904937088294879 ], [ 0.46786731769857, 42.904097873983098 ], [ 0.468607533666079, 42.904097873983098 ], [ 0.468607533666079, 42.901999788222632 ], [ 0.469347749633587, 42.901999788222632 ], [ 0.469347749633587, 42.899901631061049 ], [ 0.468607533666079, 42.899901631061049 ], [ 0.468607533666079, 42.896964091081692 ], [ 0.46786731769857, 42.896964091081692 ], [ 0.46786731769857, 42.894026411157938 ], [ 0.467127101731062, 42.894026411157938 ], [ 0.467127101731062, 42.893606731173428 ], [ 0.466386885763553, 42.893606731173428 ], [ 0.466386885763553, 42.89318704833294 ], [ 0.464906453828537, 42.89318704833294 ], [ 0.464906453828537, 42.892767362636476 ], [ 0.464166237861029, 42.892767362636476 ], [ 0.464166237861029, 42.892347674084029 ], [ 0.461205373990995, 42.892347674084029 ], [ 0.461205373990995, 42.892767362636476 ], [ 0.45898472608847, 42.892767362636476 ], [ 0.45898472608847, 42.89318704833294 ], [ 0.456764078185945, 42.89318704833294 ], [ 0.456764078185945, 42.893606731173428 ], [ 0.45454343028342, 42.893606731173428 ], [ 0.45454343028342, 42.894026411157938 ], [ 0.453062998348404, 42.894026411157938 ], [ 0.453062998348404, 42.895285433975523 ], [ 0.452322782380895, 42.895285433975523 ], [ 0.452322782380895, 42.896124768240604 ], [ 0.451582566413387, 42.896124768240604 ], [ 0.451582566413387, 42.896964091081692 ], [ 0.450842350445879, 42.896964091081692 ], [ 0.450842350445879, 42.898223053923232 ], [ 0.45010213447837, 42.898223053923232 ], [ 0.45010213447837, 42.899062348204183 ], [ 0.449361918510862, 42.899062348204183 ], [ 0.449361918510862, 42.900740902493787 ], [ 0.45010213447837, 42.900740902493787 ], [ 0.45010213447837, 42.901999788222632 ], [ 0.450842350445879, 42.901999788222632 ], [ 0.450842350445879, 42.903258648247061 ], [ 0.451582566413387, 42.903258648247061 ], [ 0.451582566413387, 42.904517482567016 ], [ 0.452322782380895, 42.904517482567016 ], [ 0.452322782380895, 42.905776291182399 ], [ 0.453062998348404, 42.905776291182399 ], [ 0.453062998348404, 42.90619588834204 ], [ 0.453803214315912, 42.90619588834204 ], [ 0.453803214315912, 42.906615482645627 ], [ 0.455283646250928, 42.906615482645627 ], [ 0.455283646250928, 42.907035074093123 ], [ 0.456023862218437, 42.907035074093123 ], [ 0.456023862218437, 42.907454662684536 ], [ 0.457504294153454, 42.907454662684536 ], [ 0.457504294153454, 42.907874248419873 ], [ 0.460465158023487, 42.907874248419873 ], [ 0.460465158023487, 42.907454662684536 ], [ 0.461945589958504, 42.907454662684536 ], [ 0.461945589958504, 42.907035074093123 ], [ 0.462685805926012, 42.907035074093123 ] ] ], [ [ [ -0.531424238437681, 42.935979986366618 ], [ -0.531424238437681, 42.935560591995902 ], [ -0.530684022470173, 42.935560591995902 ], [ -0.530684022470173, 42.935141194768889 ], [ -0.529943806502664, 42.935141194768889 ], [ -0.529943806502664, 42.934721794685593 ], [ -0.529203590535156, 42.934721794685593 ], [ -0.529203590535156, 42.934302391746016 ], [ -0.528463374567648, 42.934302391746016 ], [ -0.528463374567648, 42.933882985950156 ], [ -0.527723158600139, 42.933882985950156 ], [ -0.527723158600139, 42.933463577298021 ], [ -0.526982942632631, 42.933463577298021 ], [ -0.526982942632631, 42.932205334203992 ], [ -0.526242726665123, 42.932205334203992 ], [ -0.526242726665123, 42.931366491193309 ], [ -0.525502510697614, 42.931366491193309 ], [ -0.525502510697614, 42.930108205255365 ], [ -0.524762294730106, 42.930108205255365 ], [ -0.524762294730106, 42.92926933368215 ], [ -0.524022078762598, 42.92926933368215 ], [ -0.524022078762598, 42.928011004900512 ], [ -0.523281862795089, 42.928011004900512 ], [ -0.523281862795089, 42.9233969127718 ], [ -0.524022078762598, 42.9233969127718 ], [ -0.524022078762598, 42.922557949799483 ], [ -0.524762294730106, 42.922557949799483 ], [ -0.524762294730106, 42.921718975402399 ], [ -0.525502510697614, 42.921718975402399 ], [ -0.525502510697614, 42.920879989580563 ], [ -0.526242726665123, 42.920879989580563 ], [ -0.526242726665123, 42.920040992333988 ], [ -0.526982942632631, 42.920040992333988 ], [ -0.526982942632631, 42.919201983662717 ], [ -0.527723158600139, 42.919201983662717 ], [ -0.527723158600139, 42.918362963566757 ], [ -0.528463374567648, 42.918362963566757 ], [ -0.528463374567648, 42.917523932046144 ], [ -0.529203590535156, 42.917523932046144 ], [ -0.529203590535156, 42.916684889100907 ], [ -0.529943806502664, 42.916684889100907 ], [ -0.529943806502664, 42.915845834731059 ], [ -0.530684022470173, 42.915845834731059 ], [ -0.530684022470173, 42.915006768936635 ], [ -0.531424238437681, 42.915006768936635 ], [ -0.531424238437681, 42.914587231755199 ], [ -0.536605750210239, 42.914587231755199 ], [ -0.536605750210239, 42.915006768936635 ], [ -0.537345966177748, 42.915006768936635 ], [ -0.537345966177748, 42.915845834731059 ], [ -0.538086182145256, 42.915845834731059 ], [ -0.538086182145256, 42.916265363344067 ], [ -0.538826398112764, 42.916265363344067 ], [ -0.538826398112764, 42.915845834731059 ], [ -0.542527477950306, 42.915845834731059 ], [ -0.542527477950306, 42.91542630326191 ], [ -0.546228557787848, 42.91542630326191 ], [ -0.546228557787848, 42.915006768936635 ], [ -0.549929637625389, 42.915006768936635 ], [ -0.549929637625389, 42.915845834731059 ], [ -0.550669853592898, 42.915845834731059 ], [ -0.550669853592898, 42.916265363344067 ], [ -0.551410069560406, 42.916265363344067 ], [ -0.551410069560406, 42.915845834731059 ], [ -0.554370933430439, 42.915845834731059 ], [ -0.554370933430439, 42.91542630326191 ], [ -0.555851365365456, 42.91542630326191 ], [ -0.555851365365456, 42.915845834731059 ], [ -0.556591581332964, 42.915845834731059 ], [ -0.556591581332964, 42.916684889100907 ], [ -0.557331797300473, 42.916684889100907 ], [ -0.557331797300473, 42.917523932046144 ], [ -0.558072013267981, 42.917523932046144 ], [ -0.558072013267981, 42.917943449234535 ], [ -0.558812229235489, 42.917943449234535 ], [ -0.558812229235489, 42.920879989580563 ], [ -0.558072013267981, 42.920879989580563 ], [ -0.558072013267981, 42.925074804441984 ], [ -0.557331797300473, 42.925074804441984 ], [ -0.557331797300473, 42.929688770896881 ], [ -0.556591581332964, 42.929688770896881 ], [ -0.556591581332964, 42.931366491193309 ], [ -0.555851365365456, 42.931366491193309 ], [ -0.555851365365456, 42.931785914126777 ], [ -0.555111149397948, 42.931785914126777 ], [ -0.555111149397948, 42.932624751424939 ], [ -0.554370933430439, 42.932624751424939 ], [ -0.554370933430439, 42.933463577298021 ], [ -0.549189421657881, 42.933463577298021 ], [ -0.549189421657881, 42.933044165789617 ], [ -0.548449205690373, 42.933044165789617 ], [ -0.548449205690373, 42.932205334203992 ], [ -0.547708989722864, 42.932205334203992 ], [ -0.547708989722864, 42.931366491193309 ], [ -0.546968773755356, 42.931366491193309 ], [ -0.546968773755356, 42.930527636757596 ], [ -0.546228557787848, 42.930527636757596 ], [ -0.546228557787848, 42.92926933368215 ], [ -0.545488341820339, 42.92926933368215 ], [ -0.545488341820339, 42.930108205255365 ], [ -0.544748125852831, 42.930108205255365 ], [ -0.544748125852831, 42.931785914126777 ], [ -0.544007909885323, 42.931785914126777 ], [ -0.544007909885323, 42.932624751424939 ], [ -0.543267693917814, 42.932624751424939 ], [ -0.543267693917814, 42.933044165789617 ], [ -0.541787261982798, 42.933044165789617 ], [ -0.541787261982798, 42.933463577298021 ], [ -0.541047046015289, 42.933463577298021 ], [ -0.541047046015289, 42.933882985950156 ], [ -0.540306830047781, 42.933882985950156 ], [ -0.540306830047781, 42.934302391746016 ], [ -0.539566614080273, 42.934302391746016 ], [ -0.539566614080273, 42.934721794685593 ], [ -0.538826398112764, 42.934721794685593 ], [ -0.538826398112764, 42.935141194768889 ], [ -0.538086182145256, 42.935141194768889 ], [ -0.538086182145256, 42.935560591995902 ], [ -0.537345966177748, 42.935560591995902 ], [ -0.537345966177748, 42.935979986366618 ], [ -0.536605750210239, 42.935979986366618 ], [ -0.536605750210239, 42.936399377881052 ], [ -0.535125318275223, 42.936399377881052 ], [ -0.535125318275223, 42.936818766539197 ], [ -0.532904670372698, 42.936818766539197 ], [ -0.532904670372698, 42.936399377881052 ], [ -0.532164454405189, 42.936399377881052 ], [ -0.532164454405189, 42.935979986366618 ], [ -0.531424238437681, 42.935979986366618 ] ] ], [ [ [ -5.724039250508648, 43.537358307341755 ], [ -5.724039250508648, 43.536943031704851 ], [ -5.723299034541139, 43.536943031704851 ], [ -5.723299034541139, 43.536112471851069 ], [ -5.72255881857363, 43.536112471851069 ], [ -5.72255881857363, 43.535281900557365 ], [ -5.721818602606122, 43.535281900557365 ], [ -5.721818602606122, 43.534451317823752 ], [ -5.721078386638613, 43.534451317823752 ], [ -5.721078386638613, 43.533620723650237 ], [ -5.720338170671106, 43.533620723650237 ], [ -5.720338170671106, 43.532790118036843 ], [ -5.719597954703597, 43.532790118036843 ], [ -5.719597954703597, 43.531959500983589 ], [ -5.718857738736089, 43.531959500983589 ], [ -5.718857738736089, 43.531128872490477 ], [ -5.718117522768581, 43.531128872490477 ], [ -5.718117522768581, 43.530713553953994 ], [ -5.717377306801072, 43.530713553953994 ], [ -5.717377306801072, 43.529052251208505 ], [ -5.718117522768581, 43.529052251208505 ], [ -5.718117522768581, 43.526144861296039 ], [ -5.718857738736089, 43.526144861296039 ], [ -5.718857738736089, 43.523237331246925 ], [ -5.719597954703597, 43.523237331246925 ], [ -5.719597954703597, 43.520745051096618 ], [ -5.720338170671106, 43.520745051096618 ], [ -5.720338170671106, 43.520329661061893 ], [ -5.721078386638613, 43.520329661061893 ], [ -5.721078386638613, 43.519498872412733 ], [ -5.721818602606122, 43.519498872412733 ], [ -5.721818602606122, 43.519083473798304 ], [ -5.72255881857363, 43.519083473798304 ], [ -5.72255881857363, 43.518252667989771 ], [ -5.723299034541139, 43.518252667989771 ], [ -5.723299034541139, 43.517837260795666 ], [ -5.724039250508648, 43.517837260795666 ], [ -5.724039250508648, 43.51742185074167 ], [ -5.724779466476156, 43.51742185074167 ], [ -5.724779466476156, 43.517006437827789 ], [ -5.725519682443664, 43.517006437827789 ], [ -5.725519682443664, 43.516591022054023 ], [ -5.727000114378681, 43.516591022054023 ], [ -5.727000114378681, 43.516175603420372 ], [ -5.728480546313697, 43.516175603420372 ], [ -5.728480546313697, 43.515760181926844 ], [ -5.729220762281205, 43.515760181926844 ], [ -5.729220762281205, 43.51534475757343 ], [ -5.730701194216222, 43.51534475757343 ], [ -5.730701194216222, 43.514929330360154 ], [ -5.733662058086256, 43.514929330360154 ], [ -5.733662058086256, 43.51534475757343 ], [ -5.734402274053765, 43.51534475757343 ], [ -5.734402274053765, 43.515760181926844 ], [ -5.735142490021273, 43.515760181926844 ], [ -5.735142490021273, 43.516175603420372 ], [ -5.73588270598878, 43.516175603420372 ], [ -5.73588270598878, 43.516591022054023 ], [ -5.73662292195629, 43.516591022054023 ], [ -5.73662292195629, 43.517006437827789 ], [ -5.737363137923798, 43.517006437827789 ], [ -5.737363137923798, 43.51742185074167 ], [ -5.738103353891305, 43.51742185074167 ], [ -5.738103353891305, 43.517837260795666 ], [ -5.738843569858814, 43.517837260795666 ], [ -5.738843569858814, 43.518252667989771 ], [ -5.739583785826321, 43.518252667989771 ], [ -5.739583785826321, 43.518668072323983 ], [ -5.74032400179383, 43.518668072323983 ], [ -5.74032400179383, 43.519083473798304 ], [ -5.741064217761339, 43.519083473798304 ], [ -5.741064217761339, 43.519498872412733 ], [ -5.741804433728848, 43.519498872412733 ], [ -5.741804433728848, 43.519914268167263 ], [ -5.742544649696356, 43.519914268167263 ], [ -5.742544649696356, 43.520329661061893 ], [ -5.743284865663864, 43.520329661061893 ], [ -5.743284865663864, 43.521575822586357 ], [ -5.744025081631372, 43.521575822586357 ], [ -5.744025081631372, 43.523237331246925 ], [ -5.744765297598882, 43.523237331246925 ], [ -5.744765297598882, 43.524898794148825 ], [ -5.744025081631372, 43.524898794148825 ], [ -5.744025081631372, 43.526560211291923 ], [ -5.743284865663864, 43.526560211291923 ], [ -5.743284865663864, 43.528636918372264 ], [ -5.742544649696356, 43.528636918372264 ], [ -5.742544649696356, 43.530713553953994 ], [ -5.741804433728848, 43.530713553953994 ], [ -5.741804433728848, 43.531128872490477 ], [ -5.741064217761339, 43.531128872490477 ], [ -5.741064217761339, 43.531959500983589 ], [ -5.74032400179383, 43.531959500983589 ], [ -5.74032400179383, 43.53237481094019 ], [ -5.739583785826321, 43.53237481094019 ], [ -5.739583785826321, 43.533205422273518 ], [ -5.738843569858814, 43.533205422273518 ], [ -5.738843569858814, 43.533620723650237 ], [ -5.738103353891305, 43.533620723650237 ], [ -5.738103353891305, 43.53403602216698 ], [ -5.737363137923798, 43.53403602216698 ], [ -5.737363137923798, 43.534866610620547 ], [ -5.735142490021273, 43.534866610620547 ], [ -5.735142490021273, 43.535281900557365 ], [ -5.733662058086256, 43.535281900557365 ], [ -5.733662058086256, 43.535697187634213 ], [ -5.732181626151239, 43.535697187634213 ], [ -5.732181626151239, 43.536112471851069 ], [ -5.730701194216222, 43.536112471851069 ], [ -5.730701194216222, 43.536527753207956 ], [ -5.729220762281205, 43.536527753207956 ], [ -5.729220762281205, 43.536943031704851 ], [ -5.727740330346189, 43.536943031704851 ], [ -5.727740330346189, 43.537358307341755 ], [ -5.725519682443664, 43.537358307341755 ], [ -5.725519682443664, 43.537773580118674 ], [ -5.724779466476156, 43.537773580118674 ], [ -5.724779466476156, 43.537358307341755 ], [ -5.724039250508648, 43.537358307341755 ] ] ], [ [ [ 2.926864761761257, 36.147121081532141 ], [ 2.929085409663781, 36.147121081532141 ], [ 2.929085409663781, 36.146658500127771 ], [ 2.930565841598798, 36.146658500127771 ], [ 2.930565841598798, 36.146195915995342 ], [ 2.932046273533815, 36.146195915995342 ], [ 2.932046273533815, 36.14573332913487 ], [ 2.932786489501323, 36.14573332913487 ], [ 2.932786489501323, 36.145270739546369 ], [ 2.933526705468831, 36.145270739546369 ], [ 2.933526705468831, 36.144345552185356 ], [ 2.93426692143634, 36.144345552185356 ], [ 2.93426692143634, 36.143420353912397 ], [ 2.935007137403848, 36.143420353912397 ], [ 2.935007137403848, 36.142495144727611 ], [ 2.935747353371357, 36.142495144727611 ], [ 2.935747353371357, 36.141569924631128 ], [ 2.936487569338865, 36.141569924631128 ], [ 2.936487569338865, 36.140182074027166 ], [ 2.937227785306373, 36.140182074027166 ], [ 2.937227785306373, 36.135555728038689 ], [ 2.936487569338865, 36.135555728038689 ], [ 2.936487569338865, 36.135093078437173 ], [ 2.935747353371357, 36.135093078437173 ], [ 2.935747353371357, 36.134167771051025 ], [ 2.935007137403848, 36.134167771051025 ], [ 2.935007137403848, 36.133242452754182 ], [ 2.93426692143634, 36.133242452754182 ], [ 2.93426692143634, 36.132779789514281 ], [ 2.92538432982624, 36.132779789514281 ], [ 2.92538432982624, 36.133242452754182 ], [ 2.923903897891223, 36.133242452754182 ], [ 2.923903897891223, 36.13370511326643 ], [ 2.923163681923715, 36.13370511326643 ], [ 2.923163681923715, 36.134167771051025 ], [ 2.921683249988698, 36.134167771051025 ], [ 2.921683249988698, 36.136018374912496 ], [ 2.92094303402119, 36.136018374912496 ], [ 2.92094303402119, 36.13740629916748 ], [ 2.920202818053682, 36.13740629916748 ], [ 2.920202818053682, 36.138794198872496 ], [ 2.919462602086173, 36.138794198872496 ], [ 2.919462602086173, 36.140644693623038 ], [ 2.918722386118665, 36.140644693623038 ], [ 2.918722386118665, 36.146195915995342 ], [ 2.919462602086173, 36.146195915995342 ], [ 2.919462602086173, 36.146658500127771 ], [ 2.920202818053682, 36.146658500127771 ], [ 2.920202818053682, 36.147583660208454 ], [ 2.92094303402119, 36.147583660208454 ], [ 2.92094303402119, 36.148508809376793 ], [ 2.923903897891223, 36.148508809376793 ], [ 2.923903897891223, 36.148046236156667 ], [ 2.92538432982624, 36.148046236156667 ], [ 2.92538432982624, 36.147583660208454 ], [ 2.926864761761257, 36.147583660208454 ], [ 2.926864761761257, 36.147121081532141 ] ] ], [ [ [ 3.744803405857966, 36.186430528374551 ], [ 3.744803405857966, 36.185968178906165 ], [ 3.746283837792983, 36.185968178906165 ], [ 3.746283837792983, 36.186430528374551 ], [ 3.747764269728, 36.186430528374551 ], [ 3.747764269728, 36.186892875113685 ], [ 3.749984917630524, 36.186892875113685 ], [ 3.749984917630524, 36.187355219123539 ], [ 3.751465349565541, 36.187355219123539 ], [ 3.751465349565541, 36.187817560404099 ], [ 3.752945781500558, 36.187817560404099 ], [ 3.752945781500558, 36.187355219123539 ], [ 3.753685997468065, 36.187355219123539 ], [ 3.753685997468065, 36.186892875113685 ], [ 3.754426213435575, 36.186892875113685 ], [ 3.754426213435575, 36.185968178906165 ], [ 3.755166429403083, 36.185968178906165 ], [ 3.755166429403083, 36.185043471781654 ], [ 3.755906645370591, 36.185043471781654 ], [ 3.755906645370591, 36.184118753740272 ], [ 3.756646861338099, 36.184118753740272 ], [ 3.756646861338099, 36.183656390625785 ], [ 3.757387077305608, 36.183656390625785 ], [ 3.757387077305608, 36.182269284907314 ], [ 3.756646861338099, 36.182269284907314 ], [ 3.756646861338099, 36.17903260937846 ], [ 3.755906645370591, 36.17903260937846 ], [ 3.755906645370591, 36.176258209635364 ], [ 3.755166429403083, 36.176258209635364 ], [ 3.755166429403083, 36.173483711649958 ], [ 3.754426213435575, 36.173483711649958 ], [ 3.754426213435575, 36.172558857157064 ], [ 3.753685997468065, 36.172558857157064 ], [ 3.753685997468065, 36.17209642581733 ], [ 3.752945781500558, 36.17209642581733 ], [ 3.752945781500558, 36.171633991748799 ], [ 3.75220556553305, 36.171633991748799 ], [ 3.75220556553305, 36.171171554951435 ], [ 3.746283837792983, 36.171171554951435 ], [ 3.746283837792983, 36.171633991748799 ], [ 3.744803405857966, 36.171633991748799 ], [ 3.744803405857966, 36.17209642581733 ], [ 3.744063189890458, 36.17209642581733 ], [ 3.744063189890458, 36.172558857157064 ], [ 3.743322973922949, 36.172558857157064 ], [ 3.743322973922949, 36.173021285767938 ], [ 3.742582757955441, 36.173021285767938 ], [ 3.742582757955441, 36.173483711649958 ], [ 3.741102326020424, 36.173483711649958 ], [ 3.741102326020424, 36.174408555227394 ], [ 3.740362110052916, 36.174408555227394 ], [ 3.740362110052916, 36.176258209635364 ], [ 3.739621894085408, 36.176258209635364 ], [ 3.739621894085408, 36.178107820380092 ], [ 3.738881678117899, 36.178107820380092 ], [ 3.738881678117899, 36.178570216243784 ], [ 3.738141462150391, 36.178570216243784 ], [ 3.738141462150391, 36.17903260937846 ], [ 3.737401246182882, 36.17903260937846 ], [ 3.737401246182882, 36.17949499978409 ], [ 3.736661030215375, 36.17949499978409 ], [ 3.736661030215375, 36.179957387460668 ], [ 3.735920814247866, 36.179957387460668 ], [ 3.735920814247866, 36.180419772408193 ], [ 3.735180598280357, 36.180419772408193 ], [ 3.735180598280357, 36.185505826708528 ], [ 3.735920814247866, 36.185505826708528 ], [ 3.735920814247866, 36.186430528374551 ], [ 3.736661030215375, 36.186430528374551 ], [ 3.736661030215375, 36.186892875113685 ], [ 3.737401246182882, 36.186892875113685 ], [ 3.737401246182882, 36.187817560404099 ], [ 3.738141462150391, 36.187817560404099 ], [ 3.738141462150391, 36.188279898955365 ], [ 3.742582757955441, 36.188279898955365 ], [ 3.742582757955441, 36.187817560404099 ], [ 3.743322973922949, 36.187817560404099 ], [ 3.743322973922949, 36.187355219123539 ], [ 3.744063189890458, 36.187355219123539 ], [ 3.744063189890458, 36.186430528374551 ], [ 3.744803405857966, 36.186430528374551 ] ] ], [ [ [ 3.142267608306182, 36.604196059893432 ], [ 3.142267608306182, 36.603736188775677 ], [ 3.14300782427369, 36.603736188775677 ], [ 3.14300782427369, 36.602816438315351 ], [ 3.143748040241198, 36.602816438315351 ], [ 3.143748040241198, 36.601896676888721 ], [ 3.144488256208707, 36.601896676888721 ], [ 3.144488256208707, 36.598677425537396 ], [ 3.145228472176215, 36.598677425537396 ], [ 3.145228472176215, 36.595458039854627 ], [ 3.144488256208707, 36.595458039854627 ], [ 3.144488256208707, 36.594538190701364 ], [ 3.143748040241198, 36.594538190701364 ], [ 3.143748040241198, 36.593618330582743 ], [ 3.14300782427369, 36.593618330582743 ], [ 3.14300782427369, 36.593158396411461 ], [ 3.142267608306182, 36.593158396411461 ], [ 3.142267608306182, 36.592238519845012 ], [ 3.141527392338674, 36.592238519845012 ], [ 3.141527392338674, 36.591778577449873 ], [ 3.135605664598607, 36.591778577449873 ], [ 3.135605664598607, 36.592238519845012 ], [ 3.13412523266359, 36.592238519845012 ], [ 3.13412523266359, 36.592698459498877 ], [ 3.133385016696082, 36.592698459498877 ], [ 3.133385016696082, 36.593158396411461 ], [ 3.132644800728573, 36.593158396411461 ], [ 3.132644800728573, 36.593618330582743 ], [ 3.131904584761065, 36.593618330582743 ], [ 3.131904584761065, 36.594078262012708 ], [ 3.131164368793557, 36.594078262012708 ], [ 3.131164368793557, 36.594538190701364 ], [ 3.130424152826048, 36.594538190701364 ], [ 3.130424152826048, 36.594998116648675 ], [ 3.12968393685854, 36.594998116648675 ], [ 3.12968393685854, 36.595458039854627 ], [ 3.128943720891032, 36.595458039854627 ], [ 3.128943720891032, 36.601896676888721 ], [ 3.12968393685854, 36.601896676888721 ], [ 3.12968393685854, 36.602816438315351 ], [ 3.130424152826048, 36.602816438315351 ], [ 3.130424152826048, 36.603736188775677 ], [ 3.131164368793557, 36.603736188775677 ], [ 3.131164368793557, 36.604196059893432 ], [ 3.131904584761065, 36.604196059893432 ], [ 3.131904584761065, 36.604655928269572 ], [ 3.133385016696082, 36.604655928269572 ], [ 3.133385016696082, 36.605115793904091 ], [ 3.135605664598607, 36.605115793904091 ], [ 3.135605664598607, 36.605575656796958 ], [ 3.13856652846864, 36.605575656796958 ], [ 3.13856652846864, 36.606035516948175 ], [ 3.140046960403657, 36.606035516948175 ], [ 3.140046960403657, 36.605575656796958 ], [ 3.140787176371165, 36.605575656796958 ], [ 3.140787176371165, 36.605115793904091 ], [ 3.141527392338674, 36.605115793904091 ], [ 3.141527392338674, 36.604196059893432 ], [ 3.142267608306182, 36.604196059893432 ] ] ], [ [ [ 3.235534820212232, 36.636380224460474 ], [ 3.235534820212232, 36.635920545287931 ], [ 3.237015252147248, 36.635920545287931 ], [ 3.237015252147248, 36.635460863372849 ], [ 3.237755468114757, 36.635460863372849 ], [ 3.237755468114757, 36.635001178715243 ], [ 3.238495684082265, 36.635001178715243 ], [ 3.238495684082265, 36.634541491315147 ], [ 3.239235900049774, 36.634541491315147 ], [ 3.239235900049774, 36.632702714289934 ], [ 3.239976116017282, 36.632702714289934 ], [ 3.239976116017282, 36.62994446647923 ], [ 3.239235900049774, 36.62994446647923 ], [ 3.239235900049774, 36.628105579758056 ], [ 3.238495684082265, 36.628105579758056 ], [ 3.238495684082265, 36.626726385922929 ], [ 3.237755468114757, 36.626726385922929 ], [ 3.237755468114757, 36.624887422417736 ], [ 3.237015252147248, 36.624887422417736 ], [ 3.237015252147248, 36.624427674685869 ], [ 3.236275036179741, 36.624427674685869 ], [ 3.236275036179741, 36.623967924211811 ], [ 3.235534820212232, 36.623967924211811 ], [ 3.235534820212232, 36.623508170995557 ], [ 3.234054388277215, 36.623508170995557 ], [ 3.234054388277215, 36.623048415037132 ], [ 3.233314172309707, 36.623048415037132 ], [ 3.233314172309707, 36.622588656336532 ], [ 3.232573956342199, 36.622588656336532 ], [ 3.232573956342199, 36.622128894893805 ], [ 3.230353308439674, 36.622128894893805 ], [ 3.230353308439674, 36.622588656336532 ], [ 3.229613092472166, 36.622588656336532 ], [ 3.229613092472166, 36.623048415037132 ], [ 3.228872876504657, 36.623048415037132 ], [ 3.228872876504657, 36.623508170995557 ], [ 3.228132660537149, 36.623508170995557 ], [ 3.228132660537149, 36.623967924211811 ], [ 3.22739244456964, 36.623967924211811 ], [ 3.22739244456964, 36.624427674685869 ], [ 3.226652228602132, 36.624427674685869 ], [ 3.226652228602132, 36.624887422417736 ], [ 3.225912012634624, 36.624887422417736 ], [ 3.225912012634624, 36.625347167407384 ], [ 3.225171796667116, 36.625347167407384 ], [ 3.225171796667116, 36.625806909654813 ], [ 3.224431580699607, 36.625806909654813 ], [ 3.224431580699607, 36.627645851221985 ], [ 3.223691364732099, 36.627645851221985 ], [ 3.223691364732099, 36.630863893385722 ], [ 3.224431580699607, 36.630863893385722 ], [ 3.224431580699607, 36.632243013177515 ], [ 3.225171796667116, 36.632243013177515 ], [ 3.225171796667116, 36.633622108287483 ], [ 3.225912012634624, 36.633622108287483 ], [ 3.225912012634624, 36.635001178715243 ], [ 3.226652228602132, 36.635001178715243 ], [ 3.226652228602132, 36.636380224460474 ], [ 3.22739244456964, 36.636380224460474 ], [ 3.22739244456964, 36.636839900890493 ], [ 3.228872876504657, 36.636839900890493 ], [ 3.228872876504657, 36.637299574577931 ], [ 3.229613092472166, 36.637299574577931 ], [ 3.229613092472166, 36.637759245522808 ], [ 3.232573956342199, 36.637759245522808 ], [ 3.232573956342199, 36.637299574577931 ], [ 3.233314172309707, 36.637299574577931 ], [ 3.233314172309707, 36.636839900890493 ], [ 3.234794604244723, 36.636839900890493 ], [ 3.234794604244723, 36.636380224460474 ], [ 3.235534820212232, 36.636380224460474 ] ] ], [ [ [ 3.128943720891032, 36.68692818727758 ], [ 3.128943720891032, 36.68600942970653 ], [ 3.12968393685854, 36.68600942970653 ], [ 3.12968393685854, 36.685090661159613 ], [ 3.130424152826048, 36.685090661159613 ], [ 3.130424152826048, 36.684171881636921 ], [ 3.131164368793557, 36.684171881636921 ], [ 3.131164368793557, 36.683253091138575 ], [ 3.131904584761065, 36.683253091138575 ], [ 3.131904584761065, 36.682334289664659 ], [ 3.132644800728573, 36.682334289664659 ], [ 3.132644800728573, 36.681874884811897 ], [ 3.133385016696082, 36.681874884811897 ], [ 3.133385016696082, 36.680956066874856 ], [ 3.13412523266359, 36.680956066874856 ], [ 3.13412523266359, 36.675902372040525 ], [ 3.133385016696082, 36.675902372040525 ], [ 3.133385016696082, 36.675442928775055 ], [ 3.132644800728573, 36.675442928775055 ], [ 3.132644800728573, 36.674983482765938 ], [ 3.131904584761065, 36.674983482765938 ], [ 3.131904584761065, 36.67452403401316 ], [ 3.131164368793557, 36.67452403401316 ], [ 3.131164368793557, 36.674064582516735 ], [ 3.130424152826048, 36.674064582516735 ], [ 3.130424152826048, 36.673605128276698 ], [ 3.12968393685854, 36.673605128276698 ], [ 3.12968393685854, 36.673145671293035 ], [ 3.128203504923524, 36.673145671293035 ], [ 3.128203504923524, 36.672686211565782 ], [ 3.127463288956015, 36.672686211565782 ], [ 3.127463288956015, 36.672226749094932 ], [ 3.123762209118474, 36.672226749094932 ], [ 3.123762209118474, 36.672686211565782 ], [ 3.121541561215949, 36.672686211565782 ], [ 3.121541561215949, 36.673145671293035 ], [ 3.119320913313424, 36.673145671293035 ], [ 3.119320913313424, 36.673605128276698 ], [ 3.118580697345915, 36.673605128276698 ], [ 3.118580697345915, 36.674064582516735 ], [ 3.117840481378407, 36.674064582516735 ], [ 3.117840481378407, 36.67452403401316 ], [ 3.117100265410898, 36.67452403401316 ], [ 3.117100265410898, 36.674983482765938 ], [ 3.11636004944339, 36.674983482765938 ], [ 3.11636004944339, 36.675442928775055 ], [ 3.115619833475882, 36.675442928775055 ], [ 3.115619833475882, 36.675902372040525 ], [ 3.114879617508374, 36.675902372040525 ], [ 3.114879617508374, 36.676361812562291 ], [ 3.114139401540865, 36.676361812562291 ], [ 3.114139401540865, 36.676821250340389 ], [ 3.113399185573357, 36.676821250340389 ], [ 3.113399185573357, 36.677280685374775 ], [ 3.11191875363834, 36.677280685374775 ], [ 3.11191875363834, 36.677740117665422 ], [ 3.111178537670832, 36.677740117665422 ], [ 3.111178537670832, 36.681415477215303 ], [ 3.110438321703324, 36.681415477215303 ], [ 3.110438321703324, 36.684171881636921 ], [ 3.111178537670832, 36.684171881636921 ], [ 3.111178537670832, 36.684631272770233 ], [ 3.11191875363834, 36.684631272770233 ], [ 3.11191875363834, 36.685090661159613 ], [ 3.112658969605848, 36.685090661159613 ], [ 3.112658969605848, 36.68600942970653 ], [ 3.113399185573357, 36.68600942970653 ], [ 3.113399185573357, 36.686468809864046 ], [ 3.114139401540865, 36.686468809864046 ], [ 3.114139401540865, 36.68692818727758 ], [ 3.114879617508374, 36.68692818727758 ], [ 3.114879617508374, 36.687387561947112 ], [ 3.115619833475882, 36.687387561947112 ], [ 3.115619833475882, 36.687846933872635 ], [ 3.11636004944339, 36.687846933872635 ], [ 3.11636004944339, 36.688306303054155 ], [ 3.117100265410898, 36.688306303054155 ], [ 3.117100265410898, 36.688765669491623 ], [ 3.117840481378407, 36.688765669491623 ], [ 3.117840481378407, 36.689225033185046 ], [ 3.124502425085982, 36.689225033185046 ], [ 3.124502425085982, 36.688765669491623 ], [ 3.127463288956015, 36.688765669491623 ], [ 3.127463288956015, 36.687846933872635 ], [ 3.128203504923524, 36.687846933872635 ], [ 3.128203504923524, 36.68692818727758 ], [ 3.128943720891032, 36.68692818727758 ] ] ], [ [ [ 4.362883738727425, 43.687914399054584 ], [ 4.362883738727425, 43.687500161728046 ], [ 4.363623954694933, 43.687500161728046 ], [ 4.363623954694933, 43.687085921540778 ], [ 4.364364170662443, 43.687085921540778 ], [ 4.364364170662443, 43.6866716784928 ], [ 4.36510438662995, 43.6866716784928 ], [ 4.36510438662995, 43.685014677693793 ], [ 4.365844602597458, 43.685014677693793 ], [ 4.365844602597458, 43.683771897057142 ], [ 4.366584818564966, 43.683771897057142 ], [ 4.366584818564966, 43.682529090674194 ], [ 4.367325034532475, 43.682529090674194 ], [ 4.367325034532475, 43.681286258545008 ], [ 4.368065250499983, 43.681286258545008 ], [ 4.368065250499983, 43.680043400669646 ], [ 4.368805466467491, 43.680043400669646 ], [ 4.368805466467491, 43.678800517048145 ], [ 4.369545682435, 43.678800517048145 ], [ 4.369545682435, 43.677557607680562 ], [ 4.370285898402509, 43.677557607680562 ], [ 4.370285898402509, 43.676314672566939 ], [ 4.369545682435, 43.676314672566939 ], [ 4.369545682435, 43.673414390512015 ], [ 4.368805466467491, 43.673414390512015 ], [ 4.368805466467491, 43.671342674653218 ], [ 4.368065250499983, 43.671342674653218 ], [ 4.368065250499983, 43.67092832289952 ], [ 4.366584818564966, 43.67092832289952 ], [ 4.366584818564966, 43.670513968285199 ], [ 4.364364170662443, 43.670513968285199 ], [ 4.364364170662443, 43.670099610810226 ], [ 4.362883738727425, 43.670099610810226 ], [ 4.362883738727425, 43.669685250474622 ], [ 4.359922874857391, 43.669685250474622 ], [ 4.359922874857391, 43.670099610810226 ], [ 4.359182658889884, 43.670099610810226 ], [ 4.359182658889884, 43.670513968285199 ], [ 4.358442442922374, 43.670513968285199 ], [ 4.358442442922374, 43.671342674653218 ], [ 4.357702226954866, 43.671342674653218 ], [ 4.357702226954866, 43.67217136957867 ], [ 4.356962010987359, 43.67217136957867 ], [ 4.356962010987359, 43.676314672566939 ], [ 4.357702226954866, 43.676314672566939 ], [ 4.357702226954866, 43.678800517048145 ], [ 4.356962010987359, 43.678800517048145 ], [ 4.356962010987359, 43.680043400669646 ], [ 4.35622179501985, 43.680043400669646 ], [ 4.35622179501985, 43.681286258545008 ], [ 4.355481579052342, 43.681286258545008 ], [ 4.355481579052342, 43.682114816158482 ], [ 4.354741363084833, 43.682114816158482 ], [ 4.354741363084833, 43.685014677693793 ], [ 4.355481579052342, 43.685014677693793 ], [ 4.355481579052342, 43.6866716784928 ], [ 4.35622179501985, 43.6866716784928 ], [ 4.35622179501985, 43.687500161728046 ], [ 4.357702226954866, 43.687500161728046 ], [ 4.357702226954866, 43.687914399054584 ], [ 4.358442442922374, 43.687914399054584 ], [ 4.358442442922374, 43.688328633520413 ], [ 4.359922874857391, 43.688328633520413 ], [ 4.359922874857391, 43.688742865125519 ], [ 4.3606630908249, 43.688742865125519 ], [ 4.3606630908249, 43.688328633520413 ], [ 4.362143522759917, 43.688328633520413 ], [ 4.362143522759917, 43.687914399054584 ], [ 4.362883738727425, 43.687914399054584 ] ] ] ] } }
]
}
