{
"type": "FeatureCollection",
"name": "spain_fires_modis_ba",
"crs": { "type": "name", "properties": { "name": "urn:ogc:def:crs:OGC:1.3:CRS84" } },
"features": [
{ "type": "Feature", "properties": { }, "geometry": { "type": "Polygon", "coordinates": [ [ [ -6.706305839392207, 37.481622818961476 ], [ -6.696683031814599, 37.481622818961476 ], [ -6.696683031814599, 37.48116823252699 ], [ -6.694462383912074, 37.48116823252699 ], [ -6.694462383912074, 37.480713643326844 ], [ -6.693722167944566, 37.480713643326844 ], [ -6.693722167944566, 37.48025905136106 ], [ -6.692981951977057, 37.48025905136106 ], [ -6.692981951977057, 37.479804456629637 ], [ -6.692241736009549, 37.479804456629637 ], [ -6.692241736009549, 37.479349859132597 ], [ -6.69150152004204, 37.479349859132597 ], [ -6.69150152004204, 37.478895258869954 ], [ -6.690761304074532, 37.478895258869954 ], [ -6.690761304074532, 37.478440655841709 ], [ -6.690021088107024, 37.478440655841709 ], [ -6.690021088107024, 37.477986050047889 ], [ -6.689280872139515, 37.477986050047889 ], [ -6.689280872139515, 37.478440655841709 ], [ -6.685579792301974, 37.478440655841709 ], [ -6.685579792301974, 37.477531441488495 ], [ -6.684839576334466, 37.477531441488495 ], [ -6.684839576334466, 37.473439840005163 ], [ -6.685579792301974, 37.473439840005163 ], [ -6.685579792301974, 37.469802672857774 ], [ -6.684839576334466, 37.469802672857774 ], [ -6.684839576334466, 37.467529353516106 ], [ -6.684099360366957, 37.467529353516106 ], [ -6.684099360366957, 37.466165328727406 ], [ -6.683359144399449, 37.466165328727406 ], [ -6.683359144399449, 37.465255965041933 ], [ -6.68261892843194, 37.465255965041933 ], [ -6.68261892843194, 37.460254267059653 ], [ -6.681878712464432, 37.460254267059653 ], [ -6.681878712464432, 37.456161719849817 ], [ -6.68261892843194, 37.456161719849817 ], [ -6.68261892843194, 37.455706978556883 ], [ -6.683359144399449, 37.455706978556883 ], [ -6.683359144399449, 37.45525223449895 ], [ -6.684099360366957, 37.45525223449895 ], [ -6.684099360366957, 37.454797487676046 ], [ -6.684839576334466, 37.454797487676046 ], [ -6.684839576334466, 37.453887985735321 ], [ -6.685579792301974, 37.453887985735321 ], [ -6.685579792301974, 37.45297847273482 ], [ -6.686320008269483, 37.45297847273482 ], [ -6.686320008269483, 37.452523712087178 ], [ -6.687060224236991, 37.452523712087178 ], [ -6.687060224236991, 37.452068948674636 ], [ -6.687800440204499, 37.452068948674636 ], [ -6.687800440204499, 37.451614182497188 ], [ -6.690021088107024, 37.451614182497188 ], [ -6.690021088107024, 37.451159413554855 ], [ -6.690761304074532, 37.451159413554855 ], [ -6.690761304074532, 37.451614182497188 ], [ -6.692241736009549, 37.451614182497188 ], [ -6.692241736009549, 37.452068948674636 ], [ -6.692981951977057, 37.452068948674636 ], [ -6.692981951977057, 37.452523712087178 ], [ -6.693722167944566, 37.452523712087178 ], [ -6.693722167944566, 37.453887985735321 ], [ -6.694462383912074, 37.453887985735321 ], [ -6.694462383912074, 37.455706978556883 ], [ -6.695202599879583, 37.455706978556883 ], [ -6.695202599879583, 37.458890109541947 ], [ -6.695942815847092, 37.458890109541947 ], [ -6.695942815847092, 37.460254267059653 ], [ -6.696683031814599, 37.460254267059653 ], [ -6.696683031814599, 37.461618399691353 ], [ -6.697423247782107, 37.461618399691353 ], [ -6.697423247782107, 37.462982507436742 ], [ -6.698163463749615, 37.462982507436742 ], [ -6.698163463749615, 37.463891898774442 ], [ -6.698903679717124, 37.463891898774442 ], [ -6.698903679717124, 37.464801279051336 ], [ -6.699643895684632, 37.464801279051336 ], [ -6.699643895684632, 37.465710648267304 ], [ -6.700384111652141, 37.465710648267304 ], [ -6.700384111652141, 37.466620006422254 ], [ -6.701124327619648, 37.466620006422254 ], [ -6.701124327619648, 37.467074681351825 ], [ -6.701864543587157, 37.467074681351825 ], [ -6.701864543587157, 37.467984022915083 ], [ -6.702604759554665, 37.467984022915083 ], [ -6.702604759554665, 37.468438689548755 ], [ -6.703344975522174, 37.468438689548755 ], [ -6.703344975522174, 37.468893353417101 ], [ -6.704085191489683, 37.468893353417101 ], [ -6.704085191489683, 37.469802672857774 ], [ -6.704825407457191, 37.469802672857774 ], [ -6.704825407457191, 37.470257328430087 ], [ -6.705565623424699, 37.470257328430087 ], [ -6.705565623424699, 37.470711981237002 ], [ -6.706305839392207, 37.470711981237002 ], [ -6.706305839392207, 37.471166631278564 ], [ -6.707046055359716, 37.471166631278564 ], [ -6.707046055359716, 37.471621278554707 ], [ -6.707786271327224, 37.471621278554707 ], [ -6.707786271327224, 37.472075923065468 ], [ -6.708526487294732, 37.472075923065468 ], [ -6.708526487294732, 37.47253056481081 ], [ -6.709266703262241, 37.47253056481081 ], [ -6.709266703262241, 37.472985203790699 ], [ -6.710006919229749, 37.472985203790699 ], [ -6.710006919229749, 37.473439840005163 ], [ -6.710747135197257, 37.473439840005163 ], [ -6.710747135197257, 37.473894473454173 ], [ -6.712227567132275, 37.473894473454173 ], [ -6.712227567132275, 37.474349104137715 ], [ -6.712967783099782, 37.474349104137715 ], [ -6.712967783099782, 37.476167599216993 ], [ -6.713707999067291, 37.476167599216993 ], [ -6.713707999067291, 37.476622216073032 ], [ -6.712967783099782, 37.476622216073032 ], [ -6.712967783099782, 37.477986050047889 ], [ -6.712227567132275, 37.477986050047889 ], [ -6.712227567132275, 37.478440655841709 ], [ -6.711487351164766, 37.478440655841709 ], [ -6.711487351164766, 37.478895258869954 ], [ -6.710747135197257, 37.478895258869954 ], [ -6.710747135197257, 37.479349859132597 ], [ -6.710006919229749, 37.479349859132597 ], [ -6.710006919229749, 37.479804456629637 ], [ -6.709266703262241, 37.479804456629637 ], [ -6.709266703262241, 37.48025905136106 ], [ -6.708526487294732, 37.48025905136106 ], [ -6.708526487294732, 37.480713643326844 ], [ -6.707046055359716, 37.480713643326844 ], [ -6.707046055359716, 37.48116823252699 ], [ -6.706305839392207, 37.48116823252699 ], [ -6.706305839392207, 37.481622818961476 ] ] ] } }
]
}
