{
"type": "FeatureCollection",
"name": "spain_fires_nrt_ba",
"crs": { "type": "name", "properties": { "name": "urn:ogc:def:crs:OGC:1.3:CRS84" } },
"features": [
{ "type": "Feature", "properties": { }, "geometry": { "type": "MultiPolygon", "coordinates": [ [ [ [ -3.782452767734287, 39.85577011393304 ], [ -3.781712551766777, 39.85577011393304 ], [ -3.781712551766777, 39.855330357701838 ], [ -3.78097233579927, 39.855330357701838 ], [ -3.78097233579927, 39.854890598652972 ], [ -3.78023211983176, 39.854890598652972 ], [ -3.78023211983176, 39.854450836786441 ], [ -3.779491903864253, 39.854450836786441 ], [ -3.779491903864253, 39.85401107210226 ], [ -3.778751687896745, 39.85401107210226 ], [ -3.778751687896745, 39.853571304600436 ], [ -3.778011471929235, 39.853571304600436 ], [ -3.778011471929235, 39.847854070674728 ], [ -3.778751687896745, 39.847854070674728 ], [ -3.778751687896745, 39.846974453961174 ], [ -3.779491903864253, 39.846974453961174 ], [ -3.779491903864253, 39.845655007759504 ], [ -3.78023211983176, 39.845655007759504 ], [ -3.78023211983176, 39.844775362870891 ], [ -3.78097233579927, 39.844775362870891 ], [ -3.78097233579927, 39.843895706712374 ], [ -3.781712551766777, 39.843895706712374 ], [ -3.781712551766777, 39.842576201343647 ], [ -3.782452767734287, 39.842576201343647 ], [ -3.782452767734287, 39.841696517010604 ], [ -3.783192983701794, 39.841696517010604 ], [ -3.783192983701794, 39.840816821407884 ], [ -3.783933199669302, 39.840816821407884 ], [ -3.783933199669302, 39.840376969380401 ], [ -3.789854927409369, 39.840376969380401 ], [ -3.789854927409369, 39.83993711453553 ], [ -3.800958166921995, 39.83993711453553 ], [ -3.800958166921995, 39.840816821407884 ], [ -3.801698382889502, 39.840816821407884 ], [ -3.801698382889502, 39.841696517010604 ], [ -3.802438598857011, 39.841696517010604 ], [ -3.802438598857011, 39.84213636058584 ], [ -3.80317881482452, 39.84213636058584 ], [ -3.80317881482452, 39.845215186723941 ], [ -3.803919030792027, 39.845215186723941 ], [ -3.803919030792027, 39.850932640419416 ], [ -3.80317881482452, 39.850932640419416 ], [ -3.80317881482452, 39.852251985189184 ], [ -3.802438598857011, 39.852251985189184 ], [ -3.802438598857011, 39.853131534280976 ], [ -3.801698382889502, 39.853131534280976 ], [ -3.801698382889502, 39.854450836786441 ], [ -3.800958166921995, 39.854450836786441 ], [ -3.800958166921995, 39.854890598652972 ], [ -3.797997303051961, 39.854890598652972 ], [ -3.797997303051961, 39.855330357701838 ], [ -3.792815791279402, 39.855330357701838 ], [ -3.792815791279402, 39.85577011393304 ], [ -3.786894063539336, 39.85577011393304 ], [ -3.786894063539336, 39.856209867346571 ], [ -3.782452767734287, 39.856209867346571 ], [ -3.782452767734287, 39.85577011393304 ] ] ], [ [ [ -3.741740889521328, 39.944103904206173 ], [ -3.741000673553819, 39.944103904206173 ], [ -3.741000673553819, 39.943664714484513 ], [ -3.740260457586311, 39.943664714484513 ], [ -3.740260457586311, 39.942786326583487 ], [ -3.739520241618802, 39.942786326583487 ], [ -3.739520241618802, 39.942347128404151 ], [ -3.738780025651294, 39.942347128404151 ], [ -3.738780025651294, 39.941907927405616 ], [ -3.738039809683786, 39.941907927405616 ], [ -3.738039809683786, 39.941029516950934 ], [ -3.737299593716278, 39.941029516950934 ], [ -3.737299593716278, 39.932684055212832 ], [ -3.738039809683786, 39.932684055212832 ], [ -3.738039809683786, 39.931805526355475 ], [ -3.738780025651294, 39.931805526355475 ], [ -3.738780025651294, 39.930926986222019 ], [ -3.739520241618802, 39.930926986222019 ], [ -3.739520241618802, 39.930048434812555 ], [ -3.740260457586311, 39.930048434812555 ], [ -3.740260457586311, 39.929169872127098 ], [ -3.749883265163919, 39.929169872127098 ], [ -3.749883265163919, 39.930048434812555 ], [ -3.750623481131427, 39.930048434812555 ], [ -3.750623481131427, 39.930926986222019 ], [ -3.751363697098936, 39.930926986222019 ], [ -3.751363697098936, 39.932244792193679 ], [ -3.752103913066444, 39.932244792193679 ], [ -3.752103913066444, 39.933562572794045 ], [ -3.752844129033953, 39.933562572794045 ], [ -3.752844129033953, 39.936637295527682 ], [ -3.752103913066444, 39.936637295527682 ], [ -3.752103913066444, 39.939272662211422 ], [ -3.751363697098936, 39.939272662211422 ], [ -3.751363697098936, 39.941468723587867 ], [ -3.750623481131427, 39.941468723587867 ], [ -3.750623481131427, 39.942347128404151 ], [ -3.749883265163919, 39.942347128404151 ], [ -3.749883265163919, 39.943225521943617 ], [ -3.749143049196411, 39.943225521943617 ], [ -3.749143049196411, 39.943664714484513 ], [ -3.748402833228903, 39.943664714484513 ], [ -3.748402833228903, 39.944103904206173 ], [ -3.747662617261394, 39.944103904206173 ], [ -3.747662617261394, 39.944543091108599 ], [ -3.741740889521328, 39.944543091108599 ], [ -3.741740889521328, 39.944103904206173 ] ] ], [ [ [ -3.472302277348294, 40.252593405012497 ], [ -3.471562061380785, 40.252593405012497 ], [ -3.471562061380785, 40.252156201901066 ], [ -3.470821845413277, 40.252156201901066 ], [ -3.470821845413277, 40.251718995965156 ], [ -3.470081629445768, 40.251718995965156 ], [ -3.470081629445768, 40.250844575619915 ], [ -3.469341413478261, 40.250844575619915 ], [ -3.469341413478261, 40.250407361210598 ], [ -3.468601197510752, 40.250407361210598 ], [ -3.468601197510752, 40.249970143976832 ], [ -3.467860981543244, 40.249970143976832 ], [ -3.467860981543244, 40.249532923918622 ], [ -3.467120765575736, 40.249532923918622 ], [ -3.467120765575736, 40.249095701035969 ], [ -3.466380549608227, 40.249095701035969 ], [ -3.466380549608227, 40.248658475328888 ], [ -3.465640333640719, 40.248658475328888 ], [ -3.465640333640719, 40.246909544256376 ], [ -3.46490011767321, 40.246909544256376 ], [ -3.46490011767321, 40.247784015441454 ], [ -3.464159901705703, 40.247784015441454 ], [ -3.464159901705703, 40.248658475328888 ], [ -3.458978389933144, 40.248658475328888 ], [ -3.458978389933144, 40.248221246797378 ], [ -3.458238173965635, 40.248221246797378 ], [ -3.458238173965635, 40.247346781261115 ], [ -3.457497957998127, 40.247346781261115 ], [ -3.457497957998127, 40.246909544256376 ], [ -3.456757742030619, 40.246909544256376 ], [ -3.456757742030619, 40.246035061773718 ], [ -3.45601752606311, 40.246035061773718 ], [ -3.45601752606311, 40.241225206177418 ], [ -3.456757742030619, 40.241225206177418 ], [ -3.456757742030619, 40.240350650261888 ], [ -3.457497957998127, 40.240350650261888 ], [ -3.457497957998127, 40.239476083049205 ], [ -3.458238173965635, 40.239476083049205 ], [ -3.458238173965635, 40.239038795206454 ], [ -3.458978389933144, 40.239038795206454 ], [ -3.458978389933144, 40.238601504539439 ], [ -3.464159901705703, 40.238601504539439 ], [ -3.464159901705703, 40.239476083049205 ], [ -3.46490011767321, 40.239476083049205 ], [ -3.46490011767321, 40.23991336806769 ], [ -3.465640333640719, 40.23991336806769 ], [ -3.465640333640719, 40.2407879296318 ], [ -3.467120765575736, 40.2407879296318 ], [ -3.467120765575736, 40.23991336806769 ], [ -3.467860981543244, 40.23991336806769 ], [ -3.467860981543244, 40.239476083049205 ], [ -3.468601197510752, 40.239476083049205 ], [ -3.468601197510752, 40.238601504539439 ], [ -3.469341413478261, 40.238601504539439 ], [ -3.469341413478261, 40.237726914732633 ], [ -3.470081629445768, 40.237726914732633 ], [ -3.470081629445768, 40.237289615592864 ], [ -3.470821845413277, 40.237289615592864 ], [ -3.470821845413277, 40.236415008840616 ], [ -3.475263141218327, 40.236415008840616 ], [ -3.475263141218327, 40.236852313628852 ], [ -3.481184868958394, 40.236852313628852 ], [ -3.481184868958394, 40.237289615592864 ], [ -3.481925084925902, 40.237289615592864 ], [ -3.481925084925902, 40.237726914732633 ], [ -3.482665300893411, 40.237726914732633 ], [ -3.482665300893411, 40.238601504539439 ], [ -3.483405516860918, 40.238601504539439 ], [ -3.483405516860918, 40.239476083049205 ], [ -3.484145732828428, 40.239476083049205 ], [ -3.484145732828428, 40.241225206177418 ], [ -3.484885948795936, 40.241225206177418 ], [ -3.484885948795936, 40.246035061773718 ], [ -3.485626164763444, 40.246035061773718 ], [ -3.485626164763444, 40.248658475328888 ], [ -3.484885948795936, 40.248658475328888 ], [ -3.484885948795936, 40.249970143976832 ], [ -3.484145732828428, 40.249970143976832 ], [ -3.484145732828428, 40.250844575619915 ], [ -3.483405516860918, 40.250844575619915 ], [ -3.483405516860918, 40.251718995965156 ], [ -3.482665300893411, 40.251718995965156 ], [ -3.482665300893411, 40.252593405012497 ], [ -3.47822400508836, 40.252593405012497 ], [ -3.47822400508836, 40.253030605299436 ], [ -3.472302277348294, 40.253030605299436 ], [ -3.472302277348294, 40.252593405012497 ] ] ], [ [ [ -4.250269259199554, 40.330370555161139 ], [ -4.250269259199554, 40.329060445965617 ], [ -4.249529043232045, 40.329060445965617 ], [ -4.249529043232045, 40.328187025706555 ], [ -4.248788827264537, 40.328187025706555 ], [ -4.248788827264537, 40.326876874125034 ], [ -4.248048611297029, 40.326876874125034 ], [ -4.248048611297029, 40.324693231641845 ], [ -4.248788827264537, 40.324693231641845 ], [ -4.248788827264537, 40.322946266793195 ], [ -4.249529043232045, 40.322946266793195 ], [ -4.249529043232045, 40.322072767414994 ], [ -4.251009475167062, 40.322072767414994 ], [ -4.251009475167062, 40.321636013487449 ], [ -4.252489907102078, 40.321636013487449 ], [ -4.252489907102078, 40.321199256734289 ], [ -4.253970339037094, 40.321199256734289 ], [ -4.253970339037094, 40.320762497155513 ], [ -4.255450770972112, 40.320762497155513 ], [ -4.255450770972112, 40.320325734751137 ], [ -4.257671418874637, 40.320325734751137 ], [ -4.257671418874637, 40.319888969521159 ], [ -4.259151850809653, 40.319888969521159 ], [ -4.259151850809653, 40.31945220146558 ], [ -4.259892066777161, 40.31945220146558 ], [ -4.259892066777161, 40.318578656877698 ], [ -4.259151850809653, 40.318578656877698 ], [ -4.259151850809653, 40.318141880345401 ], [ -4.258411634842145, 40.318141880345401 ], [ -4.258411634842145, 40.317268318804118 ], [ -4.257671418874637, 40.317268318804118 ], [ -4.257671418874637, 40.316394745960643 ], [ -4.256931202907129, 40.316394745960643 ], [ -4.256931202907129, 40.315521161815035 ], [ -4.25619098693962, 40.315521161815035 ], [ -4.25619098693962, 40.309842589382875 ], [ -4.256931202907129, 40.309842589382875 ], [ -4.256931202907129, 40.309405756340674 ], [ -4.257671418874637, 40.309405756340674 ], [ -4.257671418874637, 40.308968920473042 ], [ -4.258411634842145, 40.308968920473042 ], [ -4.258411634842145, 40.308532081780008 ], [ -4.259151850809653, 40.308532081780008 ], [ -4.259151850809653, 40.308095240261558 ], [ -4.259892066777161, 40.308095240261558 ], [ -4.259892066777161, 40.307658395917713 ], [ -4.260632282744671, 40.307658395917713 ], [ -4.260632282744671, 40.307221548748473 ], [ -4.261372498712178, 40.307221548748473 ], [ -4.261372498712178, 40.306784698753852 ], [ -4.262112714679686, 40.306784698753852 ], [ -4.262112714679686, 40.306347845933864 ], [ -4.263593146614703, 40.306347845933864 ], [ -4.263593146614703, 40.306784698753852 ], [ -4.26507357854972, 40.306784698753852 ], [ -4.26507357854972, 40.328187025706555 ], [ -4.263593146614703, 40.328187025706555 ], [ -4.263593146614703, 40.328623737248954 ], [ -4.262112714679686, 40.328623737248954 ], [ -4.262112714679686, 40.329060445965617 ], [ -4.259892066777161, 40.329060445965617 ], [ -4.259892066777161, 40.329497151856543 ], [ -4.258411634842145, 40.329497151856543 ], [ -4.258411634842145, 40.32993385492172 ], [ -4.25619098693962, 40.32993385492172 ], [ -4.25619098693962, 40.330370555161139 ], [ -4.254710555004603, 40.330370555161139 ], [ -4.254710555004603, 40.3308072525748 ], [ -4.252489907102078, 40.3308072525748 ], [ -4.252489907102078, 40.331243947162697 ], [ -4.251009475167062, 40.331243947162697 ], [ -4.251009475167062, 40.330370555161139 ], [ -4.250269259199554, 40.330370555161139 ] ] ], [ [ [ -4.245087747426995, 40.420706661311698 ], [ -4.245087747426995, 40.420270546154889 ], [ -4.244347531459487, 40.420270546154889 ], [ -4.244347531459487, 40.419834428170894 ], [ -4.243607315491978, 40.419834428170894 ], [ -4.243607315491978, 40.419398307359678 ], [ -4.24286709952447, 40.419398307359678 ], [ -4.24286709952447, 40.418962183721284 ], [ -4.242126883556962, 40.418962183721284 ], [ -4.242126883556962, 40.418089927962939 ], [ -4.241386667589453, 40.418089927962939 ], [ -4.241386667589453, 40.415909239091704 ], [ -4.242126883556962, 40.415909239091704 ], [ -4.242126883556962, 40.412419989886985 ], [ -4.241386667589453, 40.412419989886985 ], [ -4.241386667589453, 40.410239117253695 ], [ -4.240646451621945, 40.410239117253695 ], [ -4.240646451621945, 40.40936674841101 ], [ -4.241386667589453, 40.40936674841101 ], [ -4.241386667589453, 40.408058173944248 ], [ -4.242126883556962, 40.408058173944248 ], [ -4.242126883556962, 40.406749574034386 ], [ -4.24286709952447, 40.406749574034386 ], [ -4.24286709952447, 40.405877159959516 ], [ -4.243607315491978, 40.405877159959516 ], [ -4.243607315491978, 40.405440948681608 ], [ -4.24286709952447, 40.405440948681608 ], [ -4.24286709952447, 40.404568517644904 ], [ -4.242126883556962, 40.404568517644904 ], [ -4.242126883556962, 40.404132297886122 ], [ -4.241386667589453, 40.404132297886122 ], [ -4.241386667589453, 40.403696075300381 ], [ -4.240646451621945, 40.403696075300381 ], [ -4.240646451621945, 40.403259849887696 ], [ -4.239906235654437, 40.403259849887696 ], [ -4.239906235654437, 40.401951156688078 ], [ -4.239166019686929, 40.401951156688078 ], [ -4.239166019686929, 40.39758866227433 ], [ -4.23842580371942, 40.39758866227433 ], [ -4.23842580371942, 40.394971029937125 ], [ -4.239166019686929, 40.394971029937125 ], [ -4.239166019686929, 40.393225885176186 ], [ -4.239906235654437, 40.393225885176186 ], [ -4.239906235654437, 40.391916996924316 ], [ -4.242126883556962, 40.391916996924316 ], [ -4.242126883556962, 40.391480695186857 ], [ -4.244347531459487, 40.391480695186857 ], [ -4.244347531459487, 40.391044390622632 ], [ -4.247308395329521, 40.391044390622632 ], [ -4.247308395329521, 40.390608083231683 ], [ -4.249529043232045, 40.390608083231683 ], [ -4.249529043232045, 40.390171773013996 ], [ -4.250269259199554, 40.390171773013996 ], [ -4.250269259199554, 40.387117522342272 ], [ -4.249529043232045, 40.387117522342272 ], [ -4.249529043232045, 40.383626780545562 ], [ -4.250269259199554, 40.383626780545562 ], [ -4.250269259199554, 40.382754066830046 ], [ -4.251009475167062, 40.382754066830046 ], [ -4.251009475167062, 40.381444975057235 ], [ -4.25174969113457, 40.381444975057235 ], [ -4.25174969113457, 40.380572233075753 ], [ -4.252489907102078, 40.380572233075753 ], [ -4.252489907102078, 40.379699479787988 ], [ -4.254710555004603, 40.379699479787988 ], [ -4.254710555004603, 40.380135857845154 ], [ -4.256931202907129, 40.380135857845154 ], [ -4.256931202907129, 40.379263098904268 ], [ -4.25619098693962, 40.379263098904268 ], [ -4.25619098693962, 40.378390328657176 ], [ -4.255450770972112, 40.378390328657176 ], [ -4.255450770972112, 40.377517547103949 ], [ -4.254710555004603, 40.377517547103949 ], [ -4.254710555004603, 40.377081152087541 ], [ -4.251009475167062, 40.377081152087541 ], [ -4.251009475167062, 40.376644754244623 ], [ -4.250269259199554, 40.376644754244623 ], [ -4.250269259199554, 40.375771950079262 ], [ -4.249529043232045, 40.375771950079262 ], [ -4.249529043232045, 40.374899134607922 ], [ -4.248788827264537, 40.374899134607922 ], [ -4.248788827264537, 40.374026307830668 ], [ -4.248048611297029, 40.374026307830668 ], [ -4.248048611297029, 40.370098447423743 ], [ -4.247308395329521, 40.370098447423743 ], [ -4.247308395329521, 40.364860944088605 ], [ -4.246568179362012, 40.364860944088605 ], [ -4.246568179362012, 40.361805545858779 ], [ -4.247308395329521, 40.361805545858779 ], [ -4.247308395329521, 40.360059541835085 ], [ -4.248048611297029, 40.360059541835085 ], [ -4.248048611297029, 40.358750009141751 ], [ -4.248788827264537, 40.358750009141751 ], [ -4.248788827264537, 40.358313492591527 ], [ -4.250269259199554, 40.358313492591527 ], [ -4.250269259199554, 40.357876973215085 ], [ -4.25174969113457, 40.357876973215085 ], [ -4.25174969113457, 40.357440451012444 ], [ -4.252489907102078, 40.357440451012444 ], [ -4.252489907102078, 40.355257797606349 ], [ -4.253230123069587, 40.355257797606349 ], [ -4.253230123069587, 40.35351162401048 ], [ -4.253970339037094, 40.35351162401048 ], [ -4.253970339037094, 40.353075073546165 ], [ -4.254710555004603, 40.353075073546165 ], [ -4.254710555004603, 40.352638520255709 ], [ -4.255450770972112, 40.352638520255709 ], [ -4.255450770972112, 40.351765405196446 ], [ -4.25619098693962, 40.351765405196446 ], [ -4.25619098693962, 40.351328843427652 ], [ -4.256931202907129, 40.351328843427652 ], [ -4.256931202907129, 40.350455711411769 ], [ -4.257671418874637, 40.350455711411769 ], [ -4.257671418874637, 40.350019141164694 ], [ -4.258411634842145, 40.350019141164694 ], [ -4.258411634842145, 40.349145992192305 ], [ -4.259151850809653, 40.349145992192305 ], [ -4.259151850809653, 40.348709413467006 ], [ -4.259892066777161, 40.348709413467006 ], [ -4.259892066777161, 40.348272831915658 ], [ -4.259151850809653, 40.348272831915658 ], [ -4.259151850809653, 40.347836247538254 ], [ -4.257671418874637, 40.347836247538254 ], [ -4.257671418874637, 40.347399660334808 ], [ -4.256931202907129, 40.347399660334808 ], [ -4.256931202907129, 40.346963070305314 ], [ -4.255450770972112, 40.346963070305314 ], [ -4.255450770972112, 40.346526477449807 ], [ -4.253970339037094, 40.346526477449807 ], [ -4.253970339037094, 40.346089881768265 ], [ -4.252489907102078, 40.346089881768265 ], [ -4.252489907102078, 40.345653283260717 ], [ -4.251009475167062, 40.345653283260717 ], [ -4.251009475167062, 40.344780077767581 ], [ -4.250269259199554, 40.344780077767581 ], [ -4.250269259199554, 40.344343470782029 ], [ -4.249529043232045, 40.344343470782029 ], [ -4.249529043232045, 40.343470248332949 ], [ -4.248788827264537, 40.343470248332949 ], [ -4.248788827264537, 40.343033632869449 ], [ -4.248048611297029, 40.343033632869449 ], [ -4.248048611297029, 40.342160393464553 ], [ -4.247308395329521, 40.342160393464553 ], [ -4.247308395329521, 40.337794026884048 ], [ -4.248048611297029, 40.337794026884048 ], [ -4.248048611297029, 40.335610737622801 ], [ -4.248788827264537, 40.335610737622801 ], [ -4.248788827264537, 40.335174071292975 ], [ -4.250269259199554, 40.335174071292975 ], [ -4.250269259199554, 40.334737402137328 ], [ -4.251009475167062, 40.334737402137328 ], [ -4.251009475167062, 40.334300730155832 ], [ -4.253970339037094, 40.334300730155832 ], [ -4.253970339037094, 40.334737402137328 ], [ -4.255450770972112, 40.334737402137328 ], [ -4.255450770972112, 40.335174071292975 ], [ -4.257671418874637, 40.335174071292975 ], [ -4.257671418874637, 40.335610737622801 ], [ -4.259151850809653, 40.335610737622801 ], [ -4.259151850809653, 40.336047401126777 ], [ -4.259892066777161, 40.336047401126777 ], [ -4.259892066777161, 40.335610737622801 ], [ -4.260632282744671, 40.335610737622801 ], [ -4.260632282744671, 40.333864055348521 ], [ -4.261372498712178, 40.333864055348521 ], [ -4.261372498712178, 40.333427377715388 ], [ -4.262112714679686, 40.333427377715388 ], [ -4.262112714679686, 40.332990697256449 ], [ -4.263593146614703, 40.332990697256449 ], [ -4.263593146614703, 40.332554013971695 ], [ -4.264333362582212, 40.332554013971695 ], [ -4.264333362582212, 40.332117327861148 ], [ -4.26507357854972, 40.332117327861148 ], [ -4.26507357854972, 40.346963070305314 ], [ -4.262852930647195, 40.346963070305314 ], [ -4.262852930647195, 40.347399660334808 ], [ -4.262112714679686, 40.347399660334808 ], [ -4.262112714679686, 40.347836247538254 ], [ -4.261372498712178, 40.347836247538254 ], [ -4.261372498712178, 40.348272831915658 ], [ -4.260632282744671, 40.348272831915658 ], [ -4.260632282744671, 40.348709413467006 ], [ -4.26507357854972, 40.348709413467006 ], [ -4.26507357854972, 40.381008605479778 ], [ -4.259151850809653, 40.381008605479778 ], [ -4.259151850809653, 40.381444975057235 ], [ -4.259892066777161, 40.381444975057235 ], [ -4.259892066777161, 40.384499482954602 ], [ -4.260632282744671, 40.384499482954602 ], [ -4.260632282744671, 40.385372174057103 ], [ -4.26507357854972, 40.385372174057103 ], [ -4.26507357854972, 40.417217660895908 ], [ -4.263593146614703, 40.417217660895908 ], [ -4.263593146614703, 40.416781523121657 ], [ -4.262852930647195, 40.416781523121657 ], [ -4.262852930647195, 40.417217660895908 ], [ -4.262112714679686, 40.417217660895908 ], [ -4.262112714679686, 40.417653795843009 ], [ -4.261372498712178, 40.417653795843009 ], [ -4.261372498712178, 40.418089927962939 ], [ -4.260632282744671, 40.418089927962939 ], [ -4.260632282744671, 40.418526057255697 ], [ -4.259892066777161, 40.418526057255697 ], [ -4.259892066777161, 40.418962183721284 ], [ -4.258411634842145, 40.418962183721284 ], [ -4.258411634842145, 40.418526057255697 ], [ -4.257671418874637, 40.418526057255697 ], [ -4.257671418874637, 40.418089927962939 ], [ -4.255450770972112, 40.418089927962939 ], [ -4.255450770972112, 40.418526057255697 ], [ -4.254710555004603, 40.418526057255697 ], [ -4.254710555004603, 40.418962183721284 ], [ -4.253230123069587, 40.418962183721284 ], [ -4.253230123069587, 40.419398307359678 ], [ -4.25174969113457, 40.419398307359678 ], [ -4.25174969113457, 40.419834428170894 ], [ -4.251009475167062, 40.419834428170894 ], [ -4.251009475167062, 40.420270546154889 ], [ -4.249529043232045, 40.420270546154889 ], [ -4.249529043232045, 40.420706661311698 ], [ -4.248788827264537, 40.420706661311698 ], [ -4.248788827264537, 40.421142773641293 ], [ -4.245827963394503, 40.421142773641293 ], [ -4.245827963394503, 40.420706661311698 ], [ -4.245087747426995, 40.420706661311698 ] ] ] ] } }
]
}
