{
"type": "FeatureCollection",
"name": "spain_fires_modis_ba",
"crs": { "type": "name", "properties": { "name": "urn:ogc:def:crs:OGC:1.3:CRS84" } },
"features": [
{ "type": "Feature", "properties": { }, "geometry": { "type": "Polygon", "coordinates": [ [ [ -8.032772853167142, 41.484546591714007 ], [ -8.031292421232127, 41.484546591714007 ], [ -8.031292421232127, 41.484117447926472 ], [ -8.032032637199634, 41.484117447926472 ], [ -8.032032637199634, 41.483688301296766 ], [ -8.032772853167142, 41.483688301296766 ], [ -8.032772853167142, 41.484546591714007 ] ] ] } }
]
}
