{
"type": "FeatureCollection",
"name": "spain_fires_nrt_ba",
"crs": { "type": "name", "properties": { "name": "urn:ogc:def:crs:OGC:1.3:CRS84" } },
"features": [
{ "type": "Feature", "properties": { }, "geometry": { "type": "MultiPolygon", "coordinates": [ [ [ [ -7.664885517315501, 37.460254267059653 ], [ -7.663405085380483, 37.460254267059653 ], [ -7.663405085380483, 37.459799550652178 ], [ -7.662664869412974, 37.459799550652178 ], [ -7.662664869412974, 37.459344831479605 ], [ -7.661924653445467, 37.459344831479605 ], [ -7.661924653445467, 37.457525927138562 ], [ -7.661184437477959, 37.457525927138562 ], [ -7.661184437477959, 37.45525223449895 ], [ -7.66044422151045, 37.45525223449895 ], [ -7.66044422151045, 37.453433230617541 ], [ -7.659704005542943, 37.453433230617541 ], [ -7.659704005542943, 37.451614182497188 ], [ -7.66044422151045, 37.451614182497188 ], [ -7.66044422151045, 37.450704641847658 ], [ -7.661184437477959, 37.450704641847658 ], [ -7.661184437477959, 37.449340310136911 ], [ -7.661924653445467, 37.449340310136911 ], [ -7.661924653445467, 37.448430741838926 ], [ -7.662664869412974, 37.448430741838926 ], [ -7.662664869412974, 37.447066368655967 ], [ -7.663405085380483, 37.447066368655967 ], [ -7.663405085380483, 37.446156772710133 ], [ -7.664145301347991, 37.446156772710133 ], [ -7.664145301347991, 37.444792358055828 ], [ -7.664885517315501, 37.444792358055828 ], [ -7.664885517315501, 37.444337547641624 ], [ -7.66562573328301, 37.444337547641624 ], [ -7.66562573328301, 37.443882734462726 ], [ -7.666365949250517, 37.443882734462726 ], [ -7.666365949250517, 37.443427918519149 ], [ -7.667846381185534, 37.443427918519149 ], [ -7.667846381185534, 37.442973099810885 ], [ -7.670067029088058, 37.442973099810885 ], [ -7.670067029088058, 37.443427918519149 ], [ -7.671547461023076, 37.443427918519149 ], [ -7.671547461023076, 37.443882734462726 ], [ -7.672287676990583, 37.443882734462726 ], [ -7.672287676990583, 37.444337547641624 ], [ -7.673027892958092, 37.444337547641624 ], [ -7.673027892958092, 37.444792358055828 ], [ -7.673768108925601, 37.444792358055828 ], [ -7.673768108925601, 37.447066368655967 ], [ -7.674508324893108, 37.447066368655967 ], [ -7.674508324893108, 37.449340310136911 ], [ -7.675248540860617, 37.449340310136911 ], [ -7.675248540860617, 37.45297847273482 ], [ -7.674508324893108, 37.45297847273482 ], [ -7.674508324893108, 37.453887985735321 ], [ -7.673768108925601, 37.453887985735321 ], [ -7.673768108925601, 37.45525223449895 ], [ -7.673027892958092, 37.45525223449895 ], [ -7.673027892958092, 37.456161719849817 ], [ -7.672287676990583, 37.456161719849817 ], [ -7.672287676990583, 37.457525927138562 ], [ -7.671547461023076, 37.457525927138562 ], [ -7.671547461023076, 37.458435384839206 ], [ -7.670807245055567, 37.458435384839206 ], [ -7.670807245055567, 37.459344831479605 ], [ -7.670067029088058, 37.459344831479605 ], [ -7.670067029088058, 37.459799550652178 ], [ -7.66932681312055, 37.459799550652178 ], [ -7.66932681312055, 37.460254267059653 ], [ -7.667846381185534, 37.460254267059653 ], [ -7.667846381185534, 37.460708980702009 ], [ -7.667106165218026, 37.460708980702009 ], [ -7.667106165218026, 37.461163691579245 ], [ -7.66562573328301, 37.461163691579245 ], [ -7.66562573328301, 37.460708980702009 ], [ -7.664885517315501, 37.460708980702009 ], [ -7.664885517315501, 37.460254267059653 ] ] ], [ [ [ -8.812220266953418, 38.560156426301404 ], [ -8.812220266953418, 38.559260534369486 ], [ -8.811480050985908, 38.559260534369486 ], [ -8.811480050985908, 38.558364631270955 ], [ -8.809259403083384, 38.558364631270955 ], [ -8.809259403083384, 38.557916675534237 ], [ -8.807778971148368, 38.557916675534237 ], [ -8.807778971148368, 38.557468717005911 ], [ -8.806298539213351, 38.557468717005911 ], [ -8.806298539213351, 38.556572791574418 ], [ -8.805558323245844, 38.556572791574418 ], [ -8.805558323245844, 38.554332929143044 ], [ -8.804818107278335, 38.554332929143044 ], [ -8.804818107278335, 38.55209299692315 ], [ -8.804077891310827, 38.55209299692315 ], [ -8.804077891310827, 38.548060943064293 ], [ -8.804818107278335, 38.548060943064293 ], [ -8.804818107278335, 38.54626884655017 ], [ -8.805558323245844, 38.54626884655017 ], [ -8.805558323245844, 38.545820815443214 ], [ -8.807778971148368, 38.545820815443214 ], [ -8.807778971148368, 38.545372781544899 ], [ -8.809999619050894, 38.545372781544899 ], [ -8.809999619050894, 38.544924744855265 ], [ -8.812220266953418, 38.544924744855265 ], [ -8.812220266953418, 38.545820815443214 ], [ -8.812960482920927, 38.545820815443214 ], [ -8.812960482920927, 38.54626884655017 ], [ -8.813700698888436, 38.54626884655017 ], [ -8.813700698888436, 38.54716490038998 ], [ -8.814440914855945, 38.54716490038998 ], [ -8.814440914855945, 38.547612923122827 ], [ -8.81592134679096, 38.547612923122827 ], [ -8.81592134679096, 38.548060943064293 ], [ -8.817401778725978, 38.548060943064293 ], [ -8.817401778725978, 38.548508960214342 ], [ -8.818882210660993, 38.548508960214342 ], [ -8.818882210660993, 38.548956974572988 ], [ -8.819622426628502, 38.548956974572988 ], [ -8.819622426628502, 38.550749004093248 ], [ -8.82036264259601, 38.550749004093248 ], [ -8.82036264259601, 38.552988978185653 ], [ -8.821102858563519, 38.552988978185653 ], [ -8.821102858563519, 38.555228882490297 ], [ -8.821843074531026, 38.555228882490297 ], [ -8.821843074531026, 38.556572791574418 ], [ -8.821102858563519, 38.556572791574418 ], [ -8.821102858563519, 38.558364631270955 ], [ -8.82036264259601, 38.558364631270955 ], [ -8.82036264259601, 38.559708481731271 ], [ -8.819622426628502, 38.559708481731271 ], [ -8.819622426628502, 38.560156426301404 ], [ -8.817401778725978, 38.560156426301404 ], [ -8.817401778725978, 38.560604368079865 ], [ -8.815181130823452, 38.560604368079865 ], [ -8.815181130823452, 38.561052307066653 ], [ -8.813700698888436, 38.561052307066653 ], [ -8.813700698888436, 38.560604368079865 ], [ -8.812960482920927, 38.560604368079865 ], [ -8.812960482920927, 38.560156426301404 ], [ -8.812220266953418, 38.560156426301404 ] ] ], [ [ [ -4.044489220232236, 38.6720549543071 ], [ -4.043749004264727, 38.6720549543071 ], [ -4.043749004264727, 38.671607707963283 ], [ -4.04300878829722, 38.671607707963283 ], [ -4.04300878829722, 38.667582365134152 ], [ -4.042268572329712, 38.667582365134152 ], [ -4.042268572329712, 38.665793251231186 ], [ -4.04300878829722, 38.665793251231186 ], [ -4.04300878829722, 38.66489867751563 ], [ -4.043749004264727, 38.66489867751563 ], [ -4.043749004264727, 38.664451386466865 ], [ -4.044489220232236, 38.664451386466865 ], [ -4.044489220232236, 38.664004092624126 ], [ -4.045229436199745, 38.664004092624126 ], [ -4.045229436199745, 38.663556795987432 ], [ -4.045969652167253, 38.663556795987432 ], [ -4.045969652167253, 38.662662194332171 ], [ -4.046709868134761, 38.662662194332171 ], [ -4.046709868134761, 38.662214889313624 ], [ -4.04745008410227, 38.662214889313624 ], [ -4.04745008410227, 38.661767581501152 ], [ -4.048190300069779, 38.661767581501152 ], [ -4.048190300069779, 38.66132027089477 ], [ -4.048930516037286, 38.66132027089477 ], [ -4.048930516037286, 38.660872957494476 ], [ -4.049670732004794, 38.660872957494476 ], [ -4.049670732004794, 38.659978322312213 ], [ -4.050410947972303, 38.659978322312213 ], [ -4.050410947972303, 38.659531000530258 ], [ -4.052631595874828, 38.659531000530258 ], [ -4.052631595874828, 38.659978322312213 ], [ -4.053371811842336, 38.659978322312213 ], [ -4.053371811842336, 38.660425641300293 ], [ -4.054112027809845, 38.660425641300293 ], [ -4.054112027809845, 38.660872957494476 ], [ -4.054852243777353, 38.660872957494476 ], [ -4.054852243777353, 38.66132027089477 ], [ -4.05633267571237, 38.66132027089477 ], [ -4.05633267571237, 38.661767581501152 ], [ -4.057072891679878, 38.661767581501152 ], [ -4.057072891679878, 38.662214889313624 ], [ -4.057813107647386, 38.662214889313624 ], [ -4.057813107647386, 38.663109496556771 ], [ -4.058553323614895, 38.663109496556771 ], [ -4.058553323614895, 38.66489867751563 ], [ -4.059293539582403, 38.66489867751563 ], [ -4.059293539582403, 38.667135090849449 ], [ -4.058553323614895, 38.667135090849449 ], [ -4.058553323614895, 38.668924171223956 ], [ -4.057813107647386, 38.668924171223956 ], [ -4.057813107647386, 38.670265952167078 ], [ -4.05633267571237, 38.670265952167078 ], [ -4.05633267571237, 38.670713206893261 ], [ -4.054852243777353, 38.670713206893261 ], [ -4.054852243777353, 38.671160458825334 ], [ -4.054112027809845, 38.671160458825334 ], [ -4.054112027809845, 38.671607707963283 ], [ -4.052631595874828, 38.671607707963283 ], [ -4.052631595874828, 38.6720549543071 ], [ -4.051151163939811, 38.6720549543071 ], [ -4.051151163939811, 38.672502197856772 ], [ -4.049670732004794, 38.672502197856772 ], [ -4.049670732004794, 38.672949438612285 ], [ -4.048190300069779, 38.672949438612285 ], [ -4.048190300069779, 38.67339667657366 ], [ -4.046709868134761, 38.67339667657366 ], [ -4.046709868134761, 38.672949438612285 ], [ -4.045969652167253, 38.672949438612285 ], [ -4.045969652167253, 38.672502197856772 ], [ -4.044489220232236, 38.672502197856772 ], [ -4.044489220232236, 38.6720549543071 ] ] ], [ [ [ -3.970467623481403, 38.67876331416177 ], [ -3.970467623481403, 38.678316109731114 ], [ -3.969727407513894, 38.678316109731114 ], [ -3.969727407513894, 38.677868902506191 ], [ -3.968987191546386, 38.677868902506191 ], [ -3.968987191546386, 38.675632824467677 ], [ -3.968246975578877, 38.675632824467677 ], [ -3.968246975578877, 38.67339667657366 ], [ -3.96750675961137, 38.67339667657366 ], [ -3.96750675961137, 38.671607707963283 ], [ -3.966766543643861, 38.671607707963283 ], [ -3.966766543643861, 38.670265952167078 ], [ -3.96750675961137, 38.670265952167078 ], [ -3.96750675961137, 38.668476905321405 ], [ -3.968246975578877, 38.668476905321405 ], [ -3.968246975578877, 38.667135090849449 ], [ -3.968987191546386, 38.667135090849449 ], [ -3.968987191546386, 38.666687813770714 ], [ -3.970467623481403, 38.666687813770714 ], [ -3.970467623481403, 38.666240533897948 ], [ -3.972688271383928, 38.666240533897948 ], [ -3.972688271383928, 38.665793251231186 ], [ -3.974168703318945, 38.665793251231186 ], [ -3.974168703318945, 38.665345965770399 ], [ -3.976389351221469, 38.665345965770399 ], [ -3.976389351221469, 38.66489867751563 ], [ -3.977869783156486, 38.66489867751563 ], [ -3.977869783156486, 38.664451386466865 ], [ -3.980090431059011, 38.664451386466865 ], [ -3.980090431059011, 38.664004092624126 ], [ -3.983051294929045, 38.664004092624126 ], [ -3.983051294929045, 38.664451386466865 ], [ -3.983791510896553, 38.664451386466865 ], [ -3.983791510896553, 38.66489867751563 ], [ -3.984531726864061, 38.66489867751563 ], [ -3.984531726864061, 38.665345965770399 ], [ -3.98527194283157, 38.665345965770399 ], [ -3.98527194283157, 38.665793251231186 ], [ -3.986012158799078, 38.665793251231186 ], [ -3.986012158799078, 38.666240533897948 ], [ -3.986752374766586, 38.666240533897948 ], [ -3.986752374766586, 38.667135090849449 ], [ -3.987492590734095, 38.667135090849449 ], [ -3.987492590734095, 38.669371434332412 ], [ -3.988232806701603, 38.669371434332412 ], [ -3.988232806701603, 38.674291144113845 ], [ -3.987492590734095, 38.674291144113845 ], [ -3.987492590734095, 38.676080045663852 ], [ -3.986752374766586, 38.676080045663852 ], [ -3.986752374766586, 38.676527264065811 ], [ -3.986012158799078, 38.676527264065811 ], [ -3.986012158799078, 38.676974479673518 ], [ -3.983791510896553, 38.676974479673518 ], [ -3.983791510896553, 38.677421692486988 ], [ -3.982311078961537, 38.677421692486988 ], [ -3.982311078961537, 38.677868902506191 ], [ -3.980090431059011, 38.677868902506191 ], [ -3.980090431059011, 38.678316109731114 ], [ -3.978609999123995, 38.678316109731114 ], [ -3.978609999123995, 38.67876331416177 ], [ -3.976389351221469, 38.67876331416177 ], [ -3.976389351221469, 38.679210515798125 ], [ -3.974908919286453, 38.679210515798125 ], [ -3.974908919286453, 38.679657714640193 ], [ -3.972688271383928, 38.679657714640193 ], [ -3.972688271383928, 38.679210515798125 ], [ -3.971948055416419, 38.679210515798125 ], [ -3.971948055416419, 38.67876331416177 ], [ -3.970467623481403, 38.67876331416177 ] ] ], [ [ [ -8.949900436909967, 39.096564589187885 ], [ -8.94916022094246, 39.096564589187885 ], [ -8.94916022094246, 39.096120007195466 ], [ -8.948420004974951, 39.096120007195466 ], [ -8.948420004974951, 39.095675422399907 ], [ -8.947679789007443, 39.095675422399907 ], [ -8.947679789007443, 39.095230834801249 ], [ -8.946939573039934, 39.095230834801249 ], [ -8.946939573039934, 39.094786244399472 ], [ -8.946199357072427, 39.094786244399472 ], [ -8.946199357072427, 39.094341651194611 ], [ -8.945459141104919, 39.094341651194611 ], [ -8.945459141104919, 39.092563250344362 ], [ -8.94471892513741, 39.092563250344362 ], [ -8.94471892513741, 39.089895564977652 ], [ -8.943978709169901, 39.089895564977652 ], [ -8.943978709169901, 39.087227778703081 ], [ -8.943238493202394, 39.087227778703081 ], [ -8.943238493202394, 39.084559891522609 ], [ -8.942498277234886, 39.084559891522609 ], [ -8.942498277234886, 39.080557871557673 ], [ -8.943238493202394, 39.080557871557673 ], [ -8.943238493202394, 39.079223814451872 ], [ -8.943978709169901, 39.079223814451872 ], [ -8.943978709169901, 39.078334429034115 ], [ -8.94471892513741, 39.078334429034115 ], [ -8.94471892513741, 39.077000329886801 ], [ -8.945459141104919, 39.077000329886801 ], [ -8.945459141104919, 39.076110916441579 ], [ -8.946199357072427, 39.076110916441579 ], [ -8.946199357072427, 39.075221491785513 ], [ -8.946939573039934, 39.075221491785513 ], [ -8.946939573039934, 39.073887333781208 ], [ -8.947679789007443, 39.073887333781208 ], [ -8.947679789007443, 39.073442608841091 ], [ -8.94916022094246, 39.073442608841091 ], [ -8.94916022094246, 39.072997881098317 ], [ -8.950640652877476, 39.072997881098317 ], [ -8.950640652877476, 39.072553150552899 ], [ -8.952121084812493, 39.072553150552899 ], [ -8.952121084812493, 39.072108417204838 ], [ -8.953601516747511, 39.072108417204838 ], [ -8.953601516747511, 39.07166368105414 ], [ -8.955081948682528, 39.07166368105414 ], [ -8.955081948682528, 39.072108417204838 ], [ -8.957302596585052, 39.072108417204838 ], [ -8.957302596585052, 39.072553150552899 ], [ -8.959523244487578, 39.072553150552899 ], [ -8.959523244487578, 39.072997881098317 ], [ -8.960263460455085, 39.072997881098317 ], [ -8.960263460455085, 39.073887333781208 ], [ -8.961003676422594, 39.073887333781208 ], [ -8.961003676422594, 39.076110916441579 ], [ -8.961743892390102, 39.076110916441579 ], [ -8.961743892390102, 39.077889732121101 ], [ -8.962484108357609, 39.077889732121101 ], [ -8.962484108357609, 39.081891903438226 ], [ -8.961743892390102, 39.081891903438226 ], [ -8.961743892390102, 39.083670573372601 ], [ -8.961003676422594, 39.083670573372601 ], [ -8.961003676422594, 39.084559891522609 ], [ -8.959523244487578, 39.084559891522609 ], [ -8.959523244487578, 39.087227778703081 ], [ -8.960263460455085, 39.087227778703081 ], [ -8.960263460455085, 39.089450940939322 ], [ -8.961003676422594, 39.089450940939322 ], [ -8.961003676422594, 39.092118643124152 ], [ -8.960263460455085, 39.092118643124152 ], [ -8.960263460455085, 39.093897055186659 ], [ -8.959523244487578, 39.093897055186659 ], [ -8.959523244487578, 39.095230834801249 ], [ -8.957302596585052, 39.095230834801249 ], [ -8.957302596585052, 39.095675422399907 ], [ -8.955822164650035, 39.095675422399907 ], [ -8.955822164650035, 39.096120007195466 ], [ -8.954341732715019, 39.096120007195466 ], [ -8.954341732715019, 39.096564589187885 ], [ -8.952861300780002, 39.096564589187885 ], [ -8.952861300780002, 39.097009168377184 ], [ -8.951380868844984, 39.097009168377184 ], [ -8.951380868844984, 39.097453744763342 ], [ -8.950640652877476, 39.097453744763342 ], [ -8.950640652877476, 39.097009168377184 ], [ -8.949900436909967, 39.097009168377184 ], [ -8.949900436909967, 39.096564589187885 ] ] ], [ [ [ -5.724039250508648, 43.535697187634213 ], [ -5.724039250508648, 43.534866610620547 ], [ -5.723299034541139, 43.534866610620547 ], [ -5.723299034541139, 43.53403602216698 ], [ -5.72255881857363, 43.53403602216698 ], [ -5.72255881857363, 43.533205422273518 ], [ -5.721818602606122, 43.533205422273518 ], [ -5.721818602606122, 43.531959500983589 ], [ -5.721078386638613, 43.531959500983589 ], [ -5.721078386638613, 43.531128872490477 ], [ -5.720338170671106, 43.531128872490477 ], [ -5.720338170671106, 43.521991204041377 ], [ -5.721078386638613, 43.521991204041377 ], [ -5.721078386638613, 43.520745051096618 ], [ -5.721818602606122, 43.520745051096618 ], [ -5.721818602606122, 43.519914268167263 ], [ -5.72255881857363, 43.519914268167263 ], [ -5.72255881857363, 43.519083473798304 ], [ -5.723299034541139, 43.519083473798304 ], [ -5.723299034541139, 43.517837260795666 ], [ -5.724039250508648, 43.517837260795666 ], [ -5.724039250508648, 43.51742185074167 ], [ -5.724779466476156, 43.51742185074167 ], [ -5.724779466476156, 43.517006437827789 ], [ -5.737363137923798, 43.517006437827789 ], [ -5.737363137923798, 43.51742185074167 ], [ -5.738103353891305, 43.51742185074167 ], [ -5.738103353891305, 43.517837260795666 ], [ -5.738843569858814, 43.517837260795666 ], [ -5.738843569858814, 43.518252667989771 ], [ -5.739583785826321, 43.518252667989771 ], [ -5.739583785826321, 43.518668072323983 ], [ -5.74032400179383, 43.518668072323983 ], [ -5.74032400179383, 43.520745051096618 ], [ -5.741064217761339, 43.520745051096618 ], [ -5.741064217761339, 43.523652701262279 ], [ -5.741804433728848, 43.523652701262279 ], [ -5.741804433728848, 43.526560211291923 ], [ -5.742544649696356, 43.526560211291923 ], [ -5.742544649696356, 43.529467581184797 ], [ -5.741804433728848, 43.529467581184797 ], [ -5.741804433728848, 43.530298232557548 ], [ -5.741064217761339, 43.530298232557548 ], [ -5.741064217761339, 43.531128872490477 ], [ -5.74032400179383, 43.531128872490477 ], [ -5.74032400179383, 43.531959500983589 ], [ -5.73662292195629, 43.531959500983589 ], [ -5.73662292195629, 43.53237481094019 ], [ -5.73588270598878, 43.53237481094019 ], [ -5.73588270598878, 43.533620723650237 ], [ -5.735142490021273, 43.533620723650237 ], [ -5.735142490021273, 43.534451317823752 ], [ -5.734402274053765, 43.534451317823752 ], [ -5.734402274053765, 43.535281900557365 ], [ -5.733662058086256, 43.535281900557365 ], [ -5.733662058086256, 43.536112471851069 ], [ -5.732921842118747, 43.536112471851069 ], [ -5.732921842118747, 43.536527753207956 ], [ -5.727000114378681, 43.536527753207956 ], [ -5.727000114378681, 43.536943031704851 ], [ -5.725519682443664, 43.536943031704851 ], [ -5.725519682443664, 43.536527753207956 ], [ -5.724779466476156, 43.536527753207956 ], [ -5.724779466476156, 43.535697187634213 ], [ -5.724039250508648, 43.535697187634213 ] ] ], [ [ [ -5.829149917894831, 43.54773926876247 ], [ -5.827669485959815, 43.54773926876247 ], [ -5.827669485959815, 43.547324064625933 ], [ -5.826189054024797, 43.547324064625933 ], [ -5.826189054024797, 43.546908857629347 ], [ -5.82544883805729, 43.546908857629347 ], [ -5.82544883805729, 43.546493647772721 ], [ -5.824708622089781, 43.546493647772721 ], [ -5.824708622089781, 43.545663219479366 ], [ -5.823968406122273, 43.545663219479366 ], [ -5.823968406122273, 43.544832779745889 ], [ -5.823228190154764, 43.544832779745889 ], [ -5.823228190154764, 43.536527753207956 ], [ -5.822487974187256, 43.536527753207956 ], [ -5.822487974187256, 43.534451317823752 ], [ -5.823228190154764, 43.534451317823752 ], [ -5.823228190154764, 43.533620723650237 ], [ -5.823968406122273, 43.533620723650237 ], [ -5.823968406122273, 43.532790118036843 ], [ -5.824708622089781, 43.532790118036843 ], [ -5.824708622089781, 43.53237481094019 ], [ -5.82544883805729, 43.53237481094019 ], [ -5.82544883805729, 43.531544188167018 ], [ -5.829149917894831, 43.531544188167018 ], [ -5.829149917894831, 43.531128872490477 ], [ -5.835071645634897, 43.531128872490477 ], [ -5.835071645634897, 43.53237481094019 ], [ -5.835811861602406, 43.53237481094019 ], [ -5.835811861602406, 43.533205422273518 ], [ -5.836552077569914, 43.533205422273518 ], [ -5.836552077569914, 43.534451317823752 ], [ -5.837292293537423, 43.534451317823752 ], [ -5.837292293537423, 43.535697187634213 ], [ -5.838032509504931, 43.535697187634213 ], [ -5.838032509504931, 43.536527753207956 ], [ -5.83877272547244, 43.536527753207956 ], [ -5.83877272547244, 43.537773580118674 ], [ -5.839512941439948, 43.537773580118674 ], [ -5.839512941439948, 43.54192615058799 ], [ -5.83877272547244, 43.54192615058799 ], [ -5.83877272547244, 43.545663219479366 ], [ -5.838032509504931, 43.545663219479366 ], [ -5.838032509504931, 43.54607843505606 ], [ -5.837292293537423, 43.54607843505606 ], [ -5.837292293537423, 43.546493647772721 ], [ -5.836552077569914, 43.546493647772721 ], [ -5.836552077569914, 43.547324064625933 ], [ -5.835811861602406, 43.547324064625933 ], [ -5.835811861602406, 43.54773926876247 ], [ -5.835071645634897, 43.54773926876247 ], [ -5.835071645634897, 43.54815447003898 ], [ -5.834331429667389, 43.54815447003898 ], [ -5.834331429667389, 43.548569668455436 ], [ -5.831370565797356, 43.548569668455436 ], [ -5.831370565797356, 43.54815447003898 ], [ -5.829149917894831, 43.54815447003898 ], [ -5.829149917894831, 43.54773926876247 ] ] ], [ [ [ -0.271608433842256, 35.536941188629832 ], [ -0.270868217874747, 35.536941188629832 ], [ -0.270868217874747, 35.536008878650335 ], [ -0.270128001907239, 35.536008878650335 ], [ -0.270128001907239, 35.534144226185013 ], [ -0.269387785939731, 35.534144226185013 ], [ -0.269387785939731, 35.532279530378716 ], [ -0.268647569972222, 35.532279530378716 ], [ -0.268647569972222, 35.530414791232431 ], [ -0.267907354004714, 35.530414791232431 ], [ -0.267907354004714, 35.529482405407087 ], [ -0.268647569972222, 35.529482405407087 ], [ -0.268647569972222, 35.527617601252622 ], [ -0.269387785939731, 35.527617601252622 ], [ -0.269387785939731, 35.52621896969643 ], [ -0.270128001907239, 35.52621896969643 ], [ -0.270128001907239, 35.525752753760564 ], [ -0.270868217874747, 35.525752753760564 ], [ -0.270868217874747, 35.524820313763243 ], [ -0.271608433842256, 35.524820313763243 ], [ -0.271608433842256, 35.524354089701824 ], [ -0.272348649809764, 35.524354089701824 ], [ -0.272348649809764, 35.523887862931907 ], [ -0.273088865777272, 35.523887862931907 ], [ -0.273088865777272, 35.522955401266628 ], [ -0.273829081744781, 35.522955401266628 ], [ -0.273829081744781, 35.522489166371336 ], [ -0.282711673354881, 35.522489166371336 ], [ -0.282711673354881, 35.523421633453495 ], [ -0.283451889322389, 35.523421633453495 ], [ -0.283451889322389, 35.524354089701824 ], [ -0.284192105289897, 35.524354089701824 ], [ -0.284192105289897, 35.525286535116166 ], [ -0.284932321257406, 35.525286535116166 ], [ -0.284932321257406, 35.526685182923728 ], [ -0.285672537224914, 35.526685182923728 ], [ -0.285672537224914, 35.528550008747118 ], [ -0.284932321257406, 35.528550008747118 ], [ -0.284932321257406, 35.5299485996741 ], [ -0.284192105289897, 35.5299485996741 ], [ -0.284192105289897, 35.531347166223014 ], [ -0.283451889322389, 35.531347166223014 ], [ -0.283451889322389, 35.532745708393463 ], [ -0.282711673354881, 35.532745708393463 ], [ -0.282711673354881, 35.534144226185013 ], [ -0.281971457387372, 35.534144226185013 ], [ -0.281971457387372, 35.535542719597274 ], [ -0.281231241419864, 35.535542719597274 ], [ -0.281231241419864, 35.536941188629832 ], [ -0.279750809484847, 35.536941188629832 ], [ -0.279750809484847, 35.537407339556246 ], [ -0.278270377549831, 35.537407339556246 ], [ -0.278270377549831, 35.537873487773723 ], [ -0.276049729647306, 35.537873487773723 ], [ -0.276049729647306, 35.538339633282277 ], [ -0.273829081744781, 35.538339633282277 ], [ -0.273829081744781, 35.537873487773723 ], [ -0.273088865777272, 35.537873487773723 ], [ -0.273088865777272, 35.537407339556246 ], [ -0.271608433842256, 35.537407339556246 ], [ -0.271608433842256, 35.536941188629832 ] ] ], [ [ [ -0.257544330459597, 35.774790994830965 ], [ -0.256804114492089, 35.774790994830965 ], [ -0.256804114492089, 35.773861457243981 ], [ -0.256063898524581, 35.773861457243981 ], [ -0.256063898524581, 35.773396684375754 ], [ -0.255323682557072, 35.773396684375754 ], [ -0.255323682557072, 35.772467130489886 ], [ -0.254583466589564, 35.772467130489886 ], [ -0.254583466589564, 35.770607990120908 ], [ -0.253843250622056, 35.770607990120908 ], [ -0.253843250622056, 35.766889578997329 ], [ -0.253103034654547, 35.766889578997329 ], [ -0.253103034654547, 35.762706158689063 ], [ -0.253843250622056, 35.762706158689063 ], [ -0.253843250622056, 35.762241320629499 ], [ -0.254583466589564, 35.762241320629499 ], [ -0.254583466589564, 35.7617764798538 ], [ -0.255323682557072, 35.7617764798538 ], [ -0.255323682557072, 35.760846790154098 ], [ -0.256063898524581, 35.760846790154098 ], [ -0.256063898524581, 35.760381941230115 ], [ -0.256804114492089, 35.760381941230115 ], [ -0.256804114492089, 35.759917089590083 ], [ -0.257544330459597, 35.759917089590083 ], [ -0.257544330459597, 35.759452235233987 ], [ -0.258284546427106, 35.759452235233987 ], [ -0.258284546427106, 35.758987378161876 ], [ -0.259024762394614, 35.758987378161876 ], [ -0.259024762394614, 35.759452235233987 ], [ -0.259764978362122, 35.759452235233987 ], [ -0.259764978362122, 35.759917089590083 ], [ -0.260505194329631, 35.759917089590083 ], [ -0.260505194329631, 35.760381941230115 ], [ -0.261245410297139, 35.760381941230115 ], [ -0.261245410297139, 35.760846790154098 ], [ -0.261985626264647, 35.760846790154098 ], [ -0.261985626264647, 35.761311636361988 ], [ -0.262725842232156, 35.761311636361988 ], [ -0.262725842232156, 35.7617764798538 ], [ -0.263466058199664, 35.7617764798538 ], [ -0.263466058199664, 35.762241320629499 ], [ -0.264206274167172, 35.762241320629499 ], [ -0.264206274167172, 35.759452235233987 ], [ -0.264946490134681, 35.759452235233987 ], [ -0.264946490134681, 35.758987378161876 ], [ -0.265686706102189, 35.758987378161876 ], [ -0.265686706102189, 35.758057655869585 ], [ -0.266426922069697, 35.758057655869585 ], [ -0.266426922069697, 35.757592790649454 ], [ -0.267167138037206, 35.757592790649454 ], [ -0.267167138037206, 35.757127922713345 ], [ -0.267907354004714, 35.757127922713345 ], [ -0.267907354004714, 35.756663052061278 ], [ -0.272348649809764, 35.756663052061278 ], [ -0.272348649809764, 35.757127922713345 ], [ -0.273088865777272, 35.757127922713345 ], [ -0.273088865777272, 35.757592790649454 ], [ -0.273829081744781, 35.757592790649454 ], [ -0.273829081744781, 35.758522518373731 ], [ -0.274569297712289, 35.758522518373731 ], [ -0.274569297712289, 35.758987378161876 ], [ -0.275309513679797, 35.758987378161876 ], [ -0.275309513679797, 35.759452235233987 ], [ -0.276049729647306, 35.759452235233987 ], [ -0.276049729647306, 35.760381941230115 ], [ -0.276789945614814, 35.760381941230115 ], [ -0.276789945614814, 35.760846790154098 ], [ -0.277530161582322, 35.760846790154098 ], [ -0.277530161582322, 35.766424765383512 ], [ -0.276789945614814, 35.766424765383512 ], [ -0.276789945614814, 35.766889578997329 ], [ -0.276049729647306, 35.766889578997329 ], [ -0.276049729647306, 35.76781919807614 ], [ -0.275309513679797, 35.76781919807614 ], [ -0.275309513679797, 35.768284003541098 ], [ -0.274569297712289, 35.768284003541098 ], [ -0.274569297712289, 35.772467130489886 ], [ -0.273829081744781, 35.772467130489886 ], [ -0.273829081744781, 35.772931908791044 ], [ -0.273088865777272, 35.772931908791044 ], [ -0.273088865777272, 35.773396684375754 ], [ -0.272348649809764, 35.773396684375754 ], [ -0.272348649809764, 35.773861457243981 ], [ -0.271608433842256, 35.773861457243981 ], [ -0.271608433842256, 35.774326227395719 ], [ -0.270868217874747, 35.774326227395719 ], [ -0.270868217874747, 35.774790994830965 ], [ -0.270128001907239, 35.774790994830965 ], [ -0.270128001907239, 35.775255759549673 ], [ -0.269387785939731, 35.775255759549673 ], [ -0.269387785939731, 35.775720521551847 ], [ -0.268647569972222, 35.775720521551847 ], [ -0.268647569972222, 35.776185280837481 ], [ -0.265686706102189, 35.776185280837481 ], [ -0.265686706102189, 35.775720521551847 ], [ -0.261985626264647, 35.775720521551847 ], [ -0.261985626264647, 35.775255759549673 ], [ -0.257544330459597, 35.775255759549673 ], [ -0.257544330459597, 35.774790994830965 ] ] ], [ [ [ -0.276789945614814, 35.824505411354338 ], [ -0.276049729647306, 35.824505411354338 ], [ -0.276049729647306, 35.824040934669902 ], [ -0.273088865777272, 35.824040934669902 ], [ -0.273088865777272, 35.8235764552674 ], [ -0.268647569972222, 35.8235764552674 ], [ -0.268647569972222, 35.82311197314683 ], [ -0.264946490134681, 35.82311197314683 ], [ -0.264946490134681, 35.822647488308213 ], [ -0.264206274167172, 35.822647488308213 ], [ -0.264206274167172, 35.822183000751579 ], [ -0.262725842232156, 35.822183000751579 ], [ -0.262725842232156, 35.821718510476927 ], [ -0.261245410297139, 35.821718510476927 ], [ -0.261245410297139, 35.821254017484272 ], [ -0.260505194329631, 35.821254017484272 ], [ -0.260505194329631, 35.820789521773627 ], [ -0.259024762394614, 35.820789521773627 ], [ -0.259024762394614, 35.820325023345006 ], [ -0.257544330459597, 35.820325023345006 ], [ -0.257544330459597, 35.819860522198454 ], [ -0.256804114492089, 35.819860522198454 ], [ -0.256804114492089, 35.81939601833394 ], [ -0.255323682557072, 35.81939601833394 ], [ -0.255323682557072, 35.818931511751508 ], [ -0.253843250622056, 35.818931511751508 ], [ -0.253843250622056, 35.818467002451158 ], [ -0.253103034654547, 35.818467002451158 ], [ -0.253103034654547, 35.818002490432896 ], [ -0.251622602719531, 35.818002490432896 ], [ -0.251622602719531, 35.81753797569678 ], [ -0.250142170784514, 35.81753797569678 ], [ -0.250142170784514, 35.817073458242774 ], [ -0.249401954817006, 35.817073458242774 ], [ -0.249401954817006, 35.816608938070921 ], [ -0.247921522881989, 35.816608938070921 ], [ -0.247921522881989, 35.817073458242774 ], [ -0.247181306914481, 35.817073458242774 ], [ -0.247181306914481, 35.81753797569678 ], [ -0.245700874979464, 35.81753797569678 ], [ -0.245700874979464, 35.818002490432896 ], [ -0.244960659011956, 35.818002490432896 ], [ -0.244960659011956, 35.818467002451158 ], [ -0.244220443044447, 35.818467002451158 ], [ -0.244220443044447, 35.818931511751508 ], [ -0.242740011109431, 35.818931511751508 ], [ -0.242740011109431, 35.81939601833394 ], [ -0.239779147239397, 35.81939601833394 ], [ -0.239779147239397, 35.818931511751508 ], [ -0.237558499336872, 35.818931511751508 ], [ -0.237558499336872, 35.818467002451158 ], [ -0.236078067401856, 35.818467002451158 ], [ -0.236078067401856, 35.818002490432896 ], [ -0.234597635466839, 35.818002490432896 ], [ -0.234597635466839, 35.81753797569678 ], [ -0.232376987564314, 35.81753797569678 ], [ -0.232376987564314, 35.817073458242774 ], [ -0.231636771596806, 35.817073458242774 ], [ -0.231636771596806, 35.816144415181228 ], [ -0.230896555629297, 35.816144415181228 ], [ -0.230896555629297, 35.815215361248384 ], [ -0.230156339661789, 35.815215361248384 ], [ -0.230156339661789, 35.814286296444358 ], [ -0.229416123694281, 35.814286296444358 ], [ -0.229416123694281, 35.813821759965677 ], [ -0.228675907726772, 35.813821759965677 ], [ -0.228675907726772, 35.813357220769255 ], [ -0.227195475791756, 35.813357220769255 ], [ -0.227195475791756, 35.812892678855093 ], [ -0.225715043856739, 35.812892678855093 ], [ -0.225715043856739, 35.812428134223211 ], [ -0.224234611921722, 35.812428134223211 ], [ -0.224234611921722, 35.810569928518746 ], [ -0.223494395954214, 35.810569928518746 ], [ -0.223494395954214, 35.805924224024189 ], [ -0.224234611921722, 35.805924224024189 ], [ -0.224234611921722, 35.803601269869652 ], [ -0.224974827889231, 35.803601269869652 ], [ -0.224974827889231, 35.803136670886389 ], [ -0.225715043856739, 35.803136670886389 ], [ -0.225715043856739, 35.80220746476764 ], [ -0.226455259824247, 35.80220746476764 ], [ -0.226455259824247, 35.801742857632192 ], [ -0.227195475791756, 35.801742857632192 ], [ -0.227195475791756, 35.801278247779365 ], [ -0.227935691759264, 35.801278247779365 ], [ -0.227935691759264, 35.800813635209181 ], [ -0.230896555629297, 35.800813635209181 ], [ -0.230896555629297, 35.800349019921647 ], [ -0.233117203531822, 35.800349019921647 ], [ -0.233117203531822, 35.799884401916799 ], [ -0.234597635466839, 35.799884401916799 ], [ -0.234597635466839, 35.800349019921647 ], [ -0.235337851434347, 35.800349019921647 ], [ -0.235337851434347, 35.800813635209181 ], [ -0.236078067401856, 35.800813635209181 ], [ -0.236078067401856, 35.801278247779365 ], [ -0.236818283369364, 35.801278247779365 ], [ -0.236818283369364, 35.801742857632192 ], [ -0.237558499336872, 35.801742857632192 ], [ -0.237558499336872, 35.80220746476764 ], [ -0.238298715304381, 35.80220746476764 ], [ -0.238298715304381, 35.800813635209181 ], [ -0.239038931271889, 35.800813635209181 ], [ -0.239038931271889, 35.799884401916799 ], [ -0.239779147239397, 35.799884401916799 ], [ -0.239779147239397, 35.798955157755167 ], [ -0.240519363206906, 35.798955157755167 ], [ -0.240519363206906, 35.798025902724412 ], [ -0.241259579174414, 35.798025902724412 ], [ -0.241259579174414, 35.797561271133148 ], [ -0.244220443044447, 35.797561271133148 ], [ -0.244220443044447, 35.798025902724412 ], [ -0.246441090946972, 35.798025902724412 ], [ -0.246441090946972, 35.798490531598425 ], [ -0.247921522881989, 35.798490531598425 ], [ -0.247921522881989, 35.798955157755167 ], [ -0.248661738849497, 35.798955157755167 ], [ -0.248661738849497, 35.798490531598425 ], [ -0.249401954817006, 35.798490531598425 ], [ -0.249401954817006, 35.798025902724412 ], [ -0.250142170784514, 35.798025902724412 ], [ -0.250142170784514, 35.797561271133148 ], [ -0.250882386752022, 35.797561271133148 ], [ -0.250882386752022, 35.797096636824634 ], [ -0.251622602719531, 35.797096636824634 ], [ -0.251622602719531, 35.796631999798905 ], [ -0.252362818687039, 35.796631999798905 ], [ -0.252362818687039, 35.796167360055968 ], [ -0.253103034654547, 35.796167360055968 ], [ -0.253103034654547, 35.79570271759583 ], [ -0.254583466589564, 35.79570271759583 ], [ -0.254583466589564, 35.796167360055968 ], [ -0.255323682557072, 35.796167360055968 ], [ -0.255323682557072, 35.796631999798905 ], [ -0.256804114492089, 35.796631999798905 ], [ -0.256804114492089, 35.797096636824634 ], [ -0.259764978362122, 35.797096636824634 ], [ -0.259764978362122, 35.796631999798905 ], [ -0.263466058199664, 35.796631999798905 ], [ -0.263466058199664, 35.797096636824634 ], [ -0.264206274167172, 35.797096636824634 ], [ -0.264206274167172, 35.797561271133148 ], [ -0.264946490134681, 35.797561271133148 ], [ -0.264946490134681, 35.798490531598425 ], [ -0.265686706102189, 35.798490531598425 ], [ -0.265686706102189, 35.798955157755167 ], [ -0.266426922069697, 35.798955157755167 ], [ -0.266426922069697, 35.799419781194644 ], [ -0.267167138037206, 35.799419781194644 ], [ -0.267167138037206, 35.799884401916799 ], [ -0.267907354004714, 35.799884401916799 ], [ -0.267907354004714, 35.800349019921647 ], [ -0.268647569972222, 35.800349019921647 ], [ -0.268647569972222, 35.800813635209181 ], [ -0.269387785939731, 35.800813635209181 ], [ -0.269387785939731, 35.801742857632192 ], [ -0.270128001907239, 35.801742857632192 ], [ -0.270128001907239, 35.80220746476764 ], [ -0.270868217874747, 35.80220746476764 ], [ -0.270868217874747, 35.802672069185711 ], [ -0.271608433842256, 35.802672069185711 ], [ -0.271608433842256, 35.803136670886389 ], [ -0.272348649809764, 35.803136670886389 ], [ -0.272348649809764, 35.803601269869652 ], [ -0.273088865777272, 35.803601269869652 ], [ -0.273088865777272, 35.804530459683846 ], [ -0.274569297712289, 35.804530459683846 ], [ -0.274569297712289, 35.804065866135467 ], [ -0.275309513679797, 35.804065866135467 ], [ -0.275309513679797, 35.803136670886389 ], [ -0.276049729647306, 35.803136670886389 ], [ -0.276049729647306, 35.80220746476764 ], [ -0.276789945614814, 35.80220746476764 ], [ -0.276789945614814, 35.801278247779365 ], [ -0.277530161582322, 35.801278247779365 ], [ -0.277530161582322, 35.800813635209181 ], [ -0.282711673354881, 35.800813635209181 ], [ -0.282711673354881, 35.801742857632192 ], [ -0.283451889322389, 35.801742857632192 ], [ -0.283451889322389, 35.802672069185711 ], [ -0.284192105289897, 35.802672069185711 ], [ -0.284192105289897, 35.803136670886389 ], [ -0.284932321257406, 35.803136670886389 ], [ -0.284932321257406, 35.804995050514783 ], [ -0.285672537224914, 35.804995050514783 ], [ -0.285672537224914, 35.811499036806339 ], [ -0.286412753192422, 35.811499036806339 ], [ -0.286412753192422, 35.81753797569678 ], [ -0.287152969159931, 35.81753797569678 ], [ -0.287152969159931, 35.821254017484272 ], [ -0.286412753192422, 35.821254017484272 ], [ -0.286412753192422, 35.822183000751579 ], [ -0.285672537224914, 35.822183000751579 ], [ -0.285672537224914, 35.822647488308213 ], [ -0.284932321257406, 35.822647488308213 ], [ -0.284932321257406, 35.82311197314683 ], [ -0.284192105289897, 35.82311197314683 ], [ -0.284192105289897, 35.8235764552674 ], [ -0.283451889322389, 35.8235764552674 ], [ -0.283451889322389, 35.824040934669902 ], [ -0.282711673354881, 35.824040934669902 ], [ -0.282711673354881, 35.824505411354338 ], [ -0.281971457387372, 35.824505411354338 ], [ -0.281971457387372, 35.824969885320684 ], [ -0.281231241419864, 35.824969885320684 ], [ -0.281231241419864, 35.82543435656892 ], [ -0.280491025452356, 35.82543435656892 ], [ -0.280491025452356, 35.825898825099053 ], [ -0.278270377549831, 35.825898825099053 ], [ -0.278270377549831, 35.82543435656892 ], [ -0.277530161582322, 35.82543435656892 ], [ -0.277530161582322, 35.824969885320684 ], [ -0.276789945614814, 35.824969885320684 ], [ -0.276789945614814, 35.824505411354338 ] ] ], [ [ [ 1.245094083582321, 36.135555728038689 ], [ 1.247314731484846, 36.135555728038689 ], [ 1.247314731484846, 36.135093078437173 ], [ 1.249535379387371, 36.135093078437173 ], [ 1.249535379387371, 36.13463042610794 ], [ 1.25027559535488, 36.13463042610794 ], [ 1.25027559535488, 36.131391783428839 ], [ 1.251015811322388, 36.131391783428839 ], [ 1.251015811322388, 36.127227617884188 ], [ 1.251756027289896, 36.127227617884188 ], [ 1.251756027289896, 36.123525951932208 ], [ 1.251015811322388, 36.123525951932208 ], [ 1.251015811322388, 36.121675053499345 ], [ 1.25027559535488, 36.121675053499345 ], [ 1.25027559535488, 36.120749587919107 ], [ 1.249535379387371, 36.120749587919107 ], [ 1.249535379387371, 36.120286851038067 ], [ 1.247314731484846, 36.120286851038067 ], [ 1.247314731484846, 36.119824111429786 ], [ 1.245834299549829, 36.119824111429786 ], [ 1.245834299549829, 36.119361369094264 ], [ 1.243613651647304, 36.119361369094264 ], [ 1.243613651647304, 36.118898624031523 ], [ 1.24139300374478, 36.118898624031523 ], [ 1.24139300374478, 36.119361369094264 ], [ 1.239912571809763, 36.119361369094264 ], [ 1.239912571809763, 36.119824111429786 ], [ 1.239172355842254, 36.119824111429786 ], [ 1.239172355842254, 36.120286851038067 ], [ 1.237691923907238, 36.120286851038067 ], [ 1.237691923907238, 36.120749587919107 ], [ 1.236211491972221, 36.120749587919107 ], [ 1.236211491972221, 36.121212322072857 ], [ 1.235471276004713, 36.121212322072857 ], [ 1.235471276004713, 36.121675053499345 ], [ 1.234731060037205, 36.121675053499345 ], [ 1.234731060037205, 36.122137782198543 ], [ 1.233990844069696, 36.122137782198543 ], [ 1.233990844069696, 36.122600508170429 ], [ 1.233250628102188, 36.122600508170429 ], [ 1.233250628102188, 36.123525951932208 ], [ 1.232510412134679, 36.123525951932208 ], [ 1.232510412134679, 36.123988669722088 ], [ 1.231770196167171, 36.123988669722088 ], [ 1.231770196167171, 36.124451384784592 ], [ 1.231029980199663, 36.124451384784592 ], [ 1.231029980199663, 36.124914097119721 ], [ 1.230289764232154, 36.124914097119721 ], [ 1.230289764232154, 36.125839513607794 ], [ 1.229549548264646, 36.125839513607794 ], [ 1.229549548264646, 36.126302217760696 ], [ 1.228809332297138, 36.126302217760696 ], [ 1.228809332297138, 36.128153007097822 ], [ 1.22806911632963, 36.128153007097822 ], [ 1.22806911632963, 36.132317123546741 ], [ 1.228809332297138, 36.132317123546741 ], [ 1.228809332297138, 36.13370511326643 ], [ 1.229549548264646, 36.13370511326643 ], [ 1.229549548264646, 36.13463042610794 ], [ 1.230289764232154, 36.13463042610794 ], [ 1.230289764232154, 36.135093078437173 ], [ 1.231770196167171, 36.135093078437173 ], [ 1.231770196167171, 36.135555728038689 ], [ 1.232510412134679, 36.135555728038689 ], [ 1.232510412134679, 36.136018374912496 ], [ 1.233990844069696, 36.136018374912496 ], [ 1.233990844069696, 36.136481019058579 ], [ 1.235471276004713, 36.136481019058579 ], [ 1.235471276004713, 36.136943660476909 ], [ 1.239172355842254, 36.136943660476909 ], [ 1.239172355842254, 36.136481019058579 ], [ 1.242133219712288, 36.136481019058579 ], [ 1.242133219712288, 36.136018374912496 ], [ 1.245094083582321, 36.136018374912496 ], [ 1.245094083582321, 36.135555728038689 ] ] ], [ [ [ -1.900823778328099, 36.972128759221675 ], [ -1.900823778328099, 36.971671091079031 ], [ -1.900083562360591, 36.971671091079031 ], [ -1.900083562360591, 36.970755746537762 ], [ -1.899343346393083, 36.970755746537762 ], [ -1.899343346393083, 36.96984039098858 ], [ -1.898603130425575, 36.96984039098858 ], [ -1.898603130425575, 36.96480573870619 ], [ -1.899343346393083, 36.96480573870619 ], [ -1.899343346393083, 36.963890311608054 ], [ -1.900083562360591, 36.963890311608054 ], [ -1.900083562360591, 36.962974873502759 ], [ -1.900823778328099, 36.962974873502759 ], [ -1.900823778328099, 36.962059424390425 ], [ -1.901563994295608, 36.962059424390425 ], [ -1.901563994295608, 36.961143964271145 ], [ -1.902304210263116, 36.961143964271145 ], [ -1.902304210263116, 36.960228493144996 ], [ -1.904524858165641, 36.960228493144996 ], [ -1.904524858165641, 36.959770753454407 ], [ -1.906745506068166, 36.959770753454407 ], [ -1.906745506068166, 36.959313011012128 ], [ -1.908966153970691, 36.959313011012128 ], [ -1.908966153970691, 36.959770753454407 ], [ -1.9097063699382, 36.959770753454407 ], [ -1.9097063699382, 36.960228493144996 ], [ -1.910446585905708, 36.960228493144996 ], [ -1.910446585905708, 36.961143964271145 ], [ -1.911186801873216, 36.961143964271145 ], [ -1.911186801873216, 36.961601695706641 ], [ -1.911927017840724, 36.961601695706641 ], [ -1.911927017840724, 36.962059424390425 ], [ -1.912667233808233, 36.962059424390425 ], [ -1.912667233808233, 36.970298070139158 ], [ -1.911927017840724, 36.970298070139158 ], [ -1.911927017840724, 36.971213420184398 ], [ -1.911186801873216, 36.971213420184398 ], [ -1.911186801873216, 36.972128759221675 ], [ -1.910446585905708, 36.972128759221675 ], [ -1.910446585905708, 36.972586424612288 ], [ -1.9097063699382, 36.972586424612288 ], [ -1.9097063699382, 36.973044087250884 ], [ -1.90526507413315, 36.973044087250884 ], [ -1.90526507413315, 36.972586424612288 ], [ -1.901563994295608, 36.972586424612288 ], [ -1.901563994295608, 36.972128759221675 ], [ -1.900823778328099, 36.972128759221675 ] ] ], [ [ [ -3.476743573153344, 40.253467802761868 ], [ -3.475263141218327, 40.253467802761868 ], [ -3.475263141218327, 40.253030605299436 ], [ -3.47378270928331, 40.253030605299436 ], [ -3.47378270928331, 40.252593405012497 ], [ -3.473042493315802, 40.252593405012497 ], [ -3.473042493315802, 40.252156201901066 ], [ -3.471562061380785, 40.252156201901066 ], [ -3.471562061380785, 40.251718995965156 ], [ -3.470081629445768, 40.251718995965156 ], [ -3.470081629445768, 40.251281787204768 ], [ -3.468601197510752, 40.251281787204768 ], [ -3.468601197510752, 40.250844575619915 ], [ -3.467860981543244, 40.250844575619915 ], [ -3.467860981543244, 40.249970143976832 ], [ -3.467120765575736, 40.249970143976832 ], [ -3.467120765575736, 40.248658475328888 ], [ -3.466380549608227, 40.248658475328888 ], [ -3.466380549608227, 40.246909544256376 ], [ -3.465640333640719, 40.246909544256376 ], [ -3.465640333640719, 40.24559781629582 ], [ -3.46490011767321, 40.24559781629582 ], [ -3.46490011767321, 40.243848806140534 ], [ -3.464159901705703, 40.243848806140534 ], [ -3.464159901705703, 40.241225206177418 ], [ -3.46490011767321, 40.241225206177418 ], [ -3.46490011767321, 40.239476083049205 ], [ -3.465640333640719, 40.239476083049205 ], [ -3.465640333640719, 40.238601504539439 ], [ -3.466380549608227, 40.238601504539439 ], [ -3.466380549608227, 40.238164211048165 ], [ -3.467860981543244, 40.238164211048165 ], [ -3.467860981543244, 40.237726914732633 ], [ -3.469341413478261, 40.237726914732633 ], [ -3.469341413478261, 40.237289615592864 ], [ -3.470821845413277, 40.237289615592864 ], [ -3.470821845413277, 40.236852313628852 ], [ -3.472302277348294, 40.236852313628852 ], [ -3.472302277348294, 40.236415008840616 ], [ -3.475263141218327, 40.236415008840616 ], [ -3.475263141218327, 40.236852313628852 ], [ -3.476743573153344, 40.236852313628852 ], [ -3.476743573153344, 40.237289615592864 ], [ -3.47822400508836, 40.237289615592864 ], [ -3.47822400508836, 40.237726914732633 ], [ -3.480444652990886, 40.237726914732633 ], [ -3.480444652990886, 40.238164211048165 ], [ -3.481925084925902, 40.238164211048165 ], [ -3.481925084925902, 40.238601504539439 ], [ -3.483405516860918, 40.238601504539439 ], [ -3.483405516860918, 40.239038795206454 ], [ -3.484885948795936, 40.239038795206454 ], [ -3.484885948795936, 40.2407879296318 ], [ -3.485626164763444, 40.2407879296318 ], [ -3.485626164763444, 40.242537018868425 ], [ -3.486366380730952, 40.242537018868425 ], [ -3.486366380730952, 40.24428606291589 ], [ -3.48710659669846, 40.24428606291589 ], [ -3.48710659669846, 40.246035061773718 ], [ -3.486366380730952, 40.246035061773718 ], [ -3.486366380730952, 40.247346781261115 ], [ -3.485626164763444, 40.247346781261115 ], [ -3.485626164763444, 40.249095701035969 ], [ -3.484885948795936, 40.249095701035969 ], [ -3.484885948795936, 40.250407361210598 ], [ -3.484145732828428, 40.250407361210598 ], [ -3.484145732828428, 40.252156201901066 ], [ -3.483405516860918, 40.252156201901066 ], [ -3.483405516860918, 40.253030605299436 ], [ -3.481925084925902, 40.253030605299436 ], [ -3.481925084925902, 40.253467802761868 ], [ -3.480444652990886, 40.253467802761868 ], [ -3.480444652990886, 40.253904997399822 ], [ -3.479704437023377, 40.253904997399822 ], [ -3.479704437023377, 40.25434218921324 ], [ -3.47822400508836, 40.25434218921324 ], [ -3.47822400508836, 40.253904997399822 ], [ -3.476743573153344, 40.253904997399822 ], [ -3.476743573153344, 40.253467802761868 ] ] ] ] } }
]
}
