{
"type": "FeatureCollection",
"name": "spain_fires_nrt_ba",
"crs": { "type": "name", "properties": { "name": "urn:ogc:def:crs:OGC:1.3:CRS84" } },
"features": [
{ "type": "Feature", "properties": { }, "geometry": { "type": "MultiPolygon", "coordinates": [ [ [ [ -1.906745506068166, 36.974417058654367 ], [ -1.90526507413315, 36.974417058654367 ], [ -1.90526507413315, 36.97395940427193 ], [ -1.904524858165641, 36.97395940427193 ], [ -1.904524858165641, 36.973501747137441 ], [ -1.903784642198133, 36.973501747137441 ], [ -1.903784642198133, 36.973044087250884 ], [ -1.902304210263116, 36.973044087250884 ], [ -1.902304210263116, 36.972586424612288 ], [ -1.901563994295608, 36.972586424612288 ], [ -1.901563994295608, 36.971213420184398 ], [ -1.900823778328099, 36.971213420184398 ], [ -1.900823778328099, 36.969382709086055 ], [ -1.900083562360591, 36.969382709086055 ], [ -1.900083562360591, 36.967551953956686 ], [ -1.899343346393083, 36.967551953956686 ], [ -1.899343346393083, 36.96572115479708 ], [ -1.898603130425575, 36.96572115479708 ], [ -1.898603130425575, 36.965263448127544 ], [ -1.899343346393083, 36.965263448127544 ], [ -1.899343346393083, 36.964348026533024 ], [ -1.900083562360591, 36.964348026533024 ], [ -1.900083562360591, 36.963432593931294 ], [ -1.900823778328099, 36.963432593931294 ], [ -1.900823778328099, 36.962059424390425 ], [ -1.901563994295608, 36.962059424390425 ], [ -1.901563994295608, 36.961143964271145 ], [ -1.902304210263116, 36.961143964271145 ], [ -1.902304210263116, 36.960228493144996 ], [ -1.903044426230625, 36.960228493144996 ], [ -1.903044426230625, 36.959313011012128 ], [ -1.904524858165641, 36.959313011012128 ], [ -1.904524858165641, 36.959770753454407 ], [ -1.907485722035675, 36.959770753454407 ], [ -1.907485722035675, 36.960228493144996 ], [ -1.908966153970691, 36.960228493144996 ], [ -1.908966153970691, 36.96068623008393 ], [ -1.9097063699382, 36.96068623008393 ], [ -1.9097063699382, 36.961143964271145 ], [ -1.910446585905708, 36.961143964271145 ], [ -1.910446585905708, 36.961601695706641 ], [ -1.911186801873216, 36.961601695706641 ], [ -1.911186801873216, 36.962517150322469 ], [ -1.911927017840724, 36.962517150322469 ], [ -1.911927017840724, 36.962974873502759 ], [ -1.912667233808233, 36.962974873502759 ], [ -1.912667233808233, 36.964348026533024 ], [ -1.913407449775741, 36.964348026533024 ], [ -1.913407449775741, 36.971213420184398 ], [ -1.912667233808233, 36.971213420184398 ], [ -1.912667233808233, 36.973044087250884 ], [ -1.911927017840724, 36.973044087250884 ], [ -1.911927017840724, 36.97395940427193 ], [ -1.910446585905708, 36.97395940427193 ], [ -1.910446585905708, 36.974417058654367 ], [ -1.9097063699382, 36.974417058654367 ], [ -1.9097063699382, 36.974874710284716 ], [ -1.908225938003183, 36.974874710284716 ], [ -1.908225938003183, 36.975332359162977 ], [ -1.907485722035675, 36.975332359162977 ], [ -1.907485722035675, 36.974874710284716 ], [ -1.906745506068166, 36.974874710284716 ], [ -1.906745506068166, 36.974417058654367 ] ] ], [ [ [ -5.502714676223656, 37.376995129215565 ], [ -5.502714676223656, 37.376084682006905 ], [ -5.501974460256147, 37.376084682006905 ], [ -5.501974460256147, 37.375629454258195 ], [ -5.501234244288638, 37.375629454258195 ], [ -5.501234244288638, 37.37517422374659 ], [ -5.50049402832113, 37.37517422374659 ], [ -5.50049402832113, 37.374263754434743 ], [ -5.499013596386114, 37.374263754434743 ], [ -5.499013596386114, 37.37517422374659 ], [ -5.498273380418605, 37.37517422374659 ], [ -5.498273380418605, 37.376084682006905 ], [ -5.497533164451098, 37.376084682006905 ], [ -5.497533164451098, 37.37653990699269 ], [ -5.49605273251608, 37.37653990699269 ], [ -5.49605273251608, 37.376084682006905 ], [ -5.493832084613555, 37.376084682006905 ], [ -5.493832084613555, 37.375629454258195 ], [ -5.49161143671103, 37.375629454258195 ], [ -5.49161143671103, 37.37517422374659 ], [ -5.490871220743522, 37.37517422374659 ], [ -5.490871220743522, 37.374263754434743 ], [ -5.490131004776014, 37.374263754434743 ], [ -5.490131004776014, 37.372442782656805 ], [ -5.489390788808506, 37.372442782656805 ], [ -5.489390788808506, 37.370166505771138 ], [ -5.490131004776014, 37.370166505771138 ], [ -5.490131004776014, 37.368345434532955 ], [ -5.490871220743522, 37.368345434532955 ], [ -5.490871220743522, 37.367434882337584 ], [ -5.492351652678539, 37.367434882337584 ], [ -5.492351652678539, 37.36697960209586 ], [ -5.494572300581064, 37.36697960209586 ], [ -5.494572300581064, 37.366524319091468 ], [ -5.496792948483589, 37.366524319091468 ], [ -5.496792948483589, 37.365613744794729 ], [ -5.497533164451098, 37.365613744794729 ], [ -5.497533164451098, 37.364703159447451 ], [ -5.498273380418605, 37.364703159447451 ], [ -5.498273380418605, 37.363792563049742 ], [ -5.499013596386114, 37.363792563049742 ], [ -5.499013596386114, 37.362881955601672 ], [ -5.505675540093689, 37.362881955601672 ], [ -5.505675540093689, 37.363337260706984 ], [ -5.507896187996214, 37.363337260706984 ], [ -5.507896187996214, 37.363792563049742 ], [ -5.508636403963722, 37.363792563049742 ], [ -5.508636403963722, 37.364247862629888 ], [ -5.50937661993123, 37.364247862629888 ], [ -5.50937661993123, 37.364703159447451 ], [ -5.510116835898738, 37.364703159447451 ], [ -5.510116835898738, 37.365158453502403 ], [ -5.511597267833755, 37.365158453502403 ], [ -5.511597267833755, 37.365613744794729 ], [ -5.512337483801263, 37.365613744794729 ], [ -5.512337483801263, 37.36697960209586 ], [ -5.513077699768772, 37.36697960209586 ], [ -5.513077699768772, 37.368800706486589 ], [ -5.51381791573628, 37.368800706486589 ], [ -5.51381791573628, 37.370621766673828 ], [ -5.513077699768772, 37.370621766673828 ], [ -5.513077699768772, 37.372898029745542 ], [ -5.512337483801263, 37.372898029745542 ], [ -5.512337483801263, 37.375629454258195 ], [ -5.511597267833755, 37.375629454258195 ], [ -5.511597267833755, 37.377450348675495 ], [ -5.50937661993123, 37.377450348675495 ], [ -5.50937661993123, 37.377905565372494 ], [ -5.507155972028706, 37.377905565372494 ], [ -5.507155972028706, 37.378360779306533 ], [ -5.504195108158672, 37.378360779306533 ], [ -5.504195108158672, 37.377450348675495 ], [ -5.503454892191163, 37.377450348675495 ], [ -5.503454892191163, 37.376995129215565 ], [ -5.502714676223656, 37.376995129215565 ] ] ], [ [ [ -6.168168831013648, 38.2904387666688 ], [ -6.168168831013648, 38.288640267830381 ], [ -6.167428615046139, 38.288640267830381 ], [ -6.167428615046139, 38.288190636156997 ], [ -6.16668839907863, 38.288190636156997 ], [ -6.16668839907863, 38.288640267830381 ], [ -6.165948183111123, 38.288640267830381 ], [ -6.165948183111123, 38.289089896718245 ], [ -6.165207967143615, 38.289089896718245 ], [ -6.165207967143615, 38.289539522820618 ], [ -6.163727535208598, 38.289539522820618 ], [ -6.163727535208598, 38.289989146137479 ], [ -6.161506887306073, 38.289989146137479 ], [ -6.161506887306073, 38.289539522820618 ], [ -6.160026455371056, 38.289539522820618 ], [ -6.160026455371056, 38.289089896718245 ], [ -6.159286239403548, 38.289089896718245 ], [ -6.159286239403548, 38.288640267830381 ], [ -6.157805807468531, 38.288640267830381 ], [ -6.157805807468531, 38.288190636156997 ], [ -6.157065591501024, 38.288190636156997 ], [ -6.157065591501024, 38.287741001698151 ], [ -6.155585159566006, 38.287741001698151 ], [ -6.155585159566006, 38.287291364453822 ], [ -6.154844943598499, 38.287291364453822 ], [ -6.154844943598499, 38.286841724424022 ], [ -6.15410472763099, 38.286841724424022 ], [ -6.15410472763099, 38.285942436008092 ], [ -6.153364511663481, 38.285942436008092 ], [ -6.153364511663481, 38.285492787621976 ], [ -6.152624295695974, 38.285492787621976 ], [ -6.152624295695974, 38.284593482493477 ], [ -6.151884079728465, 38.284593482493477 ], [ -6.151884079728465, 38.284143825751116 ], [ -6.151143863760955, 38.284143825751116 ], [ -6.151143863760955, 38.284593482493477 ], [ -6.150403647793447, 38.284593482493477 ], [ -6.150403647793447, 38.285043136450426 ], [ -6.148923215858431, 38.285043136450426 ], [ -6.148923215858431, 38.285492787621976 ], [ -6.145962351988398, 38.285492787621976 ], [ -6.145962351988398, 38.285043136450426 ], [ -6.14522213602089, 38.285043136450426 ], [ -6.14522213602089, 38.284593482493477 ], [ -6.143741704085874, 38.284593482493477 ], [ -6.143741704085874, 38.284143825751116 ], [ -6.143001488118364, 38.284143825751116 ], [ -6.143001488118364, 38.28234517092789 ], [ -6.142261272150856, 38.28234517092789 ], [ -6.142261272150856, 38.280546471539076 ], [ -6.141521056183348, 38.280546471539076 ], [ -6.141521056183348, 38.280096789728582 ], [ -6.142261272150856, 38.280096789728582 ], [ -6.142261272150856, 38.278298034633728 ], [ -6.143001488118364, 38.278298034633728 ], [ -6.143001488118364, 38.276499234974807 ], [ -6.143741704085874, 38.276499234974807 ], [ -6.143741704085874, 38.276049528097012 ], [ -6.14522213602089, 38.276049528097012 ], [ -6.14522213602089, 38.275599818434024 ], [ -6.145962351988398, 38.275599818434024 ], [ -6.145962351988398, 38.275150105985837 ], [ -6.148923215858431, 38.275150105985837 ], [ -6.148923215858431, 38.275599818434024 ], [ -6.150403647793447, 38.275599818434024 ], [ -6.150403647793447, 38.276049528097012 ], [ -6.151143863760955, 38.276049528097012 ], [ -6.151143863760955, 38.276499234974807 ], [ -6.151884079728465, 38.276499234974807 ], [ -6.151884079728465, 38.27784833889686 ], [ -6.152624295695974, 38.27784833889686 ], [ -6.152624295695974, 38.27919741775171 ], [ -6.153364511663481, 38.27919741775171 ], [ -6.153364511663481, 38.278298034633728 ], [ -6.15410472763099, 38.278298034633728 ], [ -6.15410472763099, 38.277398640374741 ], [ -6.154844943598499, 38.277398640374741 ], [ -6.154844943598499, 38.276948939067388 ], [ -6.157805807468531, 38.276948939067388 ], [ -6.157805807468531, 38.276499234974807 ], [ -6.161506887306073, 38.276499234974807 ], [ -6.161506887306073, 38.276049528097012 ], [ -6.165207967143615, 38.276049528097012 ], [ -6.165207967143615, 38.275599818434024 ], [ -6.168909046981156, 38.275599818434024 ], [ -6.168909046981156, 38.275150105985837 ], [ -6.173350342786207, 38.275150105985837 ], [ -6.173350342786207, 38.275599818434024 ], [ -6.174090558753714, 38.275599818434024 ], [ -6.174090558753714, 38.276499234974807 ], [ -6.174830774721223, 38.276499234974807 ], [ -6.174830774721223, 38.277398640374741 ], [ -6.175570990688731, 38.277398640374741 ], [ -6.175570990688731, 38.282794838811739 ], [ -6.176311206656239, 38.282794838811739 ], [ -6.176311206656239, 38.284143825751116 ], [ -6.177051422623747, 38.284143825751116 ], [ -6.177051422623747, 38.285043136450426 ], [ -6.177791638591256, 38.285043136450426 ], [ -6.177791638591256, 38.287741001698151 ], [ -6.177051422623747, 38.287741001698151 ], [ -6.177051422623747, 38.288640267830381 ], [ -6.176311206656239, 38.288640267830381 ], [ -6.176311206656239, 38.289989146137479 ], [ -6.175570990688731, 38.289989146137479 ], [ -6.175570990688731, 38.290888384414593 ], [ -6.174830774721223, 38.290888384414593 ], [ -6.174830774721223, 38.291337999374832 ], [ -6.171869910851189, 38.291337999374832 ], [ -6.171869910851189, 38.290888384414593 ], [ -6.169649262948665, 38.290888384414593 ], [ -6.169649262948665, 38.2904387666688 ], [ -6.168168831013648, 38.2904387666688 ] ] ], [ [ [ -6.813637154680916, 38.967963775005188 ], [ -6.813637154680916, 38.96751838329147 ], [ -6.812156722745899, 38.96751838329147 ], [ -6.812156722745899, 38.965291382716067 ], [ -6.811416506778391, 38.965291382716067 ], [ -6.811416506778391, 38.963064312130214 ], [ -6.810676290810882, 38.963064312130214 ], [ -6.810676290810882, 38.962618889611889 ], [ -6.809936074843374, 38.962618889611889 ], [ -6.809936074843374, 38.961728036174172 ], [ -6.809195858875866, 38.961728036174172 ], [ -6.809195858875866, 38.961282605254787 ], [ -6.808455642908358, 38.961282605254787 ], [ -6.808455642908358, 38.960391735015037 ], [ -6.807715426940849, 38.960391735015037 ], [ -6.807715426940849, 38.959055408653057 ], [ -6.808455642908358, 38.959055408653057 ], [ -6.808455642908358, 38.955491748475801 ], [ -6.809195858875866, 38.955491748475801 ], [ -6.809195858875866, 38.954155329705557 ], [ -6.809936074843374, 38.954155329705557 ], [ -6.809936074843374, 38.953709851181756 ], [ -6.811416506778391, 38.953709851181756 ], [ -6.811416506778391, 38.953264369857791 ], [ -6.812156722745899, 38.953264369857791 ], [ -6.812156722745899, 38.952818885733649 ], [ -6.814377370648424, 38.952818885733649 ], [ -6.814377370648424, 38.953264369857791 ], [ -6.815857802583441, 38.953264369857791 ], [ -6.815857802583441, 38.953709851181756 ], [ -6.818078450485966, 38.953709851181756 ], [ -6.818078450485966, 38.954155329705557 ], [ -6.819558882420982, 38.954155329705557 ], [ -6.819558882420982, 38.954600805429166 ], [ -6.821039314355999, 38.954600805429166 ], [ -6.821039314355999, 38.95504627835259 ], [ -6.822519746291015, 38.95504627835259 ], [ -6.822519746291015, 38.954600805429166 ], [ -6.823259962258524, 38.954600805429166 ], [ -6.823259962258524, 38.954155329705557 ], [ -6.824000178226033, 38.954155329705557 ], [ -6.824000178226033, 38.953709851181756 ], [ -6.825480610161049, 38.953709851181756 ], [ -6.825480610161049, 38.953264369857791 ], [ -6.826220826128557, 38.953264369857791 ], [ -6.826220826128557, 38.950145922185833 ], [ -6.826961042096066, 38.950145922185833 ], [ -6.826961042096066, 38.948809402610443 ], [ -6.827701258063574, 38.948809402610443 ], [ -6.827701258063574, 38.947918375559787 ], [ -6.828441474031083, 38.947918375559787 ], [ -6.828441474031083, 38.947472857834384 ], [ -6.829181689998591, 38.947472857834384 ], [ -6.829181689998591, 38.946581813983435 ], [ -6.831402337901115, 38.946581813983435 ], [ -6.831402337901115, 38.947027337308924 ], [ -6.832882769836132, 38.947027337308924 ], [ -6.832882769836132, 38.947472857834384 ], [ -6.835103417738658, 38.947472857834384 ], [ -6.835103417738658, 38.947918375559787 ], [ -6.837324065641183, 38.947918375559787 ], [ -6.837324065641183, 38.947472857834384 ], [ -6.838804497576199, 38.947472857834384 ], [ -6.838804497576199, 38.947027337308924 ], [ -6.839544713543707, 38.947027337308924 ], [ -6.839544713543707, 38.946581813983435 ], [ -6.841025145478723, 38.946581813983435 ], [ -6.841025145478723, 38.946136287857918 ], [ -6.841765361446232, 38.946136287857918 ], [ -6.841765361446232, 38.946581813983435 ], [ -6.843245793381249, 38.946581813983435 ], [ -6.843245793381249, 38.947027337308924 ], [ -6.843986009348757, 38.947027337308924 ], [ -6.843986009348757, 38.947472857834384 ], [ -6.845466441283775, 38.947472857834384 ], [ -6.845466441283775, 38.949254911935654 ], [ -6.846206657251282, 38.949254911935654 ], [ -6.846206657251282, 38.952818885733649 ], [ -6.846946873218791, 38.952818885733649 ], [ -6.846946873218791, 38.953709851181756 ], [ -6.846206657251282, 38.953709851181756 ], [ -6.846206657251282, 38.954600805429166 ], [ -6.845466441283775, 38.954600805429166 ], [ -6.845466441283775, 38.95504627835259 ], [ -6.844726225316267, 38.95504627835259 ], [ -6.844726225316267, 38.955491748475801 ], [ -6.843986009348757, 38.955491748475801 ], [ -6.843986009348757, 38.955937215798798 ], [ -6.843245793381249, 38.955937215798798 ], [ -6.843245793381249, 38.956828142044124 ], [ -6.842505577413741, 38.956828142044124 ], [ -6.842505577413741, 38.959500853574021 ], [ -6.841765361446232, 38.959500853574021 ], [ -6.841765361446232, 38.962618889611889 ], [ -6.840284929511216, 38.962618889611889 ], [ -6.840284929511216, 38.963064312130214 ], [ -6.839544713543707, 38.963064312130214 ], [ -6.839544713543707, 38.96350973184817 ], [ -6.838064281608691, 38.96350973184817 ], [ -6.838064281608691, 38.963955148765741 ], [ -6.835103417738658, 38.963955148765741 ], [ -6.835103417738658, 38.96350973184817 ], [ -6.832142553868624, 38.96350973184817 ], [ -6.832142553868624, 38.964400562882915 ], [ -6.831402337901115, 38.964400562882915 ], [ -6.831402337901115, 38.965736788432025 ], [ -6.830662121933607, 38.965736788432025 ], [ -6.830662121933607, 38.966182191347556 ], [ -6.829921905966099, 38.966182191347556 ], [ -6.829921905966099, 38.96662759146264 ], [ -6.829181689998591, 38.96662759146264 ], [ -6.829181689998591, 38.967072988777289 ], [ -6.827701258063574, 38.967072988777289 ], [ -6.827701258063574, 38.96751838329147 ], [ -6.826961042096066, 38.96751838329147 ], [ -6.826961042096066, 38.967963775005188 ], [ -6.825480610161049, 38.967963775005188 ], [ -6.825480610161049, 38.968409163918444 ], [ -6.823259962258524, 38.968409163918444 ], [ -6.823259962258524, 38.967963775005188 ], [ -6.822519746291015, 38.967963775005188 ], [ -6.822519746291015, 38.96751838329147 ], [ -6.821779530323508, 38.96751838329147 ], [ -6.821779530323508, 38.967072988777289 ], [ -6.820299098388491, 38.967072988777289 ], [ -6.820299098388491, 38.96751838329147 ], [ -6.818818666453475, 38.96751838329147 ], [ -6.818818666453475, 38.967963775005188 ], [ -6.818078450485966, 38.967963775005188 ], [ -6.818078450485966, 38.968409163918444 ], [ -6.817338234518457, 38.968409163918444 ], [ -6.817338234518457, 38.968854550031203 ], [ -6.815857802583441, 38.968854550031203 ], [ -6.815857802583441, 38.968409163918444 ], [ -6.814377370648424, 38.968409163918444 ], [ -6.814377370648424, 38.967963775005188 ], [ -6.813637154680916, 38.967963775005188 ] ] ], [ [ [ -7.549411826384199, 41.079897838194206 ], [ -7.549411826384199, 41.078602390603265 ], [ -7.54867161041669, 41.078602390603265 ], [ -7.54867161041669, 41.077738744691302 ], [ -7.547931394449183, 41.077738744691302 ], [ -7.547931394449183, 41.07730691747993 ], [ -7.545710746546659, 41.07730691747993 ], [ -7.545710746546659, 41.077738744691302 ], [ -7.544230314611642, 41.077738744691302 ], [ -7.544230314611642, 41.078170569065747 ], [ -7.542009666709117, 41.078170569065747 ], [ -7.542009666709117, 41.077738744691302 ], [ -7.541269450741608, 41.077738744691302 ], [ -7.541269450741608, 41.076443254546447 ], [ -7.540529234774099, 41.076443254546447 ], [ -7.540529234774099, 41.075579580265341 ], [ -7.539789018806592, 41.075579580265341 ], [ -7.539789018806592, 41.074284047566998 ], [ -7.539048802839084, 41.074284047566998 ], [ -7.539048802839084, 41.072124769665685 ], [ -7.539789018806592, 41.072124769665685 ], [ -7.539789018806592, 41.070829168882696 ], [ -7.540529234774099, 41.070829168882696 ], [ -7.540529234774099, 41.069533542568266 ], [ -7.541269450741608, 41.069533542568266 ], [ -7.541269450741608, 41.068669777507907 ], [ -7.540529234774099, 41.068669777507907 ], [ -7.540529234774099, 41.069101661456486 ], [ -7.538308586871575, 41.069101661456486 ], [ -7.538308586871575, 41.069533542568266 ], [ -7.536087938969049, 41.069533542568266 ], [ -7.536087938969049, 41.069101661456486 ], [ -7.535347723001542, 41.069101661456486 ], [ -7.535347723001542, 41.068669777507907 ], [ -7.534607507034033, 41.068669777507907 ], [ -7.534607507034033, 41.068237890722536 ], [ -7.533867291066525, 41.068237890722536 ], [ -7.533867291066525, 41.06737410864141 ], [ -7.533127075099017, 41.06737410864141 ], [ -7.533127075099017, 41.066942213345676 ], [ -7.532386859131508, 41.066942213345676 ], [ -7.532386859131508, 41.066510315213165 ], [ -7.531646643164001, 41.066510315213165 ], [ -7.531646643164001, 41.061327316356746 ], [ -7.532386859131508, 41.061327316356746 ], [ -7.532386859131508, 41.060895381346711 ], [ -7.533127075099017, 41.060895381346711 ], [ -7.533127075099017, 41.060031502816557 ], [ -7.533867291066525, 41.060031502816557 ], [ -7.533867291066525, 41.059167612939667 ], [ -7.534607507034033, 41.059167612939667 ], [ -7.534607507034033, 41.058303711716114 ], [ -7.535347723001542, 41.058303711716114 ], [ -7.535347723001542, 41.057439799145939 ], [ -7.536087938969049, 41.057439799145939 ], [ -7.536087938969049, 41.056575875229179 ], [ -7.536828154936559, 41.056575875229179 ], [ -7.536828154936559, 41.055711939965896 ], [ -7.537568370904066, 41.055711939965896 ], [ -7.537568370904066, 41.055279968079311 ], [ -7.538308586871575, 41.055279968079311 ], [ -7.538308586871575, 41.05484799335612 ], [ -7.542749882676626, 41.05484799335612 ], [ -7.542749882676626, 41.055279968079311 ], [ -7.543490098644135, 41.055279968079311 ], [ -7.543490098644135, 41.055711939965896 ], [ -7.544230314611642, 41.055711939965896 ], [ -7.544230314611642, 41.056143909015852 ], [ -7.54497053057915, 41.056143909015852 ], [ -7.54497053057915, 41.056575875229179 ], [ -7.545710746546659, 41.056575875229179 ], [ -7.545710746546659, 41.057007838605884 ], [ -7.546450962514166, 41.057007838605884 ], [ -7.546450962514166, 41.057439799145939 ], [ -7.547191178481675, 41.057439799145939 ], [ -7.547191178481675, 41.057871756849352 ], [ -7.547931394449183, 41.057871756849352 ], [ -7.547931394449183, 41.058303711716114 ], [ -7.54867161041669, 41.058303711716114 ], [ -7.54867161041669, 41.058735663746226 ], [ -7.549411826384199, 41.058735663746226 ], [ -7.549411826384199, 41.059167612939667 ], [ -7.550152042351709, 41.059167612939667 ], [ -7.550152042351709, 41.059599559296444 ], [ -7.550892258319217, 41.059599559296444 ], [ -7.550892258319217, 41.060031502816557 ], [ -7.554593338156757, 41.060031502816557 ], [ -7.554593338156757, 41.060895381346711 ], [ -7.555333554124267, 41.060895381346711 ], [ -7.555333554124267, 41.061759248530102 ], [ -7.556073770091776, 41.061759248530102 ], [ -7.556073770091776, 41.062191177866744 ], [ -7.556813986059283, 41.062191177866744 ], [ -7.556813986059283, 41.067806001100358 ], [ -7.557554202026792, 41.067806001100358 ], [ -7.557554202026792, 41.069101661456486 ], [ -7.5582944179943, 41.069101661456486 ], [ -7.5582944179943, 41.070397296281378 ], [ -7.559034633961808, 41.070397296281378 ], [ -7.559034633961808, 41.075579580265341 ], [ -7.5582944179943, 41.075579580265341 ], [ -7.5582944179943, 41.078170569065747 ], [ -7.557554202026792, 41.078170569065747 ], [ -7.557554202026792, 41.078602390603265 ], [ -7.556813986059283, 41.078602390603265 ], [ -7.556813986059283, 41.079466025167505 ], [ -7.556073770091776, 41.079466025167505 ], [ -7.556073770091776, 41.080329648383952 ], [ -7.555333554124267, 41.080329648383952 ], [ -7.555333554124267, 41.080761455736749 ], [ -7.550892258319217, 41.080761455736749 ], [ -7.550892258319217, 41.080329648383952 ], [ -7.550152042351709, 41.080329648383952 ], [ -7.550152042351709, 41.079897838194206 ], [ -7.549411826384199, 41.079897838194206 ] ] ], [ [ [ -1.943016088476075, 42.011091445641028 ], [ -1.943016088476075, 42.01066580720056 ], [ -1.941535656541058, 42.01066580720056 ], [ -1.941535656541058, 42.010240165911945 ], [ -1.94079544057355, 42.010240165911945 ], [ -1.94079544057355, 42.009814521775198 ], [ -1.939315008638533, 42.009814521775198 ], [ -1.939315008638533, 42.009388874790304 ], [ -1.938574792671024, 42.009388874790304 ], [ -1.938574792671024, 42.007686258369468 ], [ -1.937834576703517, 42.007686258369468 ], [ -1.937834576703517, 42.005983596378826 ], [ -1.937094360736008, 42.005983596378826 ], [ -1.937094360736008, 42.003855204808403 ], [ -1.9363541447685, 42.003855204808403 ], [ -1.9363541447685, 42.002152440286729 ], [ -1.937094360736008, 42.002152440286729 ], [ -1.937094360736008, 41.999598208062636 ], [ -1.937834576703517, 41.999598208062636 ], [ -1.937834576703517, 41.997469602888401 ], [ -1.938574792671024, 41.997469602888401 ], [ -1.938574792671024, 41.995340926513997 ], [ -1.939315008638533, 41.995340926513997 ], [ -1.939315008638533, 41.99448943602831 ], [ -1.940055224606041, 41.99448943602831 ], [ -1.940055224606041, 41.994063686513513 ], [ -1.941535656541058, 41.994063686513513 ], [ -1.941535656541058, 41.993637934150726 ], [ -1.942275872508566, 41.993637934150726 ], [ -1.942275872508566, 41.993212178939984 ], [ -1.943756304443583, 41.993212178939984 ], [ -1.943756304443583, 41.992786420881281 ], [ -1.944496520411091, 41.992786420881281 ], [ -1.944496520411091, 41.991083360166925 ], [ -1.9452367363786, 41.991083360166925 ], [ -1.9452367363786, 41.989380253885535 ], [ -1.946717168313616, 41.989380253885535 ], [ -1.946717168313616, 41.988954470195374 ], [ -1.947457384281125, 41.988954470195374 ], [ -1.947457384281125, 41.9885286836573 ], [ -1.948937816216141, 41.9885286836573 ], [ -1.948937816216141, 41.988102894271307 ], [ -1.950418248151158, 41.988102894271307 ], [ -1.950418248151158, 41.9885286836573 ], [ -1.951158464118667, 41.9885286836573 ], [ -1.951158464118667, 41.988954470195374 ], [ -1.951898680086175, 41.988954470195374 ], [ -1.951898680086175, 41.989380253885535 ], [ -1.952638896053683, 41.989380253885535 ], [ -1.952638896053683, 41.989806034727778 ], [ -1.953379112021192, 41.989806034727778 ], [ -1.953379112021192, 41.990231812722101 ], [ -1.954119327988699, 41.990231812722101 ], [ -1.954119327988699, 41.991083360166925 ], [ -1.954859543956208, 41.991083360166925 ], [ -1.954859543956208, 41.994063686513513 ], [ -1.955599759923716, 41.994063686513513 ], [ -1.955599759923716, 42.003855204808403 ], [ -1.954859543956208, 42.003855204808403 ], [ -1.954859543956208, 42.005132248294913 ], [ -1.954119327988699, 42.005132248294913 ], [ -1.954119327988699, 42.005983596378826 ], [ -1.953379112021192, 42.005983596378826 ], [ -1.953379112021192, 42.007260597143969 ], [ -1.952638896053683, 42.007260597143969 ], [ -1.952638896053683, 42.008537572276126 ], [ -1.951898680086175, 42.008537572276126 ], [ -1.951898680086175, 42.009388874790304 ], [ -1.951158464118667, 42.009388874790304 ], [ -1.951158464118667, 42.01066580720056 ], [ -1.950418248151158, 42.01066580720056 ], [ -1.950418248151158, 42.011091445641028 ], [ -1.948937816216141, 42.011091445641028 ], [ -1.948937816216141, 42.011517081233357 ], [ -1.948197600248633, 42.011517081233357 ], [ -1.948197600248633, 42.011942713977525 ], [ -1.9452367363786, 42.011942713977525 ], [ -1.9452367363786, 42.011517081233357 ], [ -1.943756304443583, 42.011517081233357 ], [ -1.943756304443583, 42.011091445641028 ], [ -1.943016088476075, 42.011091445641028 ] ] ], [ [ [ -3.977869783156486, 42.201490946274554 ], [ -3.977869783156486, 42.201066584238532 ], [ -3.977129567188978, 42.201066584238532 ], [ -3.977129567188978, 42.200642219352446 ], [ -3.976389351221469, 42.200642219352446 ], [ -3.976389351221469, 42.200217851616301 ], [ -3.975649135253961, 42.200217851616301 ], [ -3.975649135253961, 42.199793481030106 ], [ -3.972688271383928, 42.199793481030106 ], [ -3.972688271383928, 42.19936910759386 ], [ -3.969727407513894, 42.19936910759386 ], [ -3.969727407513894, 42.199793481030106 ], [ -3.968246975578877, 42.199793481030106 ], [ -3.968246975578877, 42.200217851616301 ], [ -3.965286111708844, 42.200217851616301 ], [ -3.965286111708844, 42.199793481030106 ], [ -3.964545895741336, 42.199793481030106 ], [ -3.964545895741336, 42.19936910759386 ], [ -3.963065463806319, 42.19936910759386 ], [ -3.963065463806319, 42.198944731307563 ], [ -3.962325247838812, 42.198944731307563 ], [ -3.962325247838812, 42.195549618415988 ], [ -3.961585031871303, 42.195549618415988 ], [ -3.961585031871303, 42.192578745010273 ], [ -3.962325247838812, 42.192578745010273 ], [ -3.962325247838812, 42.191729898387329 ], [ -3.963065463806319, 42.191729898387329 ], [ -3.963065463806319, 42.190881040364488 ], [ -3.963805679773828, 42.190881040364488 ], [ -3.963805679773828, 42.190032170941791 ], [ -3.964545895741336, 42.190032170941791 ], [ -3.964545895741336, 42.18918329011926 ], [ -3.965286111708844, 42.18918329011926 ], [ -3.965286111708844, 42.188334397896945 ], [ -3.966026327676353, 42.188334397896945 ], [ -3.966026327676353, 42.187909947510882 ], [ -3.966766543643861, 42.187909947510882 ], [ -3.966766543643861, 42.187485494274874 ], [ -3.96750675961137, 42.187485494274874 ], [ -3.96750675961137, 42.187061038188943 ], [ -3.968987191546386, 42.187061038188943 ], [ -3.968987191546386, 42.186636579253083 ], [ -3.969727407513894, 42.186636579253083 ], [ -3.969727407513894, 42.186212117467306 ], [ -3.971207839448912, 42.186212117467306 ], [ -3.971207839448912, 42.1857876528316 ], [ -3.971948055416419, 42.1857876528316 ], [ -3.971948055416419, 42.185363185345985 ], [ -3.972688271383928, 42.185363185345985 ], [ -3.972688271383928, 42.18493871501046 ], [ -3.974168703318945, 42.18493871501046 ], [ -3.974168703318945, 42.184514241825021 ], [ -3.974908919286453, 42.184514241825021 ], [ -3.974908919286453, 42.184089765789693 ], [ -3.980090431059011, 42.184089765789693 ], [ -3.980090431059011, 42.184514241825021 ], [ -3.98083064702652, 42.184514241825021 ], [ -3.98083064702652, 42.18493871501046 ], [ -3.981570862994028, 42.18493871501046 ], [ -3.981570862994028, 42.1857876528316 ], [ -3.982311078961537, 42.1857876528316 ], [ -3.982311078961537, 42.186636579253083 ], [ -3.983051294929045, 42.186636579253083 ], [ -3.983051294929045, 42.187485494274874 ], [ -3.983791510896553, 42.187485494274874 ], [ -3.983791510896553, 42.187909947510882 ], [ -3.986012158799078, 42.187909947510882 ], [ -3.986012158799078, 42.187485494274874 ], [ -3.988232806701603, 42.187485494274874 ], [ -3.988232806701603, 42.187909947510882 ], [ -3.988973022669111, 42.187909947510882 ], [ -3.988973022669111, 42.188758845433078 ], [ -3.98971323863662, 42.188758845433078 ], [ -3.98971323863662, 42.189607731955505 ], [ -3.990453454604128, 42.189607731955505 ], [ -3.990453454604128, 42.190032170941791 ], [ -3.991193670571637, 42.190032170941791 ], [ -3.991193670571637, 42.195125216479454 ], [ -3.990453454604128, 42.195125216479454 ], [ -3.990453454604128, 42.195549618415988 ], [ -3.98971323863662, 42.195549618415988 ], [ -3.98971323863662, 42.195974017502515 ], [ -3.988973022669111, 42.195974017502515 ], [ -3.988973022669111, 42.196398413739026 ], [ -3.988232806701603, 42.196398413739026 ], [ -3.988232806701603, 42.196822807125521 ], [ -3.987492590734095, 42.196822807125521 ], [ -3.987492590734095, 42.197247197661987 ], [ -3.986752374766586, 42.197247197661987 ], [ -3.986752374766586, 42.197671585348431 ], [ -3.986012158799078, 42.197671585348431 ], [ -3.986012158799078, 42.198944731307563 ], [ -3.98527194283157, 42.198944731307563 ], [ -3.98527194283157, 42.200642219352446 ], [ -3.984531726864061, 42.200642219352446 ], [ -3.984531726864061, 42.201490946274554 ], [ -3.983791510896553, 42.201490946274554 ], [ -3.983791510896553, 42.201915305460496 ], [ -3.982311078961537, 42.201915305460496 ], [ -3.982311078961537, 42.202339661796387 ], [ -3.981570862994028, 42.202339661796387 ], [ -3.981570862994028, 42.20276401528217 ], [ -3.979350215091503, 42.20276401528217 ], [ -3.979350215091503, 42.202339661796387 ], [ -3.978609999123995, 42.202339661796387 ], [ -3.978609999123995, 42.201490946274554 ], [ -3.977869783156486, 42.201490946274554 ] ] ], [ [ [ -3.970467623481403, 42.826001010951565 ], [ -3.969727407513894, 42.826001010951565 ], [ -3.969727407513894, 42.825160722869775 ], [ -3.968987191546386, 42.825160722869775 ], [ -3.968987191546386, 42.824320423366089 ], [ -3.968246975578877, 42.824320423366089 ], [ -3.968246975578877, 42.819698571930701 ], [ -3.96750675961137, 42.819698571930701 ], [ -3.96750675961137, 42.816337008419225 ], [ -3.968246975578877, 42.816337008419225 ], [ -3.968246975578877, 42.815916800130942 ], [ -3.968987191546386, 42.815916800130942 ], [ -3.968987191546386, 42.815076374988159 ], [ -3.969727407513894, 42.815076374988159 ], [ -3.969727407513894, 42.814235938423778 ], [ -3.970467623481403, 42.814235938423778 ], [ -3.970467623481403, 42.813815715858517 ], [ -3.972688271383928, 42.813815715858517 ], [ -3.972688271383928, 42.813395490437856 ], [ -3.975649135253961, 42.813395490437856 ], [ -3.975649135253961, 42.812975262161814 ], [ -3.978609999123995, 42.812975262161814 ], [ -3.978609999123995, 42.813395490437856 ], [ -3.979350215091503, 42.813395490437856 ], [ -3.979350215091503, 42.813815715858517 ], [ -3.980090431059011, 42.813815715858517 ], [ -3.980090431059011, 42.814235938423778 ], [ -3.98083064702652, 42.814235938423778 ], [ -3.98083064702652, 42.814656158133666 ], [ -3.981570862994028, 42.814656158133666 ], [ -3.981570862994028, 42.815496588987244 ], [ -3.982311078961537, 42.815496588987244 ], [ -3.982311078961537, 42.815916800130942 ], [ -3.983051294929045, 42.815916800130942 ], [ -3.983051294929045, 42.818438007029542 ], [ -3.983791510896553, 42.818438007029542 ], [ -3.983791510896553, 42.824320423366089 ], [ -3.983051294929045, 42.824320423366089 ], [ -3.983051294929045, 42.825160722869775 ], [ -3.982311078961537, 42.825160722869775 ], [ -3.982311078961537, 42.825580868338399 ], [ -3.981570862994028, 42.825580868338399 ], [ -3.981570862994028, 42.826421150709237 ], [ -3.98083064702652, 42.826421150709237 ], [ -3.98083064702652, 42.826841287611437 ], [ -3.974908919286453, 42.826841287611437 ], [ -3.974908919286453, 42.827261421658157 ], [ -3.971207839448912, 42.827261421658157 ], [ -3.971207839448912, 42.826841287611437 ], [ -3.970467623481403, 42.826841287611437 ], [ -3.970467623481403, 42.826001010951565 ] ] ], [ [ [ -0.530684022470173, 42.932205334203992 ], [ -0.530684022470173, 42.931785914126777 ], [ -0.529943806502664, 42.931785914126777 ], [ -0.529943806502664, 42.931366491193309 ], [ -0.528463374567648, 42.931366491193309 ], [ -0.528463374567648, 42.930947065403579 ], [ -0.527723158600139, 42.930947065403579 ], [ -0.527723158600139, 42.930527636757596 ], [ -0.526242726665123, 42.930527636757596 ], [ -0.526242726665123, 42.930108205255365 ], [ -0.525502510697614, 42.930108205255365 ], [ -0.525502510697614, 42.929688770896881 ], [ -0.524762294730106, 42.929688770896881 ], [ -0.524762294730106, 42.92926933368215 ], [ -0.524022078762598, 42.92926933368215 ], [ -0.524022078762598, 42.927172104764907 ], [ -0.523281862795089, 42.927172104764907 ], [ -0.523281862795089, 42.924655335808744 ], [ -0.524022078762598, 42.924655335808744 ], [ -0.524022078762598, 42.9233969127718 ], [ -0.524762294730106, 42.9233969127718 ], [ -0.524762294730106, 42.922557949799483 ], [ -0.525502510697614, 42.922557949799483 ], [ -0.525502510697614, 42.921299483919576 ], [ -0.526242726665123, 42.921299483919576 ], [ -0.526242726665123, 42.920460492385367 ], [ -0.526982942632631, 42.920460492385367 ], [ -0.526982942632631, 42.91962148942644 ], [ -0.527723158600139, 42.91962148942644 ], [ -0.527723158600139, 42.919201983662717 ], [ -0.529203590535156, 42.919201983662717 ], [ -0.529203590535156, 42.918782475042818 ], [ -0.530684022470173, 42.918782475042818 ], [ -0.530684022470173, 42.918362963566757 ], [ -0.532164454405189, 42.918362963566757 ], [ -0.532164454405189, 42.917943449234535 ], [ -0.535865534242731, 42.917943449234535 ], [ -0.535865534242731, 42.918362963566757 ], [ -0.538086182145256, 42.918362963566757 ], [ -0.538086182145256, 42.918782475042818 ], [ -0.540306830047781, 42.918782475042818 ], [ -0.540306830047781, 42.919201983662717 ], [ -0.541047046015289, 42.919201983662717 ], [ -0.541047046015289, 42.920879989580563 ], [ -0.541787261982798, 42.920879989580563 ], [ -0.541787261982798, 42.92213846402904 ], [ -0.542527477950306, 42.92213846402904 ], [ -0.542527477950306, 42.923816389973652 ], [ -0.543267693917814, 42.923816389973652 ], [ -0.543267693917814, 42.9242358643193 ], [ -0.542527477950306, 42.9242358643193 ], [ -0.542527477950306, 42.9263331932044 ], [ -0.541787261982798, 42.9263331932044 ], [ -0.541787261982798, 42.928430450683962 ], [ -0.541047046015289, 42.928430450683962 ], [ -0.541047046015289, 42.930108205255365 ], [ -0.540306830047781, 42.930108205255365 ], [ -0.540306830047781, 42.930527636757596 ], [ -0.538826398112764, 42.930527636757596 ], [ -0.538826398112764, 42.930947065403579 ], [ -0.538086182145256, 42.930947065403579 ], [ -0.538086182145256, 42.931366491193309 ], [ -0.537345966177748, 42.931366491193309 ], [ -0.537345966177748, 42.931785914126777 ], [ -0.536605750210239, 42.931785914126777 ], [ -0.536605750210239, 42.932205334203992 ], [ -0.535865534242731, 42.932205334203992 ], [ -0.535865534242731, 42.932624751424939 ], [ -0.535125318275223, 42.932624751424939 ], [ -0.535125318275223, 42.933044165789617 ], [ -0.532904670372698, 42.933044165789617 ], [ -0.532904670372698, 42.932624751424939 ], [ -0.532164454405189, 42.932624751424939 ], [ -0.532164454405189, 42.932205334203992 ], [ -0.530684022470173, 42.932205334203992 ] ] ], [ [ [ -5.723299034541139, 43.536112471851069 ], [ -5.72255881857363, 43.536112471851069 ], [ -5.72255881857363, 43.535281900557365 ], [ -5.721818602606122, 43.535281900557365 ], [ -5.721818602606122, 43.534451317823752 ], [ -5.721078386638613, 43.534451317823752 ], [ -5.721078386638613, 43.533620723650237 ], [ -5.720338170671106, 43.533620723650237 ], [ -5.720338170671106, 43.532790118036843 ], [ -5.719597954703597, 43.532790118036843 ], [ -5.719597954703597, 43.531959500983589 ], [ -5.718857738736089, 43.531959500983589 ], [ -5.718857738736089, 43.531128872490477 ], [ -5.718117522768581, 43.531128872490477 ], [ -5.718117522768581, 43.530713553953994 ], [ -5.717377306801072, 43.530713553953994 ], [ -5.717377306801072, 43.525729508440229 ], [ -5.718117522768581, 43.525729508440229 ], [ -5.718117522768581, 43.524483432713232 ], [ -5.718857738736089, 43.524483432713232 ], [ -5.718857738736089, 43.523237331246925 ], [ -5.719597954703597, 43.523237331246925 ], [ -5.719597954703597, 43.522406582636464 ], [ -5.720338170671106, 43.522406582636464 ], [ -5.720338170671106, 43.521160438271444 ], [ -5.721078386638613, 43.521160438271444 ], [ -5.721078386638613, 43.519914268167263 ], [ -5.721818602606122, 43.519914268167263 ], [ -5.721818602606122, 43.518668072323983 ], [ -5.72255881857363, 43.518668072323983 ], [ -5.72255881857363, 43.517837260795666 ], [ -5.724039250508648, 43.517837260795666 ], [ -5.724039250508648, 43.51742185074167 ], [ -5.724779466476156, 43.51742185074167 ], [ -5.724779466476156, 43.517006437827789 ], [ -5.726259898411173, 43.517006437827789 ], [ -5.726259898411173, 43.516591022054023 ], [ -5.727740330346189, 43.516591022054023 ], [ -5.727740330346189, 43.516175603420372 ], [ -5.728480546313697, 43.516175603420372 ], [ -5.728480546313697, 43.515760181926844 ], [ -5.729960978248714, 43.515760181926844 ], [ -5.729960978248714, 43.51534475757343 ], [ -5.73144141018373, 43.51534475757343 ], [ -5.73144141018373, 43.514929330360154 ], [ -5.733662058086256, 43.514929330360154 ], [ -5.733662058086256, 43.51534475757343 ], [ -5.734402274053765, 43.51534475757343 ], [ -5.734402274053765, 43.515760181926844 ], [ -5.735142490021273, 43.515760181926844 ], [ -5.735142490021273, 43.516175603420372 ], [ -5.73588270598878, 43.516175603420372 ], [ -5.73588270598878, 43.516591022054023 ], [ -5.73662292195629, 43.516591022054023 ], [ -5.73662292195629, 43.517006437827789 ], [ -5.737363137923798, 43.517006437827789 ], [ -5.737363137923798, 43.51742185074167 ], [ -5.738103353891305, 43.51742185074167 ], [ -5.738103353891305, 43.517837260795666 ], [ -5.738843569858814, 43.517837260795666 ], [ -5.738843569858814, 43.518252667989771 ], [ -5.739583785826321, 43.518252667989771 ], [ -5.739583785826321, 43.518668072323983 ], [ -5.74032400179383, 43.518668072323983 ], [ -5.74032400179383, 43.519083473798304 ], [ -5.741064217761339, 43.519083473798304 ], [ -5.741064217761339, 43.519498872412733 ], [ -5.741804433728848, 43.519498872412733 ], [ -5.741804433728848, 43.519914268167263 ], [ -5.742544649696356, 43.519914268167263 ], [ -5.742544649696356, 43.520329661061893 ], [ -5.743284865663864, 43.520329661061893 ], [ -5.743284865663864, 43.521575822586357 ], [ -5.744025081631372, 43.521575822586357 ], [ -5.744025081631372, 43.523237331246925 ], [ -5.744765297598882, 43.523237331246925 ], [ -5.744765297598882, 43.524898794148825 ], [ -5.744025081631372, 43.524898794148825 ], [ -5.744025081631372, 43.526560211291923 ], [ -5.743284865663864, 43.526560211291923 ], [ -5.743284865663864, 43.528636918372264 ], [ -5.742544649696356, 43.528636918372264 ], [ -5.742544649696356, 43.530713553953994 ], [ -5.741804433728848, 43.530713553953994 ], [ -5.741804433728848, 43.531128872490477 ], [ -5.741064217761339, 43.531128872490477 ], [ -5.741064217761339, 43.531959500983589 ], [ -5.74032400179383, 43.531959500983589 ], [ -5.74032400179383, 43.53237481094019 ], [ -5.739583785826321, 43.53237481094019 ], [ -5.739583785826321, 43.533205422273518 ], [ -5.738843569858814, 43.533205422273518 ], [ -5.738843569858814, 43.533620723650237 ], [ -5.738103353891305, 43.533620723650237 ], [ -5.738103353891305, 43.53403602216698 ], [ -5.737363137923798, 43.53403602216698 ], [ -5.737363137923798, 43.534866610620547 ], [ -5.735142490021273, 43.534866610620547 ], [ -5.735142490021273, 43.535281900557365 ], [ -5.733662058086256, 43.535281900557365 ], [ -5.733662058086256, 43.535697187634213 ], [ -5.732181626151239, 43.535697187634213 ], [ -5.732181626151239, 43.536112471851069 ], [ -5.730701194216222, 43.536112471851069 ], [ -5.730701194216222, 43.536527753207956 ], [ -5.729220762281205, 43.536527753207956 ], [ -5.729220762281205, 43.536943031704851 ], [ -5.727740330346189, 43.536943031704851 ], [ -5.727740330346189, 43.537358307341755 ], [ -5.725519682443664, 43.537358307341755 ], [ -5.725519682443664, 43.537773580118674 ], [ -5.724779466476156, 43.537773580118674 ], [ -5.724779466476156, 43.537358307341755 ], [ -5.724039250508648, 43.537358307341755 ], [ -5.724039250508648, 43.536943031704851 ], [ -5.723299034541139, 43.536943031704851 ], [ -5.723299034541139, 43.536112471851069 ] ] ], [ [ [ -5.840993373374964, 43.550645617637002 ], [ -5.840993373374964, 43.550230433520795 ], [ -5.840253157407456, 43.550230433520795 ], [ -5.840253157407456, 43.549815246544526 ], [ -5.839512941439948, 43.549815246544526 ], [ -5.839512941439948, 43.549400056708208 ], [ -5.838032509504931, 43.549400056708208 ], [ -5.838032509504931, 43.548984864011857 ], [ -5.837292293537423, 43.548984864011857 ], [ -5.837292293537423, 43.548569668455436 ], [ -5.835071645634897, 43.548569668455436 ], [ -5.835071645634897, 43.54815447003898 ], [ -5.832110781764865, 43.54815447003898 ], [ -5.832110781764865, 43.54773926876247 ], [ -5.829149917894831, 43.54773926876247 ], [ -5.829149917894831, 43.547324064625933 ], [ -5.826929269992306, 43.547324064625933 ], [ -5.826929269992306, 43.546908857629347 ], [ -5.823968406122273, 43.546908857629347 ], [ -5.823968406122273, 43.546493647772721 ], [ -5.822487974187256, 43.546493647772721 ], [ -5.822487974187256, 43.54607843505606 ], [ -5.821747758219748, 43.54607843505606 ], [ -5.821747758219748, 43.545248001042651 ], [ -5.821007542252239, 43.545248001042651 ], [ -5.821007542252239, 43.544417555589114 ], [ -5.82026732628473, 43.544417555589114 ], [ -5.82026732628473, 43.543171865958641 ], [ -5.819527110317222, 43.543171865958641 ], [ -5.819527110317222, 43.542341391904877 ], [ -5.818786894349714, 43.542341391904877 ], [ -5.818786894349714, 43.541510906411077 ], [ -5.818046678382206, 43.541510906411077 ], [ -5.818046678382206, 43.540265156720295 ], [ -5.817306462414698, 43.540265156720295 ], [ -5.817306462414698, 43.539434642626411 ], [ -5.816566246447189, 43.539434642626411 ], [ -5.816566246447189, 43.53860411709254 ], [ -5.815826030479681, 43.53860411709254 ], [ -5.815826030479681, 43.537358307341755 ], [ -5.815085814512173, 43.537358307341755 ], [ -5.815085814512173, 43.536527753207956 ], [ -5.815826030479681, 43.536527753207956 ], [ -5.815826030479681, 43.535281900557365 ], [ -5.816566246447189, 43.535281900557365 ], [ -5.816566246447189, 43.53403602216698 ], [ -5.817306462414698, 43.53403602216698 ], [ -5.817306462414698, 43.533205422273518 ], [ -5.818046678382206, 43.533205422273518 ], [ -5.818046678382206, 43.531959500983589 ], [ -5.821007542252239, 43.531959500983589 ], [ -5.821007542252239, 43.53237481094019 ], [ -5.823968406122273, 43.53237481094019 ], [ -5.823968406122273, 43.531959500983589 ], [ -5.82544883805729, 43.531959500983589 ], [ -5.82544883805729, 43.531544188167018 ], [ -5.826189054024797, 43.531544188167018 ], [ -5.826189054024797, 43.531128872490477 ], [ -5.827669485959815, 43.531128872490477 ], [ -5.827669485959815, 43.530713553953994 ], [ -5.829149917894831, 43.530713553953994 ], [ -5.829149917894831, 43.531128872490477 ], [ -5.830630349829847, 43.531128872490477 ], [ -5.830630349829847, 43.531544188167018 ], [ -5.831370565797356, 43.531544188167018 ], [ -5.831370565797356, 43.531959500983589 ], [ -5.832850997732372, 43.531959500983589 ], [ -5.832850997732372, 43.53237481094019 ], [ -5.834331429667389, 43.53237481094019 ], [ -5.834331429667389, 43.532790118036843 ], [ -5.835811861602406, 43.532790118036843 ], [ -5.835811861602406, 43.533205422273518 ], [ -5.838032509504931, 43.533205422273518 ], [ -5.838032509504931, 43.532790118036843 ], [ -5.840253157407456, 43.532790118036843 ], [ -5.840253157407456, 43.53237481094019 ], [ -5.842473805309981, 43.53237481094019 ], [ -5.842473805309981, 43.531959500983589 ], [ -5.846174885147523, 43.531959500983589 ], [ -5.846174885147523, 43.53237481094019 ], [ -5.846915101115031, 43.53237481094019 ], [ -5.846915101115031, 43.533205422273518 ], [ -5.847655317082539, 43.533205422273518 ], [ -5.847655317082539, 43.533620723650237 ], [ -5.848395533050048, 43.533620723650237 ], [ -5.848395533050048, 43.53403602216698 ], [ -5.849135749017555, 43.53403602216698 ], [ -5.849135749017555, 43.534451317823752 ], [ -5.849875964985064, 43.534451317823752 ], [ -5.849875964985064, 43.535281900557365 ], [ -5.850616180952573, 43.535281900557365 ], [ -5.850616180952573, 43.54815447003898 ], [ -5.849875964985064, 43.54815447003898 ], [ -5.849875964985064, 43.548569668455436 ], [ -5.849135749017555, 43.548569668455436 ], [ -5.849135749017555, 43.548984864011857 ], [ -5.848395533050048, 43.548984864011857 ], [ -5.848395533050048, 43.549400056708208 ], [ -5.847655317082539, 43.549400056708208 ], [ -5.847655317082539, 43.549815246544526 ], [ -5.846915101115031, 43.549815246544526 ], [ -5.846915101115031, 43.550645617637002 ], [ -5.846174885147523, 43.550645617637002 ], [ -5.846174885147523, 43.551060798893154 ], [ -5.845434669180014, 43.551060798893154 ], [ -5.845434669180014, 43.551475977289243 ], [ -5.843214021277489, 43.551475977289243 ], [ -5.843214021277489, 43.551060798893154 ], [ -5.842473805309981, 43.551060798893154 ], [ -5.842473805309981, 43.550645617637002 ], [ -5.840993373374964, 43.550645617637002 ] ] ], [ [ [ -0.277530161582322, 35.824969885320684 ], [ -0.276789945614814, 35.824969885320684 ], [ -0.276789945614814, 35.824505411354338 ], [ -0.276049729647306, 35.824505411354338 ], [ -0.276049729647306, 35.824040934669902 ], [ -0.274569297712289, 35.824040934669902 ], [ -0.274569297712289, 35.8235764552674 ], [ -0.272348649809764, 35.8235764552674 ], [ -0.272348649809764, 35.82311197314683 ], [ -0.270128001907239, 35.82311197314683 ], [ -0.270128001907239, 35.822647488308213 ], [ -0.267167138037206, 35.822647488308213 ], [ -0.267167138037206, 35.822183000751579 ], [ -0.264946490134681, 35.822183000751579 ], [ -0.264946490134681, 35.821718510476927 ], [ -0.262725842232156, 35.821718510476927 ], [ -0.262725842232156, 35.821254017484272 ], [ -0.260505194329631, 35.821254017484272 ], [ -0.260505194329631, 35.820789521773627 ], [ -0.259764978362122, 35.820789521773627 ], [ -0.259764978362122, 35.819860522198454 ], [ -0.259024762394614, 35.819860522198454 ], [ -0.259024762394614, 35.81939601833394 ], [ -0.258284546427106, 35.81939601833394 ], [ -0.258284546427106, 35.818467002451158 ], [ -0.257544330459597, 35.818467002451158 ], [ -0.257544330459597, 35.818002490432896 ], [ -0.256804114492089, 35.818002490432896 ], [ -0.256804114492089, 35.81753797569678 ], [ -0.253843250622056, 35.81753797569678 ], [ -0.253843250622056, 35.817073458242774 ], [ -0.252362818687039, 35.817073458242774 ], [ -0.252362818687039, 35.816608938070921 ], [ -0.251622602719531, 35.816608938070921 ], [ -0.251622602719531, 35.816144415181228 ], [ -0.250882386752022, 35.816144415181228 ], [ -0.250882386752022, 35.815215361248384 ], [ -0.250142170784514, 35.815215361248384 ], [ -0.250142170784514, 35.814750830205249 ], [ -0.249401954817006, 35.814750830205249 ], [ -0.249401954817006, 35.814286296444358 ], [ -0.248661738849497, 35.814286296444358 ], [ -0.248661738849497, 35.813357220769255 ], [ -0.247921522881989, 35.813357220769255 ], [ -0.247921522881989, 35.812892678855093 ], [ -0.247181306914481, 35.812892678855093 ], [ -0.247181306914481, 35.812428134223211 ], [ -0.244220443044447, 35.812428134223211 ], [ -0.244220443044447, 35.811963586873631 ], [ -0.243480227076939, 35.811963586873631 ], [ -0.243480227076939, 35.812428134223211 ], [ -0.242740011109431, 35.812428134223211 ], [ -0.242740011109431, 35.813357220769255 ], [ -0.241999795141922, 35.813357220769255 ], [ -0.241999795141922, 35.814286296444358 ], [ -0.241259579174414, 35.814286296444358 ], [ -0.241259579174414, 35.814750830205249 ], [ -0.239779147239397, 35.814750830205249 ], [ -0.239779147239397, 35.815215361248384 ], [ -0.238298715304381, 35.815215361248384 ], [ -0.238298715304381, 35.815679889573708 ], [ -0.237558499336872, 35.815679889573708 ], [ -0.237558499336872, 35.816144415181228 ], [ -0.235337851434347, 35.816144415181228 ], [ -0.235337851434347, 35.815679889573708 ], [ -0.233117203531822, 35.815679889573708 ], [ -0.233117203531822, 35.815215361248384 ], [ -0.231636771596806, 35.815215361248384 ], [ -0.231636771596806, 35.814750830205249 ], [ -0.230896555629297, 35.814750830205249 ], [ -0.230896555629297, 35.813357220769255 ], [ -0.230156339661789, 35.813357220769255 ], [ -0.230156339661789, 35.812428134223211 ], [ -0.229416123694281, 35.812428134223211 ], [ -0.229416123694281, 35.811034484021377 ], [ -0.228675907726772, 35.811034484021377 ], [ -0.228675907726772, 35.810105370298473 ], [ -0.227935691759264, 35.810105370298473 ], [ -0.227935691759264, 35.809176245705025 ], [ -0.227195475791756, 35.809176245705025 ], [ -0.227195475791756, 35.80731796390701 ], [ -0.227935691759264, 35.80731796390701 ], [ -0.227935691759264, 35.805924224024189 ], [ -0.228675907726772, 35.805924224024189 ], [ -0.228675907726772, 35.804530459683846 ], [ -0.229416123694281, 35.804530459683846 ], [ -0.229416123694281, 35.803601269869652 ], [ -0.230156339661789, 35.803601269869652 ], [ -0.230156339661789, 35.803136670886389 ], [ -0.230896555629297, 35.803136670886389 ], [ -0.230896555629297, 35.802672069185711 ], [ -0.231636771596806, 35.802672069185711 ], [ -0.231636771596806, 35.80220746476764 ], [ -0.232376987564314, 35.80220746476764 ], [ -0.232376987564314, 35.801742857632192 ], [ -0.237558499336872, 35.801742857632192 ], [ -0.237558499336872, 35.80220746476764 ], [ -0.238298715304381, 35.80220746476764 ], [ -0.238298715304381, 35.802672069185711 ], [ -0.239038931271889, 35.802672069185711 ], [ -0.239038931271889, 35.800813635209181 ], [ -0.239779147239397, 35.800813635209181 ], [ -0.239779147239397, 35.799884401916799 ], [ -0.240519363206906, 35.799884401916799 ], [ -0.240519363206906, 35.799419781194644 ], [ -0.241259579174414, 35.799419781194644 ], [ -0.241259579174414, 35.798955157755167 ], [ -0.242740011109431, 35.798955157755167 ], [ -0.242740011109431, 35.798490531598425 ], [ -0.245700874979464, 35.798490531598425 ], [ -0.245700874979464, 35.798955157755167 ], [ -0.247921522881989, 35.798955157755167 ], [ -0.247921522881989, 35.799419781194644 ], [ -0.249401954817006, 35.799419781194644 ], [ -0.249401954817006, 35.799884401916799 ], [ -0.250882386752022, 35.799884401916799 ], [ -0.250882386752022, 35.799419781194644 ], [ -0.252362818687039, 35.799419781194644 ], [ -0.252362818687039, 35.798955157755167 ], [ -0.253843250622056, 35.798955157755167 ], [ -0.253843250622056, 35.798490531598425 ], [ -0.255323682557072, 35.798490531598425 ], [ -0.255323682557072, 35.798025902724412 ], [ -0.261245410297139, 35.798025902724412 ], [ -0.261245410297139, 35.798490531598425 ], [ -0.266426922069697, 35.798490531598425 ], [ -0.266426922069697, 35.799419781194644 ], [ -0.267167138037206, 35.799419781194644 ], [ -0.267167138037206, 35.799884401916799 ], [ -0.267907354004714, 35.799884401916799 ], [ -0.267907354004714, 35.800349019921647 ], [ -0.268647569972222, 35.800349019921647 ], [ -0.268647569972222, 35.801278247779365 ], [ -0.269387785939731, 35.801278247779365 ], [ -0.269387785939731, 35.801742857632192 ], [ -0.270128001907239, 35.801742857632192 ], [ -0.270128001907239, 35.80220746476764 ], [ -0.270868217874747, 35.80220746476764 ], [ -0.270868217874747, 35.803136670886389 ], [ -0.271608433842256, 35.803136670886389 ], [ -0.271608433842256, 35.803601269869652 ], [ -0.272348649809764, 35.803601269869652 ], [ -0.272348649809764, 35.804530459683846 ], [ -0.273088865777272, 35.804530459683846 ], [ -0.273088865777272, 35.804995050514783 ], [ -0.273829081744781, 35.804995050514783 ], [ -0.273829081744781, 35.804065866135467 ], [ -0.274569297712289, 35.804065866135467 ], [ -0.274569297712289, 35.803136670886389 ], [ -0.275309513679797, 35.803136670886389 ], [ -0.275309513679797, 35.80220746476764 ], [ -0.276049729647306, 35.80220746476764 ], [ -0.276049729647306, 35.801742857632192 ], [ -0.276789945614814, 35.801742857632192 ], [ -0.276789945614814, 35.801278247779365 ], [ -0.278270377549831, 35.801278247779365 ], [ -0.278270377549831, 35.800813635209181 ], [ -0.279010593517339, 35.800813635209181 ], [ -0.279010593517339, 35.800349019921647 ], [ -0.280491025452356, 35.800349019921647 ], [ -0.280491025452356, 35.800813635209181 ], [ -0.281231241419864, 35.800813635209181 ], [ -0.281231241419864, 35.801278247779365 ], [ -0.282711673354881, 35.801278247779365 ], [ -0.282711673354881, 35.801742857632192 ], [ -0.283451889322389, 35.801742857632192 ], [ -0.283451889322389, 35.80220746476764 ], [ -0.284192105289897, 35.80220746476764 ], [ -0.284192105289897, 35.804065866135467 ], [ -0.284932321257406, 35.804065866135467 ], [ -0.284932321257406, 35.806388806702657 ], [ -0.285672537224914, 35.806388806702657 ], [ -0.285672537224914, 35.808711679331893 ], [ -0.286412753192422, 35.808711679331893 ], [ -0.286412753192422, 35.811034484021377 ], [ -0.287152969159931, 35.811034484021377 ], [ -0.287152969159931, 35.821254017484272 ], [ -0.286412753192422, 35.821254017484272 ], [ -0.286412753192422, 35.822183000751579 ], [ -0.285672537224914, 35.822183000751579 ], [ -0.285672537224914, 35.822647488308213 ], [ -0.284932321257406, 35.822647488308213 ], [ -0.284932321257406, 35.82311197314683 ], [ -0.284192105289897, 35.82311197314683 ], [ -0.284192105289897, 35.8235764552674 ], [ -0.283451889322389, 35.8235764552674 ], [ -0.283451889322389, 35.824040934669902 ], [ -0.282711673354881, 35.824040934669902 ], [ -0.282711673354881, 35.824505411354338 ], [ -0.281971457387372, 35.824505411354338 ], [ -0.281971457387372, 35.824969885320684 ], [ -0.281231241419864, 35.824969885320684 ], [ -0.281231241419864, 35.82543435656892 ], [ -0.280491025452356, 35.82543435656892 ], [ -0.280491025452356, 35.825898825099053 ], [ -0.278270377549831, 35.825898825099053 ], [ -0.278270377549831, 35.82543435656892 ], [ -0.277530161582322, 35.82543435656892 ], [ -0.277530161582322, 35.824969885320684 ] ] ], [ [ [ 2.931306057566307, 36.145270739546369 ], [ 2.932046273533815, 36.145270739546369 ], [ 2.932046273533815, 36.14480814722986 ], [ 2.933526705468831, 36.14480814722986 ], [ 2.933526705468831, 36.144345552185356 ], [ 2.93426692143634, 36.144345552185356 ], [ 2.93426692143634, 36.142495144727611 ], [ 2.935007137403848, 36.142495144727611 ], [ 2.935007137403848, 36.141107310491023 ], [ 2.935747353371357, 36.141107310491023 ], [ 2.935747353371357, 36.139256826651881 ], [ 2.936487569338865, 36.139256826651881 ], [ 2.936487569338865, 36.136481019058579 ], [ 2.935747353371357, 36.136481019058579 ], [ 2.935747353371357, 36.13463042610794 ], [ 2.935007137403848, 36.13463042610794 ], [ 2.935007137403848, 36.134167771051025 ], [ 2.93426692143634, 36.134167771051025 ], [ 2.93426692143634, 36.13370511326643 ], [ 2.933526705468831, 36.13370511326643 ], [ 2.933526705468831, 36.133242452754182 ], [ 2.932786489501323, 36.133242452754182 ], [ 2.932786489501323, 36.132779789514281 ], [ 2.931306057566307, 36.132779789514281 ], [ 2.931306057566307, 36.132317123546741 ], [ 2.930565841598798, 36.132317123546741 ], [ 2.930565841598798, 36.131854454851599 ], [ 2.929085409663781, 36.131854454851599 ], [ 2.929085409663781, 36.132317123546741 ], [ 2.927604977728765, 36.132317123546741 ], [ 2.927604977728765, 36.132779789514281 ], [ 2.926124545793748, 36.132779789514281 ], [ 2.926124545793748, 36.133242452754182 ], [ 2.92538432982624, 36.133242452754182 ], [ 2.92538432982624, 36.13370511326643 ], [ 2.923903897891223, 36.13370511326643 ], [ 2.923903897891223, 36.134167771051025 ], [ 2.923163681923715, 36.134167771051025 ], [ 2.923163681923715, 36.135093078437173 ], [ 2.922423465956207, 36.135093078437173 ], [ 2.922423465956207, 36.135555728038689 ], [ 2.921683249988698, 36.135555728038689 ], [ 2.921683249988698, 36.136018374912496 ], [ 2.92094303402119, 36.136018374912496 ], [ 2.92094303402119, 36.136943660476909 ], [ 2.920202818053682, 36.136943660476909 ], [ 2.920202818053682, 36.140644693623038 ], [ 2.92094303402119, 36.140644693623038 ], [ 2.92094303402119, 36.143420353912397 ], [ 2.921683249988698, 36.143420353912397 ], [ 2.921683249988698, 36.143882954412867 ], [ 2.922423465956207, 36.143882954412867 ], [ 2.922423465956207, 36.144345552185356 ], [ 2.923163681923715, 36.144345552185356 ], [ 2.923163681923715, 36.14480814722986 ], [ 2.923903897891223, 36.14480814722986 ], [ 2.923903897891223, 36.145270739546369 ], [ 2.924644113858732, 36.145270739546369 ], [ 2.924644113858732, 36.14573332913487 ], [ 2.926124545793748, 36.14573332913487 ], [ 2.926124545793748, 36.146195915995342 ], [ 2.926864761761257, 36.146195915995342 ], [ 2.926864761761257, 36.146658500127771 ], [ 2.928345193696273, 36.146658500127771 ], [ 2.928345193696273, 36.146195915995342 ], [ 2.92982562563129, 36.146195915995342 ], [ 2.92982562563129, 36.14573332913487 ], [ 2.931306057566307, 36.14573332913487 ], [ 2.931306057566307, 36.145270739546369 ] ] ], [ [ [ 3.749984917630524, 36.185043471781654 ], [ 3.751465349565541, 36.185043471781654 ], [ 3.751465349565541, 36.184581114125564 ], [ 3.75220556553305, 36.184581114125564 ], [ 3.75220556553305, 36.184118753740272 ], [ 3.752945781500558, 36.184118753740272 ], [ 3.752945781500558, 36.183656390625785 ], [ 3.754426213435575, 36.183656390625785 ], [ 3.754426213435575, 36.182269284907314 ], [ 3.755166429403083, 36.182269284907314 ], [ 3.755166429403083, 36.178107820380092 ], [ 3.755906645370591, 36.178107820380092 ], [ 3.755906645370591, 36.174870972922768 ], [ 3.755166429403083, 36.174870972922768 ], [ 3.755166429403083, 36.173946134803117 ], [ 3.754426213435575, 36.173946134803117 ], [ 3.754426213435575, 36.173021285767938 ], [ 3.753685997468065, 36.173021285767938 ], [ 3.753685997468065, 36.172558857157064 ], [ 3.752945781500558, 36.172558857157064 ], [ 3.752945781500558, 36.17209642581733 ], [ 3.750725133598033, 36.17209642581733 ], [ 3.750725133598033, 36.171633991748799 ], [ 3.747024053760491, 36.171633991748799 ], [ 3.747024053760491, 36.17209642581733 ], [ 3.745543621825474, 36.17209642581733 ], [ 3.745543621825474, 36.172558857157064 ], [ 3.744063189890458, 36.172558857157064 ], [ 3.744063189890458, 36.173021285767938 ], [ 3.742582757955441, 36.173021285767938 ], [ 3.742582757955441, 36.173483711649958 ], [ 3.741102326020424, 36.173483711649958 ], [ 3.741102326020424, 36.174870972922768 ], [ 3.740362110052916, 36.174870972922768 ], [ 3.740362110052916, 36.176720616415025 ], [ 3.739621894085408, 36.176720616415025 ], [ 3.739621894085408, 36.178107820380092 ], [ 3.738141462150391, 36.178107820380092 ], [ 3.738141462150391, 36.178570216243784 ], [ 3.737401246182882, 36.178570216243784 ], [ 3.737401246182882, 36.17903260937846 ], [ 3.735920814247866, 36.17903260937846 ], [ 3.735920814247866, 36.180882154626616 ], [ 3.735180598280357, 36.180882154626616 ], [ 3.735180598280357, 36.182731656209292 ], [ 3.73444038231285, 36.182731656209292 ], [ 3.73444038231285, 36.183656390625785 ], [ 3.735180598280357, 36.183656390625785 ], [ 3.735180598280357, 36.185043471781654 ], [ 3.735920814247866, 36.185043471781654 ], [ 3.735920814247866, 36.186892875113685 ], [ 3.737401246182882, 36.186892875113685 ], [ 3.737401246182882, 36.187355219123539 ], [ 3.739621894085408, 36.187355219123539 ], [ 3.739621894085408, 36.187817560404099 ], [ 3.743322973922949, 36.187817560404099 ], [ 3.743322973922949, 36.187355219123539 ], [ 3.744063189890458, 36.187355219123539 ], [ 3.744063189890458, 36.186430528374551 ], [ 3.744803405857966, 36.186430528374551 ], [ 3.744803405857966, 36.185505826708528 ], [ 3.749984917630524, 36.185505826708528 ], [ 3.749984917630524, 36.185043471781654 ] ] ], [ [ [ 3.142267608306182, 36.603276314916315 ], [ 3.14300782427369, 36.603276314916315 ], [ 3.14300782427369, 36.602816438315351 ], [ 3.143748040241198, 36.602816438315351 ], [ 3.143748040241198, 36.601896676888721 ], [ 3.144488256208707, 36.601896676888721 ], [ 3.144488256208707, 36.594538190701364 ], [ 3.143748040241198, 36.594538190701364 ], [ 3.143748040241198, 36.593618330582743 ], [ 3.14300782427369, 36.593618330582743 ], [ 3.14300782427369, 36.592698459498877 ], [ 3.142267608306182, 36.592698459498877 ], [ 3.142267608306182, 36.592238519845012 ], [ 3.141527392338674, 36.592238519845012 ], [ 3.141527392338674, 36.591778577449873 ], [ 3.135605664598607, 36.591778577449873 ], [ 3.135605664598607, 36.592238519845012 ], [ 3.13412523266359, 36.592238519845012 ], [ 3.13412523266359, 36.592698459498877 ], [ 3.133385016696082, 36.592698459498877 ], [ 3.133385016696082, 36.593158396411461 ], [ 3.132644800728573, 36.593158396411461 ], [ 3.132644800728573, 36.593618330582743 ], [ 3.131904584761065, 36.593618330582743 ], [ 3.131904584761065, 36.594078262012708 ], [ 3.131164368793557, 36.594078262012708 ], [ 3.131164368793557, 36.594538190701364 ], [ 3.130424152826048, 36.594538190701364 ], [ 3.130424152826048, 36.594998116648675 ], [ 3.12968393685854, 36.594998116648675 ], [ 3.12968393685854, 36.595458039854627 ], [ 3.128943720891032, 36.595458039854627 ], [ 3.128943720891032, 36.601896676888721 ], [ 3.12968393685854, 36.601896676888721 ], [ 3.12968393685854, 36.602816438315351 ], [ 3.130424152826048, 36.602816438315351 ], [ 3.130424152826048, 36.603736188775677 ], [ 3.131164368793557, 36.603736188775677 ], [ 3.131164368793557, 36.604196059893432 ], [ 3.131904584761065, 36.604196059893432 ], [ 3.131904584761065, 36.604655928269572 ], [ 3.133385016696082, 36.604655928269572 ], [ 3.133385016696082, 36.605115793904091 ], [ 3.136345880566116, 36.605115793904091 ], [ 3.136345880566116, 36.605575656796958 ], [ 3.140046960403657, 36.605575656796958 ], [ 3.140046960403657, 36.605115793904091 ], [ 3.140787176371165, 36.605115793904091 ], [ 3.140787176371165, 36.604655928269572 ], [ 3.141527392338674, 36.604655928269572 ], [ 3.141527392338674, 36.603736188775677 ], [ 3.142267608306182, 36.603736188775677 ], [ 3.142267608306182, 36.603276314916315 ] ] ], [ [ [ 2.889113747418332, 36.610633967666281 ], [ 2.88985396338584, 36.610633967666281 ], [ 2.88985396338584, 36.61017413493235 ], [ 2.890594179353348, 36.61017413493235 ], [ 2.890594179353348, 36.606495374357721 ], [ 2.891334395320857, 36.606495374357721 ], [ 2.891334395320857, 36.605115793904091 ], [ 2.892814827255873, 36.605115793904091 ], [ 2.892814827255873, 36.605575656796958 ], [ 2.893555043223381, 36.605575656796958 ], [ 2.893555043223381, 36.606035516948175 ], [ 2.895035475158398, 36.606035516948175 ], [ 2.895035475158398, 36.605575656796958 ], [ 2.895775691125907, 36.605575656796958 ], [ 2.895775691125907, 36.605115793904091 ], [ 2.896515907093415, 36.605115793904091 ], [ 2.896515907093415, 36.604655928269572 ], [ 2.897256123060923, 36.604655928269572 ], [ 2.897256123060923, 36.604196059893432 ], [ 2.897996339028431, 36.604196059893432 ], [ 2.897996339028431, 36.603736188775677 ], [ 2.89873655499594, 36.603736188775677 ], [ 2.89873655499594, 36.603276314916315 ], [ 2.899476770963448, 36.603276314916315 ], [ 2.899476770963448, 36.602816438315351 ], [ 2.900216986930956, 36.602816438315351 ], [ 2.900216986930956, 36.602356558972815 ], [ 2.901697418865973, 36.602356558972815 ], [ 2.901697418865973, 36.601896676888721 ], [ 2.902437634833482, 36.601896676888721 ], [ 2.902437634833482, 36.600057121136963 ], [ 2.90317785080099, 36.600057121136963 ], [ 2.90317785080099, 36.598217521521264 ], [ 2.903918066768498, 36.598217521521264 ], [ 2.903918066768498, 36.597757614763687 ], [ 2.90317785080099, 36.597757614763687 ], [ 2.90317785080099, 36.596377878042439 ], [ 2.902437634833482, 36.596377878042439 ], [ 2.902437634833482, 36.595458039854627 ], [ 2.901697418865973, 36.595458039854627 ], [ 2.901697418865973, 36.594078262012708 ], [ 2.900957202898465, 36.594078262012708 ], [ 2.900957202898465, 36.593158396411461 ], [ 2.900216986930956, 36.593158396411461 ], [ 2.900216986930956, 36.592698459498877 ], [ 2.899476770963448, 36.592698459498877 ], [ 2.899476770963448, 36.593158396411461 ], [ 2.896515907093415, 36.593158396411461 ], [ 2.896515907093415, 36.593618330582743 ], [ 2.89429525919089, 36.593618330582743 ], [ 2.89429525919089, 36.594078262012708 ], [ 2.891334395320857, 36.594078262012708 ], [ 2.891334395320857, 36.594538190701364 ], [ 2.889113747418332, 36.594538190701364 ], [ 2.889113747418332, 36.596377878042439 ], [ 2.888373531450823, 36.596377878042439 ], [ 2.888373531450823, 36.598217521521264 ], [ 2.887633315483315, 36.598217521521264 ], [ 2.887633315483315, 36.598677425537396 ], [ 2.888373531450823, 36.598677425537396 ], [ 2.888373531450823, 36.600976904495894 ], [ 2.889113747418332, 36.600976904495894 ], [ 2.889113747418332, 36.601896676888721 ], [ 2.888373531450823, 36.601896676888721 ], [ 2.888373531450823, 36.601436792063076 ], [ 2.88541266758079, 36.601436792063076 ], [ 2.88541266758079, 36.600517014187183 ], [ 2.886152883548299, 36.600517014187183 ], [ 2.886152883548299, 36.599137326812055 ], [ 2.886893099515807, 36.599137326812055 ], [ 2.886893099515807, 36.597757614763687 ], [ 2.887633315483315, 36.597757614763687 ], [ 2.887633315483315, 36.596377878042439 ], [ 2.886893099515807, 36.596377878042439 ], [ 2.886893099515807, 36.594078262012708 ], [ 2.886152883548299, 36.594078262012708 ], [ 2.886152883548299, 36.592238519845012 ], [ 2.88541266758079, 36.592238519845012 ], [ 2.88541266758079, 36.591318632313481 ], [ 2.884672451613281, 36.591318632313481 ], [ 2.884672451613281, 36.590858684435844 ], [ 2.883932235645773, 36.590858684435844 ], [ 2.883932235645773, 36.590398733816969 ], [ 2.883192019678265, 36.590398733816969 ], [ 2.883192019678265, 36.58993878045689 ], [ 2.882451803710757, 36.58993878045689 ], [ 2.882451803710757, 36.589478824355602 ], [ 2.88097137177574, 36.589478824355602 ], [ 2.88097137177574, 36.589018865513104 ], [ 2.880231155808231, 36.589018865513104 ], [ 2.880231155808231, 36.588558903929453 ], [ 2.879490939840723, 36.588558903929453 ], [ 2.879490939840723, 36.588098939604613 ], [ 2.878010507905707, 36.588098939604613 ], [ 2.878010507905707, 36.588558903929453 ], [ 2.875049644035673, 36.588558903929453 ], [ 2.875049644035673, 36.589018865513104 ], [ 2.874309428068165, 36.589018865513104 ], [ 2.874309428068165, 36.589478824355602 ], [ 2.873569212100656, 36.589478824355602 ], [ 2.873569212100656, 36.58993878045689 ], [ 2.872828996133148, 36.58993878045689 ], [ 2.872828996133148, 36.590398733816969 ], [ 2.87208878016564, 36.590398733816969 ], [ 2.87208878016564, 36.590858684435844 ], [ 2.871348564198132, 36.590858684435844 ], [ 2.871348564198132, 36.591318632313481 ], [ 2.870608348230624, 36.591318632313481 ], [ 2.870608348230624, 36.591778577449873 ], [ 2.869868132263115, 36.591778577449873 ], [ 2.869868132263115, 36.592698459498877 ], [ 2.869127916295606, 36.592698459498877 ], [ 2.869127916295606, 36.594998116648675 ], [ 2.868387700328098, 36.594998116648675 ], [ 2.868387700328098, 36.597297705264687 ], [ 2.86764748436059, 36.597297705264687 ], [ 2.86764748436059, 36.600976904495894 ], [ 2.868387700328098, 36.600976904495894 ], [ 2.868387700328098, 36.602816438315351 ], [ 2.869127916295606, 36.602816438315351 ], [ 2.869127916295606, 36.604655928269572 ], [ 2.869868132263115, 36.604655928269572 ], [ 2.869868132263115, 36.605115793904091 ], [ 2.870608348230624, 36.605115793904091 ], [ 2.870608348230624, 36.605575656796958 ], [ 2.87208878016564, 36.605575656796958 ], [ 2.87208878016564, 36.606035516948175 ], [ 2.873569212100656, 36.606035516948175 ], [ 2.873569212100656, 36.606495374357721 ], [ 2.87653007597069, 36.606495374357721 ], [ 2.87653007597069, 36.606035516948175 ], [ 2.877270291938198, 36.606035516948175 ], [ 2.877270291938198, 36.605575656796958 ], [ 2.878010507905707, 36.605575656796958 ], [ 2.878010507905707, 36.605115793904091 ], [ 2.879490939840723, 36.605115793904091 ], [ 2.879490939840723, 36.604655928269572 ], [ 2.880231155808231, 36.604655928269572 ], [ 2.880231155808231, 36.604196059893432 ], [ 2.88097137177574, 36.604196059893432 ], [ 2.88097137177574, 36.605575656796958 ], [ 2.880231155808231, 36.605575656796958 ], [ 2.880231155808231, 36.607415080951746 ], [ 2.88097137177574, 36.607415080951746 ], [ 2.88097137177574, 36.608794620279923 ], [ 2.881711587743248, 36.608794620279923 ], [ 2.881711587743248, 36.61017413493235 ], [ 2.882451803710757, 36.61017413493235 ], [ 2.882451803710757, 36.610633967666281 ], [ 2.883192019678265, 36.610633967666281 ], [ 2.883192019678265, 36.611093797658391 ], [ 2.884672451613281, 36.611093797658391 ], [ 2.884672451613281, 36.611553624908673 ], [ 2.88541266758079, 36.611553624908673 ], [ 2.88541266758079, 36.612013449417155 ], [ 2.886893099515807, 36.612013449417155 ], [ 2.886893099515807, 36.611553624908673 ], [ 2.887633315483315, 36.611553624908673 ], [ 2.887633315483315, 36.611093797658391 ], [ 2.889113747418332, 36.611093797658391 ], [ 2.889113747418332, 36.610633967666281 ] ] ], [ [ [ 3.239235900049774, 36.633622108287483 ], [ 3.239976116017282, 36.633622108287483 ], [ 3.239976116017282, 36.630863893385722 ], [ 3.239235900049774, 36.630863893385722 ], [ 3.239235900049774, 36.627645851221985 ], [ 3.238495684082265, 36.627645851221985 ], [ 3.238495684082265, 36.626726385922929 ], [ 3.237755468114757, 36.626726385922929 ], [ 3.237755468114757, 36.626266649159994 ], [ 3.237015252147248, 36.626266649159994 ], [ 3.237015252147248, 36.625347167407384 ], [ 3.236275036179741, 36.625347167407384 ], [ 3.236275036179741, 36.624427674685869 ], [ 3.235534820212232, 36.624427674685869 ], [ 3.235534820212232, 36.623967924211811 ], [ 3.234794604244723, 36.623967924211811 ], [ 3.234794604244723, 36.623048415037132 ], [ 3.234054388277215, 36.623048415037132 ], [ 3.234054388277215, 36.622588656336532 ], [ 3.232573956342199, 36.622588656336532 ], [ 3.232573956342199, 36.622128894893805 ], [ 3.229613092472166, 36.622128894893805 ], [ 3.229613092472166, 36.622588656336532 ], [ 3.228132660537149, 36.622588656336532 ], [ 3.228132660537149, 36.623508170995557 ], [ 3.22739244456964, 36.623508170995557 ], [ 3.22739244456964, 36.623967924211811 ], [ 3.226652228602132, 36.623967924211811 ], [ 3.226652228602132, 36.624887422417736 ], [ 3.225912012634624, 36.624887422417736 ], [ 3.225912012634624, 36.625347167407384 ], [ 3.225171796667116, 36.625347167407384 ], [ 3.225171796667116, 36.626266649159994 ], [ 3.224431580699607, 36.626266649159994 ], [ 3.224431580699607, 36.627186119943595 ], [ 3.223691364732099, 36.627186119943595 ], [ 3.223691364732099, 36.63178330932265 ], [ 3.224431580699607, 36.63178330932265 ], [ 3.224431580699607, 36.632702714289934 ], [ 3.225171796667116, 36.632702714289934 ], [ 3.225171796667116, 36.633622108287483 ], [ 3.225912012634624, 36.633622108287483 ], [ 3.225912012634624, 36.634541491315147 ], [ 3.226652228602132, 36.634541491315147 ], [ 3.226652228602132, 36.635460863372849 ], [ 3.22739244456964, 36.635460863372849 ], [ 3.22739244456964, 36.636380224460474 ], [ 3.237015252147248, 36.636380224460474 ], [ 3.237015252147248, 36.635460863372849 ], [ 3.237755468114757, 36.635460863372849 ], [ 3.237755468114757, 36.635001178715243 ], [ 3.238495684082265, 36.635001178715243 ], [ 3.238495684082265, 36.634081801172542 ], [ 3.239235900049774, 36.634081801172542 ], [ 3.239235900049774, 36.633622108287483 ] ] ], [ [ [ 3.128943720891032, 36.68600942970653 ], [ 3.12968393685854, 36.68600942970653 ], [ 3.12968393685854, 36.684631272770233 ], [ 3.130424152826048, 36.684631272770233 ], [ 3.130424152826048, 36.682793691773554 ], [ 3.131164368793557, 36.682793691773554 ], [ 3.131164368793557, 36.680956066874856 ], [ 3.131904584761065, 36.680956066874856 ], [ 3.131904584761065, 36.680037237962523 ], [ 3.131164368793557, 36.680037237962523 ], [ 3.131164368793557, 36.678199547212365 ], [ 3.130424152826048, 36.678199547212365 ], [ 3.130424152826048, 36.676361812562291 ], [ 3.12968393685854, 36.676361812562291 ], [ 3.12968393685854, 36.67452403401316 ], [ 3.128943720891032, 36.67452403401316 ], [ 3.128943720891032, 36.673145671293035 ], [ 3.128203504923524, 36.673145671293035 ], [ 3.128203504923524, 36.672686211565782 ], [ 3.126723072988507, 36.672686211565782 ], [ 3.126723072988507, 36.672226749094932 ], [ 3.125982857020999, 36.672226749094932 ], [ 3.125982857020999, 36.671767283880513 ], [ 3.123762209118474, 36.671767283880513 ], [ 3.123762209118474, 36.672226749094932 ], [ 3.122281777183456, 36.672226749094932 ], [ 3.122281777183456, 36.672686211565782 ], [ 3.121541561215949, 36.672686211565782 ], [ 3.121541561215949, 36.673145671293035 ], [ 3.120061129280932, 36.673145671293035 ], [ 3.120061129280932, 36.673605128276698 ], [ 3.119320913313424, 36.673605128276698 ], [ 3.119320913313424, 36.674064582516735 ], [ 3.117840481378407, 36.674064582516735 ], [ 3.117840481378407, 36.674983482765938 ], [ 3.117100265410898, 36.674983482765938 ], [ 3.117100265410898, 36.675902372040525 ], [ 3.11636004944339, 36.675902372040525 ], [ 3.11636004944339, 36.676821250340389 ], [ 3.115619833475882, 36.676821250340389 ], [ 3.115619833475882, 36.677740117665422 ], [ 3.114879617508374, 36.677740117665422 ], [ 3.114879617508374, 36.678658974015555 ], [ 3.114139401540865, 36.678658974015555 ], [ 3.114139401540865, 36.679577819390644 ], [ 3.113399185573357, 36.679577819390644 ], [ 3.113399185573357, 36.683253091138575 ], [ 3.114139401540865, 36.683253091138575 ], [ 3.114139401540865, 36.68600942970653 ], [ 3.114879617508374, 36.68600942970653 ], [ 3.114879617508374, 36.686468809864046 ], [ 3.11636004944339, 36.686468809864046 ], [ 3.11636004944339, 36.68692818727758 ], [ 3.117840481378407, 36.68692818727758 ], [ 3.117840481378407, 36.687387561947112 ], [ 3.119320913313424, 36.687387561947112 ], [ 3.119320913313424, 36.687846933872635 ], [ 3.120801345248441, 36.687846933872635 ], [ 3.120801345248441, 36.688306303054155 ], [ 3.122281777183456, 36.688306303054155 ], [ 3.122281777183456, 36.688765669491623 ], [ 3.123762209118474, 36.688765669491623 ], [ 3.123762209118474, 36.689225033185046 ], [ 3.12524264105349, 36.689225033185046 ], [ 3.12524264105349, 36.688765669491623 ], [ 3.126723072988507, 36.688765669491623 ], [ 3.126723072988507, 36.688306303054155 ], [ 3.127463288956015, 36.688306303054155 ], [ 3.127463288956015, 36.687846933872635 ], [ 3.128943720891032, 36.687846933872635 ], [ 3.128943720891032, 36.68600942970653 ] ] ], [ [ [ 1.667017185062072, 41.319546424455204 ], [ 1.667017185062072, 41.318685952030009 ], [ 1.66775740102958, 41.318685952030009 ], [ 1.66775740102958, 41.318255711557249 ], [ 1.668497616997088, 41.318255711557249 ], [ 1.668497616997088, 41.317395222091427 ], [ 1.669237832964597, 41.317395222091427 ], [ 1.669237832964597, 41.316534721265214 ], [ 1.669978048932105, 41.316534721265214 ], [ 1.669978048932105, 41.315674209078693 ], [ 1.670718264899614, 41.315674209078693 ], [ 1.670718264899614, 41.31395315062484 ], [ 1.669978048932105, 41.31395315062484 ], [ 1.669978048932105, 41.308359396826262 ], [ 1.669237832964597, 41.308359396826262 ], [ 1.669237832964597, 41.30749877671883 ], [ 1.668497616997088, 41.30749877671883 ], [ 1.668497616997088, 41.306638145251547 ], [ 1.66775740102958, 41.306638145251547 ], [ 1.66775740102958, 41.306207825257957 ], [ 1.667017185062072, 41.306207825257957 ], [ 1.667017185062072, 41.305777502424441 ], [ 1.657394377484463, 41.305777502424441 ], [ 1.657394377484463, 41.306638145251547 ], [ 1.656654161516955, 41.306638145251547 ], [ 1.656654161516955, 41.307068462405169 ], [ 1.655913945549446, 41.307068462405169 ], [ 1.655913945549446, 41.307929088192537 ], [ 1.655173729581938, 41.307929088192537 ], [ 1.655173729581938, 41.308789702620011 ], [ 1.65443351361443, 41.308789702620011 ], [ 1.65443351361443, 41.318255711557249 ], [ 1.655173729581938, 41.318255711557249 ], [ 1.655173729581938, 41.319116189662658 ], [ 1.655913945549446, 41.319116189662658 ], [ 1.655913945549446, 41.319546424455204 ], [ 1.656654161516955, 41.319546424455204 ], [ 1.656654161516955, 41.320406885519908 ], [ 1.657394377484463, 41.320406885519908 ], [ 1.657394377484463, 41.320837111792073 ], [ 1.665536753127055, 41.320837111792073 ], [ 1.665536753127055, 41.320406885519908 ], [ 1.666276969094563, 41.320406885519908 ], [ 1.666276969094563, 41.319546424455204 ], [ 1.667017185062072, 41.319546424455204 ] ] ], [ [ [ 2.005295882213381, 41.411121697268769 ], [ 2.005295882213381, 41.410262434980304 ], [ 2.006036098180889, 41.410262434980304 ], [ 2.006036098180889, 41.403387927533572 ], [ 2.005295882213381, 41.403387927533572 ], [ 2.005295882213381, 41.402528562961002 ], [ 2.004555666245873, 41.402528562961002 ], [ 2.004555666245873, 41.402098876412957 ], [ 2.003815450278363, 41.402098876412957 ], [ 2.003815450278363, 41.401239494793387 ], [ 2.003075234310855, 41.401239494793387 ], [ 2.003075234310855, 41.400809799721856 ], [ 2.002335018343347, 41.400809799721856 ], [ 2.002335018343347, 41.400380101809176 ], [ 1.997893722538297, 41.400380101809176 ], [ 1.997893722538297, 41.400809799721856 ], [ 1.997153506570789, 41.400809799721856 ], [ 1.997153506570789, 41.401669187023749 ], [ 1.99641329060328, 41.401669187023749 ], [ 1.99641329060328, 41.402098876412957 ], [ 1.995673074635772, 41.402098876412957 ], [ 1.995673074635772, 41.402958246667872 ], [ 1.994932858668264, 41.402958246667872 ], [ 1.994932858668264, 41.403387927533572 ], [ 1.994192642700756, 41.403387927533572 ], [ 1.994192642700756, 41.403817605558082 ], [ 1.993452426733247, 41.403817605558082 ], [ 1.993452426733247, 41.404676953083538 ], [ 1.992712210765739, 41.404676953083538 ], [ 1.992712210765739, 41.409832799574154 ], [ 1.993452426733247, 41.409832799574154 ], [ 1.993452426733247, 41.410692067545178 ], [ 1.994192642700756, 41.410692067545178 ], [ 1.994192642700756, 41.411551324151091 ], [ 1.994932858668264, 41.411551324151091 ], [ 1.994932858668264, 41.411980948192124 ], [ 1.995673074635772, 41.411980948192124 ], [ 1.995673074635772, 41.412840187750334 ], [ 2.003815450278363, 41.412840187750334 ], [ 2.003815450278363, 41.411980948192124 ], [ 2.004555666245873, 41.411980948192124 ], [ 2.004555666245873, 41.411121697268769 ], [ 2.005295882213381, 41.411121697268769 ] ] ], [ [ [ 1.270261426477605, 41.820120312392113 ], [ 1.27248207438013, 41.820120312392113 ], [ 1.27248207438013, 41.81969339843662 ], [ 1.273962506315147, 41.81969339843662 ], [ 1.273962506315147, 41.819266481635047 ], [ 1.275442938250163, 41.819266481635047 ], [ 1.275442938250163, 41.818839561987375 ], [ 1.276183154217671, 41.818839561987375 ], [ 1.276183154217671, 41.81713185493593 ], [ 1.27692337018518, 41.81713185493593 ], [ 1.27692337018518, 41.814997157085209 ], [ 1.277663586152688, 41.814997157085209 ], [ 1.277663586152688, 41.813289347575882 ], [ 1.278403802120196, 41.813289347575882 ], [ 1.278403802120196, 41.810300571362902 ], [ 1.277663586152688, 41.810300571362902 ], [ 1.277663586152688, 41.808592636629342 ], [ 1.27692337018518, 41.808592636629342 ], [ 1.27692337018518, 41.807738652186728 ], [ 1.276183154217671, 41.807738652186728 ], [ 1.276183154217671, 41.807311655696488 ], [ 1.274702722282654, 41.807311655696488 ], [ 1.274702722282654, 41.806884656360282 ], [ 1.273962506315147, 41.806884656360282 ], [ 1.273962506315147, 41.806457654178125 ], [ 1.270261426477605, 41.806457654178125 ], [ 1.270261426477605, 41.806884656360282 ], [ 1.268040778575079, 41.806884656360282 ], [ 1.268040778575079, 41.807311655696488 ], [ 1.265079914705046, 41.807311655696488 ], [ 1.265079914705046, 41.807738652186728 ], [ 1.262859266802521, 41.807738652186728 ], [ 1.262859266802521, 41.808165645831018 ], [ 1.261378834867505, 41.808165645831018 ], [ 1.261378834867505, 41.809446609688074 ], [ 1.260638618899996, 41.809446609688074 ], [ 1.260638618899996, 41.811154521653762 ], [ 1.259898402932488, 41.811154521653762 ], [ 1.259898402932488, 41.813289347575882 ], [ 1.260638618899996, 41.813289347575882 ], [ 1.260638618899996, 41.816277984333809 ], [ 1.261378834867505, 41.816277984333809 ], [ 1.261378834867505, 41.819266481635047 ], [ 1.262119050835013, 41.819266481635047 ], [ 1.262119050835013, 41.820120312392113 ], [ 1.26359948277003, 41.820120312392113 ], [ 1.26359948277003, 41.820547223501499 ], [ 1.264339698737538, 41.820547223501499 ], [ 1.264339698737538, 41.820974131764785 ], [ 1.265820130672554, 41.820974131764785 ], [ 1.265820130672554, 41.821401037181964 ], [ 1.266560346640063, 41.821401037181964 ], [ 1.266560346640063, 41.820974131764785 ], [ 1.268780994542588, 41.820974131764785 ], [ 1.268780994542588, 41.820547223501499 ], [ 1.270261426477605, 41.820547223501499 ], [ 1.270261426477605, 41.820120312392113 ] ] ] ] } }
]
}
