{
"type": "FeatureCollection",
"name": "spain_fires_modis_ba",
"crs": { "type": "name", "properties": { "name": "urn:ogc:def:crs:OGC:1.3:CRS84" } },
"features": [
{ "type": "Feature", "properties": { }, "geometry": { "type": "MultiPolygon", "coordinates": [ [ [ [ -6.351002174988206, 41.348795727137578 ], [ -6.349521743053189, 41.348795727137578 ], [ -6.349521743053189, 41.348365685485724 ], [ -6.347301095150666, 41.348365685485724 ], [ -6.347301095150666, 41.347935640993398 ], [ -6.34508044724814, 41.347935640993398 ], [ -6.34508044724814, 41.346645490473527 ], [ -6.344340231280632, 41.346645490473527 ], [ -6.344340231280632, 41.345785375924613 ], [ -6.343600015313123, 41.345785375924613 ], [ -6.343600015313123, 41.344495182797836 ], [ -6.342859799345614, 41.344495182797836 ], [ -6.342859799345614, 41.344065112741362 ], [ -6.343600015313123, 41.344065112741362 ], [ -6.343600015313123, 41.342344804111178 ], [ -6.344340231280632, 41.342344804111178 ], [ -6.344340231280632, 41.340624450034404 ], [ -6.34508044724814, 41.340624450034404 ], [ -6.34508044724814, 41.338473943529735 ], [ -6.345820663215648, 41.338473943529735 ], [ -6.345820663215648, 41.336753487199452 ], [ -6.346560879183157, 41.336753487199452 ], [ -6.346560879183157, 41.335032985423709 ], [ -6.347301095150666, 41.335032985423709 ], [ -6.347301095150666, 41.333312438202881 ], [ -6.348041311118173, 41.333312438202881 ], [ -6.348041311118173, 41.331161690270235 ], [ -6.348781527085682, 41.331161690270235 ], [ -6.348781527085682, 41.329441040799239 ], [ -6.349521743053189, 41.329441040799239 ], [ -6.349521743053189, 41.327720345884302 ], [ -6.350261959020698, 41.327720345884302 ], [ -6.350261959020698, 41.325999605525752 ], [ -6.351002174988206, 41.325999605525752 ], [ -6.351002174988206, 41.32470902043471 ], [ -6.351742390955714, 41.32470902043471 ], [ -6.351742390955714, 41.323418409781972 ], [ -6.352482606923223, 41.323418409781972 ], [ -6.352482606923223, 41.322127773567708 ], [ -6.353222822890732, 41.322127773567708 ], [ -6.353222822890732, 41.320837111792073 ], [ -6.35396303885824, 41.320837111792073 ], [ -6.35396303885824, 41.319976656407619 ], [ -6.354703254825749, 41.319976656407619 ], [ -6.354703254825749, 41.319116189662658 ], [ -6.355443470793257, 41.319116189662658 ], [ -6.355443470793257, 41.318255711557249 ], [ -6.356183686760765, 41.318255711557249 ], [ -6.356183686760765, 41.316964973098372 ], [ -6.356923902728273, 41.316964973098372 ], [ -6.356923902728273, 41.316104466591995 ], [ -6.357664118695782, 41.316104466591995 ], [ -6.357664118695782, 41.315243948725325 ], [ -6.35840433466329, 41.315243948725325 ], [ -6.35840433466329, 41.314813685531881 ], [ -6.359144550630798, 41.314813685531881 ], [ -6.359144550630798, 41.31395315062484 ], [ -6.359884766598306, 41.31395315062484 ], [ -6.359884766598306, 41.313522878911229 ], [ -6.360624982565815, 41.313522878911229 ], [ -6.360624982565815, 41.312662326963917 ], [ -6.361365198533323, 41.312662326963917 ], [ -6.361365198533323, 41.312232046730209 ], [ -6.362105414500832, 41.312232046730209 ], [ -6.362105414500832, 41.311371477742703 ], [ -6.363585846435849, 41.311371477742703 ], [ -6.363585846435849, 41.310941188988927 ], [ -6.364326062403356, 41.310941188988927 ], [ -6.364326062403356, 41.31051089739514 ], [ -6.365066278370866, 41.31051089739514 ], [ -6.365066278370866, 41.310080602961357 ], [ -6.366546710305881, 41.310080602961357 ], [ -6.366546710305881, 41.309650305687569 ], [ -6.36728692627339, 41.309650305687569 ], [ -6.36728692627339, 41.309220005573778 ], [ -6.368027142240899, 41.309220005573778 ], [ -6.368027142240899, 41.308789702620011 ], [ -6.368767358208406, 41.308789702620011 ], [ -6.368767358208406, 41.308359396826262 ], [ -6.369507574175914, 41.308359396826262 ], [ -6.369507574175914, 41.30749877671883 ], [ -6.370247790143424, 41.30749877671883 ], [ -6.370247790143424, 41.304916848237561 ], [ -6.370988006110932, 41.304916848237561 ], [ -6.370988006110932, 41.303625845657749 ], [ -6.37172822207844, 41.303625845657749 ], [ -6.37172822207844, 41.302334817518691 ], [ -6.372468438045948, 41.302334817518691 ], [ -6.372468438045948, 41.301043763820552 ], [ -6.373208654013458, 41.301043763820552 ], [ -6.373208654013458, 41.299752684563465 ], [ -6.373948869980965, 41.299752684563465 ], [ -6.373948869980965, 41.298461579747588 ], [ -6.374689085948473, 41.298461579747588 ], [ -6.374689085948473, 41.297170449373056 ], [ -6.375429301915982, 41.297170449373056 ], [ -6.375429301915982, 41.29630968159087 ], [ -6.37616951788349, 41.29630968159087 ], [ -6.37616951788349, 41.295018508618931 ], [ -6.376909733850998, 41.295018508618931 ], [ -6.376909733850998, 41.294157712438604 ], [ -6.377649949818506, 41.294157712438604 ], [ -6.377649949818506, 41.292866496869678 ], [ -6.378390165786015, 41.292866496869678 ], [ -6.378390165786015, 41.292005672291495 ], [ -6.379130381753523, 41.292005672291495 ], [ -6.379130381753523, 41.291144836354256 ], [ -6.379870597721032, 41.291144836354256 ], [ -6.379870597721032, 41.290283989057983 ], [ -6.38061081368854, 41.290283989057983 ], [ -6.38061081368854, 41.289853561150231 ], [ -6.381351029656049, 41.289853561150231 ], [ -6.381351029656049, 41.288992696815519 ], [ -6.382091245623557, 41.288992696815519 ], [ -6.382091245623557, 41.288562260388559 ], [ -6.382831461591064, 41.288562260388559 ], [ -6.382831461591064, 41.288131821121894 ], [ -6.383571677558574, 41.288131821121894 ], [ -6.383571677558574, 41.287270934069397 ], [ -6.384311893526082, 41.287270934069397 ], [ -6.384311893526082, 41.286840486283602 ], [ -6.385052109493589, 41.286840486283602 ], [ -6.385052109493589, 41.285979582192901 ], [ -6.385792325461098, 41.285979582192901 ], [ -6.385792325461098, 41.285549125888011 ], [ -6.386532541428607, 41.285549125888011 ], [ -6.386532541428607, 41.285118666743436 ], [ -6.387272757396115, 41.285118666743436 ], [ -6.387272757396115, 41.284257739935278 ], [ -6.388012973363623, 41.284257739935278 ], [ -6.388012973363623, 41.283827272271687 ], [ -6.389493405298641, 41.283827272271687 ], [ -6.389493405298641, 41.28339680176844 ], [ -6.390233621266148, 41.28339680176844 ], [ -6.390233621266148, 41.282966328425545 ], [ -6.392454269168673, 41.282966328425545 ], [ -6.392454269168673, 41.282535852242994 ], [ -6.39393470110369, 41.282535852242994 ], [ -6.39393470110369, 41.282105373220801 ], [ -6.395415133038706, 41.282105373220801 ], [ -6.395415133038706, 41.281674891358975 ], [ -6.397635780941232, 41.281674891358975 ], [ -6.397635780941232, 41.282105373220801 ], [ -6.39837599690874, 41.282105373220801 ], [ -6.39837599690874, 41.285979582192901 ], [ -6.397635780941232, 41.285979582192901 ], [ -6.397635780941232, 41.288131821121894 ], [ -6.396895564973724, 41.288131821121894 ], [ -6.396895564973724, 41.288992696815519 ], [ -6.396155349006215, 41.288992696815519 ], [ -6.396155349006215, 41.289853561150231 ], [ -6.395415133038706, 41.289853561150231 ], [ -6.395415133038706, 41.290714414125993 ], [ -6.394674917071199, 41.290714414125993 ], [ -6.394674917071199, 41.291144836354256 ], [ -6.39393470110369, 41.291144836354256 ], [ -6.39393470110369, 41.292005672291495 ], [ -6.393194485136181, 41.292005672291495 ], [ -6.393194485136181, 41.292866496869678 ], [ -6.392454269168673, 41.292866496869678 ], [ -6.392454269168673, 41.293727310088748 ], [ -6.391714053201166, 41.293727310088748 ], [ -6.391714053201166, 41.29458811194867 ], [ -6.390973837233656, 41.29458811194867 ], [ -6.390973837233656, 41.295448902449394 ], [ -6.390233621266148, 41.295448902449394 ], [ -6.390233621266148, 41.29630968159087 ], [ -6.389493405298641, 41.29630968159087 ], [ -6.389493405298641, 41.297600829004409 ], [ -6.388753189331132, 41.297600829004409 ], [ -6.388753189331132, 41.298461579747588 ], [ -6.388012973363623, 41.298461579747588 ], [ -6.388012973363623, 41.299322319131363 ], [ -6.387272757396115, 41.299322319131363 ], [ -6.387272757396115, 41.299752684563465 ], [ -6.386532541428607, 41.299752684563465 ], [ -6.386532541428607, 41.30061340690807 ], [ -6.385792325461098, 41.30061340690807 ], [ -6.385792325461098, 41.301474117893157 ], [ -6.385052109493589, 41.301474117893157 ], [ -6.385052109493589, 41.302334817518691 ], [ -6.384311893526082, 41.302334817518691 ], [ -6.384311893526082, 41.303625845657749 ], [ -6.383571677558574, 41.303625845657749 ], [ -6.383571677558574, 41.30749877671883 ], [ -6.382831461591064, 41.30749877671883 ], [ -6.382831461591064, 41.313092604357593 ], [ -6.382091245623557, 41.313092604357593 ], [ -6.382091245623557, 41.314813685531881 ], [ -6.381351029656049, 41.314813685531881 ], [ -6.381351029656049, 41.315674209078693 ], [ -6.38061081368854, 41.315674209078693 ], [ -6.38061081368854, 41.316534721265214 ], [ -6.379870597721032, 41.316534721265214 ], [ -6.379870597721032, 41.316964973098372 ], [ -6.379130381753523, 41.316964973098372 ], [ -6.379130381753523, 41.317825468244379 ], [ -6.378390165786015, 41.317825468244379 ], [ -6.378390165786015, 41.318255711557249 ], [ -6.377649949818506, 41.318255711557249 ], [ -6.377649949818506, 41.318685952030009 ], [ -6.376909733850998, 41.318685952030009 ], [ -6.376909733850998, 41.319116189662658 ], [ -6.37616951788349, 41.319116189662658 ], [ -6.37616951788349, 41.319546424455204 ], [ -6.375429301915982, 41.319546424455204 ], [ -6.375429301915982, 41.319976656407619 ], [ -6.374689085948473, 41.319976656407619 ], [ -6.374689085948473, 41.320406885519908 ], [ -6.373948869980965, 41.320406885519908 ], [ -6.373948869980965, 41.320837111792073 ], [ -6.373208654013458, 41.320837111792073 ], [ -6.373208654013458, 41.322127773567708 ], [ -6.372468438045948, 41.322127773567708 ], [ -6.372468438045948, 41.322988200550711 ], [ -6.37172822207844, 41.322988200550711 ], [ -6.37172822207844, 41.324278819723972 ], [ -6.370988006110932, 41.324278819723972 ], [ -6.370988006110932, 41.3255694133356 ], [ -6.370247790143424, 41.3255694133356 ], [ -6.370247790143424, 41.326859981385461 ], [ -6.369507574175914, 41.326859981385461 ], [ -6.369507574175914, 41.32858069902224 ], [ -6.368767358208406, 41.32858069902224 ], [ -6.368767358208406, 41.330301371215249 ], [ -6.368027142240899, 41.330301371215249 ], [ -6.368027142240899, 41.332021997964141 ], [ -6.36728692627339, 41.332021997964141 ], [ -6.36728692627339, 41.333742579268552 ], [ -6.366546710305881, 41.333742579268552 ], [ -6.366546710305881, 41.335463115128135 ], [ -6.365806494338374, 41.335463115128135 ], [ -6.365806494338374, 41.337183605542542 ], [ -6.365066278370866, 41.337183605542542 ], [ -6.365066278370866, 41.338473943529735 ], [ -6.364326062403356, 41.338473943529735 ], [ -6.364326062403356, 41.339764255953668 ], [ -6.363585846435849, 41.339764255953668 ], [ -6.363585846435849, 41.340624450034404 ], [ -6.362845630468341, 41.340624450034404 ], [ -6.362845630468341, 41.341914719852582 ], [ -6.362105414500832, 41.341914719852582 ], [ -6.362105414500832, 41.343204964107116 ], [ -6.361365198533323, 41.343204964107116 ], [ -6.361365198533323, 41.344065112741362 ], [ -6.360624982565815, 41.344065112741362 ], [ -6.360624982565815, 41.344925250013866 ], [ -6.359884766598306, 41.344925250013866 ], [ -6.359884766598306, 41.345355314389465 ], [ -6.359144550630798, 41.345355314389465 ], [ -6.359144550630798, 41.346215434619296 ], [ -6.35840433466329, 41.346215434619296 ], [ -6.35840433466329, 41.347075543487286 ], [ -6.357664118695782, 41.347075543487286 ], [ -6.357664118695782, 41.347935640993398 ], [ -6.356183686760765, 41.347935640993398 ], [ -6.356183686760765, 41.348365685485724 ], [ -6.354703254825749, 41.348365685485724 ], [ -6.354703254825749, 41.348795727137578 ], [ -6.353222822890732, 41.348795727137578 ], [ -6.353222822890732, 41.349225765948923 ], [ -6.351002174988206, 41.349225765948923 ], [ -6.351002174988206, 41.348795727137578 ] ] ], [ [ [ -5.404265952545047, 42.669089736884388 ], [ -5.404265952545047, 42.668668529405238 ], [ -5.402785520610029, 42.668668529405238 ], [ -5.402785520610029, 42.668247319071845 ], [ -5.402045304642522, 42.668247319071845 ], [ -5.402045304642522, 42.66782610588421 ], [ -5.401305088675014, 42.66782610588421 ], [ -5.401305088675014, 42.66445629763092 ], [ -5.402045304642522, 42.66445629763092 ], [ -5.402045304642522, 42.661086306708256 ], [ -5.402785520610029, 42.661086306708256 ], [ -5.402785520610029, 42.659401242746441 ], [ -5.403525736577539, 42.659401242746441 ], [ -5.403525736577539, 42.658137414806312 ], [ -5.404265952545047, 42.658137414806312 ], [ -5.404265952545047, 42.656873561178763 ], [ -5.405006168512555, 42.656873561178763 ], [ -5.405006168512555, 42.655609681863879 ], [ -5.405746384480064, 42.655609681863879 ], [ -5.405746384480064, 42.654345776861774 ], [ -5.406486600447572, 42.654345776861774 ], [ -5.406486600447572, 42.653081846172512 ], [ -5.40722681641508, 42.653081846172512 ], [ -5.40722681641508, 42.65181788979622 ], [ -5.407967032382589, 42.65181788979622 ], [ -5.407967032382589, 42.65055390773297 ], [ -5.408707248350097, 42.65055390773297 ], [ -5.408707248350097, 42.649289899982847 ], [ -5.409447464317606, 42.649289899982847 ], [ -5.409447464317606, 42.648025866545971 ], [ -5.410187680285113, 42.648025866545971 ], [ -5.410187680285113, 42.647183163317671 ], [ -5.410927896252621, 42.647183163317671 ], [ -5.410927896252621, 42.646340448673094 ], [ -5.411668112220131, 42.646340448673094 ], [ -5.411668112220131, 42.645919087069707 ], [ -5.412408328187638, 42.645919087069707 ], [ -5.412408328187638, 42.645076355300773 ], [ -5.413148544155146, 42.645076355300773 ], [ -5.413148544155146, 42.644233612115656 ], [ -5.413888760122656, 42.644233612115656 ], [ -5.413888760122656, 42.643812236242013 ], [ -5.414628976090164, 42.643812236242013 ], [ -5.414628976090164, 42.643390857514341 ], [ -5.41610940802518, 42.643390857514341 ], [ -5.41610940802518, 42.643812236242013 ], [ -5.417589839960197, 42.643812236242013 ], [ -5.417589839960197, 42.644233612115656 ], [ -5.418330055927705, 42.644233612115656 ], [ -5.418330055927705, 42.645076355300773 ], [ -5.419070271895214, 42.645076355300773 ], [ -5.419070271895214, 42.645919087069707 ], [ -5.419810487862722, 42.645919087069707 ], [ -5.419810487862722, 42.649711238753653 ], [ -5.42055070383023, 42.649711238753653 ], [ -5.42055070383023, 42.653503159256395 ], [ -5.421290919797738, 42.653503159256395 ], [ -5.421290919797738, 42.656030977822986 ], [ -5.422031135765248, 42.656030977822986 ], [ -5.422031135765248, 42.658558693640522 ], [ -5.422771351732755, 42.658558693640522 ], [ -5.422771351732755, 42.661928821564082 ], [ -5.423511567700263, 42.661928821564082 ], [ -5.423511567700263, 42.664877533652358 ], [ -5.422771351732755, 42.664877533652358 ], [ -5.422771351732755, 42.666141224591357 ], [ -5.422031135765248, 42.666141224591357 ], [ -5.422031135765248, 42.666983670946244 ], [ -5.421290919797738, 42.666983670946244 ], [ -5.421290919797738, 42.667404889842338 ], [ -5.419810487862722, 42.667404889842338 ], [ -5.419810487862722, 42.66782610588421 ], [ -5.419070271895214, 42.66782610588421 ], [ -5.419070271895214, 42.668247319071845 ], [ -5.418330055927705, 42.668247319071845 ], [ -5.418330055927705, 42.668668529405238 ], [ -5.416849623992689, 42.668668529405238 ], [ -5.416849623992689, 42.669089736884388 ], [ -5.414628976090164, 42.669089736884388 ], [ -5.414628976090164, 42.669510941509287 ], [ -5.409447464317606, 42.669510941509287 ], [ -5.409447464317606, 42.669932143279937 ], [ -5.408707248350097, 42.669932143279937 ], [ -5.408707248350097, 42.669510941509287 ], [ -5.406486600447572, 42.669510941509287 ], [ -5.406486600447572, 42.669089736884388 ], [ -5.404265952545047, 42.669089736884388 ] ] ], [ [ [ -6.519031199612598, 42.662350074710709 ], [ -6.519031199612598, 42.663192572441403 ], [ -6.519771415580108, 42.663192572441403 ], [ -6.519771415580108, 42.66445629763092 ], [ -6.520511631547615, 42.66445629763092 ], [ -6.520511631547615, 42.666141224591357 ], [ -6.519031199612598, 42.666141224591357 ], [ -6.519031199612598, 42.665298766819575 ], [ -6.518290983645089, 42.665298766819575 ], [ -6.518290983645089, 42.662350074710709 ], [ -6.519031199612598, 42.662350074710709 ] ] ], [ [ [ -6.759601389052808, 42.720876489277913 ], [ -6.758861173085299, 42.720876489277913 ], [ -6.758861173085299, 42.72003477366065 ], [ -6.75812095711779, 42.72003477366065 ], [ -6.75812095711779, 42.719193046624746 ], [ -6.757380741150283, 42.719193046624746 ], [ -6.757380741150283, 42.71582602429546 ], [ -6.75812095711779, 42.71582602429546 ], [ -6.75812095711779, 42.714142444619768 ], [ -6.758861173085299, 42.714142444619768 ], [ -6.758861173085299, 42.710775148247336 ], [ -6.75812095711779, 42.710775148247336 ], [ -6.75812095711779, 42.70993329560833 ], [ -6.757380741150283, 42.70993329560833 ], [ -6.757380741150283, 42.70909143155103 ], [ -6.756640525182775, 42.70909143155103 ], [ -6.756640525182775, 42.708249556075451 ], [ -6.755900309215265, 42.708249556075451 ], [ -6.755900309215265, 42.705723861139319 ], [ -6.756640525182775, 42.705723861139319 ], [ -6.756640525182775, 42.702356108036916 ], [ -6.757380741150283, 42.702356108036916 ], [ -6.757380741150283, 42.700672162977241 ], [ -6.75812095711779, 42.700672162977241 ], [ -6.75812095711779, 42.698988172245535 ], [ -6.758861173085299, 42.698988172245535 ], [ -6.758861173085299, 42.697304135842025 ], [ -6.759601389052808, 42.697304135842025 ], [ -6.759601389052808, 42.696041078567404 ], [ -6.760341605020315, 42.696041078567404 ], [ -6.760341605020315, 42.694777995602578 ], [ -6.761081820987823, 42.694777995602578 ], [ -6.761081820987823, 42.69393592602043 ], [ -6.761822036955333, 42.69393592602043 ], [ -6.761822036955333, 42.692672800238846 ], [ -6.76256225292284, 42.692672800238846 ], [ -6.76256225292284, 42.692251752602779 ], [ -6.763302468890348, 42.692251752602779 ], [ -6.763302468890348, 42.691830702112277 ], [ -6.764042684857857, 42.691830702112277 ], [ -6.764042684857857, 42.691409648767333 ], [ -6.764782900825367, 42.691409648767333 ], [ -6.764782900825367, 42.690988592567969 ], [ -6.765523116792874, 42.690988592567969 ], [ -6.765523116792874, 42.690146471605971 ], [ -6.766263332760382, 42.690146471605971 ], [ -6.766263332760382, 42.689725406843344 ], [ -6.767003548727891, 42.689725406843344 ], [ -6.767003548727891, 42.688883268754857 ], [ -6.767743764695399, 42.688883268754857 ], [ -6.767743764695399, 42.68804111924873 ], [ -6.768483980662907, 42.68804111924873 ], [ -6.768483980662907, 42.687198958325013 ], [ -6.769224196630416, 42.687198958325013 ], [ -6.769224196630416, 42.686356785983719 ], [ -6.770704628565432, 42.686356785983719 ], [ -6.770704628565432, 42.686777873581562 ], [ -6.77144484453294, 42.686777873581562 ], [ -6.77144484453294, 42.687198958325013 ], [ -6.772185060500449, 42.687198958325013 ], [ -6.772185060500449, 42.68804111924873 ], [ -6.772925276467958, 42.68804111924873 ], [ -6.772925276467958, 42.688883268754857 ], [ -6.773665492435466, 42.688883268754857 ], [ -6.773665492435466, 42.690146471605971 ], [ -6.774405708402975, 42.690146471605971 ], [ -6.774405708402975, 42.693093845020478 ], [ -6.775145924370483, 42.693093845020478 ], [ -6.775145924370483, 42.696883119604948 ], [ -6.774405708402975, 42.696883119604948 ], [ -6.774405708402975, 42.700251169576056 ], [ -6.773665492435466, 42.700251169576056 ], [ -6.773665492435466, 42.702356108036916 ], [ -6.772925276467958, 42.702356108036916 ], [ -6.772925276467958, 42.704040007424354 ], [ -6.772185060500449, 42.704040007424354 ], [ -6.772185060500449, 42.70909143155103 ], [ -6.772925276467958, 42.70909143155103 ], [ -6.772925276467958, 42.714142444619768 ], [ -6.772185060500449, 42.714142444619768 ], [ -6.772185060500449, 42.71582602429546 ], [ -6.77144484453294, 42.71582602429546 ], [ -6.77144484453294, 42.716667797005591 ], [ -6.770704628565432, 42.716667797005591 ], [ -6.770704628565432, 42.717930434661042 ], [ -6.769964412597924, 42.717930434661042 ], [ -6.769964412597924, 42.718772178824828 ], [ -6.769224196630416, 42.718772178824828 ], [ -6.769224196630416, 42.719193046624746 ], [ -6.768483980662907, 42.719193046624746 ], [ -6.768483980662907, 42.72003477366065 ], [ -6.767743764695399, 42.72003477366065 ], [ -6.767743764695399, 42.720455632896609 ], [ -6.767003548727891, 42.720455632896609 ], [ -6.767003548727891, 42.720876489277913 ], [ -6.765523116792874, 42.720876489277913 ], [ -6.765523116792874, 42.721297342804554 ], [ -6.764782900825367, 42.721297342804554 ], [ -6.764782900825367, 42.721718193476534 ], [ -6.760341605020315, 42.721718193476534 ], [ -6.760341605020315, 42.721297342804554 ], [ -6.759601389052808, 42.721297342804554 ], [ -6.759601389052808, 42.720876489277913 ] ] ], [ [ [ -6.732213398254999, 42.743177792381672 ], [ -6.732213398254999, 42.742336379367678 ], [ -6.732953614222508, 42.742336379367678 ], [ -6.732953614222508, 42.74149495493436 ], [ -6.733693830190016, 42.74149495493436 ], [ -6.733693830190016, 42.741074238435459 ], [ -6.737394910027557, 42.741074238435459 ], [ -6.737394910027557, 42.74149495493436 ], [ -6.738875341962574, 42.74149495493436 ], [ -6.738875341962574, 42.741915668578436 ], [ -6.739615557930082, 42.741915668578436 ], [ -6.739615557930082, 42.742336379367678 ], [ -6.740355773897591, 42.742336379367678 ], [ -6.740355773897591, 42.743598494606402 ], [ -6.739615557930082, 42.743598494606402 ], [ -6.739615557930082, 42.7440191939763 ], [ -6.735174262125033, 42.7440191939763 ], [ -6.735174262125033, 42.743598494606402 ], [ -6.732953614222508, 42.743598494606402 ], [ -6.732953614222508, 42.743177792381672 ], [ -6.732213398254999, 42.743177792381672 ] ] ], [ [ [ -7.921740458040893, 43.299353658480392 ], [ -7.921740458040893, 43.296435220158948 ], [ -7.9224806740084, 43.296435220158948 ], [ -7.9224806740084, 43.296018288964092 ], [ -7.92322088997591, 43.296018288964092 ], [ -7.92322088997591, 43.295184417998392 ], [ -7.925441537878434, 43.295184417998392 ], [ -7.925441537878434, 43.29476747822757 ], [ -7.926181753845942, 43.29476747822757 ], [ -7.926181753845942, 43.295184417998392 ], [ -7.926921969813451, 43.295184417998392 ], [ -7.926921969813451, 43.295601354910573 ], [ -7.92766218578096, 43.295601354910573 ], [ -7.92766218578096, 43.298519833253323 ], [ -7.926921969813451, 43.298519833253323 ], [ -7.926921969813451, 43.298936747296196 ], [ -7.926181753845942, 43.298936747296196 ], [ -7.926181753845942, 43.299353658480392 ], [ -7.925441537878434, 43.299353658480392 ], [ -7.925441537878434, 43.299770566805918 ], [ -7.9224806740084, 43.299770566805918 ], [ -7.9224806740084, 43.299353658480392 ], [ -7.921740458040893, 43.299353658480392 ] ] ] ] } }
]
}
