{
"type": "FeatureCollection",
"name": "spain_fires_nrt_ba",
"crs": { "type": "name", "properties": { "name": "urn:ogc:def:crs:OGC:1.3:CRS84" } },
"features": [
{ "type": "Feature", "properties": { }, "geometry": { "type": "MultiPolygon", "coordinates": [ [ [ [ -0.935582156697232, 35.573758764450957 ], [ -0.935582156697232, 35.573292824865341 ], [ -0.934101724762215, 35.573292824865341 ], [ -0.934101724762215, 35.57282688256965 ], [ -0.933361508794706, 35.57282688256965 ], [ -0.933361508794706, 35.572360937563893 ], [ -0.932621292827198, 35.572360937563893 ], [ -0.932621292827198, 35.571894989848083 ], [ -0.93188107685969, 35.571894989848083 ], [ -0.93188107685969, 35.571429039422256 ], [ -0.931140860892182, 35.571429039422256 ], [ -0.931140860892182, 35.56956521061889 ], [ -0.930400644924673, 35.56956521061889 ], [ -0.930400644924673, 35.56770133845621 ], [ -0.929660428957165, 35.56770133845621 ], [ -0.929660428957165, 35.565837422935175 ], [ -0.928920212989657, 35.565837422935175 ], [ -0.928920212989657, 35.563507467562687 ], [ -0.929660428957165, 35.563507467562687 ], [ -0.929660428957165, 35.56164345448888 ], [ -0.930400644924673, 35.56164345448888 ], [ -0.930400644924673, 35.560711431693733 ], [ -0.931140860892182, 35.560711431693733 ], [ -0.931140860892182, 35.560245416231631 ], [ -0.93188107685969, 35.560245416231631 ], [ -0.93188107685969, 35.559779398059881 ], [ -0.933361508794706, 35.559779398059881 ], [ -0.933361508794706, 35.559313377178498 ], [ -0.934101724762215, 35.559313377178498 ], [ -0.934101724762215, 35.558847353587474 ], [ -0.934841940729723, 35.558847353587474 ], [ -0.934841940729723, 35.558381327286853 ], [ -0.935582156697232, 35.558381327286853 ], [ -0.935582156697232, 35.557915298276626 ], [ -0.937062588632248, 35.557915298276626 ], [ -0.937062588632248, 35.557449266556823 ], [ -0.938543020567265, 35.557449266556823 ], [ -0.938543020567265, 35.557915298276626 ], [ -0.94076366846979, 35.557915298276626 ], [ -0.94076366846979, 35.558381327286853 ], [ -0.942244100404807, 35.558381327286853 ], [ -0.942244100404807, 35.558847353587474 ], [ -0.943724532339823, 35.558847353587474 ], [ -0.943724532339823, 35.559313377178498 ], [ -0.94520496427484, 35.559313377178498 ], [ -0.94520496427484, 35.559779398059881 ], [ -0.946685396209857, 35.559779398059881 ], [ -0.946685396209857, 35.56164345448888 ], [ -0.947425612177365, 35.56164345448888 ], [ -0.947425612177365, 35.56304146835884 ], [ -0.948165828144873, 35.56304146835884 ], [ -0.948165828144873, 35.564439457841075 ], [ -0.947425612177365, 35.564439457841075 ], [ -0.947425612177365, 35.567235363640762 ], [ -0.946685396209857, 35.567235363640762 ], [ -0.946685396209857, 35.56956521061889 ], [ -0.945945180242348, 35.56956521061889 ], [ -0.945945180242348, 35.572360937563893 ], [ -0.94520496427484, 35.572360937563893 ], [ -0.94520496427484, 35.57282688256965 ], [ -0.944464748307332, 35.57282688256965 ], [ -0.944464748307332, 35.573292824865341 ], [ -0.943724532339823, 35.573292824865341 ], [ -0.943724532339823, 35.573758764450957 ], [ -0.942984316372315, 35.573758764450957 ], [ -0.942984316372315, 35.574224701326465 ], [ -0.941503884437298, 35.574224701326465 ], [ -0.941503884437298, 35.574690635491883 ], [ -0.94076366846979, 35.574690635491883 ], [ -0.94076366846979, 35.575156566947186 ], [ -0.937802804599756, 35.575156566947186 ], [ -0.937802804599756, 35.574690635491883 ], [ -0.937062588632248, 35.574690635491883 ], [ -0.937062588632248, 35.574224701326465 ], [ -0.93632237266474, 35.574224701326465 ], [ -0.93632237266474, 35.573758764450957 ], [ -0.935582156697232, 35.573758764450957 ] ] ], [ [ [ -6.490902992847282, 37.427962531534725 ], [ -6.490902992847282, 37.427507618834646 ], [ -6.489422560912264, 37.427507618834646 ], [ -6.489422560912264, 37.42614286414895 ], [ -6.488682344944757, 37.42614286414895 ], [ -6.488682344944757, 37.425233013870681 ], [ -6.487942128977249, 37.425233013870681 ], [ -6.487942128977249, 37.424323152535621 ], [ -6.48720191300974, 37.424323152535621 ], [ -6.48720191300974, 37.423413280143862 ], [ -6.486461697042232, 37.423413280143862 ], [ -6.486461697042232, 37.422503396695511 ], [ -6.485721481074724, 37.422503396695511 ], [ -6.485721481074724, 37.420228639702607 ], [ -6.486461697042232, 37.420228639702607 ], [ -6.486461697042232, 37.417953813608023 ], [ -6.48720191300974, 37.417953813608023 ], [ -6.48720191300974, 37.415678918413249 ], [ -6.487942128977249, 37.415678918413249 ], [ -6.487942128977249, 37.414313948128914 ], [ -6.488682344944757, 37.414313948128914 ], [ -6.488682344944757, 37.413403954119765 ], [ -6.489422560912264, 37.413403954119765 ], [ -6.489422560912264, 37.412948952969359 ], [ -6.490162776879773, 37.412948952969359 ], [ -6.490162776879773, 37.412038942376917 ], [ -6.495344288652332, 37.412038942376917 ], [ -6.495344288652332, 37.412493949055076 ], [ -6.497564936554856, 37.412493949055076 ], [ -6.497564936554856, 37.412948952969359 ], [ -6.498305152522366, 37.412948952969359 ], [ -6.498305152522366, 37.413403954119765 ], [ -6.499045368489874, 37.413403954119765 ], [ -6.499045368489874, 37.414313948128914 ], [ -6.499785584457381, 37.414313948128914 ], [ -6.499785584457381, 37.414768940987621 ], [ -6.50052580042489, 37.414768940987621 ], [ -6.50052580042489, 37.415223931082402 ], [ -6.501266016392399, 37.415223931082402 ], [ -6.501266016392399, 37.416133902980143 ], [ -6.502006232359907, 37.416133902980143 ], [ -6.502006232359907, 37.416588884783089 ], [ -6.502746448327415, 37.416588884783089 ], [ -6.502746448327415, 37.417498840097039 ], [ -6.503486664294925, 37.417498840097039 ], [ -6.503486664294925, 37.421593502190646 ], [ -6.504226880262432, 37.421593502190646 ], [ -6.504226880262432, 37.425233013870681 ], [ -6.503486664294925, 37.425233013870681 ], [ -6.503486664294925, 37.42568794039191 ], [ -6.502746448327415, 37.42568794039191 ], [ -6.502746448327415, 37.42614286414895 ], [ -6.502006232359907, 37.42614286414895 ], [ -6.502006232359907, 37.426597785141752 ], [ -6.501266016392399, 37.426597785141752 ], [ -6.501266016392399, 37.427052703370329 ], [ -6.50052580042489, 37.427052703370329 ], [ -6.50052580042489, 37.427507618834646 ], [ -6.499785584457381, 37.427507618834646 ], [ -6.499785584457381, 37.427962531534725 ], [ -6.499045368489874, 37.427962531534725 ], [ -6.499045368489874, 37.428417441470515 ], [ -6.498305152522366, 37.428417441470515 ], [ -6.498305152522366, 37.428872348642038 ], [ -6.496824720587348, 37.428872348642038 ], [ -6.496824720587348, 37.428417441470515 ], [ -6.493863856717316, 37.428417441470515 ], [ -6.493863856717316, 37.427962531534725 ], [ -6.490902992847282, 37.427962531534725 ] ] ], [ [ [ -6.681138496496924, 37.505257502191753 ], [ -6.680398280529415, 37.505257502191753 ], [ -6.680398280529415, 37.503439715177187 ], [ -6.679658064561907, 37.503439715177187 ], [ -6.679658064561907, 37.501167419168851 ], [ -6.680398280529415, 37.501167419168851 ], [ -6.680398280529415, 37.499349532571017 ], [ -6.681138496496924, 37.499349532571017 ], [ -6.681138496496924, 37.497986088578294 ], [ -6.680398280529415, 37.497986088578294 ], [ -6.680398280529415, 37.497531601715181 ], [ -6.679658064561907, 37.497531601715181 ], [ -6.679658064561907, 37.497077112086004 ], [ -6.678917848594399, 37.497077112086004 ], [ -6.678917848594399, 37.496168124529454 ], [ -6.678177632626891, 37.496168124529454 ], [ -6.678177632626891, 37.494350116223934 ], [ -6.677437416659382, 37.494350116223934 ], [ -6.677437416659382, 37.492532063662495 ], [ -6.678177632626891, 37.492532063662495 ], [ -6.678177632626891, 37.49071396684586 ], [ -6.678917848594399, 37.49071396684586 ], [ -6.678917848594399, 37.489350365191392 ], [ -6.678177632626891, 37.489350365191392 ], [ -6.678177632626891, 37.488441283592394 ], [ -6.677437416659382, 37.488441283592394 ], [ -6.677437416659382, 37.487077640450103 ], [ -6.674476552789348, 37.487077640450103 ], [ -6.674476552789348, 37.487532190930025 ], [ -6.671515688919316, 37.487532190930025 ], [ -6.671515688919316, 37.487077640450103 ], [ -6.670775472951807, 37.487077640450103 ], [ -6.670775472951807, 37.48616853119286 ], [ -6.670035256984298, 37.48616853119286 ], [ -6.670035256984298, 37.484804846563641 ], [ -6.669295041016791, 37.484804846563641 ], [ -6.669295041016791, 37.483895709648721 ], [ -6.668554825049283, 37.483895709648721 ], [ -6.668554825049283, 37.48116823252699 ], [ -6.669295041016791, 37.48116823252699 ], [ -6.669295041016791, 37.48025905136106 ], [ -6.670035256984298, 37.48025905136106 ], [ -6.670035256984298, 37.478895258869954 ], [ -6.670775472951807, 37.478895258869954 ], [ -6.670775472951807, 37.473894473454173 ], [ -6.670035256984298, 37.473894473454173 ], [ -6.670035256984298, 37.472985203790699 ], [ -6.670775472951807, 37.472985203790699 ], [ -6.670775472951807, 37.47253056481081 ], [ -6.671515688919316, 37.47253056481081 ], [ -6.671515688919316, 37.471621278554707 ], [ -6.672255904886823, 37.471621278554707 ], [ -6.672255904886823, 37.471166631278564 ], [ -6.672996120854332, 37.471166631278564 ], [ -6.672996120854332, 37.470711981237002 ], [ -6.673736336821841, 37.470711981237002 ], [ -6.673736336821841, 37.469348014520115 ], [ -6.672996120854332, 37.469348014520115 ], [ -6.672996120854332, 37.467529353516106 ], [ -6.672255904886823, 37.467529353516106 ], [ -6.672255904886823, 37.465255965041933 ], [ -6.672996120854332, 37.465255965041933 ], [ -6.672996120854332, 37.463891898774442 ], [ -6.673736336821841, 37.463891898774442 ], [ -6.673736336821841, 37.462527807620113 ], [ -6.674476552789348, 37.462527807620113 ], [ -6.674476552789348, 37.45525223449895 ], [ -6.675216768756857, 37.45525223449895 ], [ -6.675216768756857, 37.454797487676046 ], [ -6.675956984724365, 37.454797487676046 ], [ -6.675956984724365, 37.454342738088158 ], [ -6.676697200691875, 37.454342738088158 ], [ -6.676697200691875, 37.453887985735321 ], [ -6.677437416659382, 37.453887985735321 ], [ -6.677437416659382, 37.453433230617541 ], [ -6.678177632626891, 37.453433230617541 ], [ -6.678177632626891, 37.45297847273482 ], [ -6.678917848594399, 37.45297847273482 ], [ -6.678917848594399, 37.452523712087178 ], [ -6.679658064561907, 37.452523712087178 ], [ -6.679658064561907, 37.448885527370336 ], [ -6.680398280529415, 37.448885527370336 ], [ -6.680398280529415, 37.447066368655967 ], [ -6.681138496496924, 37.447066368655967 ], [ -6.681138496496924, 37.446611572065422 ], [ -6.681878712464432, 37.446611572065422 ], [ -6.681878712464432, 37.446156772710133 ], [ -6.683359144399449, 37.446156772710133 ], [ -6.683359144399449, 37.445701970590093 ], [ -6.684099360366957, 37.445701970590093 ], [ -6.684099360366957, 37.445247165705318 ], [ -6.684839576334466, 37.445247165705318 ], [ -6.684839576334466, 37.445701970590093 ], [ -6.687060224236991, 37.445701970590093 ], [ -6.687060224236991, 37.446156772710133 ], [ -6.689280872139515, 37.446156772710133 ], [ -6.689280872139515, 37.446611572065422 ], [ -6.69150152004204, 37.446611572065422 ], [ -6.69150152004204, 37.447066368655967 ], [ -6.692981951977057, 37.447066368655967 ], [ -6.692981951977057, 37.447521162481735 ], [ -6.693722167944566, 37.447521162481735 ], [ -6.693722167944566, 37.448430741838926 ], [ -6.694462383912074, 37.448430741838926 ], [ -6.694462383912074, 37.449340310136911 ], [ -6.695202599879583, 37.449340310136911 ], [ -6.695202599879583, 37.449795090138664 ], [ -6.695942815847092, 37.449795090138664 ], [ -6.695942815847092, 37.450704641847658 ], [ -6.696683031814599, 37.450704641847658 ], [ -6.696683031814599, 37.451614182497188 ], [ -6.697423247782107, 37.451614182497188 ], [ -6.697423247782107, 37.452068948674636 ], [ -6.698163463749615, 37.452068948674636 ], [ -6.698163463749615, 37.45297847273482 ], [ -6.698903679717124, 37.45297847273482 ], [ -6.698903679717124, 37.456161719849817 ], [ -6.699643895684632, 37.456161719849817 ], [ -6.699643895684632, 37.455706978556883 ], [ -6.701124327619648, 37.455706978556883 ], [ -6.701124327619648, 37.45525223449895 ], [ -6.701864543587157, 37.45525223449895 ], [ -6.701864543587157, 37.454797487676046 ], [ -6.703344975522174, 37.454797487676046 ], [ -6.703344975522174, 37.45525223449895 ], [ -6.704085191489683, 37.45525223449895 ], [ -6.704085191489683, 37.455706978556883 ], [ -6.704825407457191, 37.455706978556883 ], [ -6.704825407457191, 37.456161719849817 ], [ -6.705565623424699, 37.456161719849817 ], [ -6.705565623424699, 37.456616458377752 ], [ -6.706305839392207, 37.456616458377752 ], [ -6.706305839392207, 37.457071194140674 ], [ -6.707046055359716, 37.457071194140674 ], [ -6.707046055359716, 37.457525927138562 ], [ -6.707786271327224, 37.457525927138562 ], [ -6.707786271327224, 37.457980657371415 ], [ -6.708526487294732, 37.457980657371415 ], [ -6.708526487294732, 37.456616458377752 ], [ -6.709266703262241, 37.456616458377752 ], [ -6.709266703262241, 37.454342738088158 ], [ -6.710747135197257, 37.454342738088158 ], [ -6.710747135197257, 37.453887985735321 ], [ -6.711487351164766, 37.453887985735321 ], [ -6.711487351164766, 37.453433230617541 ], [ -6.712967783099782, 37.453433230617541 ], [ -6.712967783099782, 37.45297847273482 ], [ -6.7144482150348, 37.45297847273482 ], [ -6.7144482150348, 37.453433230617541 ], [ -6.715188431002307, 37.453433230617541 ], [ -6.715188431002307, 37.453887985735321 ], [ -6.715928646969815, 37.453887985735321 ], [ -6.715928646969815, 37.454342738088158 ], [ -6.716668862937324, 37.454342738088158 ], [ -6.716668862937324, 37.454797487676046 ], [ -6.717409078904833, 37.454797487676046 ], [ -6.717409078904833, 37.455706978556883 ], [ -6.71814929487234, 37.455706978556883 ], [ -6.71814929487234, 37.456161719849817 ], [ -6.718889510839849, 37.456161719849817 ], [ -6.718889510839849, 37.461163691579245 ], [ -6.71814929487234, 37.461163691579245 ], [ -6.71814929487234, 37.462527807620113 ], [ -6.718889510839849, 37.462527807620113 ], [ -6.718889510839849, 37.462982507436742 ], [ -6.719629726807357, 37.462982507436742 ], [ -6.719629726807357, 37.463437204488201 ], [ -6.720369942774866, 37.463437204488201 ], [ -6.720369942774866, 37.465255965041933 ], [ -6.721110158742374, 37.465255965041933 ], [ -6.721110158742374, 37.467074681351825 ], [ -6.721850374709882, 37.467074681351825 ], [ -6.721850374709882, 37.467529353516106 ], [ -6.721110158742374, 37.467529353516106 ], [ -6.721110158742374, 37.468893353417101 ], [ -6.720369942774866, 37.468893353417101 ], [ -6.720369942774866, 37.469802672857774 ], [ -6.719629726807357, 37.469802672857774 ], [ -6.719629726807357, 37.474803732055783 ], [ -6.720369942774866, 37.474803732055783 ], [ -6.720369942774866, 37.477986050047889 ], [ -6.721110158742374, 37.477986050047889 ], [ -6.721110158742374, 37.478440655841709 ], [ -6.720369942774866, 37.478440655841709 ], [ -6.720369942774866, 37.48025905136106 ], [ -6.719629726807357, 37.48025905136106 ], [ -6.719629726807357, 37.482077402630317 ], [ -6.718889510839849, 37.482077402630317 ], [ -6.718889510839849, 37.48253198353347 ], [ -6.71814929487234, 37.48253198353347 ], [ -6.71814929487234, 37.48298656167092 ], [ -6.716668862937324, 37.48298656167092 ], [ -6.716668862937324, 37.483441137042682 ], [ -6.715188431002307, 37.483441137042682 ], [ -6.715188431002307, 37.483895709648721 ], [ -6.713707999067291, 37.483895709648721 ], [ -6.713707999067291, 37.48435027948905 ], [ -6.712967783099782, 37.48435027948905 ], [ -6.712967783099782, 37.484804846563641 ], [ -6.711487351164766, 37.484804846563641 ], [ -6.711487351164766, 37.485259410872473 ], [ -6.710006919229749, 37.485259410872473 ], [ -6.710006919229749, 37.49071396684586 ], [ -6.710747135197257, 37.49071396684586 ], [ -6.710747135197257, 37.49207754360723 ], [ -6.710006919229749, 37.49207754360723 ], [ -6.710006919229749, 37.492986580951801 ], [ -6.709266703262241, 37.492986580951801 ], [ -6.709266703262241, 37.493441095475163 ], [ -6.708526487294732, 37.493441095475163 ], [ -6.708526487294732, 37.494350116223934 ], [ -6.707786271327224, 37.494350116223934 ], [ -6.707786271327224, 37.494804622449344 ], [ -6.702604759554665, 37.494804622449344 ], [ -6.702604759554665, 37.494350116223934 ], [ -6.701864543587157, 37.494350116223934 ], [ -6.701864543587157, 37.493895607232531 ], [ -6.700384111652141, 37.493895607232531 ], [ -6.700384111652141, 37.494350116223934 ], [ -6.699643895684632, 37.494350116223934 ], [ -6.699643895684632, 37.494804622449344 ], [ -6.698903679717124, 37.494804622449344 ], [ -6.698903679717124, 37.495259125908731 ], [ -6.698163463749615, 37.495259125908731 ], [ -6.698163463749615, 37.495713626602111 ], [ -6.699643895684632, 37.495713626602111 ], [ -6.699643895684632, 37.496168124529454 ], [ -6.700384111652141, 37.496168124529454 ], [ -6.700384111652141, 37.497077112086004 ], [ -6.701124327619648, 37.497077112086004 ], [ -6.701124327619648, 37.498895054006219 ], [ -6.701864543587157, 37.498895054006219 ], [ -6.701864543587157, 37.501167419168851 ], [ -6.701124327619648, 37.501167419168851 ], [ -6.701124327619648, 37.50253080507246 ], [ -6.700384111652141, 37.50253080507246 ], [ -6.700384111652141, 37.503439715177187 ], [ -6.699643895684632, 37.503439715177187 ], [ -6.699643895684632, 37.50434861421698 ], [ -6.698903679717124, 37.50434861421698 ], [ -6.698903679717124, 37.505257502191753 ], [ -6.693722167944566, 37.505257502191753 ], [ -6.693722167944566, 37.504803059587495 ], [ -6.692981951977057, 37.504803059587495 ], [ -6.692981951977057, 37.503894166080194 ], [ -6.692241736009549, 37.503894166080194 ], [ -6.692241736009549, 37.503439715177187 ], [ -6.69150152004204, 37.503439715177187 ], [ -6.69150152004204, 37.50253080507246 ], [ -6.690761304074532, 37.50253080507246 ], [ -6.690761304074532, 37.50434861421698 ], [ -6.690021088107024, 37.50434861421698 ], [ -6.690021088107024, 37.505257502191753 ], [ -6.689280872139515, 37.505257502191753 ], [ -6.689280872139515, 37.505711942029741 ], [ -6.688540656172008, 37.505711942029741 ], [ -6.688540656172008, 37.506620813406819 ], [ -6.687800440204499, 37.506620813406819 ], [ -6.687800440204499, 37.507075244945895 ], [ -6.685579792301974, 37.507075244945895 ], [ -6.685579792301974, 37.506620813406819 ], [ -6.683359144399449, 37.506620813406819 ], [ -6.683359144399449, 37.50616637910143 ], [ -6.681138496496924, 37.50616637910143 ], [ -6.681138496496924, 37.505257502191753 ] ], [ [ -6.687060224236991, 37.496622619690761 ], [ -6.687060224236991, 37.497531601715181 ], [ -6.687800440204499, 37.497531601715181 ], [ -6.687800440204499, 37.497986088578294 ], [ -6.688540656172008, 37.497986088578294 ], [ -6.688540656172008, 37.498440572675307 ], [ -6.689280872139515, 37.498440572675307 ], [ -6.689280872139515, 37.499349532571017 ], [ -6.690021088107024, 37.499349532571017 ], [ -6.690021088107024, 37.499804008369686 ], [ -6.690761304074532, 37.499804008369686 ], [ -6.690761304074532, 37.497986088578294 ], [ -6.69150152004204, 37.497986088578294 ], [ -6.69150152004204, 37.497077112086004 ], [ -6.692241736009549, 37.497077112086004 ], [ -6.692241736009549, 37.496622619690761 ], [ -6.687060224236991, 37.496622619690761 ] ] ], [ [ [ -0.541047046015289, 38.381654042714295 ], [ -0.540306830047781, 38.381654042714295 ], [ -0.540306830047781, 38.381204987859753 ], [ -0.539566614080273, 38.381204987859753 ], [ -0.539566614080273, 38.380306869787802 ], [ -0.538826398112764, 38.380306869787802 ], [ -0.538826398112764, 38.379857806570406 ], [ -0.538086182145256, 38.379857806570406 ], [ -0.538086182145256, 38.374917927199881 ], [ -0.538826398112764, 38.374917927199881 ], [ -0.538826398112764, 38.374468830531988 ], [ -0.539566614080273, 38.374468830531988 ], [ -0.539566614080273, 38.373570628833811 ], [ -0.540306830047781, 38.373570628833811 ], [ -0.540306830047781, 38.372672415985804 ], [ -0.541047046015289, 38.372672415985804 ], [ -0.541047046015289, 38.372223305380658 ], [ -0.541787261982798, 38.372223305380658 ], [ -0.541787261982798, 38.371774191988081 ], [ -0.542527477950306, 38.371774191988081 ], [ -0.542527477950306, 38.371325075808087 ], [ -0.544007909885323, 38.371325075808087 ], [ -0.544007909885323, 38.370875956840699 ], [ -0.546968773755356, 38.370875956840699 ], [ -0.546968773755356, 38.371325075808087 ], [ -0.547708989722864, 38.371325075808087 ], [ -0.547708989722864, 38.371774191988081 ], [ -0.548449205690373, 38.371774191988081 ], [ -0.548449205690373, 38.372223305380658 ], [ -0.549189421657881, 38.372223305380658 ], [ -0.549189421657881, 38.372672415985804 ], [ -0.549929637625389, 38.372672415985804 ], [ -0.549929637625389, 38.373121523803533 ], [ -0.550669853592898, 38.373121523803533 ], [ -0.550669853592898, 38.373570628833811 ], [ -0.551410069560406, 38.373570628833811 ], [ -0.551410069560406, 38.379857806570406 ], [ -0.550669853592898, 38.379857806570406 ], [ -0.550669853592898, 38.380755930217589 ], [ -0.549929637625389, 38.380755930217589 ], [ -0.549929637625389, 38.381204987859753 ], [ -0.549189421657881, 38.381204987859753 ], [ -0.549189421657881, 38.382103094781193 ], [ -0.548449205690373, 38.382103094781193 ], [ -0.548449205690373, 38.382552144060448 ], [ -0.541787261982798, 38.382552144060448 ], [ -0.541787261982798, 38.382103094781193 ], [ -0.541047046015289, 38.382103094781193 ], [ -0.541047046015289, 38.381654042714295 ] ] ], [ [ [ -9.009117714310635, 38.930095482600521 ], [ -9.009117714310635, 38.929649852880601 ], [ -9.008377498343128, 38.929649852880601 ], [ -9.008377498343128, 38.929204220361015 ], [ -9.006897066408111, 38.929204220361015 ], [ -9.006897066408111, 38.928312946922837 ], [ -9.006156850440602, 38.928312946922837 ], [ -9.006156850440602, 38.926976015768297 ], [ -9.005416634473093, 38.926976015768297 ], [ -9.005416634473093, 38.925639059417215 ], [ -9.004676418505586, 38.925639059417215 ], [ -9.004676418505586, 38.92385641175494 ], [ -9.003936202538076, 38.92385641175494 ], [ -9.003936202538076, 38.922519396612934 ], [ -9.003195986570567, 38.922519396612934 ], [ -9.003195986570567, 38.91984529074211 ], [ -9.003936202538076, 38.91984529074211 ], [ -9.003936202538076, 38.918953899722688 ], [ -9.004676418505586, 38.918953899722688 ], [ -9.004676418505586, 38.917616792197727 ], [ -9.005416634473093, 38.917616792197727 ], [ -9.005416634473093, 38.916725373183986 ], [ -9.006156850440602, 38.916725373183986 ], [ -9.006156850440602, 38.915388223667904 ], [ -9.008377498343128, 38.915388223667904 ], [ -9.008377498343128, 38.914942501563786 ], [ -9.010598146245652, 38.914942501563786 ], [ -9.010598146245652, 38.914496776660307 ], [ -9.012818794148178, 38.914496776660307 ], [ -9.012818794148178, 38.914051048957482 ], [ -9.015779658018211, 38.914051048957482 ], [ -9.015779658018211, 38.914496776660307 ], [ -9.016519873985718, 38.914496776660307 ], [ -9.016519873985718, 38.914942501563786 ], [ -9.018000305920735, 38.914942501563786 ], [ -9.018000305920735, 38.915388223667904 ], [ -9.018740521888244, 38.915388223667904 ], [ -9.018740521888244, 38.916725373183986 ], [ -9.019480737855751, 38.916725373183986 ], [ -9.019480737855751, 38.918062497505481 ], [ -9.020220953823259, 38.918062497505481 ], [ -9.020220953823259, 38.91984529074211 ], [ -9.020961169790768, 38.91984529074211 ], [ -9.020961169790768, 38.921182356275246 ], [ -9.020220953823259, 38.921182356275246 ], [ -9.020220953823259, 38.922519396612934 ], [ -9.019480737855751, 38.922519396612934 ], [ -9.019480737855751, 38.92385641175494 ], [ -9.018740521888244, 38.92385641175494 ], [ -9.018740521888244, 38.925639059417215 ], [ -9.018000305920735, 38.925639059417215 ], [ -9.018000305920735, 38.926976015768297 ], [ -9.017260089953226, 38.926976015768297 ], [ -9.017260089953226, 38.928312946922837 ], [ -9.016519873985718, 38.928312946922837 ], [ -9.016519873985718, 38.929649852880601 ], [ -9.015039442050702, 38.929649852880601 ], [ -9.015039442050702, 38.930095482600521 ], [ -9.014299226083194, 38.930095482600521 ], [ -9.014299226083194, 38.93054110952076 ], [ -9.012818794148178, 38.93054110952076 ], [ -9.012818794148178, 38.930986733641319 ], [ -9.011338362213161, 38.930986733641319 ], [ -9.011338362213161, 38.93054110952076 ], [ -9.010598146245652, 38.93054110952076 ], [ -9.010598146245652, 38.930095482600521 ], [ -9.009117714310635, 38.930095482600521 ] ] ], [ [ [ -3.741000673553819, 39.944103904206173 ], [ -3.741000673553819, 39.943664714484513 ], [ -3.740260457586311, 39.943664714484513 ], [ -3.740260457586311, 39.942786326583487 ], [ -3.739520241618802, 39.942786326583487 ], [ -3.739520241618802, 39.942347128404151 ], [ -3.738780025651294, 39.942347128404151 ], [ -3.738780025651294, 39.941907927405616 ], [ -3.738039809683786, 39.941907927405616 ], [ -3.738039809683786, 39.941029516950934 ], [ -3.737299593716278, 39.941029516950934 ], [ -3.737299593716278, 39.932684055212832 ], [ -3.738039809683786, 39.932684055212832 ], [ -3.738039809683786, 39.931805526355475 ], [ -3.738780025651294, 39.931805526355475 ], [ -3.738780025651294, 39.930926986222019 ], [ -3.739520241618802, 39.930926986222019 ], [ -3.739520241618802, 39.930048434812555 ], [ -3.740260457586311, 39.930048434812555 ], [ -3.740260457586311, 39.929169872127098 ], [ -3.749883265163919, 39.929169872127098 ], [ -3.749883265163919, 39.930048434812555 ], [ -3.750623481131427, 39.930048434812555 ], [ -3.750623481131427, 39.930926986222019 ], [ -3.751363697098936, 39.930926986222019 ], [ -3.751363697098936, 39.932244792193679 ], [ -3.752103913066444, 39.932244792193679 ], [ -3.752103913066444, 39.933562572794045 ], [ -3.752844129033953, 39.933562572794045 ], [ -3.752844129033953, 39.936637295527682 ], [ -3.752103913066444, 39.936637295527682 ], [ -3.752103913066444, 39.939272662211422 ], [ -3.751363697098936, 39.939272662211422 ], [ -3.751363697098936, 39.941468723587867 ], [ -3.750623481131427, 39.941468723587867 ], [ -3.750623481131427, 39.942347128404151 ], [ -3.749883265163919, 39.942347128404151 ], [ -3.749883265163919, 39.943225521943617 ], [ -3.749143049196411, 39.943225521943617 ], [ -3.749143049196411, 39.944103904206173 ], [ -3.748402833228903, 39.944103904206173 ], [ -3.748402833228903, 39.944982275191784 ], [ -3.743961537423853, 39.944982275191784 ], [ -3.743961537423853, 39.944543091108599 ], [ -3.741740889521328, 39.944543091108599 ], [ -3.741740889521328, 39.944103904206173 ], [ -3.741000673553819, 39.944103904206173 ] ] ], [ [ [ -3.469341413478261, 40.253030605299436 ], [ -3.469341413478261, 40.252156201901066 ], [ -3.468601197510752, 40.252156201901066 ], [ -3.468601197510752, 40.251718995965156 ], [ -3.467860981543244, 40.251718995965156 ], [ -3.467860981543244, 40.251281787204768 ], [ -3.467120765575736, 40.251281787204768 ], [ -3.467120765575736, 40.250844575619915 ], [ -3.466380549608227, 40.250844575619915 ], [ -3.466380549608227, 40.246035061773718 ], [ -3.465640333640719, 40.246035061773718 ], [ -3.465640333640719, 40.247346781261115 ], [ -3.46490011767321, 40.247346781261115 ], [ -3.46490011767321, 40.247784015441454 ], [ -3.464159901705703, 40.247784015441454 ], [ -3.464159901705703, 40.248221246797378 ], [ -3.462679469770686, 40.248221246797378 ], [ -3.462679469770686, 40.248658475328888 ], [ -3.461939253803177, 40.248658475328888 ], [ -3.461939253803177, 40.249095701035969 ], [ -3.461199037835669, 40.249095701035969 ], [ -3.461199037835669, 40.248658475328888 ], [ -3.459718605900652, 40.248658475328888 ], [ -3.459718605900652, 40.248221246797378 ], [ -3.458978389933144, 40.248221246797378 ], [ -3.458978389933144, 40.247784015441454 ], [ -3.457497957998127, 40.247784015441454 ], [ -3.457497957998127, 40.247346781261115 ], [ -3.456757742030619, 40.247346781261115 ], [ -3.456757742030619, 40.245160567993537 ], [ -3.45601752606311, 40.245160567993537 ], [ -3.45601752606311, 40.241662479898736 ], [ -3.456757742030619, 40.241662479898736 ], [ -3.456757742030619, 40.23991336806769 ], [ -3.457497957998127, 40.23991336806769 ], [ -3.457497957998127, 40.239476083049205 ], [ -3.458238173965635, 40.239476083049205 ], [ -3.458238173965635, 40.239038795206454 ], [ -3.458978389933144, 40.239038795206454 ], [ -3.458978389933144, 40.238601504539439 ], [ -3.460458821868161, 40.238601504539439 ], [ -3.460458821868161, 40.238164211048165 ], [ -3.462679469770686, 40.238164211048165 ], [ -3.462679469770686, 40.238601504539439 ], [ -3.463419685738194, 40.238601504539439 ], [ -3.463419685738194, 40.239038795206454 ], [ -3.464159901705703, 40.239038795206454 ], [ -3.464159901705703, 40.239476083049205 ], [ -3.465640333640719, 40.239476083049205 ], [ -3.465640333640719, 40.2407879296318 ], [ -3.466380549608227, 40.2407879296318 ], [ -3.466380549608227, 40.23991336806769 ], [ -3.467120765575736, 40.23991336806769 ], [ -3.467120765575736, 40.238601504539439 ], [ -3.467860981543244, 40.238601504539439 ], [ -3.467860981543244, 40.237726914732633 ], [ -3.468601197510752, 40.237726914732633 ], [ -3.468601197510752, 40.237289615592864 ], [ -3.469341413478261, 40.237289615592864 ], [ -3.469341413478261, 40.236415008840616 ], [ -3.476003357185836, 40.236415008840616 ], [ -3.476003357185836, 40.236852313628852 ], [ -3.481184868958394, 40.236852313628852 ], [ -3.481184868958394, 40.237289615592864 ], [ -3.481925084925902, 40.237289615592864 ], [ -3.481925084925902, 40.237726914732633 ], [ -3.482665300893411, 40.237726914732633 ], [ -3.482665300893411, 40.238601504539439 ], [ -3.483405516860918, 40.238601504539439 ], [ -3.483405516860918, 40.239476083049205 ], [ -3.484145732828428, 40.239476083049205 ], [ -3.484145732828428, 40.241225206177418 ], [ -3.484885948795936, 40.241225206177418 ], [ -3.484885948795936, 40.246035061773718 ], [ -3.485626164763444, 40.246035061773718 ], [ -3.485626164763444, 40.248658475328888 ], [ -3.484885948795936, 40.248658475328888 ], [ -3.484885948795936, 40.249970143976832 ], [ -3.484145732828428, 40.249970143976832 ], [ -3.484145732828428, 40.250844575619915 ], [ -3.483405516860918, 40.250844575619915 ], [ -3.483405516860918, 40.251718995965156 ], [ -3.482665300893411, 40.251718995965156 ], [ -3.482665300893411, 40.252593405012497 ], [ -3.480444652990886, 40.252593405012497 ], [ -3.480444652990886, 40.253030605299436 ], [ -3.477483789120852, 40.253030605299436 ], [ -3.477483789120852, 40.253467802761868 ], [ -3.474522925250819, 40.253467802761868 ], [ -3.474522925250819, 40.253904997399822 ], [ -3.470821845413277, 40.253904997399822 ], [ -3.470821845413277, 40.253467802761868 ], [ -3.470081629445768, 40.253467802761868 ], [ -3.470081629445768, 40.253030605299436 ], [ -3.469341413478261, 40.253030605299436 ] ] ], [ [ [ -7.496116276723601, 40.584485517843213 ], [ -7.496116276723601, 40.58405046620144 ], [ -7.495376060756092, 40.58405046620144 ], [ -7.495376060756092, 40.583180354428606 ], [ -7.494635844788583, 40.583180354428606 ], [ -7.494635844788583, 40.58056995119626 ], [ -7.493895628821075, 40.58056995119626 ], [ -7.493895628821075, 40.580134874086838 ], [ -7.492415196886059, 40.580134874086838 ], [ -7.492415196886059, 40.58056995119626 ], [ -7.490934764951042, 40.58056995119626 ], [ -7.490934764951042, 40.580134874086838 ], [ -7.489454333016026, 40.580134874086838 ], [ -7.489454333016026, 40.579699794147707 ], [ -7.488714117048517, 40.579699794147707 ], [ -7.488714117048517, 40.580134874086838 ], [ -7.487973901081008, 40.580134874086838 ], [ -7.487973901081008, 40.58056995119626 ], [ -7.487233685113499, 40.58056995119626 ], [ -7.487233685113499, 40.581005025475967 ], [ -7.486493469145992, 40.581005025475967 ], [ -7.486493469145992, 40.581440096925959 ], [ -7.485753253178484, 40.581440096925959 ], [ -7.485753253178484, 40.581875165546229 ], [ -7.484272821243468, 40.581875165546229 ], [ -7.484272821243468, 40.581440096925959 ], [ -7.482792389308449, 40.581440096925959 ], [ -7.482792389308449, 40.581005025475967 ], [ -7.480571741405925, 40.581005025475967 ], [ -7.480571741405925, 40.58056995119626 ], [ -7.479091309470908, 40.58056995119626 ], [ -7.479091309470908, 40.580134874086838 ], [ -7.477610877535891, 40.580134874086838 ], [ -7.477610877535891, 40.579699794147707 ], [ -7.476130445600875, 40.579699794147707 ], [ -7.476130445600875, 40.579264711378883 ], [ -7.474650013665858, 40.579264711378883 ], [ -7.474650013665858, 40.579699794147707 ], [ -7.473169581730843, 40.579699794147707 ], [ -7.473169581730843, 40.580134874086838 ], [ -7.472429365763334, 40.580134874086838 ], [ -7.472429365763334, 40.58056995119626 ], [ -7.471689149795825, 40.58056995119626 ], [ -7.471689149795825, 40.581005025475967 ], [ -7.470208717860808, 40.581005025475967 ], [ -7.470208717860808, 40.58056995119626 ], [ -7.468728285925791, 40.58056995119626 ], [ -7.468728285925791, 40.580134874086838 ], [ -7.467988069958282, 40.580134874086838 ], [ -7.467988069958282, 40.579699794147707 ], [ -7.467247853990775, 40.579699794147707 ], [ -7.467247853990775, 40.579264711378883 ], [ -7.466507638023267, 40.579264711378883 ], [ -7.466507638023267, 40.577524352006712 ], [ -7.465767422055758, 40.577524352006712 ], [ -7.465767422055758, 40.575348839124082 ], [ -7.455404398510641, 40.575348839124082 ], [ -7.455404398510641, 40.574913728058633 ], [ -7.454664182543134, 40.574913728058633 ], [ -7.454664182543134, 40.574043497438872 ], [ -7.453923966575625, 40.574043497438872 ], [ -7.453923966575625, 40.573608377884561 ], [ -7.453183750608116, 40.573608377884561 ], [ -7.453183750608116, 40.572738130287142 ], [ -7.452443534640609, 40.572738130287142 ], [ -7.452443534640609, 40.571432737669092 ], [ -7.453183750608116, 40.571432737669092 ], [ -7.453183750608116, 40.567951566186949 ], [ -7.453923966575625, 40.567951566186949 ], [ -7.453923966575625, 40.565340568735401 ], [ -7.45614461447815, 40.565340568735401 ], [ -7.45614461447815, 40.564905392590255 ], [ -7.458365262380676, 40.564905392590255 ], [ -7.458365262380676, 40.56447021361565 ], [ -7.459105478348183, 40.56447021361565 ], [ -7.459105478348183, 40.562294276300776 ], [ -7.459845694315691, 40.562294276300776 ], [ -7.459845694315691, 40.560118268250108 ], [ -7.4605859102832, 40.560118268250108 ], [ -7.4605859102832, 40.559683058151755 ], [ -7.461326126250707, 40.559683058151755 ], [ -7.461326126250707, 40.558812629466892 ], [ -7.462066342218217, 40.558812629466892 ], [ -7.462066342218217, 40.557942189464519 ], [ -7.465767422055758, 40.557942189464519 ], [ -7.465767422055758, 40.558377410880389 ], [ -7.468728285925791, 40.558377410880389 ], [ -7.468728285925791, 40.557942189464519 ], [ -7.470208717860808, 40.557942189464519 ], [ -7.470208717860808, 40.557506965219275 ], [ -7.472429365763334, 40.557506965219275 ], [ -7.472429365763334, 40.557942189464519 ], [ -7.473909797698351, 40.557942189464519 ], [ -7.473909797698351, 40.558377410880389 ], [ -7.475390229633367, 40.558377410880389 ], [ -7.475390229633367, 40.557942189464519 ], [ -7.476870661568384, 40.557942189464519 ], [ -7.476870661568384, 40.557506965219275 ], [ -7.477610877535891, 40.557506965219275 ], [ -7.477610877535891, 40.557071738144685 ], [ -7.479091309470908, 40.557071738144685 ], [ -7.479091309470908, 40.557506965219275 ], [ -7.480571741405925, 40.557506965219275 ], [ -7.480571741405925, 40.557942189464519 ], [ -7.481311957373435, 40.557942189464519 ], [ -7.481311957373435, 40.558377410880389 ], [ -7.482052173340942, 40.558377410880389 ], [ -7.482052173340942, 40.557942189464519 ], [ -7.483532605275959, 40.557942189464519 ], [ -7.483532605275959, 40.557506965219275 ], [ -7.484272821243468, 40.557506965219275 ], [ -7.484272821243468, 40.557071738144685 ], [ -7.486493469145992, 40.557071738144685 ], [ -7.486493469145992, 40.557506965219275 ], [ -7.487973901081008, 40.557506965219275 ], [ -7.487973901081008, 40.557942189464519 ], [ -7.491674980918551, 40.557942189464519 ], [ -7.491674980918551, 40.557506965219275 ], [ -7.493895628821075, 40.557506965219275 ], [ -7.493895628821075, 40.557071738144685 ], [ -7.496856492691108, 40.557071738144685 ], [ -7.496856492691108, 40.556636508240736 ], [ -7.499077140593633, 40.556636508240736 ], [ -7.499077140593633, 40.557071738144685 ], [ -7.50055757252865, 40.557071738144685 ], [ -7.50055757252865, 40.557506965219275 ], [ -7.501297788496157, 40.557506965219275 ], [ -7.501297788496157, 40.557942189464519 ], [ -7.502038004463667, 40.557942189464519 ], [ -7.502038004463667, 40.557506965219275 ], [ -7.502778220431176, 40.557506965219275 ], [ -7.502778220431176, 40.557071738144685 ], [ -7.503518436398683, 40.557071738144685 ], [ -7.503518436398683, 40.556636508240736 ], [ -7.504258652366192, 40.556636508240736 ], [ -7.504258652366192, 40.556201275507455 ], [ -7.5049988683337, 40.556201275507455 ], [ -7.5049988683337, 40.555766039944828 ], [ -7.507219516236225, 40.555766039944828 ], [ -7.507219516236225, 40.556201275507455 ], [ -7.507959732203734, 40.556201275507455 ], [ -7.507959732203734, 40.556636508240736 ], [ -7.50944016413875, 40.556636508240736 ], [ -7.50944016413875, 40.557071738144685 ], [ -7.510180380106259, 40.557071738144685 ], [ -7.510180380106259, 40.557506965219275 ], [ -7.510920596073767, 40.557506965219275 ], [ -7.510920596073767, 40.558812629466892 ], [ -7.511660812041274, 40.558812629466892 ], [ -7.511660812041274, 40.560118268250108 ], [ -7.512401028008783, 40.560118268250108 ], [ -7.512401028008783, 40.560988679958612 ], [ -7.513141243976293, 40.560988679958612 ], [ -7.513141243976293, 40.562294276300776 ], [ -7.5138814599438, 40.562294276300776 ], [ -7.5138814599438, 40.563164659715063 ], [ -7.514621675911309, 40.563164659715063 ], [ -7.514621675911309, 40.56447021361565 ], [ -7.515361891878816, 40.56447021361565 ], [ -7.515361891878816, 40.565775742051066 ], [ -7.516102107846325, 40.565775742051066 ], [ -7.516102107846325, 40.571432737669092 ], [ -7.515361891878816, 40.571432737669092 ], [ -7.515361891878816, 40.572738130287142 ], [ -7.514621675911309, 40.572738130287142 ], [ -7.514621675911309, 40.573608377884561 ], [ -7.5138814599438, 40.573608377884561 ], [ -7.5138814599438, 40.57447861416356 ], [ -7.513141243976293, 40.57447861416356 ], [ -7.513141243976293, 40.574913728058633 ], [ -7.512401028008783, 40.574913728058633 ], [ -7.512401028008783, 40.575348839124082 ], [ -7.510920596073767, 40.575348839124082 ], [ -7.510920596073767, 40.575783947359902 ], [ -7.508699948171241, 40.575783947359902 ], [ -7.508699948171241, 40.575348839124082 ], [ -7.507959732203734, 40.575348839124082 ], [ -7.507959732203734, 40.574913728058633 ], [ -7.507219516236225, 40.574913728058633 ], [ -7.507219516236225, 40.57447861416356 ], [ -7.506479300268718, 40.57447861416356 ], [ -7.506479300268718, 40.574043497438872 ], [ -7.505739084301209, 40.574043497438872 ], [ -7.505739084301209, 40.573608377884561 ], [ -7.5049988683337, 40.573608377884561 ], [ -7.5049988683337, 40.573173255500663 ], [ -7.502778220431176, 40.573173255500663 ], [ -7.502778220431176, 40.573608377884561 ], [ -7.502038004463667, 40.573608377884561 ], [ -7.502038004463667, 40.57447861416356 ], [ -7.501297788496157, 40.57447861416356 ], [ -7.501297788496157, 40.575348839124082 ], [ -7.502038004463667, 40.575348839124082 ], [ -7.502038004463667, 40.575783947359902 ], [ -7.502778220431176, 40.575783947359902 ], [ -7.502778220431176, 40.576219052766092 ], [ -7.503518436398683, 40.576219052766092 ], [ -7.503518436398683, 40.57708925508949 ], [ -7.504258652366192, 40.57708925508949 ], [ -7.504258652366192, 40.578829625780358 ], [ -7.5049988683337, 40.578829625780358 ], [ -7.5049988683337, 40.581005025475967 ], [ -7.504258652366192, 40.581005025475967 ], [ -7.504258652366192, 40.582310231336763 ], [ -7.503518436398683, 40.582310231336763 ], [ -7.503518436398683, 40.583180354428606 ], [ -7.502778220431176, 40.583180354428606 ], [ -7.502778220431176, 40.584485517843213 ], [ -7.502038004463667, 40.584485517843213 ], [ -7.502038004463667, 40.584920566655214 ], [ -7.501297788496157, 40.584920566655214 ], [ -7.501297788496157, 40.585355612637429 ], [ -7.50055757252865, 40.585355612637429 ], [ -7.50055757252865, 40.584920566655214 ], [ -7.498336924626125, 40.584920566655214 ], [ -7.498336924626125, 40.584485517843213 ], [ -7.496116276723601, 40.584485517843213 ] ] ], [ [ [ -0.858599696076365, 41.564317902133894 ], [ -0.857859480108856, 41.564317902133894 ], [ -0.857859480108856, 41.56346066918826 ], [ -0.857119264141348, 41.56346066918826 ], [ -0.857119264141348, 41.562603424870055 ], [ -0.85637904817384, 41.562603424870055 ], [ -0.85637904817384, 41.561746169179337 ], [ -0.855638832206331, 41.561746169179337 ], [ -0.855638832206331, 41.5613175370693 ], [ -0.85193775236879, 41.5613175370693 ], [ -0.85193775236879, 41.561746169179337 ], [ -0.851197536401281, 41.561746169179337 ], [ -0.851197536401281, 41.5613175370693 ], [ -0.850457320433773, 41.5613175370693 ], [ -0.850457320433773, 41.560888902116133 ], [ -0.849717104466265, 41.560888902116133 ], [ -0.849717104466265, 41.56003162368048 ], [ -0.848976888498756, 41.56003162368048 ], [ -0.848976888498756, 41.559174333872434 ], [ -0.848236672531248, 41.559174333872434 ], [ -0.848236672531248, 41.554030356206049 ], [ -0.848976888498756, 41.554030356206049 ], [ -0.848976888498756, 41.55317298679234 ], [ -0.849717104466265, 41.55317298679234 ], [ -0.849717104466265, 41.55231560600658 ], [ -0.850457320433773, 41.55231560600658 ], [ -0.850457320433773, 41.551886911349186 ], [ -0.851197536401281, 41.551886911349186 ], [ -0.851197536401281, 41.551458213848782 ], [ -0.855638832206331, 41.551458213848782 ], [ -0.855638832206331, 41.551886911349186 ], [ -0.85637904817384, 41.551886911349186 ], [ -0.85637904817384, 41.55231560600658 ], [ -0.857119264141348, 41.55231560600658 ], [ -0.857119264141348, 41.55317298679234 ], [ -0.857859480108856, 41.55317298679234 ], [ -0.857859480108856, 41.55231560600658 ], [ -0.858599696076365, 41.55231560600658 ], [ -0.858599696076365, 41.551886911349186 ], [ -0.859339912043873, 41.551886911349186 ], [ -0.859339912043873, 41.551458213848782 ], [ -0.860080128011381, 41.551458213848782 ], [ -0.860080128011381, 41.551029513505377 ], [ -0.86082034397889, 41.551029513505377 ], [ -0.86082034397889, 41.550600810318983 ], [ -0.862300775913907, 41.550600810318983 ], [ -0.862300775913907, 41.550172104289608 ], [ -0.863781207848923, 41.550172104289608 ], [ -0.863781207848923, 41.550600810318983 ], [ -0.86526163978394, 41.550600810318983 ], [ -0.86526163978394, 41.551029513505377 ], [ -0.867482287686465, 41.551029513505377 ], [ -0.867482287686465, 41.551458213848782 ], [ -0.868962719621482, 41.551458213848782 ], [ -0.868962719621482, 41.551886911349186 ], [ -0.870443151556498, 41.551886911349186 ], [ -0.870443151556498, 41.552744297820972 ], [ -0.871183367524006, 41.552744297820972 ], [ -0.871183367524006, 41.553601672920706 ], [ -0.871923583491515, 41.553601672920706 ], [ -0.871923583491515, 41.554459036648353 ], [ -0.872663799459023, 41.554459036648353 ], [ -0.872663799459023, 41.552744297820972 ], [ -0.873404015426531, 41.552744297820972 ], [ -0.873404015426531, 41.551029513505377 ], [ -0.87414423139404, 41.551029513505377 ], [ -0.87414423139404, 41.550600810318983 ], [ -0.874884447361548, 41.550600810318983 ], [ -0.874884447361548, 41.550172104289608 ], [ -0.876364879296565, 41.550172104289608 ], [ -0.876364879296565, 41.549743395417252 ], [ -0.877105095264073, 41.549743395417252 ], [ -0.877105095264073, 41.549314683701915 ], [ -0.87858552719909, 41.549314683701915 ], [ -0.87858552719909, 41.549743395417252 ], [ -0.879325743166598, 41.549743395417252 ], [ -0.879325743166598, 41.550172104289608 ], [ -0.880806175101615, 41.550172104289608 ], [ -0.880806175101615, 41.550600810318983 ], [ -0.881546391069123, 41.550600810318983 ], [ -0.881546391069123, 41.551029513505377 ], [ -0.882286607036631, 41.551029513505377 ], [ -0.882286607036631, 41.552744297820972 ], [ -0.88302682300414, 41.552744297820972 ], [ -0.88302682300414, 41.554459036648353 ], [ -0.883767038971648, 41.554459036648353 ], [ -0.883767038971648, 41.554887714247634 ], [ -0.88302682300414, 41.554887714247634 ], [ -0.88302682300414, 41.556173729987208 ], [ -0.882286607036631, 41.556173729987208 ], [ -0.882286607036631, 41.557031059598337 ], [ -0.881546391069123, 41.557031059598337 ], [ -0.881546391069123, 41.558317032692031 ], [ -0.880806175101615, 41.558317032692031 ], [ -0.880806175101615, 41.559174333872434 ], [ -0.880065959134107, 41.559174333872434 ], [ -0.880065959134107, 41.56003162368048 ], [ -0.879325743166598, 41.56003162368048 ], [ -0.879325743166598, 41.5613175370693 ], [ -0.87858552719909, 41.5613175370693 ], [ -0.87858552719909, 41.562174798446264 ], [ -0.877845311231581, 41.562174798446264 ], [ -0.877845311231581, 41.56346066918826 ], [ -0.877105095264073, 41.56346066918826 ], [ -0.877105095264073, 41.564317902133894 ], [ -0.876364879296565, 41.564317902133894 ], [ -0.876364879296565, 41.565175123706922 ], [ -0.875624663329057, 41.565175123706922 ], [ -0.875624663329057, 41.565603730228695 ], [ -0.87414423139404, 41.565603730228695 ], [ -0.87414423139404, 41.566032333907302 ], [ -0.867482287686465, 41.566032333907302 ], [ -0.867482287686465, 41.566460934742743 ], [ -0.860080128011381, 41.566460934742743 ], [ -0.860080128011381, 41.566032333907302 ], [ -0.859339912043873, 41.566032333907302 ], [ -0.859339912043873, 41.565175123706922 ], [ -0.858599696076365, 41.565175123706922 ], [ -0.858599696076365, 41.564317902133894 ] ] ], [ [ [ -0.273088865777272, 35.538339633282277 ], [ -0.271608433842256, 35.538339633282277 ], [ -0.271608433842256, 35.537873487773723 ], [ -0.270868217874747, 35.537873487773723 ], [ -0.270868217874747, 35.537407339556246 ], [ -0.270128001907239, 35.537407339556246 ], [ -0.270128001907239, 35.536941188629832 ], [ -0.268647569972222, 35.536941188629832 ], [ -0.268647569972222, 35.534610393364595 ], [ -0.267907354004714, 35.534610393364595 ], [ -0.267907354004714, 35.529482405407087 ], [ -0.268647569972222, 35.529482405407087 ], [ -0.268647569972222, 35.528550008747118 ], [ -0.269387785939731, 35.528550008747118 ], [ -0.269387785939731, 35.527617601252622 ], [ -0.270128001907239, 35.527617601252622 ], [ -0.270128001907239, 35.526685182923728 ], [ -0.270868217874747, 35.526685182923728 ], [ -0.270868217874747, 35.525752753760564 ], [ -0.271608433842256, 35.525752753760564 ], [ -0.271608433842256, 35.524820313763243 ], [ -0.272348649809764, 35.524820313763243 ], [ -0.272348649809764, 35.523887862931907 ], [ -0.273088865777272, 35.523887862931907 ], [ -0.273088865777272, 35.523421633453495 ], [ -0.273829081744781, 35.523421633453495 ], [ -0.273829081744781, 35.522955401266628 ], [ -0.275309513679797, 35.522955401266628 ], [ -0.275309513679797, 35.522489166371336 ], [ -0.276049729647306, 35.522489166371336 ], [ -0.276049729647306, 35.522022928767583 ], [ -0.278270377549831, 35.522022928767583 ], [ -0.278270377549831, 35.522489166371336 ], [ -0.279010593517339, 35.522489166371336 ], [ -0.279010593517339, 35.522955401266628 ], [ -0.279750809484847, 35.522955401266628 ], [ -0.279750809484847, 35.523421633453495 ], [ -0.280491025452356, 35.523421633453495 ], [ -0.280491025452356, 35.523887862931907 ], [ -0.281971457387372, 35.523887862931907 ], [ -0.281971457387372, 35.524354089701824 ], [ -0.282711673354881, 35.524354089701824 ], [ -0.282711673354881, 35.525286535116166 ], [ -0.283451889322389, 35.525286535116166 ], [ -0.283451889322389, 35.528083806354168 ], [ -0.284192105289897, 35.528083806354168 ], [ -0.284192105289897, 35.530880980082081 ], [ -0.284932321257406, 35.530880980082081 ], [ -0.284932321257406, 35.532745708393463 ], [ -0.284192105289897, 35.532745708393463 ], [ -0.284192105289897, 35.533678056296615 ], [ -0.283451889322389, 35.533678056296615 ], [ -0.283451889322389, 35.534610393364595 ], [ -0.282711673354881, 35.534610393364595 ], [ -0.282711673354881, 35.535542719597274 ], [ -0.281971457387372, 35.535542719597274 ], [ -0.281971457387372, 35.536475034994524 ], [ -0.281231241419864, 35.536475034994524 ], [ -0.281231241419864, 35.536941188629832 ], [ -0.280491025452356, 35.536941188629832 ], [ -0.280491025452356, 35.537873487773723 ], [ -0.279750809484847, 35.537873487773723 ], [ -0.279750809484847, 35.538339633282277 ], [ -0.279010593517339, 35.538339633282277 ], [ -0.279010593517339, 35.538805776081894 ], [ -0.277530161582322, 35.538805776081894 ], [ -0.277530161582322, 35.539271916172538 ], [ -0.276789945614814, 35.539271916172538 ], [ -0.276789945614814, 35.539738053554217 ], [ -0.275309513679797, 35.539738053554217 ], [ -0.275309513679797, 35.539271916172538 ], [ -0.273829081744781, 35.539271916172538 ], [ -0.273829081744781, 35.538805776081894 ], [ -0.273088865777272, 35.538805776081894 ], [ -0.273088865777272, 35.538339633282277 ] ] ], [ [ [ 0.547070426221962, 35.787803380056921 ], [ 0.547070426221962, 35.786873994605742 ], [ 0.54781064218947, 35.786873994605742 ], [ 0.54781064218947, 35.77897377950292 ], [ 0.547070426221962, 35.77897377950292 ], [ 0.547070426221962, 35.778509036516901 ], [ 0.546330210254454, 35.778509036516901 ], [ 0.546330210254454, 35.778044290814222 ], [ 0.545589994286945, 35.778044290814222 ], [ 0.545589994286945, 35.777114791259052 ], [ 0.544849778319437, 35.777114791259052 ], [ 0.544849778319437, 35.776650037406554 ], [ 0.544109562351929, 35.776650037406554 ], [ 0.544109562351929, 35.776185280837481 ], [ 0.54336934638442, 35.776185280837481 ], [ 0.54336934638442, 35.775720521551847 ], [ 0.540408482514387, 35.775720521551847 ], [ 0.540408482514387, 35.776185280837481 ], [ 0.537447618644354, 35.776185280837481 ], [ 0.537447618644354, 35.776650037406554 ], [ 0.535967186709337, 35.776650037406554 ], [ 0.535967186709337, 35.777114791259052 ], [ 0.535226970741829, 35.777114791259052 ], [ 0.535226970741829, 35.778044290814222 ], [ 0.53448675477432, 35.778044290814222 ], [ 0.53448675477432, 35.77897377950292 ], [ 0.533746538806812, 35.77897377950292 ], [ 0.533746538806812, 35.780367992161054 ], [ 0.533006322839304, 35.780367992161054 ], [ 0.533006322839304, 35.78129745368301 ], [ 0.532266106871795, 35.78129745368301 ], [ 0.532266106871795, 35.787803380056921 ], [ 0.533006322839304, 35.787803380056921 ], [ 0.533006322839304, 35.788732754640378 ], [ 0.533746538806812, 35.788732754640378 ], [ 0.533746538806812, 35.789197437856686 ], [ 0.53448675477432, 35.789197437856686 ], [ 0.53448675477432, 35.790126796138338 ], [ 0.544849778319437, 35.790126796138338 ], [ 0.544849778319437, 35.789197437856686 ], [ 0.545589994286945, 35.789197437856686 ], [ 0.545589994286945, 35.788732754640378 ], [ 0.546330210254454, 35.788732754640378 ], [ 0.546330210254454, 35.787803380056921 ], [ 0.547070426221962, 35.787803380056921 ] ] ], [ [ [ -0.276789945614814, 35.824505411354338 ], [ -0.276049729647306, 35.824505411354338 ], [ -0.276049729647306, 35.824040934669902 ], [ -0.274569297712289, 35.824040934669902 ], [ -0.274569297712289, 35.8235764552674 ], [ -0.272348649809764, 35.8235764552674 ], [ -0.272348649809764, 35.82311197314683 ], [ -0.270128001907239, 35.82311197314683 ], [ -0.270128001907239, 35.822647488308213 ], [ -0.267167138037206, 35.822647488308213 ], [ -0.267167138037206, 35.822183000751579 ], [ -0.264946490134681, 35.822183000751579 ], [ -0.264946490134681, 35.821718510476927 ], [ -0.262725842232156, 35.821718510476927 ], [ -0.262725842232156, 35.821254017484272 ], [ -0.260505194329631, 35.821254017484272 ], [ -0.260505194329631, 35.820789521773627 ], [ -0.259764978362122, 35.820789521773627 ], [ -0.259764978362122, 35.819860522198454 ], [ -0.259024762394614, 35.819860522198454 ], [ -0.259024762394614, 35.81939601833394 ], [ -0.258284546427106, 35.81939601833394 ], [ -0.258284546427106, 35.818467002451158 ], [ -0.257544330459597, 35.818467002451158 ], [ -0.257544330459597, 35.818002490432896 ], [ -0.256804114492089, 35.818002490432896 ], [ -0.256804114492089, 35.81753797569678 ], [ -0.255323682557072, 35.81753797569678 ], [ -0.255323682557072, 35.817073458242774 ], [ -0.253843250622056, 35.817073458242774 ], [ -0.253843250622056, 35.816608938070921 ], [ -0.252362818687039, 35.816608938070921 ], [ -0.252362818687039, 35.816144415181228 ], [ -0.250882386752022, 35.816144415181228 ], [ -0.250882386752022, 35.815679889573708 ], [ -0.250142170784514, 35.815679889573708 ], [ -0.250142170784514, 35.814750830205249 ], [ -0.249401954817006, 35.814750830205249 ], [ -0.249401954817006, 35.813821759965677 ], [ -0.248661738849497, 35.813821759965677 ], [ -0.248661738849497, 35.813357220769255 ], [ -0.247921522881989, 35.813357220769255 ], [ -0.247921522881989, 35.812428134223211 ], [ -0.247181306914481, 35.812428134223211 ], [ -0.247181306914481, 35.811963586873631 ], [ -0.246441090946972, 35.811963586873631 ], [ -0.246441090946972, 35.811034484021377 ], [ -0.243480227076939, 35.811034484021377 ], [ -0.243480227076939, 35.811499036806339 ], [ -0.242740011109431, 35.811499036806339 ], [ -0.242740011109431, 35.812428134223211 ], [ -0.241999795141922, 35.812428134223211 ], [ -0.241999795141922, 35.812892678855093 ], [ -0.241259579174414, 35.812892678855093 ], [ -0.241259579174414, 35.813821759965677 ], [ -0.240519363206906, 35.813821759965677 ], [ -0.240519363206906, 35.814286296444358 ], [ -0.239779147239397, 35.814286296444358 ], [ -0.239779147239397, 35.815215361248384 ], [ -0.239038931271889, 35.815215361248384 ], [ -0.239038931271889, 35.815679889573708 ], [ -0.235337851434347, 35.815679889573708 ], [ -0.235337851434347, 35.815215361248384 ], [ -0.231636771596806, 35.815215361248384 ], [ -0.231636771596806, 35.814750830205249 ], [ -0.230896555629297, 35.814750830205249 ], [ -0.230896555629297, 35.813357220769255 ], [ -0.230156339661789, 35.813357220769255 ], [ -0.230156339661789, 35.812428134223211 ], [ -0.229416123694281, 35.812428134223211 ], [ -0.229416123694281, 35.811034484021377 ], [ -0.228675907726772, 35.811034484021377 ], [ -0.228675907726772, 35.810105370298473 ], [ -0.227935691759264, 35.810105370298473 ], [ -0.227935691759264, 35.809176245705025 ], [ -0.227195475791756, 35.809176245705025 ], [ -0.227195475791756, 35.80731796390701 ], [ -0.227935691759264, 35.80731796390701 ], [ -0.227935691759264, 35.805924224024189 ], [ -0.228675907726772, 35.805924224024189 ], [ -0.228675907726772, 35.804530459683846 ], [ -0.229416123694281, 35.804530459683846 ], [ -0.229416123694281, 35.803601269869652 ], [ -0.230156339661789, 35.803601269869652 ], [ -0.230156339661789, 35.803136670886389 ], [ -0.230896555629297, 35.803136670886389 ], [ -0.230896555629297, 35.802672069185711 ], [ -0.231636771596806, 35.802672069185711 ], [ -0.231636771596806, 35.80220746476764 ], [ -0.232376987564314, 35.80220746476764 ], [ -0.232376987564314, 35.801742857632192 ], [ -0.237558499336872, 35.801742857632192 ], [ -0.237558499336872, 35.80220746476764 ], [ -0.238298715304381, 35.80220746476764 ], [ -0.238298715304381, 35.802672069185711 ], [ -0.239038931271889, 35.802672069185711 ], [ -0.239038931271889, 35.800813635209181 ], [ -0.239779147239397, 35.800813635209181 ], [ -0.239779147239397, 35.799884401916799 ], [ -0.240519363206906, 35.799884401916799 ], [ -0.240519363206906, 35.799419781194644 ], [ -0.241259579174414, 35.799419781194644 ], [ -0.241259579174414, 35.798955157755167 ], [ -0.242740011109431, 35.798955157755167 ], [ -0.242740011109431, 35.798490531598425 ], [ -0.245700874979464, 35.798490531598425 ], [ -0.245700874979464, 35.798955157755167 ], [ -0.247181306914481, 35.798955157755167 ], [ -0.247181306914481, 35.799419781194644 ], [ -0.249401954817006, 35.799419781194644 ], [ -0.249401954817006, 35.799884401916799 ], [ -0.250882386752022, 35.799884401916799 ], [ -0.250882386752022, 35.799419781194644 ], [ -0.252362818687039, 35.799419781194644 ], [ -0.252362818687039, 35.798955157755167 ], [ -0.253843250622056, 35.798955157755167 ], [ -0.253843250622056, 35.798490531598425 ], [ -0.255323682557072, 35.798490531598425 ], [ -0.255323682557072, 35.798025902724412 ], [ -0.261245410297139, 35.798025902724412 ], [ -0.261245410297139, 35.798490531598425 ], [ -0.266426922069697, 35.798490531598425 ], [ -0.266426922069697, 35.799419781194644 ], [ -0.267167138037206, 35.799419781194644 ], [ -0.267167138037206, 35.799884401916799 ], [ -0.267907354004714, 35.799884401916799 ], [ -0.267907354004714, 35.800349019921647 ], [ -0.268647569972222, 35.800349019921647 ], [ -0.268647569972222, 35.801278247779365 ], [ -0.269387785939731, 35.801278247779365 ], [ -0.269387785939731, 35.801742857632192 ], [ -0.270128001907239, 35.801742857632192 ], [ -0.270128001907239, 35.80220746476764 ], [ -0.270868217874747, 35.80220746476764 ], [ -0.270868217874747, 35.803136670886389 ], [ -0.271608433842256, 35.803136670886389 ], [ -0.271608433842256, 35.803601269869652 ], [ -0.272348649809764, 35.803601269869652 ], [ -0.272348649809764, 35.804530459683846 ], [ -0.273088865777272, 35.804530459683846 ], [ -0.273088865777272, 35.804995050514783 ], [ -0.273829081744781, 35.804995050514783 ], [ -0.273829081744781, 35.804065866135467 ], [ -0.274569297712289, 35.804065866135467 ], [ -0.274569297712289, 35.803136670886389 ], [ -0.275309513679797, 35.803136670886389 ], [ -0.275309513679797, 35.80220746476764 ], [ -0.276049729647306, 35.80220746476764 ], [ -0.276049729647306, 35.801742857632192 ], [ -0.276789945614814, 35.801742857632192 ], [ -0.276789945614814, 35.801278247779365 ], [ -0.278270377549831, 35.801278247779365 ], [ -0.278270377549831, 35.800813635209181 ], [ -0.279010593517339, 35.800813635209181 ], [ -0.279010593517339, 35.800349019921647 ], [ -0.280491025452356, 35.800349019921647 ], [ -0.280491025452356, 35.800813635209181 ], [ -0.281231241419864, 35.800813635209181 ], [ -0.281231241419864, 35.801278247779365 ], [ -0.282711673354881, 35.801278247779365 ], [ -0.282711673354881, 35.801742857632192 ], [ -0.283451889322389, 35.801742857632192 ], [ -0.283451889322389, 35.80220746476764 ], [ -0.284192105289897, 35.80220746476764 ], [ -0.284192105289897, 35.805459638628236 ], [ -0.284932321257406, 35.805459638628236 ], [ -0.284932321257406, 35.809640809360559 ], [ -0.285672537224914, 35.809640809360559 ], [ -0.285672537224914, 35.813821759965677 ], [ -0.286412753192422, 35.813821759965677 ], [ -0.286412753192422, 35.818467002451158 ], [ -0.287152969159931, 35.818467002451158 ], [ -0.287152969159931, 35.821254017484272 ], [ -0.286412753192422, 35.821254017484272 ], [ -0.286412753192422, 35.822183000751579 ], [ -0.285672537224914, 35.822183000751579 ], [ -0.285672537224914, 35.822647488308213 ], [ -0.284932321257406, 35.822647488308213 ], [ -0.284932321257406, 35.82311197314683 ], [ -0.284192105289897, 35.82311197314683 ], [ -0.284192105289897, 35.8235764552674 ], [ -0.283451889322389, 35.8235764552674 ], [ -0.283451889322389, 35.824040934669902 ], [ -0.282711673354881, 35.824040934669902 ], [ -0.282711673354881, 35.824505411354338 ], [ -0.281971457387372, 35.824505411354338 ], [ -0.281971457387372, 35.824969885320684 ], [ -0.281231241419864, 35.824969885320684 ], [ -0.281231241419864, 35.82543435656892 ], [ -0.280491025452356, 35.82543435656892 ], [ -0.280491025452356, 35.825898825099053 ], [ -0.278270377549831, 35.825898825099053 ], [ -0.278270377549831, 35.82543435656892 ], [ -0.277530161582322, 35.82543435656892 ], [ -0.277530161582322, 35.824969885320684 ], [ -0.276789945614814, 35.824969885320684 ], [ -0.276789945614814, 35.824505411354338 ] ] ], [ [ [ 0.132549484417295, 36.023978321458699 ], [ 0.132549484417295, 36.021661761371966 ], [ 0.133289700384803, 36.021661761371966 ], [ 0.133289700384803, 36.01980846426639 ], [ 0.134029916352311, 36.01980846426639 ], [ 0.134029916352311, 36.015638386416185 ], [ 0.133289700384803, 36.015638386416185 ], [ 0.133289700384803, 36.014248311432823 ], [ 0.132549484417295, 36.014248311432823 ], [ 0.132549484417295, 36.01378494765703 ], [ 0.131809268449787, 36.01378494765703 ], [ 0.131809268449787, 36.013321581157236 ], [ 0.131069052482278, 36.013321581157236 ], [ 0.131069052482278, 36.012858211933477 ], [ 0.13032883651477, 36.012858211933477 ], [ 0.13032883651477, 36.01239483998576 ], [ 0.129588620547261, 36.01239483998576 ], [ 0.129588620547261, 36.011931465314092 ], [ 0.128848404579753, 36.011931465314092 ], [ 0.128848404579753, 36.011468087918502 ], [ 0.127367972644737, 36.011468087918502 ], [ 0.127367972644737, 36.011004707799003 ], [ 0.125147324742211, 36.011004707799003 ], [ 0.125147324742211, 36.011468087918502 ], [ 0.123666892807195, 36.011468087918502 ], [ 0.123666892807195, 36.011931465314092 ], [ 0.12144624490467, 36.011931465314092 ], [ 0.12144624490467, 36.01239483998576 ], [ 0.120706028937161, 36.01239483998576 ], [ 0.120706028937161, 36.013321581157236 ], [ 0.119965812969653, 36.013321581157236 ], [ 0.119965812969653, 36.015175030812422 ], [ 0.119225597002145, 36.015175030812422 ], [ 0.119225597002145, 36.017955123574062 ], [ 0.119965812969653, 36.017955123574062 ], [ 0.119965812969653, 36.020271792629075 ], [ 0.120706028937161, 36.020271792629075 ], [ 0.120706028937161, 36.022588393579454 ], [ 0.12144624490467, 36.022588393579454 ], [ 0.12144624490467, 36.024441625303204 ], [ 0.122926676839686, 36.024441625303204 ], [ 0.122926676839686, 36.024904926423396 ], [ 0.124407108774703, 36.024904926423396 ], [ 0.124407108774703, 36.025368224819253 ], [ 0.12588754070972, 36.025368224819253 ], [ 0.12588754070972, 36.025831520490769 ], [ 0.128848404579753, 36.025831520490769 ], [ 0.128848404579753, 36.025368224819253 ], [ 0.13032883651477, 36.025368224819253 ], [ 0.13032883651477, 36.024904926423396 ], [ 0.131809268449787, 36.024904926423396 ], [ 0.131809268449787, 36.023978321458699 ], [ 0.132549484417295, 36.023978321458699 ] ] ], [ [ [ 1.246574515517338, 36.136943660476909 ], [ 1.246574515517338, 36.135555728038689 ], [ 1.247314731484846, 36.135555728038689 ], [ 1.247314731484846, 36.13370511326643 ], [ 1.248054947452355, 36.13370511326643 ], [ 1.248054947452355, 36.132317123546741 ], [ 1.248795163419863, 36.132317123546741 ], [ 1.248795163419863, 36.130466432400581 ], [ 1.249535379387371, 36.130466432400581 ], [ 1.249535379387371, 36.129078385401499 ], [ 1.25027559535488, 36.129078385401499 ], [ 1.25027559535488, 36.126764919186158 ], [ 1.249535379387371, 36.126764919186158 ], [ 1.249535379387371, 36.124914097119721 ], [ 1.248795163419863, 36.124914097119721 ], [ 1.248795163419863, 36.123525951932208 ], [ 1.248054947452355, 36.123525951932208 ], [ 1.248054947452355, 36.121675053499345 ], [ 1.247314731484846, 36.121675053499345 ], [ 1.247314731484846, 36.120286851038067 ], [ 1.246574515517338, 36.120286851038067 ], [ 1.246574515517338, 36.119824111429786 ], [ 1.245834299549829, 36.119824111429786 ], [ 1.245834299549829, 36.119361369094264 ], [ 1.244353867614813, 36.119361369094264 ], [ 1.244353867614813, 36.118898624031523 ], [ 1.243613651647304, 36.118898624031523 ], [ 1.243613651647304, 36.11843587624157 ], [ 1.242133219712288, 36.11843587624157 ], [ 1.242133219712288, 36.118898624031523 ], [ 1.24139300374478, 36.118898624031523 ], [ 1.24139300374478, 36.119361369094264 ], [ 1.240652787777271, 36.119361369094264 ], [ 1.240652787777271, 36.119824111429786 ], [ 1.239172355842254, 36.119824111429786 ], [ 1.239172355842254, 36.120286851038067 ], [ 1.238432139874746, 36.120286851038067 ], [ 1.238432139874746, 36.120749587919107 ], [ 1.237691923907238, 36.120749587919107 ], [ 1.237691923907238, 36.121212322072857 ], [ 1.236951707939729, 36.121212322072857 ], [ 1.236951707939729, 36.118898624031523 ], [ 1.236211491972221, 36.118898624031523 ], [ 1.236211491972221, 36.116122096384153 ], [ 1.234731060037205, 36.116122096384153 ], [ 1.234731060037205, 36.115659332231232 ], [ 1.232510412134679, 36.115659332231232 ], [ 1.232510412134679, 36.115196565351212 ], [ 1.228809332297138, 36.115196565351212 ], [ 1.228809332297138, 36.116122096384153 ], [ 1.22806911632963, 36.116122096384153 ], [ 1.22806911632963, 36.117047616508593 ], [ 1.227328900362121, 36.117047616508593 ], [ 1.227328900362121, 36.117510372480098 ], [ 1.226588684394613, 36.117510372480098 ], [ 1.226588684394613, 36.122600508170429 ], [ 1.227328900362121, 36.122600508170429 ], [ 1.227328900362121, 36.123063231414996 ], [ 1.22806911632963, 36.123063231414996 ], [ 1.22806911632963, 36.123988669722088 ], [ 1.228809332297138, 36.123988669722088 ], [ 1.228809332297138, 36.124451384784592 ], [ 1.229549548264646, 36.124451384784592 ], [ 1.229549548264646, 36.124914097119721 ], [ 1.232510412134679, 36.124914097119721 ], [ 1.232510412134679, 36.124451384784592 ], [ 1.233990844069696, 36.124451384784592 ], [ 1.233990844069696, 36.124914097119721 ], [ 1.233250628102188, 36.124914097119721 ], [ 1.233250628102188, 36.125839513607794 ], [ 1.232510412134679, 36.125839513607794 ], [ 1.232510412134679, 36.127227617884188 ], [ 1.231770196167171, 36.127227617884188 ], [ 1.231770196167171, 36.128153007097822 ], [ 1.231029980199663, 36.128153007097822 ], [ 1.231029980199663, 36.129541070462068 ], [ 1.231770196167171, 36.129541070462068 ], [ 1.231770196167171, 36.131391783428839 ], [ 1.232510412134679, 36.131391783428839 ], [ 1.232510412134679, 36.132779789514281 ], [ 1.233250628102188, 36.132779789514281 ], [ 1.233250628102188, 36.134167771051025 ], [ 1.233990844069696, 36.134167771051025 ], [ 1.233990844069696, 36.135093078437173 ], [ 1.234731060037205, 36.135093078437173 ], [ 1.234731060037205, 36.135555728038689 ], [ 1.235471276004713, 36.135555728038689 ], [ 1.235471276004713, 36.136018374912496 ], [ 1.236211491972221, 36.136018374912496 ], [ 1.236211491972221, 36.136481019058579 ], [ 1.236951707939729, 36.136481019058579 ], [ 1.236951707939729, 36.136943660476909 ], [ 1.237691923907238, 36.136943660476909 ], [ 1.237691923907238, 36.13740629916748 ], [ 1.239172355842254, 36.13740629916748 ], [ 1.239172355842254, 36.137868935130264 ], [ 1.239912571809763, 36.137868935130264 ], [ 1.239912571809763, 36.138331568365288 ], [ 1.242873435679796, 36.138331568365288 ], [ 1.242873435679796, 36.137868935130264 ], [ 1.244353867614813, 36.137868935130264 ], [ 1.244353867614813, 36.13740629916748 ], [ 1.245094083582321, 36.13740629916748 ], [ 1.245094083582321, 36.136943660476909 ], [ 1.246574515517338, 36.136943660476909 ] ] ], [ [ [ 1.667017185062072, 41.320406885519908 ], [ 1.667017185062072, 41.319976656407619 ], [ 1.66775740102958, 41.319976656407619 ], [ 1.66775740102958, 41.319116189662658 ], [ 1.668497616997088, 41.319116189662658 ], [ 1.668497616997088, 41.317395222091427 ], [ 1.669237832964597, 41.317395222091427 ], [ 1.669237832964597, 41.315674209078693 ], [ 1.669978048932105, 41.315674209078693 ], [ 1.669978048932105, 41.31395315062484 ], [ 1.670718264899614, 41.31395315062484 ], [ 1.670718264899614, 41.312232046730209 ], [ 1.669978048932105, 41.312232046730209 ], [ 1.669978048932105, 41.31051089739514 ], [ 1.669237832964597, 41.31051089739514 ], [ 1.669237832964597, 41.308789702620011 ], [ 1.668497616997088, 41.308789702620011 ], [ 1.668497616997088, 41.30749877671883 ], [ 1.66775740102958, 41.30749877671883 ], [ 1.66775740102958, 41.307068462405169 ], [ 1.667017185062072, 41.307068462405169 ], [ 1.667017185062072, 41.306638145251547 ], [ 1.666276969094563, 41.306638145251547 ], [ 1.666276969094563, 41.306207825257957 ], [ 1.665536753127055, 41.306207825257957 ], [ 1.665536753127055, 41.305777502424441 ], [ 1.661835673289513, 41.305777502424441 ], [ 1.661835673289513, 41.306207825257957 ], [ 1.661095457322005, 41.306207825257957 ], [ 1.661095457322005, 41.306638145251547 ], [ 1.659615025386988, 41.306638145251547 ], [ 1.659615025386988, 41.307068462405169 ], [ 1.658134593451972, 41.307068462405169 ], [ 1.658134593451972, 41.30749877671883 ], [ 1.657394377484463, 41.30749877671883 ], [ 1.657394377484463, 41.307929088192537 ], [ 1.656654161516955, 41.307929088192537 ], [ 1.656654161516955, 41.308359396826262 ], [ 1.655913945549446, 41.308359396826262 ], [ 1.655913945549446, 41.309650305687569 ], [ 1.655173729581938, 41.309650305687569 ], [ 1.655173729581938, 41.311371477742703 ], [ 1.65443351361443, 41.311371477742703 ], [ 1.65443351361443, 41.312232046730209 ], [ 1.655173729581938, 41.312232046730209 ], [ 1.655173729581938, 41.314383419498391 ], [ 1.655913945549446, 41.314383419498391 ], [ 1.655913945549446, 41.316964973098372 ], [ 1.656654161516955, 41.316964973098372 ], [ 1.656654161516955, 41.318685952030009 ], [ 1.657394377484463, 41.318685952030009 ], [ 1.657394377484463, 41.319116189662658 ], [ 1.65887480941948, 41.319116189662658 ], [ 1.65887480941948, 41.319546424455204 ], [ 1.659615025386988, 41.319546424455204 ], [ 1.659615025386988, 41.319976656407619 ], [ 1.660355241354497, 41.319976656407619 ], [ 1.660355241354497, 41.320406885519908 ], [ 1.661835673289513, 41.320406885519908 ], [ 1.661835673289513, 41.320837111792073 ], [ 1.662575889257022, 41.320837111792073 ], [ 1.662575889257022, 41.321267335224093 ], [ 1.664796537159547, 41.321267335224093 ], [ 1.664796537159547, 41.320837111792073 ], [ 1.665536753127055, 41.320837111792073 ], [ 1.665536753127055, 41.320406885519908 ], [ 1.667017185062072, 41.320406885519908 ] ] ], [ [ [ 0.772096080344496, 41.821827939753035 ], [ 0.772096080344496, 41.821401037181964 ], [ 0.772836296312004, 41.821401037181964 ], [ 0.772836296312004, 41.820974131764785 ], [ 0.773576512279512, 41.820974131764785 ], [ 0.773576512279512, 41.820120312392113 ], [ 0.77431672824702, 41.820120312392113 ], [ 0.77431672824702, 41.81969339843662 ], [ 0.775056944214529, 41.81969339843662 ], [ 0.775056944214529, 41.818839561987375 ], [ 0.775797160182037, 41.818839561987375 ], [ 0.775797160182037, 41.817985714153799 ], [ 0.775056944214529, 41.817985714153799 ], [ 0.775056944214529, 41.812862388083481 ], [ 0.77431672824702, 41.812862388083481 ], [ 0.77431672824702, 41.811581492530195 ], [ 0.772836296312004, 41.811581492530195 ], [ 0.772836296312004, 41.811154521653762 ], [ 0.772096080344496, 41.811154521653762 ], [ 0.772096080344496, 41.810727547931322 ], [ 0.771355864376987, 41.810727547931322 ], [ 0.771355864376987, 41.810300571362902 ], [ 0.769135216474462, 41.810300571362902 ], [ 0.769135216474462, 41.810727547931322 ], [ 0.767654784539446, 41.810727547931322 ], [ 0.767654784539446, 41.811154521653762 ], [ 0.765434136636921, 41.811154521653762 ], [ 0.765434136636921, 41.811581492530195 ], [ 0.763953704701904, 41.811581492530195 ], [ 0.763953704701904, 41.812008460560634 ], [ 0.761733056799379, 41.812008460560634 ], [ 0.761733056799379, 41.812862388083481 ], [ 0.760992840831871, 41.812862388083481 ], [ 0.760992840831871, 41.813289347575882 ], [ 0.760252624864362, 41.813289347575882 ], [ 0.760252624864362, 41.814143258022611 ], [ 0.759512408896854, 41.814143258022611 ], [ 0.759512408896854, 41.814997157085209 ], [ 0.758772192929346, 41.814997157085209 ], [ 0.758772192929346, 41.820974131764785 ], [ 0.759512408896854, 41.820974131764785 ], [ 0.759512408896854, 41.821401037181964 ], [ 0.760252624864362, 41.821401037181964 ], [ 0.760252624864362, 41.822254839477992 ], [ 0.760992840831871, 41.822254839477992 ], [ 0.760992840831871, 41.823108630389527 ], [ 0.761733056799379, 41.823108630389527 ], [ 0.761733056799379, 41.823535521576098 ], [ 0.766914568571937, 41.823535521576098 ], [ 0.766914568571937, 41.823962409916547 ], [ 0.769875432441971, 41.823962409916547 ], [ 0.769875432441971, 41.823108630389527 ], [ 0.770615648409479, 41.823108630389527 ], [ 0.770615648409479, 41.82268173635682 ], [ 0.771355864376987, 41.82268173635682 ], [ 0.771355864376987, 41.821827939753035 ], [ 0.772096080344496, 41.821827939753035 ] ] ], [ [ [ 2.828416038082648, 43.118563783818331 ], [ 2.828416038082648, 43.11814563506811 ], [ 2.829156254050156, 43.11814563506811 ], [ 2.829156254050156, 43.117309328995034 ], [ 2.829896470017665, 43.117309328995034 ], [ 2.829896470017665, 43.112291252524095 ], [ 2.829156254050156, 43.112291252524095 ], [ 2.829156254050156, 43.111454866440383 ], [ 2.828416038082648, 43.111454866440383 ], [ 2.828416038082648, 43.110618468926681 ], [ 2.829156254050156, 43.110618468926681 ], [ 2.829156254050156, 43.110200265883584 ], [ 2.829896470017665, 43.110200265883584 ], [ 2.829896470017665, 43.109782059982997 ], [ 2.830636685985173, 43.109782059982997 ], [ 2.830636685985173, 43.10894563960936 ], [ 2.831376901952682, 43.10894563960936 ], [ 2.831376901952682, 43.108527425136302 ], [ 2.83211711792019, 43.108527425136302 ], [ 2.83211711792019, 43.103508628576996 ], [ 2.831376901952682, 43.103508628576996 ], [ 2.831376901952682, 43.102672122479376 ], [ 2.830636685985173, 43.102672122479376 ], [ 2.830636685985173, 43.102253865144412 ], [ 2.829896470017665, 43.102253865144412 ], [ 2.829896470017665, 43.101417341902135 ], [ 2.829156254050156, 43.101417341902135 ], [ 2.829156254050156, 43.100999075994864 ], [ 2.82767582211514, 43.100999075994864 ], [ 2.82767582211514, 43.101417341902135 ], [ 2.826195390180124, 43.101417341902135 ], [ 2.826195390180124, 43.101835604951994 ], [ 2.823974742277598, 43.101835604951994 ], [ 2.823974742277598, 43.102253865144412 ], [ 2.82323452631009, 43.102253865144412 ], [ 2.82323452631009, 43.101835604951994 ], [ 2.821754094375073, 43.101835604951994 ], [ 2.821754094375073, 43.101417341902135 ], [ 2.821013878407565, 43.101417341902135 ], [ 2.821013878407565, 43.100999075994864 ], [ 2.819533446472548, 43.100999075994864 ], [ 2.819533446472548, 43.100580807230138 ], [ 2.81879323050504, 43.100580807230138 ], [ 2.81879323050504, 43.100162535607993 ], [ 2.817312798570023, 43.100162535607993 ], [ 2.817312798570023, 43.099744261128421 ], [ 2.816572582602515, 43.099744261128421 ], [ 2.816572582602515, 43.099325983791424 ], [ 2.815832366635007, 43.099325983791424 ], [ 2.815832366635007, 43.098907703597014 ], [ 2.81435193469999, 43.098907703597014 ], [ 2.81435193469999, 43.099325983791424 ], [ 2.812871502764973, 43.099325983791424 ], [ 2.812871502764973, 43.099744261128421 ], [ 2.812131286797465, 43.099744261128421 ], [ 2.812131286797465, 43.100162535607993 ], [ 2.811391070829956, 43.100162535607993 ], [ 2.811391070829956, 43.100580807230138 ], [ 2.810650854862448, 43.100580807230138 ], [ 2.810650854862448, 43.101417341902135 ], [ 2.80991063889494, 43.101417341902135 ], [ 2.80991063889494, 43.103090376956914 ], [ 2.809170422927431, 43.103090376956914 ], [ 2.809170422927431, 43.105181606482844 ], [ 2.80991063889494, 43.105181606482844 ], [ 2.80991063889494, 43.106854538669332 ], [ 2.810650854862448, 43.106854538669332 ], [ 2.810650854862448, 43.108527425136302 ], [ 2.80991063889494, 43.108527425136302 ], [ 2.80991063889494, 43.109363851224927 ], [ 2.809170422927431, 43.109363851224927 ], [ 2.809170422927431, 43.109782059982997 ], [ 2.808430206959923, 43.109782059982997 ], [ 2.808430206959923, 43.110200265883584 ], [ 2.807689990992415, 43.110200265883584 ], [ 2.807689990992415, 43.111036669112288 ], [ 2.806949775024906, 43.111036669112288 ], [ 2.806949775024906, 43.115218513805466 ], [ 2.807689990992415, 43.115218513805466 ], [ 2.807689990992415, 43.116054848453885 ], [ 2.808430206959923, 43.116054848453885 ], [ 2.808430206959923, 43.116891171672187 ], [ 2.809170422927431, 43.116891171672187 ], [ 2.809170422927431, 43.117309328995034 ], [ 2.80991063889494, 43.117309328995034 ], [ 2.80991063889494, 43.11814563506811 ], [ 2.812131286797465, 43.11814563506811 ], [ 2.812131286797465, 43.117727483460335 ], [ 2.81435193469999, 43.117727483460335 ], [ 2.81435193469999, 43.117309328995034 ], [ 2.815832366635007, 43.117309328995034 ], [ 2.815832366635007, 43.116891171672187 ], [ 2.816572582602515, 43.116891171672187 ], [ 2.816572582602515, 43.116473011491806 ], [ 2.817312798570023, 43.116473011491806 ], [ 2.817312798570023, 43.114800342194961 ], [ 2.818053014537532, 43.114800342194961 ], [ 2.818053014537532, 43.111454866440383 ], [ 2.817312798570023, 43.111454866440383 ], [ 2.817312798570023, 43.110618468926681 ], [ 2.818053014537532, 43.110618468926681 ], [ 2.818053014537532, 43.111036669112288 ], [ 2.81879323050504, 43.111036669112288 ], [ 2.81879323050504, 43.111454866440383 ], [ 2.819533446472548, 43.111454866440383 ], [ 2.819533446472548, 43.113963990401395 ], [ 2.81879323050504, 43.113963990401395 ], [ 2.81879323050504, 43.115636682558439 ], [ 2.819533446472548, 43.115636682558439 ], [ 2.819533446472548, 43.117309328995034 ], [ 2.820273662440056, 43.117309328995034 ], [ 2.820273662440056, 43.118563783818331 ], [ 2.821013878407565, 43.118563783818331 ], [ 2.821013878407565, 43.118981929711005 ], [ 2.82323452631009, 43.118981929711005 ], [ 2.82323452631009, 43.119400072746132 ], [ 2.825455174212615, 43.119400072746132 ], [ 2.825455174212615, 43.119818212923697 ], [ 2.826935606147631, 43.119818212923697 ], [ 2.826935606147631, 43.119400072746132 ], [ 2.82767582211514, 43.119400072746132 ], [ 2.82767582211514, 43.118563783818331 ], [ 2.828416038082648, 43.118563783818331 ] ] ] ] } }
]
}
