{
"type": "FeatureCollection",
"name": "spain_fires_modis_ba",
"crs": { "type": "name", "properties": { "name": "urn:ogc:def:crs:OGC:1.3:CRS84" } },
"features": [
{ "type": "Feature", "properties": { }, "geometry": { "type": "Polygon", "coordinates": [ [ [ -0.495893871997281, 39.780090612121249 ], [ -0.494413440062264, 39.780090612121249 ], [ -0.494413440062264, 39.779650371367353 ], [ -0.492933008127248, 39.779650371367353 ], [ -0.492933008127248, 39.779210127797171 ], [ -0.492192792159739, 39.779210127797171 ], [ -0.492192792159739, 39.778769881410675 ], [ -0.491452576192231, 39.778769881410675 ], [ -0.491452576192231, 39.777889380188824 ], [ -0.490712360224723, 39.777889380188824 ], [ -0.490712360224723, 39.77700886770188 ], [ -0.489972144257214, 39.77700886770188 ], [ -0.489972144257214, 39.775688077849544 ], [ -0.489231928289706, 39.775688077849544 ], [ -0.489231928289706, 39.775247808932953 ], [ -0.488491712322198, 39.775247808932953 ], [ -0.488491712322198, 39.774367262651104 ], [ -0.487751496354689, 39.774367262651104 ], [ -0.487751496354689, 39.773926985285861 ], [ -0.487011280387181, 39.773926985285861 ], [ -0.487011280387181, 39.769524056743599 ], [ -0.487751496354689, 39.769524056743599 ], [ -0.487751496354689, 39.769083748400568 ], [ -0.488491712322198, 39.769083748400568 ], [ -0.488491712322198, 39.768643437241423 ], [ -0.489972144257214, 39.768643437241423 ], [ -0.489972144257214, 39.769083748400568 ], [ -0.490712360224723, 39.769083748400568 ], [ -0.490712360224723, 39.769524056743599 ], [ -0.491452576192231, 39.769524056743599 ], [ -0.491452576192231, 39.769964362270507 ], [ -0.497374303932298, 39.769964362270507 ], [ -0.497374303932298, 39.770844964875927 ], [ -0.498114519899806, 39.770844964875927 ], [ -0.498114519899806, 39.77480753720014 ], [ -0.497374303932298, 39.77480753720014 ], [ -0.497374303932298, 39.775688077849544 ], [ -0.496634087964789, 39.775688077849544 ], [ -0.496634087964789, 39.777449125353485 ], [ -0.495893871997281, 39.777449125353485 ], [ -0.495893871997281, 39.780090612121249 ] ] ] } }
]
}
