{
"type": "FeatureCollection",
"name": "spain_fires_modis_ba",
"crs": { "type": "name", "properties": { "name": "urn:ogc:def:crs:OGC:1.3:CRS84" } },
"features": [
{ "type": "Feature", "properties": { }, "geometry": { "type": "Polygon", "coordinates": [ [ [ -8.135662872650801, 41.092850909786236 ], [ -8.134182440715785, 41.092850909786236 ], [ -8.134182440715785, 41.092419181870646 ], [ -8.133442224748276, 41.092419181870646 ], [ -8.133442224748276, 41.089397007022427 ], [ -8.134182440715785, 41.089397007022427 ], [ -8.134182440715785, 41.088533502960537 ], [ -8.134922656683292, 41.088533502960537 ], [ -8.134922656683292, 41.088101746673985 ], [ -8.137883520553325, 41.088101746673985 ], [ -8.137883520553325, 41.088533502960537 ], [ -8.138623736520834, 41.088533502960537 ], [ -8.138623736520834, 41.089397007022427 ], [ -8.139363952488344, 41.089397007022427 ], [ -8.139363952488344, 41.09112398110117 ], [ -8.138623736520834, 41.09112398110117 ], [ -8.138623736520834, 41.09198745111793 ], [ -8.137883520553325, 41.09198745111793 ], [ -8.137883520553325, 41.092419181870646 ], [ -8.135662872650801, 41.092419181870646 ], [ -8.135662872650801, 41.092850909786236 ] ] ] } }
]
}
