{
"type": "FeatureCollection",
"name": "spain_fires_nrt_ba",
"crs": { "type": "name", "properties": { "name": "urn:ogc:def:crs:OGC:1.3:CRS84" } },
"features": [
{ "type": "Feature", "properties": { }, "geometry": { "type": "MultiPolygon", "coordinates": [ [ [ [ -0.278270377549831, 35.82543435656892 ], [ -0.277530161582322, 35.82543435656892 ], [ -0.277530161582322, 35.824969885320684 ], [ -0.276789945614814, 35.824969885320684 ], [ -0.276789945614814, 35.824505411354338 ], [ -0.276049729647306, 35.824505411354338 ], [ -0.276049729647306, 35.824040934669902 ], [ -0.273088865777272, 35.824040934669902 ], [ -0.273088865777272, 35.8235764552674 ], [ -0.268647569972222, 35.8235764552674 ], [ -0.268647569972222, 35.82311197314683 ], [ -0.264946490134681, 35.82311197314683 ], [ -0.264946490134681, 35.822647488308213 ], [ -0.264206274167172, 35.822647488308213 ], [ -0.264206274167172, 35.822183000751579 ], [ -0.262725842232156, 35.822183000751579 ], [ -0.262725842232156, 35.821718510476927 ], [ -0.261245410297139, 35.821718510476927 ], [ -0.261245410297139, 35.821254017484272 ], [ -0.260505194329631, 35.821254017484272 ], [ -0.260505194329631, 35.820789521773627 ], [ -0.259024762394614, 35.820789521773627 ], [ -0.259024762394614, 35.820325023345006 ], [ -0.257544330459597, 35.820325023345006 ], [ -0.257544330459597, 35.819860522198454 ], [ -0.256804114492089, 35.819860522198454 ], [ -0.256804114492089, 35.81939601833394 ], [ -0.255323682557072, 35.81939601833394 ], [ -0.255323682557072, 35.818931511751508 ], [ -0.253843250622056, 35.818931511751508 ], [ -0.253843250622056, 35.818467002451158 ], [ -0.253103034654547, 35.818467002451158 ], [ -0.253103034654547, 35.818002490432896 ], [ -0.251622602719531, 35.818002490432896 ], [ -0.251622602719531, 35.81753797569678 ], [ -0.250142170784514, 35.81753797569678 ], [ -0.250142170784514, 35.817073458242774 ], [ -0.249401954817006, 35.817073458242774 ], [ -0.249401954817006, 35.816608938070921 ], [ -0.247921522881989, 35.816608938070921 ], [ -0.247921522881989, 35.817073458242774 ], [ -0.247181306914481, 35.817073458242774 ], [ -0.247181306914481, 35.81753797569678 ], [ -0.245700874979464, 35.81753797569678 ], [ -0.245700874979464, 35.818002490432896 ], [ -0.244960659011956, 35.818002490432896 ], [ -0.244960659011956, 35.818467002451158 ], [ -0.244220443044447, 35.818467002451158 ], [ -0.244220443044447, 35.818931511751508 ], [ -0.242740011109431, 35.818931511751508 ], [ -0.242740011109431, 35.81939601833394 ], [ -0.239779147239397, 35.81939601833394 ], [ -0.239779147239397, 35.818931511751508 ], [ -0.237558499336872, 35.818931511751508 ], [ -0.237558499336872, 35.818467002451158 ], [ -0.236078067401856, 35.818467002451158 ], [ -0.236078067401856, 35.818002490432896 ], [ -0.234597635466839, 35.818002490432896 ], [ -0.234597635466839, 35.81753797569678 ], [ -0.232376987564314, 35.81753797569678 ], [ -0.232376987564314, 35.817073458242774 ], [ -0.231636771596806, 35.817073458242774 ], [ -0.231636771596806, 35.816144415181228 ], [ -0.230896555629297, 35.816144415181228 ], [ -0.230896555629297, 35.815215361248384 ], [ -0.230156339661789, 35.815215361248384 ], [ -0.230156339661789, 35.814286296444358 ], [ -0.229416123694281, 35.814286296444358 ], [ -0.229416123694281, 35.813821759965677 ], [ -0.228675907726772, 35.813821759965677 ], [ -0.228675907726772, 35.813357220769255 ], [ -0.227195475791756, 35.813357220769255 ], [ -0.227195475791756, 35.812892678855093 ], [ -0.225715043856739, 35.812892678855093 ], [ -0.225715043856739, 35.812428134223211 ], [ -0.224234611921722, 35.812428134223211 ], [ -0.224234611921722, 35.810569928518746 ], [ -0.223494395954214, 35.810569928518746 ], [ -0.223494395954214, 35.805924224024189 ], [ -0.224234611921722, 35.805924224024189 ], [ -0.224234611921722, 35.803601269869652 ], [ -0.224974827889231, 35.803601269869652 ], [ -0.224974827889231, 35.803136670886389 ], [ -0.225715043856739, 35.803136670886389 ], [ -0.225715043856739, 35.80220746476764 ], [ -0.226455259824247, 35.80220746476764 ], [ -0.226455259824247, 35.801742857632192 ], [ -0.227195475791756, 35.801742857632192 ], [ -0.227195475791756, 35.801278247779365 ], [ -0.227935691759264, 35.801278247779365 ], [ -0.227935691759264, 35.800813635209181 ], [ -0.230896555629297, 35.800813635209181 ], [ -0.230896555629297, 35.800349019921647 ], [ -0.233117203531822, 35.800349019921647 ], [ -0.233117203531822, 35.799884401916799 ], [ -0.234597635466839, 35.799884401916799 ], [ -0.234597635466839, 35.800349019921647 ], [ -0.235337851434347, 35.800349019921647 ], [ -0.235337851434347, 35.800813635209181 ], [ -0.236078067401856, 35.800813635209181 ], [ -0.236078067401856, 35.801278247779365 ], [ -0.236818283369364, 35.801278247779365 ], [ -0.236818283369364, 35.801742857632192 ], [ -0.237558499336872, 35.801742857632192 ], [ -0.237558499336872, 35.80220746476764 ], [ -0.238298715304381, 35.80220746476764 ], [ -0.238298715304381, 35.800813635209181 ], [ -0.239038931271889, 35.800813635209181 ], [ -0.239038931271889, 35.799884401916799 ], [ -0.239779147239397, 35.799884401916799 ], [ -0.239779147239397, 35.798955157755167 ], [ -0.240519363206906, 35.798955157755167 ], [ -0.240519363206906, 35.798025902724412 ], [ -0.241259579174414, 35.798025902724412 ], [ -0.241259579174414, 35.797561271133148 ], [ -0.244220443044447, 35.797561271133148 ], [ -0.244220443044447, 35.798025902724412 ], [ -0.246441090946972, 35.798025902724412 ], [ -0.246441090946972, 35.798490531598425 ], [ -0.247921522881989, 35.798490531598425 ], [ -0.247921522881989, 35.798955157755167 ], [ -0.248661738849497, 35.798955157755167 ], [ -0.248661738849497, 35.798490531598425 ], [ -0.249401954817006, 35.798490531598425 ], [ -0.249401954817006, 35.798025902724412 ], [ -0.250142170784514, 35.798025902724412 ], [ -0.250142170784514, 35.797561271133148 ], [ -0.250882386752022, 35.797561271133148 ], [ -0.250882386752022, 35.797096636824634 ], [ -0.251622602719531, 35.797096636824634 ], [ -0.251622602719531, 35.796631999798905 ], [ -0.252362818687039, 35.796631999798905 ], [ -0.252362818687039, 35.796167360055968 ], [ -0.253103034654547, 35.796167360055968 ], [ -0.253103034654547, 35.79570271759583 ], [ -0.254583466589564, 35.79570271759583 ], [ -0.254583466589564, 35.796167360055968 ], [ -0.255323682557072, 35.796167360055968 ], [ -0.255323682557072, 35.796631999798905 ], [ -0.256804114492089, 35.796631999798905 ], [ -0.256804114492089, 35.797096636824634 ], [ -0.259764978362122, 35.797096636824634 ], [ -0.259764978362122, 35.796631999798905 ], [ -0.263466058199664, 35.796631999798905 ], [ -0.263466058199664, 35.797096636824634 ], [ -0.264206274167172, 35.797096636824634 ], [ -0.264206274167172, 35.797561271133148 ], [ -0.264946490134681, 35.797561271133148 ], [ -0.264946490134681, 35.798490531598425 ], [ -0.265686706102189, 35.798490531598425 ], [ -0.265686706102189, 35.798955157755167 ], [ -0.266426922069697, 35.798955157755167 ], [ -0.266426922069697, 35.799419781194644 ], [ -0.267167138037206, 35.799419781194644 ], [ -0.267167138037206, 35.799884401916799 ], [ -0.267907354004714, 35.799884401916799 ], [ -0.267907354004714, 35.800349019921647 ], [ -0.268647569972222, 35.800349019921647 ], [ -0.268647569972222, 35.800813635209181 ], [ -0.269387785939731, 35.800813635209181 ], [ -0.269387785939731, 35.801742857632192 ], [ -0.270128001907239, 35.801742857632192 ], [ -0.270128001907239, 35.80220746476764 ], [ -0.270868217874747, 35.80220746476764 ], [ -0.270868217874747, 35.802672069185711 ], [ -0.271608433842256, 35.802672069185711 ], [ -0.271608433842256, 35.803136670886389 ], [ -0.272348649809764, 35.803136670886389 ], [ -0.272348649809764, 35.803601269869652 ], [ -0.273088865777272, 35.803601269869652 ], [ -0.273088865777272, 35.804530459683846 ], [ -0.274569297712289, 35.804530459683846 ], [ -0.274569297712289, 35.804065866135467 ], [ -0.275309513679797, 35.804065866135467 ], [ -0.275309513679797, 35.803136670886389 ], [ -0.276049729647306, 35.803136670886389 ], [ -0.276049729647306, 35.80220746476764 ], [ -0.276789945614814, 35.80220746476764 ], [ -0.276789945614814, 35.801278247779365 ], [ -0.277530161582322, 35.801278247779365 ], [ -0.277530161582322, 35.800813635209181 ], [ -0.282711673354881, 35.800813635209181 ], [ -0.282711673354881, 35.801742857632192 ], [ -0.283451889322389, 35.801742857632192 ], [ -0.283451889322389, 35.802672069185711 ], [ -0.284192105289897, 35.802672069185711 ], [ -0.284192105289897, 35.803136670886389 ], [ -0.284932321257406, 35.803136670886389 ], [ -0.284932321257406, 35.804995050514783 ], [ -0.285672537224914, 35.804995050514783 ], [ -0.285672537224914, 35.811499036806339 ], [ -0.286412753192422, 35.811499036806339 ], [ -0.286412753192422, 35.81753797569678 ], [ -0.287152969159931, 35.81753797569678 ], [ -0.287152969159931, 35.821254017484272 ], [ -0.286412753192422, 35.821254017484272 ], [ -0.286412753192422, 35.822183000751579 ], [ -0.285672537224914, 35.822183000751579 ], [ -0.285672537224914, 35.822647488308213 ], [ -0.284932321257406, 35.822647488308213 ], [ -0.284932321257406, 35.82311197314683 ], [ -0.284192105289897, 35.82311197314683 ], [ -0.284192105289897, 35.8235764552674 ], [ -0.283451889322389, 35.8235764552674 ], [ -0.283451889322389, 35.824040934669902 ], [ -0.282711673354881, 35.824040934669902 ], [ -0.282711673354881, 35.824505411354338 ], [ -0.281971457387372, 35.824505411354338 ], [ -0.281971457387372, 35.824969885320684 ], [ -0.281231241419864, 35.824969885320684 ], [ -0.281231241419864, 35.82543435656892 ], [ -0.280491025452356, 35.82543435656892 ], [ -0.280491025452356, 35.825898825099053 ], [ -0.278270377549831, 35.825898825099053 ], [ -0.278270377549831, 35.82543435656892 ] ] ], [ [ [ 3.746283837792983, 36.187355219123539 ], [ 3.749984917630524, 36.187355219123539 ], [ 3.749984917630524, 36.186892875113685 ], [ 3.75220556553305, 36.186892875113685 ], [ 3.75220556553305, 36.186430528374551 ], [ 3.752945781500558, 36.186430528374551 ], [ 3.752945781500558, 36.185505826708528 ], [ 3.753685997468065, 36.185505826708528 ], [ 3.753685997468065, 36.185043471781654 ], [ 3.754426213435575, 36.185043471781654 ], [ 3.754426213435575, 36.184118753740272 ], [ 3.755166429403083, 36.184118753740272 ], [ 3.755166429403083, 36.176720616415025 ], [ 3.754426213435575, 36.176720616415025 ], [ 3.754426213435575, 36.175795800126778 ], [ 3.753685997468065, 36.175795800126778 ], [ 3.753685997468065, 36.174870972922768 ], [ 3.752945781500558, 36.174870972922768 ], [ 3.752945781500558, 36.173946134803117 ], [ 3.75220556553305, 36.173946134803117 ], [ 3.75220556553305, 36.172558857157064 ], [ 3.750725133598033, 36.172558857157064 ], [ 3.750725133598033, 36.17209642581733 ], [ 3.749984917630524, 36.17209642581733 ], [ 3.749984917630524, 36.171633991748799 ], [ 3.748504485695508, 36.171633991748799 ], [ 3.748504485695508, 36.171171554951435 ], [ 3.746283837792983, 36.171171554951435 ], [ 3.746283837792983, 36.171633991748799 ], [ 3.745543621825474, 36.171633991748799 ], [ 3.745543621825474, 36.17209642581733 ], [ 3.744063189890458, 36.17209642581733 ], [ 3.744063189890458, 36.172558857157064 ], [ 3.743322973922949, 36.172558857157064 ], [ 3.743322973922949, 36.173483711649958 ], [ 3.742582757955441, 36.173483711649958 ], [ 3.742582757955441, 36.173946134803117 ], [ 3.741842541987933, 36.173946134803117 ], [ 3.741842541987933, 36.174870972922768 ], [ 3.741102326020424, 36.174870972922768 ], [ 3.741102326020424, 36.175795800126778 ], [ 3.740362110052916, 36.175795800126778 ], [ 3.740362110052916, 36.176720616415025 ], [ 3.739621894085408, 36.176720616415025 ], [ 3.739621894085408, 36.182731656209292 ], [ 3.738881678117899, 36.182731656209292 ], [ 3.738881678117899, 36.184581114125564 ], [ 3.739621894085408, 36.184581114125564 ], [ 3.739621894085408, 36.185043471781654 ], [ 3.740362110052916, 36.185043471781654 ], [ 3.740362110052916, 36.185968178906165 ], [ 3.741102326020424, 36.185968178906165 ], [ 3.741102326020424, 36.186430528374551 ], [ 3.741842541987933, 36.186430528374551 ], [ 3.741842541987933, 36.187355219123539 ], [ 3.742582757955441, 36.187355219123539 ], [ 3.742582757955441, 36.187817560404099 ], [ 3.746283837792983, 36.187817560404099 ], [ 3.746283837792983, 36.187355219123539 ] ] ], [ [ [ -7.458365262380676, 39.628922902313931 ], [ -7.457625046413167, 39.628922902313931 ], [ -7.457625046413167, 39.627599275050414 ], [ -7.456884830445659, 39.627599275050414 ], [ -7.456884830445659, 39.626716842807156 ], [ -7.45614461447815, 39.626716842807156 ], [ -7.45614461447815, 39.625834399309916 ], [ -7.454664182543134, 39.625834399309916 ], [ -7.454664182543134, 39.625393173341081 ], [ -7.452443534640609, 39.625393173341081 ], [ -7.452443534640609, 39.624951944558767 ], [ -7.450963102705592, 39.624951944558767 ], [ -7.450963102705592, 39.624510712962987 ], [ -7.450222886738083, 39.624510712962987 ], [ -7.450222886738083, 39.622745758445419 ], [ -7.449482670770574, 39.622745758445419 ], [ -7.449482670770574, 39.620980758913113 ], [ -7.448742454803067, 39.620980758913113 ], [ -7.448742454803067, 39.620098242266593 ], [ -7.449482670770574, 39.620098242266593 ], [ -7.449482670770574, 39.61612677809628 ], [ -7.448742454803067, 39.61612677809628 ], [ -7.448742454803067, 39.615244199556393 ], [ -7.448002238835559, 39.615244199556393 ], [ -7.448002238835559, 39.614802906066522 ], [ -7.44726202286805, 39.614802906066522 ], [ -7.44726202286805, 39.614361609763378 ], [ -7.445781590933033, 39.614361609763378 ], [ -7.445781590933033, 39.613920310646968 ], [ -7.443560943030509, 39.613920310646968 ], [ -7.443560943030509, 39.613479008717306 ], [ -7.442820727062999, 39.613479008717306 ], [ -7.442820727062999, 39.612596396418233 ], [ -7.442080511095492, 39.612596396418233 ], [ -7.442080511095492, 39.609507164755101 ], [ -7.441340295127983, 39.609507164755101 ], [ -7.441340295127983, 39.606417795246429 ], [ -7.440600079160475, 39.606417795246429 ], [ -7.440600079160475, 39.603769654527362 ], [ -7.441340295127983, 39.603769654527362 ], [ -7.441340295127983, 39.602886918449713 ], [ -7.442080511095492, 39.602886918449713 ], [ -7.442080511095492, 39.602004171119866 ], [ -7.442820727062999, 39.602004171119866 ], [ -7.442820727062999, 39.601562793235381 ], [ -7.443560943030509, 39.601562793235381 ], [ -7.443560943030509, 39.601121412537871 ], [ -7.445041374965524, 39.601121412537871 ], [ -7.445041374965524, 39.600680029027345 ], [ -7.44726202286805, 39.600680029027345 ], [ -7.44726202286805, 39.600238642703815 ], [ -7.450222886738083, 39.600238642703815 ], [ -7.450222886738083, 39.599797253567282 ], [ -7.450963102705592, 39.599797253567282 ], [ -7.450963102705592, 39.600238642703815 ], [ -7.4517033186731, 39.600238642703815 ], [ -7.4517033186731, 39.600680029027345 ], [ -7.452443534640609, 39.600680029027345 ], [ -7.452443534640609, 39.601121412537871 ], [ -7.453183750608116, 39.601121412537871 ], [ -7.453183750608116, 39.601562793235381 ], [ -7.453923966575625, 39.601562793235381 ], [ -7.453923966575625, 39.602004171119866 ], [ -7.454664182543134, 39.602004171119866 ], [ -7.454664182543134, 39.602445546191305 ], [ -7.455404398510641, 39.602445546191305 ], [ -7.455404398510641, 39.602886918449713 ], [ -7.457625046413167, 39.602886918449713 ], [ -7.457625046413167, 39.602445546191305 ], [ -7.458365262380676, 39.602445546191305 ], [ -7.458365262380676, 39.601562793235381 ], [ -7.459105478348183, 39.601562793235381 ], [ -7.459105478348183, 39.600680029027345 ], [ -7.459845694315691, 39.600680029027345 ], [ -7.459845694315691, 39.600238642703815 ], [ -7.4605859102832, 39.600238642703815 ], [ -7.4605859102832, 39.599355861617759 ], [ -7.461326126250707, 39.599355861617759 ], [ -7.461326126250707, 39.598473069279763 ], [ -7.462066342218217, 39.598473069279763 ], [ -7.462066342218217, 39.598031668891302 ], [ -7.467247853990775, 39.598031668891302 ], [ -7.467247853990775, 39.598473069279763 ], [ -7.467988069958282, 39.598473069279763 ], [ -7.467988069958282, 39.598914466855241 ], [ -7.468728285925791, 39.598914466855241 ], [ -7.468728285925791, 39.599797253567282 ], [ -7.4694685018933, 39.599797253567282 ], [ -7.4694685018933, 39.600238642703815 ], [ -7.470208717860808, 39.600238642703815 ], [ -7.470208717860808, 39.599797253567282 ], [ -7.472429365763334, 39.599797253567282 ], [ -7.472429365763334, 39.599355861617759 ], [ -7.476870661568384, 39.599355861617759 ], [ -7.476870661568384, 39.599797253567282 ], [ -7.477610877535891, 39.599797253567282 ], [ -7.477610877535891, 39.600238642703815 ], [ -7.479091309470908, 39.600238642703815 ], [ -7.479091309470908, 39.600680029027345 ], [ -7.479831525438417, 39.600680029027345 ], [ -7.479831525438417, 39.602445546191305 ], [ -7.480571741405925, 39.602445546191305 ], [ -7.480571741405925, 39.604211018346582 ], [ -7.481311957373435, 39.604211018346582 ], [ -7.481311957373435, 39.605535092925791 ], [ -7.482792389308449, 39.605535092925791 ], [ -7.482792389308449, 39.605976445492672 ], [ -7.484272821243468, 39.605976445492672 ], [ -7.484272821243468, 39.606417795246429 ], [ -7.486493469145992, 39.606417795246429 ], [ -7.486493469145992, 39.609507164755101 ], [ -7.487233685113499, 39.609507164755101 ], [ -7.487233685113499, 39.613037703974385 ], [ -7.486493469145992, 39.613037703974385 ], [ -7.486493469145992, 39.613920310646968 ], [ -7.485753253178484, 39.613920310646968 ], [ -7.485753253178484, 39.614802906066522 ], [ -7.485013037210975, 39.614802906066522 ], [ -7.485013037210975, 39.615244199556393 ], [ -7.484272821243468, 39.615244199556393 ], [ -7.484272821243468, 39.615685490232991 ], [ -7.482052173340942, 39.615685490232991 ], [ -7.482052173340942, 39.61612677809628 ], [ -7.479831525438417, 39.61612677809628 ], [ -7.479831525438417, 39.616568063146282 ], [ -7.476870661568384, 39.616568063146282 ], [ -7.476870661568384, 39.617009345382989 ], [ -7.474650013665858, 39.617009345382989 ], [ -7.474650013665858, 39.618333175213145 ], [ -7.475390229633367, 39.618333175213145 ], [ -7.475390229633367, 39.620539501996539 ], [ -7.476130445600875, 39.620539501996539 ], [ -7.476130445600875, 39.624510712962987 ], [ -7.475390229633367, 39.624510712962987 ], [ -7.475390229633367, 39.625393173341081 ], [ -7.474650013665858, 39.625393173341081 ], [ -7.474650013665858, 39.626716842807156 ], [ -7.473909797698351, 39.626716842807156 ], [ -7.473909797698351, 39.627599275050414 ], [ -7.473169581730843, 39.627599275050414 ], [ -7.473169581730843, 39.628040486951775 ], [ -7.472429365763334, 39.628040486951775 ], [ -7.472429365763334, 39.628481696039621 ], [ -7.468728285925791, 39.628481696039621 ], [ -7.468728285925791, 39.628922902313931 ], [ -7.465027206088251, 39.628922902313931 ], [ -7.465027206088251, 39.629364105774712 ], [ -7.461326126250707, 39.629364105774712 ], [ -7.461326126250707, 39.629805306421957 ], [ -7.458365262380676, 39.629805306421957 ], [ -7.458365262380676, 39.628922902313931 ] ] ], [ [ [ -3.47822400508836, 40.253904997399822 ], [ -3.476743573153344, 40.253904997399822 ], [ -3.476743573153344, 40.253467802761868 ], [ -3.475263141218327, 40.253467802761868 ], [ -3.475263141218327, 40.253030605299436 ], [ -3.47378270928331, 40.253030605299436 ], [ -3.47378270928331, 40.252593405012497 ], [ -3.473042493315802, 40.252593405012497 ], [ -3.473042493315802, 40.252156201901066 ], [ -3.471562061380785, 40.252156201901066 ], [ -3.471562061380785, 40.251718995965156 ], [ -3.470081629445768, 40.251718995965156 ], [ -3.470081629445768, 40.251281787204768 ], [ -3.468601197510752, 40.251281787204768 ], [ -3.468601197510752, 40.250844575619915 ], [ -3.467860981543244, 40.250844575619915 ], [ -3.467860981543244, 40.249970143976832 ], [ -3.467120765575736, 40.249970143976832 ], [ -3.467120765575736, 40.248658475328888 ], [ -3.466380549608227, 40.248658475328888 ], [ -3.466380549608227, 40.246909544256376 ], [ -3.465640333640719, 40.246909544256376 ], [ -3.465640333640719, 40.24559781629582 ], [ -3.46490011767321, 40.24559781629582 ], [ -3.46490011767321, 40.243848806140534 ], [ -3.464159901705703, 40.243848806140534 ], [ -3.464159901705703, 40.241662479898736 ], [ -3.46490011767321, 40.241662479898736 ], [ -3.46490011767321, 40.240350650261888 ], [ -3.465640333640719, 40.240350650261888 ], [ -3.465640333640719, 40.239476083049205 ], [ -3.466380549608227, 40.239476083049205 ], [ -3.466380549608227, 40.238164211048165 ], [ -3.467120765575736, 40.238164211048165 ], [ -3.467120765575736, 40.237726914732633 ], [ -3.467860981543244, 40.237726914732633 ], [ -3.467860981543244, 40.237289615592864 ], [ -3.470821845413277, 40.237289615592864 ], [ -3.470821845413277, 40.236852313628852 ], [ -3.474522925250819, 40.236852313628852 ], [ -3.474522925250819, 40.236415008840616 ], [ -3.477483789120852, 40.236415008840616 ], [ -3.477483789120852, 40.236852313628852 ], [ -3.478964221055869, 40.236852313628852 ], [ -3.478964221055869, 40.237289615592864 ], [ -3.481184868958394, 40.237289615592864 ], [ -3.481184868958394, 40.237726914732633 ], [ -3.482665300893411, 40.237726914732633 ], [ -3.482665300893411, 40.238164211048165 ], [ -3.483405516860918, 40.238164211048165 ], [ -3.483405516860918, 40.239476083049205 ], [ -3.484145732828428, 40.239476083049205 ], [ -3.484145732828428, 40.240350650261888 ], [ -3.484885948795936, 40.240350650261888 ], [ -3.484885948795936, 40.241662479898736 ], [ -3.485626164763444, 40.241662479898736 ], [ -3.485626164763444, 40.242537018868425 ], [ -3.486366380730952, 40.242537018868425 ], [ -3.486366380730952, 40.243411546540848 ], [ -3.485626164763444, 40.243411546540848 ], [ -3.485626164763444, 40.247346781261115 ], [ -3.484885948795936, 40.247346781261115 ], [ -3.484885948795936, 40.250844575619915 ], [ -3.484145732828428, 40.250844575619915 ], [ -3.484145732828428, 40.251281787204768 ], [ -3.483405516860918, 40.251281787204768 ], [ -3.483405516860918, 40.252156201901066 ], [ -3.482665300893411, 40.252156201901066 ], [ -3.482665300893411, 40.252593405012497 ], [ -3.481925084925902, 40.252593405012497 ], [ -3.481925084925902, 40.253030605299436 ], [ -3.481184868958394, 40.253030605299436 ], [ -3.481184868958394, 40.253467802761868 ], [ -3.480444652990886, 40.253467802761868 ], [ -3.480444652990886, 40.253904997399822 ], [ -3.479704437023377, 40.253904997399822 ], [ -3.479704437023377, 40.25434218921324 ], [ -3.47822400508836, 40.25434218921324 ], [ -3.47822400508836, 40.253904997399822 ] ] ] ] } }
]
}
