{
"type": "FeatureCollection",
"name": "spain_fires_nrt_ba",
"crs": { "type": "name", "properties": { "name": "urn:ogc:def:crs:OGC:1.3:CRS84" } },
"features": [
{ "type": "Feature", "properties": { }, "geometry": { "type": "MultiPolygon", "coordinates": [ [ [ [ -5.595241672162197, 37.11524358670453 ], [ -5.594501456194689, 37.11524358670453 ], [ -5.594501456194689, 37.114786780556706 ], [ -5.593761240227181, 37.114786780556706 ], [ -5.593761240227181, 37.114329971652957 ], [ -5.592280808292164, 37.114329971652957 ], [ -5.592280808292164, 37.113873159993297 ], [ -5.591540592324655, 37.113873159993297 ], [ -5.591540592324655, 37.113416345577726 ], [ -5.590060160389639, 37.113416345577726 ], [ -5.590060160389639, 37.112959528406265 ], [ -5.58931994442213, 37.112959528406265 ], [ -5.58931994442213, 37.112045885795744 ], [ -5.588579728454622, 37.112045885795744 ], [ -5.588579728454622, 37.110218567504582 ], [ -5.587839512487115, 37.110218567504582 ], [ -5.587839512487115, 37.10747750739403 ], [ -5.588579728454622, 37.10747750739403 ], [ -5.588579728454622, 37.105650078872301 ], [ -5.58931994442213, 37.105650078872301 ], [ -5.58931994442213, 37.104736348077324 ], [ -5.590800376357146, 37.104736348077324 ], [ -5.590800376357146, 37.104279478546339 ], [ -5.593021024259672, 37.104279478546339 ], [ -5.593021024259672, 37.10382260625974 ], [ -5.594501456194689, 37.10382260625974 ], [ -5.594501456194689, 37.103365731217487 ], [ -5.595981888129706, 37.103365731217487 ], [ -5.595981888129706, 37.102908853419621 ], [ -5.59820253603223, 37.102908853419621 ], [ -5.59820253603223, 37.10245197286617 ], [ -5.599682967967247, 37.10245197286617 ], [ -5.599682967967247, 37.101995089557107 ], [ -5.601903615869773, 37.101995089557107 ], [ -5.601903615869773, 37.101538203492481 ], [ -5.604124263772298, 37.101538203492481 ], [ -5.604124263772298, 37.101995089557107 ], [ -5.604864479739805, 37.101995089557107 ], [ -5.604864479739805, 37.10245197286617 ], [ -5.605604695707314, 37.10245197286617 ], [ -5.605604695707314, 37.103365731217487 ], [ -5.606344911674823, 37.103365731217487 ], [ -5.606344911674823, 37.10382260625974 ], [ -5.607085127642331, 37.10382260625974 ], [ -5.607085127642331, 37.104279478546339 ], [ -5.607825343609838, 37.104279478546339 ], [ -5.607825343609838, 37.10519321485264 ], [ -5.608565559577347, 37.10519321485264 ], [ -5.608565559577347, 37.110675401211104 ], [ -5.607825343609838, 37.110675401211104 ], [ -5.607825343609838, 37.111589060356707 ], [ -5.607085127642331, 37.111589060356707 ], [ -5.607085127642331, 37.112959528406265 ], [ -5.606344911674823, 37.112959528406265 ], [ -5.606344911674823, 37.113873159993297 ], [ -5.605604695707314, 37.113873159993297 ], [ -5.605604695707314, 37.114329971652957 ], [ -5.603384047804789, 37.114329971652957 ], [ -5.603384047804789, 37.114786780556706 ], [ -5.601163399902264, 37.114786780556706 ], [ -5.601163399902264, 37.11524358670453 ], [ -5.599682967967247, 37.11524358670453 ], [ -5.599682967967247, 37.115700390096421 ], [ -5.597462320064722, 37.115700390096421 ], [ -5.597462320064722, 37.116157190732366 ], [ -5.596722104097214, 37.116157190732366 ], [ -5.596722104097214, 37.115700390096421 ], [ -5.595241672162197, 37.115700390096421 ], [ -5.595241672162197, 37.11524358670453 ] ] ], [ [ [ -6.873594648049091, 38.835113156224409 ], [ -6.872854432081582, 38.835113156224409 ], [ -6.872854432081582, 38.834666930387272 ], [ -6.872114216114074, 38.834666930387272 ], [ -6.872114216114074, 38.834220701752464 ], [ -6.871374000146567, 38.834220701752464 ], [ -6.871374000146567, 38.833774470320023 ], [ -6.870633784179057, 38.833774470320023 ], [ -6.870633784179057, 38.833328236089933 ], [ -6.869893568211549, 38.833328236089933 ], [ -6.869893568211549, 38.832881999062209 ], [ -6.869153352244041, 38.832881999062209 ], [ -6.869153352244041, 38.831989516613923 ], [ -6.868413136276533, 38.831989516613923 ], [ -6.868413136276533, 38.831543271193368 ], [ -6.867672920309023, 38.831543271193368 ], [ -6.867672920309023, 38.831097022975236 ], [ -6.866932704341515, 38.831097022975236 ], [ -6.866932704341515, 38.829312002126933 ], [ -6.866192488374008, 38.829312002126933 ], [ -6.866192488374008, 38.826188107937298 ], [ -6.866932704341515, 38.826188107937298 ], [ -6.866932704341515, 38.825295541562824 ], [ -6.867672920309023, 38.825295541562824 ], [ -6.867672920309023, 38.823956671020191 ], [ -6.868413136276533, 38.823956671020191 ], [ -6.868413136276533, 38.823064076671272 ], [ -6.869153352244041, 38.823064076671272 ], [ -6.869153352244041, 38.822171471132705 ], [ -6.872114216114074, 38.822171471132705 ], [ -6.872114216114074, 38.821725164167333 ], [ -6.875075079984107, 38.821725164167333 ], [ -6.875075079984107, 38.821278854404575 ], [ -6.876555511919124, 38.821278854404575 ], [ -6.876555511919124, 38.821725164167333 ], [ -6.877295727886632, 38.821725164167333 ], [ -6.877295727886632, 38.822171471132705 ], [ -6.878035943854141, 38.822171471132705 ], [ -6.878035943854141, 38.822617775300699 ], [ -6.879516375789158, 38.822617775300699 ], [ -6.879516375789158, 38.823064076671272 ], [ -6.880256591756666, 38.823064076671272 ], [ -6.880256591756666, 38.823510375244439 ], [ -6.880996807724173, 38.823510375244439 ], [ -6.880996807724173, 38.823956671020191 ], [ -6.881737023691683, 38.823956671020191 ], [ -6.881737023691683, 38.8257418261488 ], [ -6.882477239659191, 38.8257418261488 ], [ -6.882477239659191, 38.827526936517913 ], [ -6.883217455626698, 38.827526936517913 ], [ -6.883217455626698, 38.82797320711645 ], [ -6.882477239659191, 38.82797320711645 ], [ -6.882477239659191, 38.829758261535346 ], [ -6.881737023691683, 38.829758261535346 ], [ -6.881737023691683, 38.831543271193368 ], [ -6.880996807724173, 38.831543271193368 ], [ -6.880996807724173, 38.832881999062209 ], [ -6.880256591756666, 38.832881999062209 ], [ -6.880256591756666, 38.834666930387272 ], [ -6.879516375789158, 38.834666930387272 ], [ -6.879516375789158, 38.835113156224409 ], [ -6.87877615982165, 38.835113156224409 ], [ -6.87877615982165, 38.835559379263877 ], [ -6.878035943854141, 38.835559379263877 ], [ -6.878035943854141, 38.836005599505675 ], [ -6.876555511919124, 38.836005599505675 ], [ -6.876555511919124, 38.836451816949783 ], [ -6.874334864016599, 38.836451816949783 ], [ -6.874334864016599, 38.836005599505675 ], [ -6.873594648049091, 38.836005599505675 ], [ -6.873594648049091, 38.835113156224409 ] ] ], [ [ [ -0.475167824907048, 42.911230831483131 ], [ -0.475167824907048, 42.910811268596582 ], [ -0.473687392972031, 42.910811268596582 ], [ -0.473687392972031, 42.910391702853921 ], [ -0.472947177004523, 42.910391702853921 ], [ -0.472947177004523, 42.908713411322275 ], [ -0.472206961037014, 42.908713411322275 ], [ -0.472206961037014, 42.906615482645627 ], [ -0.471466745069506, 42.906615482645627 ], [ -0.471466745069506, 42.904517482567016 ], [ -0.470726529101998, 42.904517482567016 ], [ -0.470726529101998, 42.902419411086825 ], [ -0.469986313134489, 42.902419411086825 ], [ -0.469986313134489, 42.900321268205431 ], [ -0.470726529101998, 42.900321268205431 ], [ -0.470726529101998, 42.898642702491721 ], [ -0.471466745069506, 42.898642702491721 ], [ -0.471466745069506, 42.897383748218211 ], [ -0.472206961037014, 42.897383748218211 ], [ -0.472206961037014, 42.896964091081692 ], [ -0.472947177004523, 42.896964091081692 ], [ -0.472947177004523, 42.896544431089147 ], [ -0.473687392972031, 42.896544431089147 ], [ -0.473687392972031, 42.896124768240604 ], [ -0.475167824907048, 42.896124768240604 ], [ -0.475167824907048, 42.89570510253607 ], [ -0.476648256842064, 42.89570510253607 ], [ -0.476648256842064, 42.896124768240604 ], [ -0.477388472809573, 42.896124768240604 ], [ -0.477388472809573, 42.896544431089147 ], [ -0.478128688777081, 42.896544431089147 ], [ -0.478128688777081, 42.896964091081692 ], [ -0.478868904744589, 42.896964091081692 ], [ -0.478868904744589, 42.897383748218211 ], [ -0.479609120712098, 42.897383748218211 ], [ -0.479609120712098, 42.897803402498731 ], [ -0.480349336679606, 42.897803402498731 ], [ -0.480349336679606, 42.898223053923232 ], [ -0.481089552647114, 42.898223053923232 ], [ -0.481089552647114, 42.897803402498731 ], [ -0.487011280387181, 42.897803402498731 ], [ -0.487011280387181, 42.898642702491721 ], [ -0.487751496354689, 42.898642702491721 ], [ -0.487751496354689, 42.899901631061049 ], [ -0.488491712322198, 42.899901631061049 ], [ -0.488491712322198, 42.900740902493787 ], [ -0.489231928289706, 42.900740902493787 ], [ -0.489231928289706, 42.901999788222632 ], [ -0.489972144257214, 42.901999788222632 ], [ -0.489972144257214, 42.90367826254311 ], [ -0.489231928289706, 42.90367826254311 ], [ -0.489231928289706, 42.905356691166666 ], [ -0.488491712322198, 42.905356691166666 ], [ -0.488491712322198, 42.907035074093123 ], [ -0.487751496354689, 42.907035074093123 ], [ -0.487751496354689, 42.908293831299119 ], [ -0.487011280387181, 42.908293831299119 ], [ -0.487011280387181, 42.908713411322275 ], [ -0.486271064419673, 42.908713411322275 ], [ -0.486271064419673, 42.909132988489333 ], [ -0.485530848452164, 42.909132988489333 ], [ -0.485530848452164, 42.9095525628003 ], [ -0.484790632484656, 42.9095525628003 ], [ -0.484790632484656, 42.909972134255163 ], [ -0.484050416517148, 42.909972134255163 ], [ -0.484050416517148, 42.910391702853921 ], [ -0.482569984582131, 42.910391702853921 ], [ -0.482569984582131, 42.910811268596582 ], [ -0.481829768614623, 42.910811268596582 ], [ -0.481829768614623, 42.911230831483131 ], [ -0.481089552647114, 42.911230831483131 ], [ -0.481089552647114, 42.911650391513561 ], [ -0.480349336679606, 42.911650391513561 ], [ -0.480349336679606, 42.912069948687886 ], [ -0.478128688777081, 42.912069948687886 ], [ -0.478128688777081, 42.911650391513561 ], [ -0.476648256842064, 42.911650391513561 ], [ -0.476648256842064, 42.911230831483131 ], [ -0.475167824907048, 42.911230831483131 ] ] ], [ [ [ -0.531424238437681, 42.935979986366618 ], [ -0.531424238437681, 42.935560591995902 ], [ -0.530684022470173, 42.935560591995902 ], [ -0.530684022470173, 42.935141194768889 ], [ -0.529943806502664, 42.935141194768889 ], [ -0.529943806502664, 42.934721794685593 ], [ -0.529203590535156, 42.934721794685593 ], [ -0.529203590535156, 42.934302391746016 ], [ -0.528463374567648, 42.934302391746016 ], [ -0.528463374567648, 42.933882985950156 ], [ -0.527723158600139, 42.933882985950156 ], [ -0.527723158600139, 42.933463577298021 ], [ -0.526982942632631, 42.933463577298021 ], [ -0.526982942632631, 42.932205334203992 ], [ -0.526242726665123, 42.932205334203992 ], [ -0.526242726665123, 42.931366491193309 ], [ -0.525502510697614, 42.931366491193309 ], [ -0.525502510697614, 42.930108205255365 ], [ -0.524762294730106, 42.930108205255365 ], [ -0.524762294730106, 42.92926933368215 ], [ -0.524022078762598, 42.92926933368215 ], [ -0.524022078762598, 42.928011004900512 ], [ -0.523281862795089, 42.928011004900512 ], [ -0.523281862795089, 42.9233969127718 ], [ -0.524022078762598, 42.9233969127718 ], [ -0.524022078762598, 42.922557949799483 ], [ -0.524762294730106, 42.922557949799483 ], [ -0.524762294730106, 42.921718975402399 ], [ -0.525502510697614, 42.921718975402399 ], [ -0.525502510697614, 42.920879989580563 ], [ -0.526242726665123, 42.920879989580563 ], [ -0.526242726665123, 42.920040992333988 ], [ -0.526982942632631, 42.920040992333988 ], [ -0.526982942632631, 42.919201983662717 ], [ -0.527723158600139, 42.919201983662717 ], [ -0.527723158600139, 42.918362963566757 ], [ -0.528463374567648, 42.918362963566757 ], [ -0.528463374567648, 42.917523932046144 ], [ -0.529203590535156, 42.917523932046144 ], [ -0.529203590535156, 42.916684889100907 ], [ -0.529943806502664, 42.916684889100907 ], [ -0.529943806502664, 42.915845834731059 ], [ -0.530684022470173, 42.915845834731059 ], [ -0.530684022470173, 42.915006768936635 ], [ -0.531424238437681, 42.915006768936635 ], [ -0.531424238437681, 42.914587231755199 ], [ -0.533644886340206, 42.914587231755199 ], [ -0.533644886340206, 42.915006768936635 ], [ -0.535865534242731, 42.915006768936635 ], [ -0.535865534242731, 42.91542630326191 ], [ -0.538086182145256, 42.91542630326191 ], [ -0.538086182145256, 42.915845834731059 ], [ -0.540306830047781, 42.915845834731059 ], [ -0.540306830047781, 42.916265363344067 ], [ -0.542527477950306, 42.916265363344067 ], [ -0.542527477950306, 42.916684889100907 ], [ -0.544748125852831, 42.916684889100907 ], [ -0.544748125852831, 42.917104412001606 ], [ -0.546228557787848, 42.917104412001606 ], [ -0.546228557787848, 42.917523932046144 ], [ -0.546968773755356, 42.917523932046144 ], [ -0.546968773755356, 42.917943449234535 ], [ -0.547708989722864, 42.917943449234535 ], [ -0.547708989722864, 42.918362963566757 ], [ -0.548449205690373, 42.918362963566757 ], [ -0.548449205690373, 42.918782475042818 ], [ -0.549189421657881, 42.918782475042818 ], [ -0.549189421657881, 42.919201983662717 ], [ -0.549929637625389, 42.919201983662717 ], [ -0.549929637625389, 42.920040992333988 ], [ -0.550669853592898, 42.920040992333988 ], [ -0.550669853592898, 42.922557949799483 ], [ -0.551410069560406, 42.922557949799483 ], [ -0.551410069560406, 42.9233969127718 ], [ -0.553630717462931, 42.9233969127718 ], [ -0.553630717462931, 42.923816389973652 ], [ -0.554370933430439, 42.923816389973652 ], [ -0.554370933430439, 42.9242358643193 ], [ -0.555111149397948, 42.9242358643193 ], [ -0.555111149397948, 42.925074804441984 ], [ -0.555851365365456, 42.925074804441984 ], [ -0.555851365365456, 42.925913733139808 ], [ -0.556591581332964, 42.925913733139808 ], [ -0.556591581332964, 42.931366491193309 ], [ -0.555851365365456, 42.931366491193309 ], [ -0.555851365365456, 42.931785914126777 ], [ -0.555111149397948, 42.931785914126777 ], [ -0.555111149397948, 42.932624751424939 ], [ -0.554370933430439, 42.932624751424939 ], [ -0.554370933430439, 42.933463577298021 ], [ -0.549189421657881, 42.933463577298021 ], [ -0.549189421657881, 42.933044165789617 ], [ -0.548449205690373, 42.933044165789617 ], [ -0.548449205690373, 42.932205334203992 ], [ -0.547708989722864, 42.932205334203992 ], [ -0.547708989722864, 42.931366491193309 ], [ -0.546968773755356, 42.931366491193309 ], [ -0.546968773755356, 42.930527636757596 ], [ -0.546228557787848, 42.930527636757596 ], [ -0.546228557787848, 42.92926933368215 ], [ -0.545488341820339, 42.92926933368215 ], [ -0.545488341820339, 42.930108205255365 ], [ -0.544748125852831, 42.930108205255365 ], [ -0.544748125852831, 42.931785914126777 ], [ -0.544007909885323, 42.931785914126777 ], [ -0.544007909885323, 42.932624751424939 ], [ -0.543267693917814, 42.932624751424939 ], [ -0.543267693917814, 42.933044165789617 ], [ -0.541787261982798, 42.933044165789617 ], [ -0.541787261982798, 42.933463577298021 ], [ -0.541047046015289, 42.933463577298021 ], [ -0.541047046015289, 42.933882985950156 ], [ -0.540306830047781, 42.933882985950156 ], [ -0.540306830047781, 42.934302391746016 ], [ -0.539566614080273, 42.934302391746016 ], [ -0.539566614080273, 42.934721794685593 ], [ -0.538826398112764, 42.934721794685593 ], [ -0.538826398112764, 42.935141194768889 ], [ -0.538086182145256, 42.935141194768889 ], [ -0.538086182145256, 42.935560591995902 ], [ -0.537345966177748, 42.935560591995902 ], [ -0.537345966177748, 42.935979986366618 ], [ -0.536605750210239, 42.935979986366618 ], [ -0.536605750210239, 42.936399377881052 ], [ -0.535125318275223, 42.936399377881052 ], [ -0.535125318275223, 42.936818766539197 ], [ -0.532904670372698, 42.936818766539197 ], [ -0.532904670372698, 42.936399377881052 ], [ -0.532164454405189, 42.936399377881052 ], [ -0.532164454405189, 42.935979986366618 ], [ -0.531424238437681, 42.935979986366618 ] ] ], [ [ [ -6.288083817749998, 42.975809426467968 ], [ -6.288083817749998, 42.975390303458305 ], [ -6.286603385814981, 42.975390303458305 ], [ -6.286603385814981, 42.974971177592067 ], [ -6.285863169847473, 42.974971177592067 ], [ -6.285863169847473, 42.974132917289893 ], [ -6.285122953879966, 42.974132917289893 ], [ -6.285122953879966, 42.972875505412411 ], [ -6.284382737912457, 42.972875505412411 ], [ -6.284382737912457, 42.972456362406803 ], [ -6.283642521944948, 42.972456362406803 ], [ -6.283642521944948, 42.972875505412411 ], [ -6.28290230597744, 42.972875505412411 ], [ -6.28290230597744, 42.97329464556146 ], [ -6.282162090009932, 42.97329464556146 ], [ -6.282162090009932, 42.973713782853956 ], [ -6.281421874042422, 42.973713782853956 ], [ -6.281421874042422, 42.974132917289893 ], [ -6.279941442107407, 42.974132917289893 ], [ -6.279941442107407, 42.973713782853956 ], [ -6.278461010172389, 42.973713782853956 ], [ -6.278461010172389, 42.97329464556146 ], [ -6.277720794204882, 42.97329464556146 ], [ -6.277720794204882, 42.972875505412411 ], [ -6.276980578237374, 42.972875505412411 ], [ -6.276980578237374, 42.972456362406803 ], [ -6.276240362269866, 42.972456362406803 ], [ -6.276240362269866, 42.970360604530548 ], [ -6.275500146302357, 42.970360604530548 ], [ -6.275500146302357, 42.967845600813369 ], [ -6.274759930334849, 42.967845600813369 ], [ -6.274759930334849, 42.967426423529346 ], [ -6.27401971436734, 42.967426423529346 ], [ -6.27401971436734, 42.9670072433888 ], [ -6.273279498399831, 42.9670072433888 ], [ -6.273279498399831, 42.966588060391736 ], [ -6.272539282432323, 42.966588060391736 ], [ -6.272539282432323, 42.965749685828101 ], [ -6.271799066464815, 42.965749685828101 ], [ -6.271799066464815, 42.965330494261529 ], [ -6.271058850497305, 42.965330494261529 ], [ -6.271058850497305, 42.964911299838441 ], [ -6.270318634529798, 42.964911299838441 ], [ -6.270318634529798, 42.962815284875639 ], [ -6.271058850497305, 42.962815284875639 ], [ -6.271058850497305, 42.959461512398171 ], [ -6.271799066464815, 42.959461512398171 ], [ -6.271799066464815, 42.958623040714151 ], [ -6.273279498399831, 42.958623040714151 ], [ -6.273279498399831, 42.958203800587462 ], [ -6.275500146302357, 42.958203800587462 ], [ -6.275500146302357, 42.957784557604313 ], [ -6.276980578237374, 42.957784557604313 ], [ -6.276980578237374, 42.956107557107316 ], [ -6.277720794204882, 42.956107557107316 ], [ -6.277720794204882, 42.954011242216282 ], [ -6.278461010172389, 42.954011242216282 ], [ -6.278461010172389, 42.95191485591473 ], [ -6.279201226139898, 42.95191485591473 ], [ -6.279201226139898, 42.95107628139926 ], [ -6.279941442107407, 42.95107628139926 ], [ -6.279941442107407, 42.950237695458171 ], [ -6.280681658074914, 42.950237695458171 ], [ -6.280681658074914, 42.94981839820305 ], [ -6.281421874042422, 42.94981839820305 ], [ -6.281421874042422, 42.949399098091519 ], [ -6.282162090009932, 42.949399098091519 ], [ -6.282162090009932, 42.948979795123613 ], [ -6.28290230597744, 42.948979795123613 ], [ -6.28290230597744, 42.948141180618649 ], [ -6.283642521944948, 42.948141180618649 ], [ -6.283642521944948, 42.947721869081597 ], [ -6.288083817749998, 42.947721869081597 ], [ -6.288083817749998, 42.946883237438364 ], [ -6.288824033717506, 42.946883237438364 ], [ -6.288824033717506, 42.94604459436966 ], [ -6.289564249685015, 42.94604459436966 ], [ -6.289564249685015, 42.945205939875493 ], [ -6.290304465652524, 42.945205939875493 ], [ -6.290304465652524, 42.944367273955905 ], [ -6.291044681620031, 42.944367273955905 ], [ -6.291044681620031, 42.943528596610911 ], [ -6.29178489758754, 42.943528596610911 ], [ -6.29178489758754, 42.943109253653887 ], [ -6.293265329522557, 42.943109253653887 ], [ -6.293265329522557, 42.943528596610911 ], [ -6.295485977425082, 42.943528596610911 ], [ -6.295485977425082, 42.943947936711588 ], [ -6.297706625327606, 42.943947936711588 ], [ -6.297706625327606, 42.944367273955905 ], [ -6.298446841295115, 42.944367273955905 ], [ -6.298446841295115, 42.944786608343883 ], [ -6.299187057262623, 42.944786608343883 ], [ -6.299187057262623, 42.945625268550764 ], [ -6.299927273230131, 42.945625268550764 ], [ -6.299927273230131, 42.94604459436966 ], [ -6.30066748919764, 42.94604459436966 ], [ -6.30066748919764, 42.946883237438364 ], [ -6.301407705165149, 42.946883237438364 ], [ -6.301407705165149, 42.947721869081597 ], [ -6.302147921132656, 42.947721869081597 ], [ -6.302147921132656, 42.948141180618649 ], [ -6.301407705165149, 42.948141180618649 ], [ -6.301407705165149, 42.952334138887863 ], [ -6.302888137100165, 42.952334138887863 ], [ -6.302888137100165, 42.952753419004587 ], [ -6.305849000970198, 42.952753419004587 ], [ -6.305849000970198, 42.953172696264907 ], [ -6.306589216937707, 42.953172696264907 ], [ -6.306589216937707, 42.953591970668796 ], [ -6.307329432905214, 42.953591970668796 ], [ -6.307329432905214, 42.954430510907343 ], [ -6.308069648872723, 42.954430510907343 ], [ -6.308069648872723, 42.955269039720179 ], [ -6.308809864840232, 42.955269039720179 ], [ -6.308809864840232, 42.961557641620125 ], [ -6.308069648872723, 42.961557641620125 ], [ -6.308069648872723, 42.963653699430232 ], [ -6.307329432905214, 42.963653699430232 ], [ -6.307329432905214, 42.965330494261529 ], [ -6.306589216937707, 42.965330494261529 ], [ -6.306589216937707, 42.9670072433888 ], [ -6.305849000970198, 42.9670072433888 ], [ -6.305849000970198, 42.969103115526337 ], [ -6.30510878500269, 42.969103115526337 ], [ -6.30510878500269, 42.970779761818889 ], [ -6.304368569035181, 42.970779761818889 ], [ -6.304368569035181, 42.971198916250678 ], [ -6.302888137100165, 42.971198916250678 ], [ -6.302888137100165, 42.971618067825929 ], [ -6.302147921132656, 42.971618067825929 ], [ -6.302147921132656, 42.972037216544642 ], [ -6.301407705165149, 42.972037216544642 ], [ -6.301407705165149, 42.972456362406803 ], [ -6.30066748919764, 42.972456362406803 ], [ -6.30066748919764, 42.972875505412411 ], [ -6.299187057262623, 42.972875505412411 ], [ -6.299187057262623, 42.97329464556146 ], [ -6.298446841295115, 42.97329464556146 ], [ -6.298446841295115, 42.973713782853956 ], [ -6.297706625327606, 42.973713782853956 ], [ -6.297706625327606, 42.974132917289893 ], [ -6.29622619339259, 42.974132917289893 ], [ -6.29622619339259, 42.97455204886927 ], [ -6.295485977425082, 42.97455204886927 ], [ -6.295485977425082, 42.974971177592067 ], [ -6.294745761457574, 42.974971177592067 ], [ -6.294745761457574, 42.975390303458305 ], [ -6.294005545490065, 42.975390303458305 ], [ -6.294005545490065, 42.975809426467968 ], [ -6.292525113555049, 42.975809426467968 ], [ -6.292525113555049, 42.976228546621059 ], [ -6.29178489758754, 42.976228546621059 ], [ -6.29178489758754, 42.976647663917568 ], [ -6.290304465652524, 42.976647663917568 ], [ -6.290304465652524, 42.976228546621059 ], [ -6.288824033717506, 42.976228546621059 ], [ -6.288824033717506, 42.975809426467968 ], [ -6.288083817749998, 42.975809426467968 ] ] ], [ [ [ -3.148827899547152, 43.17039208199018 ], [ -3.148087683579643, 43.17039208199018 ], [ -3.148087683579643, 43.169138690235577 ], [ -3.147347467612135, 43.169138690235577 ], [ -3.147347467612135, 43.168303081443135 ], [ -3.146607251644626, 43.168303081443135 ], [ -3.146607251644626, 43.167885272760103 ], [ -3.143646387774594, 43.167885272760103 ], [ -3.143646387774594, 43.168303081443135 ], [ -3.142165955839576, 43.168303081443135 ], [ -3.142165955839576, 43.167467461219211 ], [ -3.141425739872068, 43.167467461219211 ], [ -3.141425739872068, 43.166214009449348 ], [ -3.14068552390456, 43.166214009449348 ], [ -3.14068552390456, 43.164960531958798 ], [ -3.139945307937052, 43.164960531958798 ], [ -3.139945307937052, 43.163707028747609 ], [ -3.139205091969543, 43.163707028747609 ], [ -3.139205091969543, 43.163289188628198 ], [ -3.134763796164493, 43.163289188628198 ], [ -3.134763796164493, 43.162453499815861 ], [ -3.134023580196985, 43.162453499815861 ], [ -3.134023580196985, 43.162035651122949 ], [ -3.133283364229476, 43.162035651122949 ], [ -3.133283364229476, 43.161199945163631 ], [ -3.132543148261968, 43.161199945163631 ], [ -3.132543148261968, 43.155767577791231 ], [ -3.133283364229476, 43.155767577791231 ], [ -3.133283364229476, 43.154931786097734 ], [ -3.134023580196985, 43.154931786097734 ], [ -3.134023580196985, 43.154095982973097 ], [ -3.134763796164493, 43.154095982973097 ], [ -3.134763796164493, 43.153678077124106 ], [ -3.135504012132002, 43.153678077124106 ], [ -3.135504012132002, 43.153260168417347 ], [ -3.139945307937052, 43.153260168417347 ], [ -3.139945307937052, 43.153678077124106 ], [ -3.14068552390456, 43.153678077124106 ], [ -3.14068552390456, 43.154513885964299 ], [ -3.141425739872068, 43.154513885964299 ], [ -3.141425739872068, 43.155349683373366 ], [ -3.142906171807085, 43.155349683373366 ], [ -3.142906171807085, 43.154931786097734 ], [ -3.143646387774594, 43.154931786097734 ], [ -3.143646387774594, 43.154513885964299 ], [ -3.144386603742102, 43.154513885964299 ], [ -3.144386603742102, 43.154095982973097 ], [ -3.14512681970961, 43.154095982973097 ], [ -3.14512681970961, 43.153678077124106 ], [ -3.145867035677119, 43.153678077124106 ], [ -3.145867035677119, 43.152842256852807 ], [ -3.146607251644626, 43.152842256852807 ], [ -3.146607251644626, 43.152424342430507 ], [ -3.147347467612135, 43.152424342430507 ], [ -3.147347467612135, 43.152006425150439 ], [ -3.148087683579643, 43.152006425150439 ], [ -3.148087683579643, 43.151588505012604 ], [ -3.148827899547152, 43.151588505012604 ], [ -3.148827899547152, 43.151170582017009 ], [ -3.150308331482168, 43.151170582017009 ], [ -3.150308331482168, 43.151588505012604 ], [ -3.151048547449676, 43.151588505012604 ], [ -3.151048547449676, 43.152424342430507 ], [ -3.151788763417185, 43.152424342430507 ], [ -3.151788763417185, 43.152842256852807 ], [ -3.152528979384693, 43.152842256852807 ], [ -3.152528979384693, 43.153678077124106 ], [ -3.153269195352201, 43.153678077124106 ], [ -3.153269195352201, 43.154095982973097 ], [ -3.15400941131971, 43.154095982973097 ], [ -3.15400941131971, 43.154513885964299 ], [ -3.154749627287218, 43.154513885964299 ], [ -3.154749627287218, 43.153678077124106 ], [ -3.155489843254727, 43.153678077124106 ], [ -3.155489843254727, 43.152842256852807 ], [ -3.156230059222235, 43.152842256852807 ], [ -3.156230059222235, 43.151588505012604 ], [ -3.156970275189743, 43.151588505012604 ], [ -3.156970275189743, 43.150752656163647 ], [ -3.15845070712476, 43.150752656163647 ], [ -3.15845070712476, 43.150334727452531 ], [ -3.159190923092269, 43.150334727452531 ], [ -3.159190923092269, 43.149916795883662 ], [ -3.159931139059776, 43.149916795883662 ], [ -3.159931139059776, 43.149498861457047 ], [ -3.162151786962302, 43.149498861457047 ], [ -3.162151786962302, 43.149916795883662 ], [ -3.16289200292981, 43.149916795883662 ], [ -3.16289200292981, 43.150334727452531 ], [ -3.163632218897318, 43.150334727452531 ], [ -3.163632218897318, 43.150752656163647 ], [ -3.164372434864827, 43.150752656163647 ], [ -3.164372434864827, 43.151588505012604 ], [ -3.165112650832335, 43.151588505012604 ], [ -3.165112650832335, 43.152006425150439 ], [ -3.165852866799844, 43.152006425150439 ], [ -3.165852866799844, 43.152424342430507 ], [ -3.166593082767351, 43.152424342430507 ], [ -3.166593082767351, 43.154931786097734 ], [ -3.165852866799844, 43.154931786097734 ], [ -3.165852866799844, 43.157439126884753 ], [ -3.165112650832335, 43.157439126884753 ], [ -3.165112650832335, 43.158692758698002 ], [ -3.166593082767351, 43.158692758698002 ], [ -3.166593082767351, 43.159110630253473 ], [ -3.16733329873486, 43.159110630253473 ], [ -3.16733329873486, 43.159528498951133 ], [ -3.168073514702368, 43.159528498951133 ], [ -3.168073514702368, 43.160782087897239 ], [ -3.168813730669876, 43.160782087897239 ], [ -3.168813730669876, 43.162453499815861 ], [ -3.169553946637385, 43.162453499815861 ], [ -3.169553946637385, 43.164124866009182 ], [ -3.168813730669876, 43.164124866009182 ], [ -3.168813730669876, 43.166214009449348 ], [ -3.168073514702368, 43.166214009449348 ], [ -3.168073514702368, 43.167467461219211 ], [ -3.16733329873486, 43.167467461219211 ], [ -3.16733329873486, 43.167885272760103 ], [ -3.166593082767351, 43.167885272760103 ], [ -3.166593082767351, 43.168303081443135 ], [ -3.165112650832335, 43.168303081443135 ], [ -3.165112650832335, 43.168720887268286 ], [ -3.164372434864827, 43.168720887268286 ], [ -3.164372434864827, 43.169138690235577 ], [ -3.163632218897318, 43.169138690235577 ], [ -3.163632218897318, 43.169556490344988 ], [ -3.16289200292981, 43.169556490344988 ], [ -3.16289200292981, 43.169974287596524 ], [ -3.162151786962302, 43.169974287596524 ], [ -3.162151786962302, 43.17039208199018 ], [ -3.161411570994793, 43.17039208199018 ], [ -3.161411570994793, 43.170809873525954 ], [ -3.160671355027285, 43.170809873525954 ], [ -3.160671355027285, 43.17122766220384 ], [ -3.159190923092269, 43.17122766220384 ], [ -3.159190923092269, 43.171645448023838 ], [ -3.151048547449676, 43.171645448023838 ], [ -3.151048547449676, 43.172063230985955 ], [ -3.14956811551466, 43.172063230985955 ], [ -3.14956811551466, 43.17122766220384 ], [ -3.148827899547152, 43.17122766220384 ], [ -3.148827899547152, 43.17039208199018 ] ] ], [ [ [ -5.723299034541139, 43.536112471851069 ], [ -5.72255881857363, 43.536112471851069 ], [ -5.72255881857363, 43.535281900557365 ], [ -5.721818602606122, 43.535281900557365 ], [ -5.721818602606122, 43.534451317823752 ], [ -5.721078386638613, 43.534451317823752 ], [ -5.721078386638613, 43.533620723650237 ], [ -5.720338170671106, 43.533620723650237 ], [ -5.720338170671106, 43.532790118036843 ], [ -5.719597954703597, 43.532790118036843 ], [ -5.719597954703597, 43.531959500983589 ], [ -5.718857738736089, 43.531959500983589 ], [ -5.718857738736089, 43.531128872490477 ], [ -5.718117522768581, 43.531128872490477 ], [ -5.718117522768581, 43.530713553953994 ], [ -5.717377306801072, 43.530713553953994 ], [ -5.717377306801072, 43.525729508440229 ], [ -5.718117522768581, 43.525729508440229 ], [ -5.718117522768581, 43.524483432713232 ], [ -5.718857738736089, 43.524483432713232 ], [ -5.718857738736089, 43.523237331246925 ], [ -5.719597954703597, 43.523237331246925 ], [ -5.719597954703597, 43.522406582636464 ], [ -5.720338170671106, 43.522406582636464 ], [ -5.720338170671106, 43.521160438271444 ], [ -5.721078386638613, 43.521160438271444 ], [ -5.721078386638613, 43.519914268167263 ], [ -5.721818602606122, 43.519914268167263 ], [ -5.721818602606122, 43.518668072323983 ], [ -5.72255881857363, 43.518668072323983 ], [ -5.72255881857363, 43.517837260795666 ], [ -5.724039250508648, 43.517837260795666 ], [ -5.724039250508648, 43.51742185074167 ], [ -5.724779466476156, 43.51742185074167 ], [ -5.724779466476156, 43.517006437827789 ], [ -5.726259898411173, 43.517006437827789 ], [ -5.726259898411173, 43.516591022054023 ], [ -5.727740330346189, 43.516591022054023 ], [ -5.727740330346189, 43.516175603420372 ], [ -5.728480546313697, 43.516175603420372 ], [ -5.728480546313697, 43.515760181926844 ], [ -5.729960978248714, 43.515760181926844 ], [ -5.729960978248714, 43.51534475757343 ], [ -5.73144141018373, 43.51534475757343 ], [ -5.73144141018373, 43.514929330360154 ], [ -5.733662058086256, 43.514929330360154 ], [ -5.733662058086256, 43.51534475757343 ], [ -5.734402274053765, 43.51534475757343 ], [ -5.734402274053765, 43.515760181926844 ], [ -5.735142490021273, 43.515760181926844 ], [ -5.735142490021273, 43.516175603420372 ], [ -5.73588270598878, 43.516175603420372 ], [ -5.73588270598878, 43.516591022054023 ], [ -5.73662292195629, 43.516591022054023 ], [ -5.73662292195629, 43.517006437827789 ], [ -5.737363137923798, 43.517006437827789 ], [ -5.737363137923798, 43.51742185074167 ], [ -5.738103353891305, 43.51742185074167 ], [ -5.738103353891305, 43.517837260795666 ], [ -5.738843569858814, 43.517837260795666 ], [ -5.738843569858814, 43.518252667989771 ], [ -5.739583785826321, 43.518252667989771 ], [ -5.739583785826321, 43.518668072323983 ], [ -5.74032400179383, 43.518668072323983 ], [ -5.74032400179383, 43.519083473798304 ], [ -5.741064217761339, 43.519083473798304 ], [ -5.741064217761339, 43.519498872412733 ], [ -5.741804433728848, 43.519498872412733 ], [ -5.741804433728848, 43.519914268167263 ], [ -5.742544649696356, 43.519914268167263 ], [ -5.742544649696356, 43.520329661061893 ], [ -5.743284865663864, 43.520329661061893 ], [ -5.743284865663864, 43.521575822586357 ], [ -5.744025081631372, 43.521575822586357 ], [ -5.744025081631372, 43.523237331246925 ], [ -5.744765297598882, 43.523237331246925 ], [ -5.744765297598882, 43.524898794148825 ], [ -5.744025081631372, 43.524898794148825 ], [ -5.744025081631372, 43.526560211291923 ], [ -5.743284865663864, 43.526560211291923 ], [ -5.743284865663864, 43.528636918372264 ], [ -5.742544649696356, 43.528636918372264 ], [ -5.742544649696356, 43.530713553953994 ], [ -5.741804433728848, 43.530713553953994 ], [ -5.741804433728848, 43.531128872490477 ], [ -5.741064217761339, 43.531128872490477 ], [ -5.741064217761339, 43.531959500983589 ], [ -5.74032400179383, 43.531959500983589 ], [ -5.74032400179383, 43.53237481094019 ], [ -5.739583785826321, 43.53237481094019 ], [ -5.739583785826321, 43.533205422273518 ], [ -5.738843569858814, 43.533205422273518 ], [ -5.738843569858814, 43.533620723650237 ], [ -5.738103353891305, 43.533620723650237 ], [ -5.738103353891305, 43.53403602216698 ], [ -5.737363137923798, 43.53403602216698 ], [ -5.737363137923798, 43.534866610620547 ], [ -5.735142490021273, 43.534866610620547 ], [ -5.735142490021273, 43.535281900557365 ], [ -5.733662058086256, 43.535281900557365 ], [ -5.733662058086256, 43.535697187634213 ], [ -5.732181626151239, 43.535697187634213 ], [ -5.732181626151239, 43.536112471851069 ], [ -5.730701194216222, 43.536112471851069 ], [ -5.730701194216222, 43.536527753207956 ], [ -5.729220762281205, 43.536527753207956 ], [ -5.729220762281205, 43.536943031704851 ], [ -5.727740330346189, 43.536943031704851 ], [ -5.727740330346189, 43.537358307341755 ], [ -5.725519682443664, 43.537358307341755 ], [ -5.725519682443664, 43.537773580118674 ], [ -5.724779466476156, 43.537773580118674 ], [ -5.724779466476156, 43.537358307341755 ], [ -5.724039250508648, 43.537358307341755 ], [ -5.724039250508648, 43.536943031704851 ], [ -5.723299034541139, 43.536943031704851 ], [ -5.723299034541139, 43.536112471851069 ] ] ], [ [ [ -5.840993373374964, 43.550230433520795 ], [ -5.840253157407456, 43.550230433520795 ], [ -5.840253157407456, 43.549815246544526 ], [ -5.839512941439948, 43.549815246544526 ], [ -5.839512941439948, 43.549400056708208 ], [ -5.838032509504931, 43.549400056708208 ], [ -5.838032509504931, 43.548984864011857 ], [ -5.837292293537423, 43.548984864011857 ], [ -5.837292293537423, 43.548569668455436 ], [ -5.835071645634897, 43.548569668455436 ], [ -5.835071645634897, 43.54815447003898 ], [ -5.832110781764865, 43.54815447003898 ], [ -5.832110781764865, 43.54773926876247 ], [ -5.829149917894831, 43.54773926876247 ], [ -5.829149917894831, 43.547324064625933 ], [ -5.826929269992306, 43.547324064625933 ], [ -5.826929269992306, 43.546908857629347 ], [ -5.823968406122273, 43.546908857629347 ], [ -5.823968406122273, 43.546493647772721 ], [ -5.822487974187256, 43.546493647772721 ], [ -5.822487974187256, 43.54607843505606 ], [ -5.821747758219748, 43.54607843505606 ], [ -5.821747758219748, 43.545248001042651 ], [ -5.821007542252239, 43.545248001042651 ], [ -5.821007542252239, 43.544417555589114 ], [ -5.82026732628473, 43.544417555589114 ], [ -5.82026732628473, 43.543171865958641 ], [ -5.819527110317222, 43.543171865958641 ], [ -5.819527110317222, 43.542341391904877 ], [ -5.818786894349714, 43.542341391904877 ], [ -5.818786894349714, 43.541510906411077 ], [ -5.818046678382206, 43.541510906411077 ], [ -5.818046678382206, 43.540265156720295 ], [ -5.817306462414698, 43.540265156720295 ], [ -5.817306462414698, 43.539434642626411 ], [ -5.816566246447189, 43.539434642626411 ], [ -5.816566246447189, 43.53860411709254 ], [ -5.815826030479681, 43.53860411709254 ], [ -5.815826030479681, 43.537358307341755 ], [ -5.815085814512173, 43.537358307341755 ], [ -5.815085814512173, 43.536527753207956 ], [ -5.815826030479681, 43.536527753207956 ], [ -5.815826030479681, 43.535281900557365 ], [ -5.816566246447189, 43.535281900557365 ], [ -5.816566246447189, 43.53403602216698 ], [ -5.817306462414698, 43.53403602216698 ], [ -5.817306462414698, 43.533205422273518 ], [ -5.818046678382206, 43.533205422273518 ], [ -5.818046678382206, 43.531959500983589 ], [ -5.821007542252239, 43.531959500983589 ], [ -5.821007542252239, 43.53237481094019 ], [ -5.823968406122273, 43.53237481094019 ], [ -5.823968406122273, 43.531959500983589 ], [ -5.82544883805729, 43.531959500983589 ], [ -5.82544883805729, 43.531544188167018 ], [ -5.826189054024797, 43.531544188167018 ], [ -5.826189054024797, 43.531128872490477 ], [ -5.827669485959815, 43.531128872490477 ], [ -5.827669485959815, 43.530713553953994 ], [ -5.829149917894831, 43.530713553953994 ], [ -5.829149917894831, 43.531128872490477 ], [ -5.830630349829847, 43.531128872490477 ], [ -5.830630349829847, 43.531544188167018 ], [ -5.831370565797356, 43.531544188167018 ], [ -5.831370565797356, 43.531959500983589 ], [ -5.832850997732372, 43.531959500983589 ], [ -5.832850997732372, 43.53237481094019 ], [ -5.834331429667389, 43.53237481094019 ], [ -5.834331429667389, 43.532790118036843 ], [ -5.835811861602406, 43.532790118036843 ], [ -5.835811861602406, 43.533205422273518 ], [ -5.838032509504931, 43.533205422273518 ], [ -5.838032509504931, 43.532790118036843 ], [ -5.840253157407456, 43.532790118036843 ], [ -5.840253157407456, 43.53237481094019 ], [ -5.842473805309981, 43.53237481094019 ], [ -5.842473805309981, 43.531959500983589 ], [ -5.846174885147523, 43.531959500983589 ], [ -5.846174885147523, 43.53237481094019 ], [ -5.846915101115031, 43.53237481094019 ], [ -5.846915101115031, 43.533205422273518 ], [ -5.847655317082539, 43.533205422273518 ], [ -5.847655317082539, 43.533620723650237 ], [ -5.848395533050048, 43.533620723650237 ], [ -5.848395533050048, 43.53403602216698 ], [ -5.849135749017555, 43.53403602216698 ], [ -5.849135749017555, 43.534451317823752 ], [ -5.849875964985064, 43.534451317823752 ], [ -5.849875964985064, 43.535281900557365 ], [ -5.850616180952573, 43.535281900557365 ], [ -5.850616180952573, 43.539019381289471 ], [ -5.85135639692008, 43.539019381289471 ], [ -5.85135639692008, 43.542756630361758 ], [ -5.852096612887589, 43.542756630361758 ], [ -5.852096612887589, 43.546493647772721 ], [ -5.85135639692008, 43.546493647772721 ], [ -5.85135639692008, 43.547324064625933 ], [ -5.850616180952573, 43.547324064625933 ], [ -5.850616180952573, 43.548569668455436 ], [ -5.849875964985064, 43.548569668455436 ], [ -5.849875964985064, 43.549400056708208 ], [ -5.849135749017555, 43.549400056708208 ], [ -5.849135749017555, 43.549815246544526 ], [ -5.848395533050048, 43.549815246544526 ], [ -5.848395533050048, 43.550230433520795 ], [ -5.847655317082539, 43.550230433520795 ], [ -5.847655317082539, 43.550645617637002 ], [ -5.846174885147523, 43.550645617637002 ], [ -5.846174885147523, 43.551060798893154 ], [ -5.845434669180014, 43.551060798893154 ], [ -5.845434669180014, 43.551475977289243 ], [ -5.843214021277489, 43.551475977289243 ], [ -5.843214021277489, 43.551060798893154 ], [ -5.842473805309981, 43.551060798893154 ], [ -5.842473805309981, 43.550645617637002 ], [ -5.840993373374964, 43.550645617637002 ], [ -5.840993373374964, 43.550230433520795 ] ] ], [ [ [ -0.277530161582322, 35.824969885320684 ], [ -0.276789945614814, 35.824969885320684 ], [ -0.276789945614814, 35.824505411354338 ], [ -0.276049729647306, 35.824505411354338 ], [ -0.276049729647306, 35.824040934669902 ], [ -0.274569297712289, 35.824040934669902 ], [ -0.274569297712289, 35.8235764552674 ], [ -0.272348649809764, 35.8235764552674 ], [ -0.272348649809764, 35.82311197314683 ], [ -0.270128001907239, 35.82311197314683 ], [ -0.270128001907239, 35.822647488308213 ], [ -0.267167138037206, 35.822647488308213 ], [ -0.267167138037206, 35.822183000751579 ], [ -0.264946490134681, 35.822183000751579 ], [ -0.264946490134681, 35.821718510476927 ], [ -0.262725842232156, 35.821718510476927 ], [ -0.262725842232156, 35.821254017484272 ], [ -0.260505194329631, 35.821254017484272 ], [ -0.260505194329631, 35.820789521773627 ], [ -0.259764978362122, 35.820789521773627 ], [ -0.259764978362122, 35.819860522198454 ], [ -0.259024762394614, 35.819860522198454 ], [ -0.259024762394614, 35.81939601833394 ], [ -0.258284546427106, 35.81939601833394 ], [ -0.258284546427106, 35.818467002451158 ], [ -0.257544330459597, 35.818467002451158 ], [ -0.257544330459597, 35.818002490432896 ], [ -0.256804114492089, 35.818002490432896 ], [ -0.256804114492089, 35.81753797569678 ], [ -0.253843250622056, 35.81753797569678 ], [ -0.253843250622056, 35.817073458242774 ], [ -0.252362818687039, 35.817073458242774 ], [ -0.252362818687039, 35.816608938070921 ], [ -0.251622602719531, 35.816608938070921 ], [ -0.251622602719531, 35.816144415181228 ], [ -0.250882386752022, 35.816144415181228 ], [ -0.250882386752022, 35.815215361248384 ], [ -0.250142170784514, 35.815215361248384 ], [ -0.250142170784514, 35.814750830205249 ], [ -0.249401954817006, 35.814750830205249 ], [ -0.249401954817006, 35.814286296444358 ], [ -0.248661738849497, 35.814286296444358 ], [ -0.248661738849497, 35.813357220769255 ], [ -0.247921522881989, 35.813357220769255 ], [ -0.247921522881989, 35.812892678855093 ], [ -0.247181306914481, 35.812892678855093 ], [ -0.247181306914481, 35.812428134223211 ], [ -0.244220443044447, 35.812428134223211 ], [ -0.244220443044447, 35.811963586873631 ], [ -0.243480227076939, 35.811963586873631 ], [ -0.243480227076939, 35.812428134223211 ], [ -0.242740011109431, 35.812428134223211 ], [ -0.242740011109431, 35.813357220769255 ], [ -0.241999795141922, 35.813357220769255 ], [ -0.241999795141922, 35.814286296444358 ], [ -0.241259579174414, 35.814286296444358 ], [ -0.241259579174414, 35.814750830205249 ], [ -0.239779147239397, 35.814750830205249 ], [ -0.239779147239397, 35.815215361248384 ], [ -0.238298715304381, 35.815215361248384 ], [ -0.238298715304381, 35.815679889573708 ], [ -0.237558499336872, 35.815679889573708 ], [ -0.237558499336872, 35.816144415181228 ], [ -0.235337851434347, 35.816144415181228 ], [ -0.235337851434347, 35.815679889573708 ], [ -0.233117203531822, 35.815679889573708 ], [ -0.233117203531822, 35.815215361248384 ], [ -0.231636771596806, 35.815215361248384 ], [ -0.231636771596806, 35.814750830205249 ], [ -0.230896555629297, 35.814750830205249 ], [ -0.230896555629297, 35.813357220769255 ], [ -0.230156339661789, 35.813357220769255 ], [ -0.230156339661789, 35.812428134223211 ], [ -0.229416123694281, 35.812428134223211 ], [ -0.229416123694281, 35.811034484021377 ], [ -0.228675907726772, 35.811034484021377 ], [ -0.228675907726772, 35.810105370298473 ], [ -0.227935691759264, 35.810105370298473 ], [ -0.227935691759264, 35.809176245705025 ], [ -0.227195475791756, 35.809176245705025 ], [ -0.227195475791756, 35.80731796390701 ], [ -0.227935691759264, 35.80731796390701 ], [ -0.227935691759264, 35.805924224024189 ], [ -0.228675907726772, 35.805924224024189 ], [ -0.228675907726772, 35.804530459683846 ], [ -0.229416123694281, 35.804530459683846 ], [ -0.229416123694281, 35.803601269869652 ], [ -0.230156339661789, 35.803601269869652 ], [ -0.230156339661789, 35.803136670886389 ], [ -0.230896555629297, 35.803136670886389 ], [ -0.230896555629297, 35.802672069185711 ], [ -0.231636771596806, 35.802672069185711 ], [ -0.231636771596806, 35.80220746476764 ], [ -0.232376987564314, 35.80220746476764 ], [ -0.232376987564314, 35.801742857632192 ], [ -0.237558499336872, 35.801742857632192 ], [ -0.237558499336872, 35.80220746476764 ], [ -0.238298715304381, 35.80220746476764 ], [ -0.238298715304381, 35.802672069185711 ], [ -0.239038931271889, 35.802672069185711 ], [ -0.239038931271889, 35.800813635209181 ], [ -0.239779147239397, 35.800813635209181 ], [ -0.239779147239397, 35.799884401916799 ], [ -0.240519363206906, 35.799884401916799 ], [ -0.240519363206906, 35.799419781194644 ], [ -0.241259579174414, 35.799419781194644 ], [ -0.241259579174414, 35.798955157755167 ], [ -0.242740011109431, 35.798955157755167 ], [ -0.242740011109431, 35.798490531598425 ], [ -0.245700874979464, 35.798490531598425 ], [ -0.245700874979464, 35.798955157755167 ], [ -0.247921522881989, 35.798955157755167 ], [ -0.247921522881989, 35.799419781194644 ], [ -0.249401954817006, 35.799419781194644 ], [ -0.249401954817006, 35.799884401916799 ], [ -0.250882386752022, 35.799884401916799 ], [ -0.250882386752022, 35.799419781194644 ], [ -0.252362818687039, 35.799419781194644 ], [ -0.252362818687039, 35.798955157755167 ], [ -0.253843250622056, 35.798955157755167 ], [ -0.253843250622056, 35.798490531598425 ], [ -0.255323682557072, 35.798490531598425 ], [ -0.255323682557072, 35.798025902724412 ], [ -0.261245410297139, 35.798025902724412 ], [ -0.261245410297139, 35.798490531598425 ], [ -0.266426922069697, 35.798490531598425 ], [ -0.266426922069697, 35.799419781194644 ], [ -0.267167138037206, 35.799419781194644 ], [ -0.267167138037206, 35.799884401916799 ], [ -0.267907354004714, 35.799884401916799 ], [ -0.267907354004714, 35.800349019921647 ], [ -0.268647569972222, 35.800349019921647 ], [ -0.268647569972222, 35.801278247779365 ], [ -0.269387785939731, 35.801278247779365 ], [ -0.269387785939731, 35.801742857632192 ], [ -0.270128001907239, 35.801742857632192 ], [ -0.270128001907239, 35.80220746476764 ], [ -0.270868217874747, 35.80220746476764 ], [ -0.270868217874747, 35.803136670886389 ], [ -0.271608433842256, 35.803136670886389 ], [ -0.271608433842256, 35.803601269869652 ], [ -0.272348649809764, 35.803601269869652 ], [ -0.272348649809764, 35.804530459683846 ], [ -0.273088865777272, 35.804530459683846 ], [ -0.273088865777272, 35.804995050514783 ], [ -0.273829081744781, 35.804995050514783 ], [ -0.273829081744781, 35.804065866135467 ], [ -0.274569297712289, 35.804065866135467 ], [ -0.274569297712289, 35.803136670886389 ], [ -0.275309513679797, 35.803136670886389 ], [ -0.275309513679797, 35.80220746476764 ], [ -0.276049729647306, 35.80220746476764 ], [ -0.276049729647306, 35.801742857632192 ], [ -0.276789945614814, 35.801742857632192 ], [ -0.276789945614814, 35.801278247779365 ], [ -0.278270377549831, 35.801278247779365 ], [ -0.278270377549831, 35.800813635209181 ], [ -0.279010593517339, 35.800813635209181 ], [ -0.279010593517339, 35.800349019921647 ], [ -0.280491025452356, 35.800349019921647 ], [ -0.280491025452356, 35.800813635209181 ], [ -0.281231241419864, 35.800813635209181 ], [ -0.281231241419864, 35.801278247779365 ], [ -0.282711673354881, 35.801278247779365 ], [ -0.282711673354881, 35.801742857632192 ], [ -0.283451889322389, 35.801742857632192 ], [ -0.283451889322389, 35.80220746476764 ], [ -0.284192105289897, 35.80220746476764 ], [ -0.284192105289897, 35.804065866135467 ], [ -0.284932321257406, 35.804065866135467 ], [ -0.284932321257406, 35.806388806702657 ], [ -0.285672537224914, 35.806388806702657 ], [ -0.285672537224914, 35.808711679331893 ], [ -0.286412753192422, 35.808711679331893 ], [ -0.286412753192422, 35.811034484021377 ], [ -0.287152969159931, 35.811034484021377 ], [ -0.287152969159931, 35.821254017484272 ], [ -0.286412753192422, 35.821254017484272 ], [ -0.286412753192422, 35.822183000751579 ], [ -0.285672537224914, 35.822183000751579 ], [ -0.285672537224914, 35.822647488308213 ], [ -0.284932321257406, 35.822647488308213 ], [ -0.284932321257406, 35.82311197314683 ], [ -0.284192105289897, 35.82311197314683 ], [ -0.284192105289897, 35.8235764552674 ], [ -0.283451889322389, 35.8235764552674 ], [ -0.283451889322389, 35.824040934669902 ], [ -0.282711673354881, 35.824040934669902 ], [ -0.282711673354881, 35.824505411354338 ], [ -0.281971457387372, 35.824505411354338 ], [ -0.281971457387372, 35.824969885320684 ], [ -0.281231241419864, 35.824969885320684 ], [ -0.281231241419864, 35.82543435656892 ], [ -0.280491025452356, 35.82543435656892 ], [ -0.280491025452356, 35.825898825099053 ], [ -0.278270377549831, 35.825898825099053 ], [ -0.278270377549831, 35.82543435656892 ], [ -0.277530161582322, 35.82543435656892 ], [ -0.277530161582322, 35.824969885320684 ] ] ], [ [ [ 2.930565841598798, 36.145270739546369 ], [ 2.932046273533815, 36.145270739546369 ], [ 2.932046273533815, 36.14480814722986 ], [ 2.933526705468831, 36.14480814722986 ], [ 2.933526705468831, 36.144345552185356 ], [ 2.93426692143634, 36.144345552185356 ], [ 2.93426692143634, 36.143882954412867 ], [ 2.935007137403848, 36.143882954412867 ], [ 2.935007137403848, 36.143420353912397 ], [ 2.935747353371357, 36.143420353912397 ], [ 2.935747353371357, 36.141569924631128 ], [ 2.936487569338865, 36.141569924631128 ], [ 2.936487569338865, 36.13740629916748 ], [ 2.935747353371357, 36.13740629916748 ], [ 2.935747353371357, 36.135093078437173 ], [ 2.935007137403848, 36.135093078437173 ], [ 2.935007137403848, 36.134167771051025 ], [ 2.93426692143634, 36.134167771051025 ], [ 2.93426692143634, 36.13370511326643 ], [ 2.933526705468831, 36.13370511326643 ], [ 2.933526705468831, 36.133242452754182 ], [ 2.932786489501323, 36.133242452754182 ], [ 2.932786489501323, 36.132779789514281 ], [ 2.931306057566307, 36.132779789514281 ], [ 2.931306057566307, 36.132317123546741 ], [ 2.930565841598798, 36.132317123546741 ], [ 2.930565841598798, 36.131854454851599 ], [ 2.929085409663781, 36.131854454851599 ], [ 2.929085409663781, 36.132317123546741 ], [ 2.927604977728765, 36.132317123546741 ], [ 2.927604977728765, 36.132779789514281 ], [ 2.926124545793748, 36.132779789514281 ], [ 2.926124545793748, 36.133242452754182 ], [ 2.924644113858732, 36.133242452754182 ], [ 2.924644113858732, 36.13370511326643 ], [ 2.923163681923715, 36.13370511326643 ], [ 2.923163681923715, 36.134167771051025 ], [ 2.921683249988698, 36.134167771051025 ], [ 2.921683249988698, 36.135555728038689 ], [ 2.92094303402119, 36.135555728038689 ], [ 2.92094303402119, 36.136481019058579 ], [ 2.920202818053682, 36.136481019058579 ], [ 2.920202818053682, 36.140644693623038 ], [ 2.92094303402119, 36.140644693623038 ], [ 2.92094303402119, 36.143420353912397 ], [ 2.921683249988698, 36.143420353912397 ], [ 2.921683249988698, 36.143882954412867 ], [ 2.922423465956207, 36.143882954412867 ], [ 2.922423465956207, 36.144345552185356 ], [ 2.923163681923715, 36.144345552185356 ], [ 2.923163681923715, 36.14480814722986 ], [ 2.923903897891223, 36.14480814722986 ], [ 2.923903897891223, 36.145270739546369 ], [ 2.924644113858732, 36.145270739546369 ], [ 2.924644113858732, 36.14573332913487 ], [ 2.926124545793748, 36.14573332913487 ], [ 2.926124545793748, 36.146195915995342 ], [ 2.926864761761257, 36.146195915995342 ], [ 2.926864761761257, 36.146658500127771 ], [ 2.928345193696273, 36.146658500127771 ], [ 2.928345193696273, 36.146195915995342 ], [ 2.929085409663781, 36.146195915995342 ], [ 2.929085409663781, 36.14573332913487 ], [ 2.930565841598798, 36.14573332913487 ], [ 2.930565841598798, 36.145270739546369 ] ] ], [ [ [ 3.743322973922949, 36.186892875113685 ], [ 3.743322973922949, 36.186430528374551 ], [ 3.744063189890458, 36.186430528374551 ], [ 3.744063189890458, 36.185968178906165 ], [ 3.744803405857966, 36.185968178906165 ], [ 3.744803405857966, 36.185505826708528 ], [ 3.745543621825474, 36.185505826708528 ], [ 3.745543621825474, 36.185968178906165 ], [ 3.746283837792983, 36.185968178906165 ], [ 3.746283837792983, 36.186430528374551 ], [ 3.747764269728, 36.186430528374551 ], [ 3.747764269728, 36.186892875113685 ], [ 3.749984917630524, 36.186892875113685 ], [ 3.749984917630524, 36.186430528374551 ], [ 3.751465349565541, 36.186430528374551 ], [ 3.751465349565541, 36.185968178906165 ], [ 3.75220556553305, 36.185968178906165 ], [ 3.75220556553305, 36.185505826708528 ], [ 3.752945781500558, 36.185505826708528 ], [ 3.752945781500558, 36.185043471781654 ], [ 3.753685997468065, 36.185043471781654 ], [ 3.753685997468065, 36.184118753740272 ], [ 3.754426213435575, 36.184118753740272 ], [ 3.754426213435575, 36.182731656209292 ], [ 3.755166429403083, 36.182731656209292 ], [ 3.755166429403083, 36.18180691087619 ], [ 3.755906645370591, 36.18180691087619 ], [ 3.755906645370591, 36.174870972922768 ], [ 3.755166429403083, 36.174870972922768 ], [ 3.755166429403083, 36.174408555227394 ], [ 3.754426213435575, 36.174408555227394 ], [ 3.754426213435575, 36.173946134803117 ], [ 3.753685997468065, 36.173946134803117 ], [ 3.753685997468065, 36.173483711649958 ], [ 3.752945781500558, 36.173483711649958 ], [ 3.752945781500558, 36.173021285767938 ], [ 3.75220556553305, 36.173021285767938 ], [ 3.75220556553305, 36.172558857157064 ], [ 3.751465349565541, 36.172558857157064 ], [ 3.751465349565541, 36.171633991748799 ], [ 3.750725133598033, 36.171633991748799 ], [ 3.750725133598033, 36.171171554951435 ], [ 3.749984917630524, 36.171171554951435 ], [ 3.749984917630524, 36.170709115425268 ], [ 3.747764269728, 36.170709115425268 ], [ 3.747764269728, 36.171171554951435 ], [ 3.747024053760491, 36.171171554951435 ], [ 3.747024053760491, 36.171633991748799 ], [ 3.745543621825474, 36.171633991748799 ], [ 3.745543621825474, 36.17209642581733 ], [ 3.744803405857966, 36.17209642581733 ], [ 3.744803405857966, 36.172558857157064 ], [ 3.743322973922949, 36.172558857157064 ], [ 3.743322973922949, 36.173021285767938 ], [ 3.742582757955441, 36.173021285767938 ], [ 3.742582757955441, 36.173483711649958 ], [ 3.741102326020424, 36.173483711649958 ], [ 3.741102326020424, 36.174408555227394 ], [ 3.740362110052916, 36.174408555227394 ], [ 3.740362110052916, 36.176258209635364 ], [ 3.739621894085408, 36.176258209635364 ], [ 3.739621894085408, 36.177645421787389 ], [ 3.738881678117899, 36.177645421787389 ], [ 3.738881678117899, 36.178107820380092 ], [ 3.738141462150391, 36.178107820380092 ], [ 3.738141462150391, 36.178570216243784 ], [ 3.737401246182882, 36.178570216243784 ], [ 3.737401246182882, 36.17903260937846 ], [ 3.735920814247866, 36.17903260937846 ], [ 3.735920814247866, 36.180882154626616 ], [ 3.735180598280357, 36.180882154626616 ], [ 3.735180598280357, 36.182731656209292 ], [ 3.73444038231285, 36.182731656209292 ], [ 3.73444038231285, 36.183656390625785 ], [ 3.735180598280357, 36.183656390625785 ], [ 3.735180598280357, 36.185043471781654 ], [ 3.735920814247866, 36.185043471781654 ], [ 3.735920814247866, 36.186892875113685 ], [ 3.736661030215375, 36.186892875113685 ], [ 3.736661030215375, 36.187355219123539 ], [ 3.738141462150391, 36.187355219123539 ], [ 3.738141462150391, 36.187817560404099 ], [ 3.738881678117899, 36.187817560404099 ], [ 3.738881678117899, 36.188279898955365 ], [ 3.741102326020424, 36.188279898955365 ], [ 3.741102326020424, 36.187817560404099 ], [ 3.741842541987933, 36.187817560404099 ], [ 3.741842541987933, 36.187355219123539 ], [ 3.742582757955441, 36.187355219123539 ], [ 3.742582757955441, 36.186892875113685 ], [ 3.743322973922949, 36.186892875113685 ] ] ], [ [ [ 3.142267608306182, 36.604196059893432 ], [ 3.142267608306182, 36.603736188775677 ], [ 3.14300782427369, 36.603736188775677 ], [ 3.14300782427369, 36.602816438315351 ], [ 3.143748040241198, 36.602816438315351 ], [ 3.143748040241198, 36.601896676888721 ], [ 3.144488256208707, 36.601896676888721 ], [ 3.144488256208707, 36.598677425537396 ], [ 3.145228472176215, 36.598677425537396 ], [ 3.145228472176215, 36.595458039854627 ], [ 3.144488256208707, 36.595458039854627 ], [ 3.144488256208707, 36.594538190701364 ], [ 3.143748040241198, 36.594538190701364 ], [ 3.143748040241198, 36.593618330582743 ], [ 3.14300782427369, 36.593618330582743 ], [ 3.14300782427369, 36.593158396411461 ], [ 3.142267608306182, 36.593158396411461 ], [ 3.142267608306182, 36.592238519845012 ], [ 3.141527392338674, 36.592238519845012 ], [ 3.141527392338674, 36.591778577449873 ], [ 3.135605664598607, 36.591778577449873 ], [ 3.135605664598607, 36.592238519845012 ], [ 3.13412523266359, 36.592238519845012 ], [ 3.13412523266359, 36.592698459498877 ], [ 3.133385016696082, 36.592698459498877 ], [ 3.133385016696082, 36.593158396411461 ], [ 3.132644800728573, 36.593158396411461 ], [ 3.132644800728573, 36.593618330582743 ], [ 3.131904584761065, 36.593618330582743 ], [ 3.131904584761065, 36.594078262012708 ], [ 3.131164368793557, 36.594078262012708 ], [ 3.131164368793557, 36.594538190701364 ], [ 3.130424152826048, 36.594538190701364 ], [ 3.130424152826048, 36.594998116648675 ], [ 3.12968393685854, 36.594998116648675 ], [ 3.12968393685854, 36.595458039854627 ], [ 3.128943720891032, 36.595458039854627 ], [ 3.128943720891032, 36.601896676888721 ], [ 3.12968393685854, 36.601896676888721 ], [ 3.12968393685854, 36.602816438315351 ], [ 3.130424152826048, 36.602816438315351 ], [ 3.130424152826048, 36.603736188775677 ], [ 3.131164368793557, 36.603736188775677 ], [ 3.131164368793557, 36.604196059893432 ], [ 3.131904584761065, 36.604196059893432 ], [ 3.131904584761065, 36.604655928269572 ], [ 3.133385016696082, 36.604655928269572 ], [ 3.133385016696082, 36.605115793904091 ], [ 3.135605664598607, 36.605115793904091 ], [ 3.135605664598607, 36.605575656796958 ], [ 3.13856652846864, 36.605575656796958 ], [ 3.13856652846864, 36.606035516948175 ], [ 3.140046960403657, 36.606035516948175 ], [ 3.140046960403657, 36.605575656796958 ], [ 3.140787176371165, 36.605575656796958 ], [ 3.140787176371165, 36.605115793904091 ], [ 3.141527392338674, 36.605115793904091 ], [ 3.141527392338674, 36.604196059893432 ], [ 3.142267608306182, 36.604196059893432 ] ] ], [ [ [ 2.889113747418332, 36.610633967666281 ], [ 2.88985396338584, 36.610633967666281 ], [ 2.88985396338584, 36.61017413493235 ], [ 2.890594179353348, 36.61017413493235 ], [ 2.890594179353348, 36.606495374357721 ], [ 2.891334395320857, 36.606495374357721 ], [ 2.891334395320857, 36.605115793904091 ], [ 2.892814827255873, 36.605115793904091 ], [ 2.892814827255873, 36.605575656796958 ], [ 2.893555043223381, 36.605575656796958 ], [ 2.893555043223381, 36.606035516948175 ], [ 2.895035475158398, 36.606035516948175 ], [ 2.895035475158398, 36.605575656796958 ], [ 2.895775691125907, 36.605575656796958 ], [ 2.895775691125907, 36.605115793904091 ], [ 2.896515907093415, 36.605115793904091 ], [ 2.896515907093415, 36.604655928269572 ], [ 2.897256123060923, 36.604655928269572 ], [ 2.897256123060923, 36.604196059893432 ], [ 2.897996339028431, 36.604196059893432 ], [ 2.897996339028431, 36.603736188775677 ], [ 2.89873655499594, 36.603736188775677 ], [ 2.89873655499594, 36.603276314916315 ], [ 2.899476770963448, 36.603276314916315 ], [ 2.899476770963448, 36.602816438315351 ], [ 2.900216986930956, 36.602816438315351 ], [ 2.900216986930956, 36.602356558972815 ], [ 2.901697418865973, 36.602356558972815 ], [ 2.901697418865973, 36.601896676888721 ], [ 2.902437634833482, 36.601896676888721 ], [ 2.902437634833482, 36.600057121136963 ], [ 2.90317785080099, 36.600057121136963 ], [ 2.90317785080099, 36.598217521521264 ], [ 2.903918066768498, 36.598217521521264 ], [ 2.903918066768498, 36.597757614763687 ], [ 2.90317785080099, 36.597757614763687 ], [ 2.90317785080099, 36.596377878042439 ], [ 2.902437634833482, 36.596377878042439 ], [ 2.902437634833482, 36.595458039854627 ], [ 2.901697418865973, 36.595458039854627 ], [ 2.901697418865973, 36.594078262012708 ], [ 2.900957202898465, 36.594078262012708 ], [ 2.900957202898465, 36.593158396411461 ], [ 2.900216986930956, 36.593158396411461 ], [ 2.900216986930956, 36.592698459498877 ], [ 2.899476770963448, 36.592698459498877 ], [ 2.899476770963448, 36.593158396411461 ], [ 2.896515907093415, 36.593158396411461 ], [ 2.896515907093415, 36.593618330582743 ], [ 2.89429525919089, 36.593618330582743 ], [ 2.89429525919089, 36.594078262012708 ], [ 2.891334395320857, 36.594078262012708 ], [ 2.891334395320857, 36.594538190701364 ], [ 2.889113747418332, 36.594538190701364 ], [ 2.889113747418332, 36.596377878042439 ], [ 2.888373531450823, 36.596377878042439 ], [ 2.888373531450823, 36.598217521521264 ], [ 2.887633315483315, 36.598217521521264 ], [ 2.887633315483315, 36.598677425537396 ], [ 2.888373531450823, 36.598677425537396 ], [ 2.888373531450823, 36.600976904495894 ], [ 2.889113747418332, 36.600976904495894 ], [ 2.889113747418332, 36.601896676888721 ], [ 2.888373531450823, 36.601896676888721 ], [ 2.888373531450823, 36.601436792063076 ], [ 2.88541266758079, 36.601436792063076 ], [ 2.88541266758079, 36.600976904495894 ], [ 2.886152883548299, 36.600976904495894 ], [ 2.886152883548299, 36.599597225345263 ], [ 2.886893099515807, 36.599597225345263 ], [ 2.886893099515807, 36.597757614763687 ], [ 2.887633315483315, 36.597757614763687 ], [ 2.887633315483315, 36.596377878042439 ], [ 2.886893099515807, 36.596377878042439 ], [ 2.886893099515807, 36.594078262012708 ], [ 2.886152883548299, 36.594078262012708 ], [ 2.886152883548299, 36.592238519845012 ], [ 2.88541266758079, 36.592238519845012 ], [ 2.88541266758079, 36.591318632313481 ], [ 2.884672451613281, 36.591318632313481 ], [ 2.884672451613281, 36.590858684435844 ], [ 2.883932235645773, 36.590858684435844 ], [ 2.883932235645773, 36.590398733816969 ], [ 2.883192019678265, 36.590398733816969 ], [ 2.883192019678265, 36.58993878045689 ], [ 2.882451803710757, 36.58993878045689 ], [ 2.882451803710757, 36.589478824355602 ], [ 2.88097137177574, 36.589478824355602 ], [ 2.88097137177574, 36.589018865513104 ], [ 2.880231155808231, 36.589018865513104 ], [ 2.880231155808231, 36.588558903929453 ], [ 2.879490939840723, 36.588558903929453 ], [ 2.879490939840723, 36.588098939604613 ], [ 2.878010507905707, 36.588098939604613 ], [ 2.878010507905707, 36.588558903929453 ], [ 2.875049644035673, 36.588558903929453 ], [ 2.875049644035673, 36.589018865513104 ], [ 2.874309428068165, 36.589018865513104 ], [ 2.874309428068165, 36.589478824355602 ], [ 2.873569212100656, 36.589478824355602 ], [ 2.873569212100656, 36.58993878045689 ], [ 2.872828996133148, 36.58993878045689 ], [ 2.872828996133148, 36.590398733816969 ], [ 2.87208878016564, 36.590398733816969 ], [ 2.87208878016564, 36.590858684435844 ], [ 2.871348564198132, 36.590858684435844 ], [ 2.871348564198132, 36.591318632313481 ], [ 2.870608348230624, 36.591318632313481 ], [ 2.870608348230624, 36.591778577449873 ], [ 2.869868132263115, 36.591778577449873 ], [ 2.869868132263115, 36.592698459498877 ], [ 2.869127916295606, 36.592698459498877 ], [ 2.869127916295606, 36.594998116648675 ], [ 2.868387700328098, 36.594998116648675 ], [ 2.868387700328098, 36.597297705264687 ], [ 2.86764748436059, 36.597297705264687 ], [ 2.86764748436059, 36.600976904495894 ], [ 2.868387700328098, 36.600976904495894 ], [ 2.868387700328098, 36.602816438315351 ], [ 2.869127916295606, 36.602816438315351 ], [ 2.869127916295606, 36.604655928269572 ], [ 2.869868132263115, 36.604655928269572 ], [ 2.869868132263115, 36.605115793904091 ], [ 2.870608348230624, 36.605115793904091 ], [ 2.870608348230624, 36.605575656796958 ], [ 2.87208878016564, 36.605575656796958 ], [ 2.87208878016564, 36.606035516948175 ], [ 2.873569212100656, 36.606035516948175 ], [ 2.873569212100656, 36.606495374357721 ], [ 2.87653007597069, 36.606495374357721 ], [ 2.87653007597069, 36.606035516948175 ], [ 2.878010507905707, 36.606035516948175 ], [ 2.878010507905707, 36.605575656796958 ], [ 2.878750723873215, 36.605575656796958 ], [ 2.878750723873215, 36.605115793904091 ], [ 2.880231155808231, 36.605115793904091 ], [ 2.880231155808231, 36.604655928269572 ], [ 2.88097137177574, 36.604655928269572 ], [ 2.88097137177574, 36.605575656796958 ], [ 2.880231155808231, 36.605575656796958 ], [ 2.880231155808231, 36.607415080951746 ], [ 2.88097137177574, 36.607415080951746 ], [ 2.88097137177574, 36.608794620279923 ], [ 2.881711587743248, 36.608794620279923 ], [ 2.881711587743248, 36.61017413493235 ], [ 2.882451803710757, 36.61017413493235 ], [ 2.882451803710757, 36.610633967666281 ], [ 2.883192019678265, 36.610633967666281 ], [ 2.883192019678265, 36.611093797658391 ], [ 2.884672451613281, 36.611093797658391 ], [ 2.884672451613281, 36.611553624908673 ], [ 2.88541266758079, 36.611553624908673 ], [ 2.88541266758079, 36.612013449417155 ], [ 2.886893099515807, 36.612013449417155 ], [ 2.886893099515807, 36.611553624908673 ], [ 2.887633315483315, 36.611553624908673 ], [ 2.887633315483315, 36.611093797658391 ], [ 2.889113747418332, 36.611093797658391 ], [ 2.889113747418332, 36.610633967666281 ] ] ], [ [ [ 3.235534820212232, 36.636380224460474 ], [ 3.235534820212232, 36.635920545287931 ], [ 3.237015252147248, 36.635920545287931 ], [ 3.237015252147248, 36.635460863372849 ], [ 3.237755468114757, 36.635460863372849 ], [ 3.237755468114757, 36.635001178715243 ], [ 3.238495684082265, 36.635001178715243 ], [ 3.238495684082265, 36.634541491315147 ], [ 3.239235900049774, 36.634541491315147 ], [ 3.239235900049774, 36.632702714289934 ], [ 3.239976116017282, 36.632702714289934 ], [ 3.239976116017282, 36.62994446647923 ], [ 3.239235900049774, 36.62994446647923 ], [ 3.239235900049774, 36.628105579758056 ], [ 3.238495684082265, 36.628105579758056 ], [ 3.238495684082265, 36.626726385922929 ], [ 3.237755468114757, 36.626726385922929 ], [ 3.237755468114757, 36.624887422417736 ], [ 3.237015252147248, 36.624887422417736 ], [ 3.237015252147248, 36.624427674685869 ], [ 3.236275036179741, 36.624427674685869 ], [ 3.236275036179741, 36.623967924211811 ], [ 3.235534820212232, 36.623967924211811 ], [ 3.235534820212232, 36.623508170995557 ], [ 3.234054388277215, 36.623508170995557 ], [ 3.234054388277215, 36.623048415037132 ], [ 3.233314172309707, 36.623048415037132 ], [ 3.233314172309707, 36.622588656336532 ], [ 3.232573956342199, 36.622588656336532 ], [ 3.232573956342199, 36.622128894893805 ], [ 3.230353308439674, 36.622128894893805 ], [ 3.230353308439674, 36.622588656336532 ], [ 3.229613092472166, 36.622588656336532 ], [ 3.229613092472166, 36.623048415037132 ], [ 3.228872876504657, 36.623048415037132 ], [ 3.228872876504657, 36.623508170995557 ], [ 3.228132660537149, 36.623508170995557 ], [ 3.228132660537149, 36.623967924211811 ], [ 3.22739244456964, 36.623967924211811 ], [ 3.22739244456964, 36.624427674685869 ], [ 3.226652228602132, 36.624427674685869 ], [ 3.226652228602132, 36.624887422417736 ], [ 3.225912012634624, 36.624887422417736 ], [ 3.225912012634624, 36.625347167407384 ], [ 3.225171796667116, 36.625347167407384 ], [ 3.225171796667116, 36.625806909654813 ], [ 3.224431580699607, 36.625806909654813 ], [ 3.224431580699607, 36.627645851221985 ], [ 3.223691364732099, 36.627645851221985 ], [ 3.223691364732099, 36.630863893385722 ], [ 3.224431580699607, 36.630863893385722 ], [ 3.224431580699607, 36.632243013177515 ], [ 3.225171796667116, 36.632243013177515 ], [ 3.225171796667116, 36.633622108287483 ], [ 3.225912012634624, 36.633622108287483 ], [ 3.225912012634624, 36.635001178715243 ], [ 3.226652228602132, 36.635001178715243 ], [ 3.226652228602132, 36.636380224460474 ], [ 3.22739244456964, 36.636380224460474 ], [ 3.22739244456964, 36.636839900890493 ], [ 3.228872876504657, 36.636839900890493 ], [ 3.228872876504657, 36.637299574577931 ], [ 3.229613092472166, 36.637299574577931 ], [ 3.229613092472166, 36.637759245522808 ], [ 3.232573956342199, 36.637759245522808 ], [ 3.232573956342199, 36.637299574577931 ], [ 3.233314172309707, 36.637299574577931 ], [ 3.233314172309707, 36.636839900890493 ], [ 3.234794604244723, 36.636839900890493 ], [ 3.234794604244723, 36.636380224460474 ], [ 3.235534820212232, 36.636380224460474 ] ] ], [ [ [ 3.128943720891032, 36.686468809864046 ], [ 3.128943720891032, 36.685550046805048 ], [ 3.12968393685854, 36.685550046805048 ], [ 3.12968393685854, 36.684631272770233 ], [ 3.130424152826048, 36.684631272770233 ], [ 3.130424152826048, 36.683712487759699 ], [ 3.131164368793557, 36.683712487759699 ], [ 3.131164368793557, 36.682793691773554 ], [ 3.131904584761065, 36.682793691773554 ], [ 3.131904584761065, 36.681415477215303 ], [ 3.132644800728573, 36.681415477215303 ], [ 3.132644800728573, 36.676821250340389 ], [ 3.131904584761065, 36.676821250340389 ], [ 3.131904584761065, 36.676361812562291 ], [ 3.131164368793557, 36.676361812562291 ], [ 3.131164368793557, 36.675442928775055 ], [ 3.130424152826048, 36.675442928775055 ], [ 3.130424152826048, 36.674983482765938 ], [ 3.12968393685854, 36.674983482765938 ], [ 3.12968393685854, 36.674064582516735 ], [ 3.128943720891032, 36.674064582516735 ], [ 3.128943720891032, 36.673605128276698 ], [ 3.128203504923524, 36.673605128276698 ], [ 3.128203504923524, 36.672686211565782 ], [ 3.127463288956015, 36.672686211565782 ], [ 3.127463288956015, 36.672226749094932 ], [ 3.126723072988507, 36.672226749094932 ], [ 3.126723072988507, 36.671767283880513 ], [ 3.123021993150966, 36.671767283880513 ], [ 3.123021993150966, 36.672226749094932 ], [ 3.121541561215949, 36.672226749094932 ], [ 3.121541561215949, 36.672686211565782 ], [ 3.120801345248441, 36.672686211565782 ], [ 3.120801345248441, 36.673145671293035 ], [ 3.120061129280932, 36.673145671293035 ], [ 3.120061129280932, 36.673605128276698 ], [ 3.119320913313424, 36.673605128276698 ], [ 3.119320913313424, 36.674064582516735 ], [ 3.117840481378407, 36.674064582516735 ], [ 3.117840481378407, 36.67452403401316 ], [ 3.117100265410898, 36.67452403401316 ], [ 3.117100265410898, 36.674983482765938 ], [ 3.11636004944339, 36.674983482765938 ], [ 3.11636004944339, 36.675442928775055 ], [ 3.115619833475882, 36.675442928775055 ], [ 3.115619833475882, 36.675902372040525 ], [ 3.114879617508374, 36.675902372040525 ], [ 3.114879617508374, 36.676361812562291 ], [ 3.114139401540865, 36.676361812562291 ], [ 3.114139401540865, 36.676821250340389 ], [ 3.113399185573357, 36.676821250340389 ], [ 3.113399185573357, 36.677280685374775 ], [ 3.112658969605848, 36.677280685374775 ], [ 3.112658969605848, 36.677740117665422 ], [ 3.111178537670832, 36.677740117665422 ], [ 3.111178537670832, 36.681415477215303 ], [ 3.110438321703324, 36.681415477215303 ], [ 3.110438321703324, 36.684171881636921 ], [ 3.111178537670832, 36.684171881636921 ], [ 3.111178537670832, 36.684631272770233 ], [ 3.11191875363834, 36.684631272770233 ], [ 3.11191875363834, 36.685090661159613 ], [ 3.112658969605848, 36.685090661159613 ], [ 3.112658969605848, 36.68600942970653 ], [ 3.113399185573357, 36.68600942970653 ], [ 3.113399185573357, 36.686468809864046 ], [ 3.114139401540865, 36.686468809864046 ], [ 3.114139401540865, 36.68692818727758 ], [ 3.114879617508374, 36.68692818727758 ], [ 3.114879617508374, 36.687387561947112 ], [ 3.115619833475882, 36.687387561947112 ], [ 3.115619833475882, 36.687846933872635 ], [ 3.11636004944339, 36.687846933872635 ], [ 3.11636004944339, 36.688306303054155 ], [ 3.117100265410898, 36.688306303054155 ], [ 3.117100265410898, 36.688765669491623 ], [ 3.117840481378407, 36.688765669491623 ], [ 3.117840481378407, 36.689225033185046 ], [ 3.124502425085982, 36.689225033185046 ], [ 3.124502425085982, 36.688765669491623 ], [ 3.127463288956015, 36.688765669491623 ], [ 3.127463288956015, 36.687846933872635 ], [ 3.128203504923524, 36.687846933872635 ], [ 3.128203504923524, 36.686468809864046 ], [ 3.128943720891032, 36.686468809864046 ] ] ], [ [ [ 1.666276969094563, 41.319546424455204 ], [ 1.667017185062072, 41.319546424455204 ], [ 1.667017185062072, 41.318685952030009 ], [ 1.66775740102958, 41.318685952030009 ], [ 1.66775740102958, 41.318255711557249 ], [ 1.668497616997088, 41.318255711557249 ], [ 1.668497616997088, 41.317395222091427 ], [ 1.669237832964597, 41.317395222091427 ], [ 1.669237832964597, 41.316534721265214 ], [ 1.669978048932105, 41.316534721265214 ], [ 1.669978048932105, 41.315674209078693 ], [ 1.670718264899614, 41.315674209078693 ], [ 1.670718264899614, 41.31395315062484 ], [ 1.669978048932105, 41.31395315062484 ], [ 1.669978048932105, 41.308359396826262 ], [ 1.669237832964597, 41.308359396826262 ], [ 1.669237832964597, 41.30749877671883 ], [ 1.668497616997088, 41.30749877671883 ], [ 1.668497616997088, 41.306638145251547 ], [ 1.66775740102958, 41.306638145251547 ], [ 1.66775740102958, 41.306207825257957 ], [ 1.667017185062072, 41.306207825257957 ], [ 1.667017185062072, 41.305777502424441 ], [ 1.657394377484463, 41.305777502424441 ], [ 1.657394377484463, 41.306638145251547 ], [ 1.656654161516955, 41.306638145251547 ], [ 1.656654161516955, 41.307068462405169 ], [ 1.655913945549446, 41.307068462405169 ], [ 1.655913945549446, 41.307929088192537 ], [ 1.655173729581938, 41.307929088192537 ], [ 1.655173729581938, 41.308789702620011 ], [ 1.65443351361443, 41.308789702620011 ], [ 1.65443351361443, 41.318255711557249 ], [ 1.655173729581938, 41.318255711557249 ], [ 1.655173729581938, 41.319116189662658 ], [ 1.655913945549446, 41.319116189662658 ], [ 1.655913945549446, 41.319546424455204 ], [ 1.656654161516955, 41.319546424455204 ], [ 1.656654161516955, 41.320406885519908 ], [ 1.657394377484463, 41.320406885519908 ], [ 1.657394377484463, 41.320837111792073 ], [ 1.665536753127055, 41.320837111792073 ], [ 1.665536753127055, 41.320406885519908 ], [ 1.666276969094563, 41.320406885519908 ], [ 1.666276969094563, 41.319546424455204 ] ] ] ] } }
]
}
