{
"type": "FeatureCollection",
"name": "spain_fires_modis_ba",
"crs": { "type": "name", "properties": { "name": "urn:ogc:def:crs:OGC:1.3:CRS84" } },
"features": [
{ "type": "Feature", "properties": { }, "geometry": { "type": "MultiPolygon", "coordinates": [ [ [ [ -6.519031199612598, 42.666141224591357 ], [ -6.519031199612598, 42.665298766819575 ], [ -6.518290983645089, 42.665298766819575 ], [ -6.518290983645089, 42.661928821564082 ], [ -6.519031199612598, 42.661928821564082 ], [ -6.519031199612598, 42.663192572441403 ], [ -6.519771415580108, 42.663192572441403 ], [ -6.519771415580108, 42.66445629763092 ], [ -6.520511631547615, 42.66445629763092 ], [ -6.520511631547615, 42.666141224591357 ], [ -6.519031199612598, 42.666141224591357 ] ] ], [ [ [ -6.758861173085299, 42.728030610993933 ], [ -6.758861173085299, 42.72760980314235 ], [ -6.757380741150283, 42.72760980314235 ], [ -6.757380741150283, 42.726347362459329 ], [ -6.756640525182775, 42.726347362459329 ], [ -6.756640525182775, 42.725505721063776 ], [ -6.755900309215265, 42.725505721063776 ], [ -6.755900309215265, 42.723822404016296 ], [ -6.755160093247757, 42.723822404016296 ], [ -6.755160093247757, 42.721297342804554 ], [ -6.754419877280249, 42.721297342804554 ], [ -6.754419877280249, 42.718351308170263 ], [ -6.755160093247757, 42.718351308170263 ], [ -6.755160093247757, 42.717930434661042 ], [ -6.754419877280249, 42.717930434661042 ], [ -6.754419877280249, 42.717088679078707 ], [ -6.753679661312741, 42.717088679078707 ], [ -6.753679661312741, 42.716667797005591 ], [ -6.752939445345231, 42.716667797005591 ], [ -6.752939445345231, 42.71582602429546 ], [ -6.752199229377724, 42.71582602429546 ], [ -6.752199229377724, 42.714563343820615 ], [ -6.751459013410216, 42.714563343820615 ], [ -6.751459013410216, 42.71330063765425 ], [ -6.750718797442707, 42.71330063765425 ], [ -6.750718797442707, 42.711196070284963 ], [ -6.749978581475199, 42.711196070284963 ], [ -6.749978581475199, 42.70909143155103 ], [ -6.750718797442707, 42.70909143155103 ], [ -6.750718797442707, 42.706144817431721 ], [ -6.751459013410216, 42.706144817431721 ], [ -6.751459013410216, 42.70361903685928 ], [ -6.752199229377724, 42.70361903685928 ], [ -6.752199229377724, 42.701093153523928 ], [ -6.752939445345231, 42.701093153523928 ], [ -6.752939445345231, 42.698146159752746 ], [ -6.753679661312741, 42.698146159752746 ], [ -6.753679661312741, 42.695199026111972 ], [ -6.754419877280249, 42.695199026111972 ], [ -6.754419877280249, 42.693093845020478 ], [ -6.755160093247757, 42.693093845020478 ], [ -6.755160093247757, 42.691830702112277 ], [ -6.755900309215265, 42.691830702112277 ], [ -6.755900309215265, 42.690988592567969 ], [ -6.756640525182775, 42.690988592567969 ], [ -6.756640525182775, 42.690146471605971 ], [ -6.757380741150283, 42.690146471605971 ], [ -6.757380741150283, 42.689304339226304 ], [ -6.75812095711779, 42.689304339226304 ], [ -6.75812095711779, 42.688462195428997 ], [ -6.758861173085299, 42.688462195428997 ], [ -6.758861173085299, 42.687620040214071 ], [ -6.759601389052808, 42.687620040214071 ], [ -6.759601389052808, 42.687198958325013 ], [ -6.760341605020315, 42.687198958325013 ], [ -6.760341605020315, 42.686356785983719 ], [ -6.761081820987823, 42.686356785983719 ], [ -6.761081820987823, 42.685514602224885 ], [ -6.761822036955333, 42.685514602224885 ], [ -6.761822036955333, 42.685093506063893 ], [ -6.76256225292284, 42.685093506063893 ], [ -6.76256225292284, 42.684672407048524 ], [ -6.763302468890348, 42.684672407048524 ], [ -6.763302468890348, 42.684251305178783 ], [ -6.764042684857857, 42.684251305178783 ], [ -6.764042684857857, 42.683830200454665 ], [ -6.767003548727891, 42.683830200454665 ], [ -6.767003548727891, 42.684251305178783 ], [ -6.767743764695399, 42.684251305178783 ], [ -6.767743764695399, 42.685093506063893 ], [ -6.768483980662907, 42.685093506063893 ], [ -6.768483980662907, 42.685514602224885 ], [ -6.769224196630416, 42.685514602224885 ], [ -6.769224196630416, 42.685935695531491 ], [ -6.769964412597924, 42.685935695531491 ], [ -6.769964412597924, 42.686356785983719 ], [ -6.773665492435466, 42.686356785983719 ], [ -6.773665492435466, 42.685935695531491 ], [ -6.777366572273007, 42.685935695531491 ], [ -6.777366572273007, 42.686356785983719 ], [ -6.778847004208023, 42.686356785983719 ], [ -6.778847004208023, 42.687198958325013 ], [ -6.779587220175531, 42.687198958325013 ], [ -6.779587220175531, 42.687620040214071 ], [ -6.780327436143041, 42.687620040214071 ], [ -6.780327436143041, 42.68804111924873 ], [ -6.781067652110549, 42.68804111924873 ], [ -6.781067652110549, 42.688883268754857 ], [ -6.781807868078057, 42.688883268754857 ], [ -6.781807868078057, 42.690146471605971 ], [ -6.782548084045566, 42.690146471605971 ], [ -6.782548084045566, 42.693093845020478 ], [ -6.781807868078057, 42.693093845020478 ], [ -6.781807868078057, 42.697725149224624 ], [ -6.782548084045566, 42.697725149224624 ], [ -6.782548084045566, 42.698988172245535 ], [ -6.783288300013075, 42.698988172245535 ], [ -6.783288300013075, 42.69940917421021 ], [ -6.784028515980582, 42.69940917421021 ], [ -6.784028515980582, 42.703198063439686 ], [ -6.783288300013075, 42.703198063439686 ], [ -6.783288300013075, 42.706565770869567 ], [ -6.782548084045566, 42.706565770869567 ], [ -6.782548084045566, 42.707828614055813 ], [ -6.783288300013075, 42.707828614055813 ], [ -6.783288300013075, 42.708249556075451 ], [ -6.784028515980582, 42.708249556075451 ], [ -6.784028515980582, 42.70909143155103 ], [ -6.784768731948091, 42.70909143155103 ], [ -6.784768731948091, 42.709512365006972 ], [ -6.785508947915599, 42.709512365006972 ], [ -6.785508947915599, 42.70993329560833 ], [ -6.786249163883107, 42.70993329560833 ], [ -6.786249163883107, 42.711616989468006 ], [ -6.785508947915599, 42.711616989468006 ], [ -6.785508947915599, 42.712879729889586 ], [ -6.784768731948091, 42.712879729889586 ], [ -6.784768731948091, 42.713721542564308 ], [ -6.784028515980582, 42.713721542564308 ], [ -6.784028515980582, 42.714142444619768 ], [ -6.783288300013075, 42.714142444619768 ], [ -6.783288300013075, 42.714984240166849 ], [ -6.782548084045566, 42.714984240166849 ], [ -6.782548084045566, 42.71582602429546 ], [ -6.781807868078057, 42.71582602429546 ], [ -6.781807868078057, 42.717088679078707 ], [ -6.781067652110549, 42.717088679078707 ], [ -6.781067652110549, 42.718351308170263 ], [ -6.780327436143041, 42.718351308170263 ], [ -6.780327436143041, 42.719193046624746 ], [ -6.779587220175531, 42.719193046624746 ], [ -6.779587220175531, 42.72003477366065 ], [ -6.778847004208023, 42.72003477366065 ], [ -6.778847004208023, 42.720876489277913 ], [ -6.778106788240516, 42.720876489277913 ], [ -6.778106788240516, 42.721297342804554 ], [ -6.777366572273007, 42.721297342804554 ], [ -6.777366572273007, 42.721718193476534 ], [ -6.775886140337991, 42.721718193476534 ], [ -6.775886140337991, 42.722139041293836 ], [ -6.774405708402975, 42.722139041293836 ], [ -6.774405708402975, 42.722559886256469 ], [ -6.772925276467958, 42.722559886256469 ], [ -6.772925276467958, 42.722980728364426 ], [ -6.772185060500449, 42.722980728364426 ], [ -6.772185060500449, 42.723401567617707 ], [ -6.770704628565432, 42.723401567617707 ], [ -6.770704628565432, 42.723822404016296 ], [ -6.769964412597924, 42.723822404016296 ], [ -6.769964412597924, 42.724243237560209 ], [ -6.769224196630416, 42.724243237560209 ], [ -6.769224196630416, 42.724664068249425 ], [ -6.768483980662907, 42.724664068249425 ], [ -6.768483980662907, 42.725084896083935 ], [ -6.767743764695399, 42.725084896083935 ], [ -6.767743764695399, 42.725505721063776 ], [ -6.767003548727891, 42.725505721063776 ], [ -6.767003548727891, 42.726347362459329 ], [ -6.766263332760382, 42.726347362459329 ], [ -6.766263332760382, 42.726768178875055 ], [ -6.765523116792874, 42.726768178875055 ], [ -6.765523116792874, 42.727188992436055 ], [ -6.764782900825367, 42.727188992436055 ], [ -6.764782900825367, 42.72760980314235 ], [ -6.76256225292284, 42.72760980314235 ], [ -6.76256225292284, 42.728030610993933 ], [ -6.758861173085299, 42.728030610993933 ] ] ] ] } }
]
}
