{
"type": "FeatureCollection",
"name": "spain_fires_nrt_ba",
"crs": { "type": "name", "properties": { "name": "urn:ogc:def:crs:OGC:1.3:CRS84" } },
"features": [
{ "type": "Feature", "properties": { }, "geometry": { "type": "MultiPolygon", "coordinates": [ [ [ [ -1.900083562360591, 36.973044087250884 ], [ -1.900083562360591, 36.972128759221675 ], [ -1.899343346393083, 36.972128759221675 ], [ -1.899343346393083, 36.971213420184398 ], [ -1.898603130425575, 36.971213420184398 ], [ -1.898603130425575, 36.96984039098858 ], [ -1.897862914458066, 36.96984039098858 ], [ -1.897862914458066, 36.968925024431591 ], [ -1.897122698490558, 36.968925024431591 ], [ -1.897122698490558, 36.968467337025196 ], [ -1.897862914458066, 36.968467337025196 ], [ -1.897862914458066, 36.96572115479708 ], [ -1.898603130425575, 36.96572115479708 ], [ -1.898603130425575, 36.963432593931294 ], [ -1.899343346393083, 36.963432593931294 ], [ -1.899343346393083, 36.961601695706641 ], [ -1.900083562360591, 36.961601695706641 ], [ -1.900083562360591, 36.96068623008393 ], [ -1.900823778328099, 36.96068623008393 ], [ -1.900823778328099, 36.960228493144996 ], [ -1.901563994295608, 36.960228493144996 ], [ -1.901563994295608, 36.959313011012128 ], [ -1.902304210263116, 36.959313011012128 ], [ -1.902304210263116, 36.958855265818187 ], [ -1.903784642198133, 36.958855265818187 ], [ -1.903784642198133, 36.959313011012128 ], [ -1.906745506068166, 36.959313011012128 ], [ -1.906745506068166, 36.959770753454407 ], [ -1.908966153970691, 36.959770753454407 ], [ -1.908966153970691, 36.960228493144996 ], [ -1.9097063699382, 36.960228493144996 ], [ -1.9097063699382, 36.961143964271145 ], [ -1.910446585905708, 36.961143964271145 ], [ -1.910446585905708, 36.961601695706641 ], [ -1.911186801873216, 36.961601695706641 ], [ -1.911186801873216, 36.962059424390425 ], [ -1.911927017840724, 36.962059424390425 ], [ -1.911927017840724, 36.962974873502759 ], [ -1.912667233808233, 36.962974873502759 ], [ -1.912667233808233, 36.970755746537762 ], [ -1.911927017840724, 36.970755746537762 ], [ -1.911927017840724, 36.971671091079031 ], [ -1.911186801873216, 36.971671091079031 ], [ -1.911186801873216, 36.972128759221675 ], [ -1.910446585905708, 36.972128759221675 ], [ -1.910446585905708, 36.973044087250884 ], [ -1.9097063699382, 36.973044087250884 ], [ -1.9097063699382, 36.973501747137441 ], [ -1.90526507413315, 36.973501747137441 ], [ -1.90526507413315, 36.97395940427193 ], [ -1.900823778328099, 36.97395940427193 ], [ -1.900823778328099, 36.973044087250884 ], [ -1.900083562360591, 36.973044087250884 ] ] ], [ [ [ -6.566405021533132, 38.833774470320023 ], [ -6.566405021533132, 38.833328236089933 ], [ -6.563444157663099, 38.833328236089933 ], [ -6.563444157663099, 38.832881999062209 ], [ -6.561223509760573, 38.832881999062209 ], [ -6.561223509760573, 38.83243575923688 ], [ -6.558262645890541, 38.83243575923688 ], [ -6.558262645890541, 38.831989516613923 ], [ -6.557522429923032, 38.831989516613923 ], [ -6.557522429923032, 38.829758261535346 ], [ -6.556782213955524, 38.829758261535346 ], [ -6.556782213955524, 38.825295541562824 ], [ -6.557522429923032, 38.825295541562824 ], [ -6.557522429923032, 38.824849254179391 ], [ -6.558262645890541, 38.824849254179391 ], [ -6.558262645890541, 38.823956671020191 ], [ -6.559002861858048, 38.823956671020191 ], [ -6.559002861858048, 38.823510375244439 ], [ -6.559743077825557, 38.823510375244439 ], [ -6.559743077825557, 38.823064076671272 ], [ -6.561963725728082, 38.823064076671272 ], [ -6.561963725728082, 38.823510375244439 ], [ -6.569365885403165, 38.823510375244439 ], [ -6.569365885403165, 38.823956671020191 ], [ -6.573066965240707, 38.823956671020191 ], [ -6.573066965240707, 38.824402963998509 ], [ -6.573807181208216, 38.824402963998509 ], [ -6.573807181208216, 38.8257418261488 ], [ -6.574547397175724, 38.8257418261488 ], [ -6.574547397175724, 38.827080663121876 ], [ -6.575287613143232, 38.827080663121876 ], [ -6.575287613143232, 38.830204518146211 ], [ -6.574547397175724, 38.830204518146211 ], [ -6.574547397175724, 38.831989516613923 ], [ -6.573807181208216, 38.831989516613923 ], [ -6.573807181208216, 38.832881999062209 ], [ -6.572326749273199, 38.832881999062209 ], [ -6.572326749273199, 38.833328236089933 ], [ -6.57158653330569, 38.833328236089933 ], [ -6.57158653330569, 38.833774470320023 ], [ -6.570106101370673, 38.833774470320023 ], [ -6.570106101370673, 38.834220701752464 ], [ -6.569365885403165, 38.834220701752464 ], [ -6.569365885403165, 38.833774470320023 ], [ -6.566405021533132, 38.833774470320023 ] ] ], [ [ [ -3.475263141218327, 40.253030605299436 ], [ -3.475263141218327, 40.252593405012497 ], [ -3.473042493315802, 40.252593405012497 ], [ -3.473042493315802, 40.252156201901066 ], [ -3.471562061380785, 40.252156201901066 ], [ -3.471562061380785, 40.251718995965156 ], [ -3.470081629445768, 40.251718995965156 ], [ -3.470081629445768, 40.251281787204768 ], [ -3.468601197510752, 40.251281787204768 ], [ -3.468601197510752, 40.250844575619915 ], [ -3.467860981543244, 40.250844575619915 ], [ -3.467860981543244, 40.249970143976832 ], [ -3.467120765575736, 40.249970143976832 ], [ -3.467120765575736, 40.248221246797378 ], [ -3.466380549608227, 40.248221246797378 ], [ -3.466380549608227, 40.245160567993537 ], [ -3.467120765575736, 40.245160567993537 ], [ -3.467120765575736, 40.242974284116798 ], [ -3.467860981543244, 40.242974284116798 ], [ -3.467860981543244, 40.240350650261888 ], [ -3.468601197510752, 40.240350650261888 ], [ -3.468601197510752, 40.239038795206454 ], [ -3.470081629445768, 40.239038795206454 ], [ -3.470081629445768, 40.238601504539439 ], [ -3.470821845413277, 40.238601504539439 ], [ -3.470821845413277, 40.238164211048165 ], [ -3.472302277348294, 40.238164211048165 ], [ -3.472302277348294, 40.237726914732633 ], [ -3.473042493315802, 40.237726914732633 ], [ -3.473042493315802, 40.237289615592864 ], [ -3.474522925250819, 40.237289615592864 ], [ -3.474522925250819, 40.237726914732633 ], [ -3.476003357185836, 40.237726914732633 ], [ -3.476003357185836, 40.238164211048165 ], [ -3.477483789120852, 40.238164211048165 ], [ -3.477483789120852, 40.238601504539439 ], [ -3.478964221055869, 40.238601504539439 ], [ -3.478964221055869, 40.239038795206454 ], [ -3.479704437023377, 40.239038795206454 ], [ -3.479704437023377, 40.23991336806769 ], [ -3.480444652990886, 40.23991336806769 ], [ -3.480444652990886, 40.241225206177418 ], [ -3.481184868958394, 40.241225206177418 ], [ -3.481184868958394, 40.242974284116798 ], [ -3.481925084925902, 40.242974284116798 ], [ -3.481925084925902, 40.24428606291589 ], [ -3.482665300893411, 40.24428606291589 ], [ -3.482665300893411, 40.24559781629582 ], [ -3.483405516860918, 40.24559781629582 ], [ -3.483405516860918, 40.247784015441454 ], [ -3.482665300893411, 40.247784015441454 ], [ -3.482665300893411, 40.251718995965156 ], [ -3.481925084925902, 40.251718995965156 ], [ -3.481925084925902, 40.252156201901066 ], [ -3.481184868958394, 40.252156201901066 ], [ -3.481184868958394, 40.252593405012497 ], [ -3.480444652990886, 40.252593405012497 ], [ -3.480444652990886, 40.253030605299436 ], [ -3.478964221055869, 40.253030605299436 ], [ -3.478964221055869, 40.253467802761868 ], [ -3.476743573153344, 40.253467802761868 ], [ -3.476743573153344, 40.253030605299436 ], [ -3.475263141218327, 40.253030605299436 ] ] ], [ [ [ -8.542781654780384, 40.582310231336763 ], [ -8.543521870747893, 40.582310231336763 ], [ -8.543521870747893, 40.581875165546229 ], [ -8.544262086715401, 40.581875165546229 ], [ -8.544262086715401, 40.581440096925959 ], [ -8.545002302682908, 40.581440096925959 ], [ -8.545002302682908, 40.58056995119626 ], [ -8.545742518650417, 40.58056995119626 ], [ -8.545742518650417, 40.580134874086838 ], [ -8.546482734617927, 40.580134874086838 ], [ -8.546482734617927, 40.579699794147707 ], [ -8.547222950585434, 40.579699794147707 ], [ -8.547222950585434, 40.579264711378883 ], [ -8.54944359848796, 40.579264711378883 ], [ -8.54944359848796, 40.579699794147707 ], [ -8.550183814455467, 40.579699794147707 ], [ -8.550183814455467, 40.580134874086838 ], [ -8.550924030422976, 40.580134874086838 ], [ -8.550924030422976, 40.58056995119626 ], [ -8.551664246390486, 40.58056995119626 ], [ -8.551664246390486, 40.581005025475967 ], [ -8.552404462357993, 40.581005025475967 ], [ -8.552404462357993, 40.581440096925959 ], [ -8.553884894293011, 40.581440096925959 ], [ -8.553884894293011, 40.581875165546229 ], [ -8.554625110260519, 40.581875165546229 ], [ -8.554625110260519, 40.582310231336763 ], [ -8.555365326228026, 40.582310231336763 ], [ -8.555365326228026, 40.582745294297553 ], [ -8.556105542195535, 40.582745294297553 ], [ -8.556105542195535, 40.583615411729902 ], [ -8.556845758163044, 40.583615411729902 ], [ -8.556845758163044, 40.584920566655214 ], [ -8.557585974130552, 40.584920566655214 ], [ -8.557585974130552, 40.585790655789864 ], [ -8.558326190098061, 40.585790655789864 ], [ -8.558326190098061, 40.587095768268377 ], [ -8.559066406065568, 40.587095768268377 ], [ -8.559066406065568, 40.587530800101604 ], [ -8.559066406065568, 40.588400855278593 ], [ -8.558326190098061, 40.588400855278593 ], [ -8.558326190098061, 40.590140931674519 ], [ -8.557585974130552, 40.590140931674519 ], [ -8.557585974130552, 40.591445959257968 ], [ -8.556845758163044, 40.591445959257968 ], [ -8.556845758163044, 40.593185956417564 ], [ -8.556105542195535, 40.593185956417564 ], [ -8.556105542195535, 40.594925908298656 ], [ -8.556845758163044, 40.594925908298656 ], [ -8.556845758163044, 40.596665814900831 ], [ -8.557585974130552, 40.596665814900831 ], [ -8.557585974130552, 40.597535751222196 ], [ -8.558326190098061, 40.597535751222196 ], [ -8.558326190098061, 40.597970715137919 ], [ -8.559806622033076, 40.597970715137919 ], [ -8.559806622033076, 40.59840567622367 ], [ -8.561287053968092, 40.59840567622367 ], [ -8.561287053968092, 40.597535751222196 ], [ -8.562027269935601, 40.597535751222196 ], [ -8.562027269935601, 40.596665814900831 ], [ -8.562767485903109, 40.596665814900831 ], [ -8.562767485903109, 40.59623084249521 ], [ -8.567208781708159, 40.59623084249521 ], [ -8.567208781708159, 40.596665814900831 ], [ -8.567948997675668, 40.596665814900831 ], [ -8.567948997675668, 40.597535751222196 ], [ -8.568689213643177, 40.597535751222196 ], [ -8.568689213643177, 40.59840567622367 ], [ -8.569429429610686, 40.59840567622367 ], [ -8.569429429610686, 40.599710542500972 ], [ -8.570169645578193, 40.599710542500972 ], [ -8.570169645578193, 40.600580439202481 ], [ -8.570909861545701, 40.600580439202481 ], [ -8.570909861545701, 40.601885263029587 ], [ -8.570169645578193, 40.601885263029587 ], [ -8.570169645578193, 40.60319006138635 ], [ -8.569429429610686, 40.60319006138635 ], [ -8.569429429610686, 40.604059912807244 ], [ -8.568689213643177, 40.604059912807244 ], [ -8.568689213643177, 40.60492975290785 ], [ -8.567948997675668, 40.60492975290785 ], [ -8.567948997675668, 40.60579958168811 ], [ -8.567208781708159, 40.60579958168811 ], [ -8.567208781708159, 40.607974104111925 ], [ -8.566468565740651, 40.607974104111925 ], [ -8.566468565740651, 40.61101831663953 ], [ -8.565728349773142, 40.61101831663953 ], [ -8.565728349773142, 40.611453192822808 ], [ -8.564988133805635, 40.611453192822808 ], [ -8.564988133805635, 40.61232293669881 ], [ -8.564247917838125, 40.61232293669881 ], [ -8.564247917838125, 40.612757804391528 ], [ -8.563507701870618, 40.612757804391528 ], [ -8.563507701870618, 40.613192669254026 ], [ -8.562767485903109, 40.613192669254026 ], [ -8.562767485903109, 40.613627531286319 ], [ -8.562027269935601, 40.613627531286319 ], [ -8.562027269935601, 40.614062390488392 ], [ -8.561287053968092, 40.614062390488392 ], [ -8.561287053968092, 40.614497246860239 ], [ -8.560546838000585, 40.614497246860239 ], [ -8.560546838000585, 40.614932100401859 ], [ -8.559806622033076, 40.614932100401859 ], [ -8.559806622033076, 40.615366951113238 ], [ -8.559066406065568, 40.615366951113238 ], [ -8.559066406065568, 40.615801798994376 ], [ -8.557585974130552, 40.615801798994376 ], [ -8.557585974130552, 40.615366951113238 ], [ -8.556105542195535, 40.615366951113238 ], [ -8.556105542195535, 40.614932100401859 ], [ -8.555365326228026, 40.614932100401859 ], [ -8.555365326228026, 40.614497246860239 ], [ -8.553884894293011, 40.614497246860239 ], [ -8.553884894293011, 40.614062390488392 ], [ -8.550924030422976, 40.614062390488392 ], [ -8.550924030422976, 40.614497246860239 ], [ -8.548703382520451, 40.614497246860239 ], [ -8.548703382520451, 40.614932100401859 ], [ -8.547222950585434, 40.614932100401859 ], [ -8.547222950585434, 40.614062390488392 ], [ -8.546482734617927, 40.614062390488392 ], [ -8.546482734617927, 40.613627531286319 ], [ -8.545742518650417, 40.613627531286319 ], [ -8.545742518650417, 40.612757804391528 ], [ -8.545002302682908, 40.612757804391528 ], [ -8.545002302682908, 40.611888066175908 ], [ -8.544262086715401, 40.611888066175908 ], [ -8.544262086715401, 40.609713671108629 ], [ -8.540561006877859, 40.609713671108629 ], [ -8.540561006877859, 40.61014855578243 ], [ -8.538340358975335, 40.61014855578243 ], [ -8.538340358975335, 40.609713671108629 ], [ -8.537600143007827, 40.609713671108629 ], [ -8.537600143007827, 40.609278783604672 ], [ -8.536119711072811, 40.609278783604672 ], [ -8.536119711072811, 40.608843893270567 ], [ -8.535379495105303, 40.608843893270567 ], [ -8.535379495105303, 40.608409000106313 ], [ -8.534639279137794, 40.608409000106313 ], [ -8.534639279137794, 40.606669399147982 ], [ -8.533899063170285, 40.606669399147982 ], [ -8.533899063170285, 40.60492975290785 ], [ -8.533158847202776, 40.60492975290785 ], [ -8.533158847202776, 40.604494834272586 ], [ -8.533899063170285, 40.604494834272586 ], [ -8.533899063170285, 40.60319006138635 ], [ -8.534639279137794, 40.60319006138635 ], [ -8.534639279137794, 40.601885263029587 ], [ -8.535379495105303, 40.601885263029587 ], [ -8.535379495105303, 40.600145492266726 ], [ -8.534639279137794, 40.600145492266726 ], [ -8.534639279137794, 40.599710542500972 ], [ -8.533158847202776, 40.599710542500972 ], [ -8.533158847202776, 40.598840634479423 ], [ -8.532418631235267, 40.598840634479423 ], [ -8.532418631235267, 40.597100784476496 ], [ -8.531678415267759, 40.597100784476496 ], [ -8.531678415267759, 40.594490924573257 ], [ -8.532418631235267, 40.594490924573257 ], [ -8.532418631235267, 40.593185956417564 ], [ -8.533158847202776, 40.593185956417564 ], [ -8.533158847202776, 40.592315963497541 ], [ -8.533899063170285, 40.592315963497541 ], [ -8.533899063170285, 40.591010952893363 ], [ -8.534639279137794, 40.591010952893363 ], [ -8.534639279137794, 40.590575943698873 ], [ -8.539820790910351, 40.590575943698873 ], [ -8.539820790910351, 40.591445959257968 ], [ -8.540561006877859, 40.591445959257968 ], [ -8.540561006877859, 40.592315963497541 ], [ -8.541301222845368, 40.592315963497541 ], [ -8.541301222845368, 40.593620948632704 ], [ -8.542041438812877, 40.593620948632704 ], [ -8.542041438812877, 40.594490924573257 ], [ -8.542781654780384, 40.594490924573257 ], [ -8.542781654780384, 40.59623084249521 ], [ -8.542041438812877, 40.59623084249521 ], [ -8.542041438812877, 40.597535751222196 ], [ -8.541301222845368, 40.597535751222196 ], [ -8.541301222845368, 40.598840634479423 ], [ -8.540561006877859, 40.598840634479423 ], [ -8.540561006877859, 40.599275589905197 ], [ -8.542781654780384, 40.599275589905197 ], [ -8.542781654780384, 40.598840634479423 ], [ -8.546482734617927, 40.598840634479423 ], [ -8.546482734617927, 40.59840567622367 ], [ -8.545742518650417, 40.59840567622367 ], [ -8.545742518650417, 40.59623084249521 ], [ -8.545002302682908, 40.59623084249521 ], [ -8.545002302682908, 40.594055938017945 ], [ -8.544262086715401, 40.594055938017945 ], [ -8.544262086715401, 40.593185956417564 ], [ -8.545002302682908, 40.593185956417564 ], [ -8.545002302682908, 40.591010952893363 ], [ -8.545742518650417, 40.591010952893363 ], [ -8.545742518650417, 40.588835878622341 ], [ -8.545002302682908, 40.588835878622341 ], [ -8.545002302682908, 40.588400855278593 ], [ -8.544262086715401, 40.588400855278593 ], [ -8.544262086715401, 40.587530800101604 ], [ -8.543521870747893, 40.587530800101604 ], [ -8.543521870747893, 40.586660733605349 ], [ -8.542781654780384, 40.586660733605349 ], [ -8.542781654780384, 40.582310231336763 ] ] ], [ [ [ -2.022959412966975, 42.082983424883402 ], [ -2.021478981031958, 42.082983424883402 ], [ -2.021478981031958, 42.08255826784243 ], [ -2.019258333129433, 42.08255826784243 ], [ -2.019258333129433, 42.082133107952579 ], [ -2.017777901194417, 42.082133107952579 ], [ -2.017777901194417, 42.081707945213843 ], [ -2.0162974692594, 42.081707945213843 ], [ -2.0162974692594, 42.081282779626235 ], [ -2.014817037324383, 42.081282779626235 ], [ -2.014817037324383, 42.078731726274434 ], [ -2.014076821356875, 42.078731726274434 ], [ -2.014076821356875, 42.075755367741621 ], [ -2.013336605389366, 42.075755367741621 ], [ -2.013336605389366, 42.075330162270212 ], [ -2.012596389421858, 42.075330162270212 ], [ -2.012596389421858, 42.074479742780966 ], [ -2.01185617345435, 42.074479742780966 ], [ -2.01185617345435, 42.073629311896518 ], [ -2.011115957486842, 42.073629311896518 ], [ -2.011115957486842, 42.071503184831592 ], [ -2.01185617345435, 42.071503184831592 ], [ -2.01185617345435, 42.067675976642512 ], [ -2.012596389421858, 42.067675976642512 ], [ -2.012596389421858, 42.067250717044445 ], [ -2.013336605389366, 42.067250717044445 ], [ -2.013336605389366, 42.066825454597662 ], [ -2.014076821356875, 42.066825454597662 ], [ -2.014076821356875, 42.066400189302144 ], [ -2.015557253291892, 42.066400189302144 ], [ -2.015557253291892, 42.06597492115791 ], [ -2.017777901194417, 42.06597492115791 ], [ -2.017777901194417, 42.066400189302144 ], [ -2.018518117161925, 42.066400189302144 ], [ -2.018518117161925, 42.066825454597662 ], [ -2.019258333129433, 42.066825454597662 ], [ -2.019258333129433, 42.067250717044445 ], [ -2.019998549096941, 42.067250717044445 ], [ -2.019998549096941, 42.067675976642512 ], [ -2.021478981031958, 42.067675976642512 ], [ -2.021478981031958, 42.067250717044445 ], [ -2.022219196999467, 42.067250717044445 ], [ -2.022219196999467, 42.066825454597662 ], [ -2.022959412966975, 42.066825454597662 ], [ -2.022959412966975, 42.066400189302144 ], [ -2.026660492804516, 42.066400189302144 ], [ -2.026660492804516, 42.066825454597662 ], [ -2.02962135667455, 42.066825454597662 ], [ -2.02962135667455, 42.067250717044445 ], [ -2.031842004577074, 42.067250717044445 ], [ -2.031842004577074, 42.067675976642512 ], [ -2.033322436512092, 42.067675976642512 ], [ -2.033322436512092, 42.069376986547397 ], [ -2.0340626524796, 42.069376986547397 ], [ -2.0340626524796, 42.071077950872287 ], [ -2.034802868447108, 42.071077950872287 ], [ -2.034802868447108, 42.071928415942139 ], [ -2.0340626524796, 42.071928415942139 ], [ -2.0340626524796, 42.075330162270212 ], [ -2.033322436512092, 42.075330162270212 ], [ -2.033322436512092, 42.078306540744819 ], [ -2.032582220544583, 42.078306540744819 ], [ -2.032582220544583, 42.080857611189749 ], [ -2.031842004577074, 42.080857611189749 ], [ -2.031842004577074, 42.081282779626235 ], [ -2.030361572642058, 42.081282779626235 ], [ -2.030361572642058, 42.081707945213843 ], [ -2.02962135667455, 42.081707945213843 ], [ -2.02962135667455, 42.082133107952579 ], [ -2.028881140707042, 42.082133107952579 ], [ -2.028881140707042, 42.08255826784243 ], [ -2.028140924739533, 42.08255826784243 ], [ -2.028140924739533, 42.082983424883402 ], [ -2.027400708772025, 42.082983424883402 ], [ -2.027400708772025, 42.083408579075495 ], [ -2.025920276837008, 42.083408579075495 ], [ -2.025920276837008, 42.083833730418682 ], [ -2.024439844901992, 42.083833730418682 ], [ -2.024439844901992, 42.083408579075495 ], [ -2.022959412966975, 42.083408579075495 ], [ -2.022959412966975, 42.082983424883402 ] ] ], [ [ [ -0.277530161582322, 35.824969885320684 ], [ -0.276789945614814, 35.824969885320684 ], [ -0.276789945614814, 35.824505411354338 ], [ -0.276049729647306, 35.824505411354338 ], [ -0.276049729647306, 35.824040934669902 ], [ -0.274569297712289, 35.824040934669902 ], [ -0.274569297712289, 35.8235764552674 ], [ -0.271608433842256, 35.8235764552674 ], [ -0.271608433842256, 35.82311197314683 ], [ -0.269387785939731, 35.82311197314683 ], [ -0.269387785939731, 35.822647488308213 ], [ -0.266426922069697, 35.822647488308213 ], [ -0.266426922069697, 35.822183000751579 ], [ -0.264206274167172, 35.822183000751579 ], [ -0.264206274167172, 35.821718510476927 ], [ -0.261245410297139, 35.821718510476927 ], [ -0.261245410297139, 35.821254017484272 ], [ -0.260505194329631, 35.821254017484272 ], [ -0.260505194329631, 35.820325023345006 ], [ -0.259764978362122, 35.820325023345006 ], [ -0.259764978362122, 35.819860522198454 ], [ -0.259024762394614, 35.819860522198454 ], [ -0.259024762394614, 35.818931511751508 ], [ -0.258284546427106, 35.818931511751508 ], [ -0.258284546427106, 35.818467002451158 ], [ -0.257544330459597, 35.818467002451158 ], [ -0.257544330459597, 35.818002490432896 ], [ -0.256804114492089, 35.818002490432896 ], [ -0.256804114492089, 35.81753797569678 ], [ -0.253103034654547, 35.81753797569678 ], [ -0.253103034654547, 35.817073458242774 ], [ -0.248661738849497, 35.817073458242774 ], [ -0.248661738849497, 35.816608938070921 ], [ -0.246441090946972, 35.816608938070921 ], [ -0.246441090946972, 35.817073458242774 ], [ -0.245700874979464, 35.817073458242774 ], [ -0.245700874979464, 35.81753797569678 ], [ -0.244960659011956, 35.81753797569678 ], [ -0.244960659011956, 35.818002490432896 ], [ -0.244220443044447, 35.818002490432896 ], [ -0.244220443044447, 35.818467002451158 ], [ -0.243480227076939, 35.818467002451158 ], [ -0.243480227076939, 35.818931511751508 ], [ -0.242740011109431, 35.818931511751508 ], [ -0.242740011109431, 35.81939601833394 ], [ -0.239779147239397, 35.81939601833394 ], [ -0.239779147239397, 35.818931511751508 ], [ -0.237558499336872, 35.818931511751508 ], [ -0.237558499336872, 35.818467002451158 ], [ -0.236078067401856, 35.818467002451158 ], [ -0.236078067401856, 35.818002490432896 ], [ -0.234597635466839, 35.818002490432896 ], [ -0.234597635466839, 35.81753797569678 ], [ -0.232376987564314, 35.81753797569678 ], [ -0.232376987564314, 35.817073458242774 ], [ -0.231636771596806, 35.817073458242774 ], [ -0.231636771596806, 35.816144415181228 ], [ -0.230896555629297, 35.816144415181228 ], [ -0.230896555629297, 35.815215361248384 ], [ -0.230156339661789, 35.815215361248384 ], [ -0.230156339661789, 35.814286296444358 ], [ -0.229416123694281, 35.814286296444358 ], [ -0.229416123694281, 35.813821759965677 ], [ -0.228675907726772, 35.813821759965677 ], [ -0.228675907726772, 35.813357220769255 ], [ -0.227195475791756, 35.813357220769255 ], [ -0.227195475791756, 35.812892678855093 ], [ -0.225715043856739, 35.812892678855093 ], [ -0.225715043856739, 35.812428134223211 ], [ -0.224234611921722, 35.812428134223211 ], [ -0.224234611921722, 35.810569928518746 ], [ -0.223494395954214, 35.810569928518746 ], [ -0.223494395954214, 35.805924224024189 ], [ -0.224234611921722, 35.805924224024189 ], [ -0.224234611921722, 35.803601269869652 ], [ -0.224974827889231, 35.803601269869652 ], [ -0.224974827889231, 35.803136670886389 ], [ -0.225715043856739, 35.803136670886389 ], [ -0.225715043856739, 35.80220746476764 ], [ -0.226455259824247, 35.80220746476764 ], [ -0.226455259824247, 35.801742857632192 ], [ -0.227195475791756, 35.801742857632192 ], [ -0.227195475791756, 35.801278247779365 ], [ -0.228675907726772, 35.801278247779365 ], [ -0.228675907726772, 35.800813635209181 ], [ -0.233117203531822, 35.800813635209181 ], [ -0.233117203531822, 35.800349019921647 ], [ -0.233857419499331, 35.800349019921647 ], [ -0.233857419499331, 35.800813635209181 ], [ -0.234597635466839, 35.800813635209181 ], [ -0.234597635466839, 35.801278247779365 ], [ -0.236078067401856, 35.801278247779365 ], [ -0.236078067401856, 35.801742857632192 ], [ -0.236818283369364, 35.801742857632192 ], [ -0.236818283369364, 35.80220746476764 ], [ -0.237558499336872, 35.80220746476764 ], [ -0.237558499336872, 35.802672069185711 ], [ -0.239038931271889, 35.802672069185711 ], [ -0.239038931271889, 35.801278247779365 ], [ -0.239779147239397, 35.801278247779365 ], [ -0.239779147239397, 35.799884401916799 ], [ -0.240519363206906, 35.799884401916799 ], [ -0.240519363206906, 35.798955157755167 ], [ -0.241259579174414, 35.798955157755167 ], [ -0.241259579174414, 35.798490531598425 ], [ -0.241999795141922, 35.798490531598425 ], [ -0.241999795141922, 35.798025902724412 ], [ -0.243480227076939, 35.798025902724412 ], [ -0.243480227076939, 35.797561271133148 ], [ -0.246441090946972, 35.797561271133148 ], [ -0.246441090946972, 35.798025902724412 ], [ -0.247181306914481, 35.798025902724412 ], [ -0.247181306914481, 35.798490531598425 ], [ -0.247921522881989, 35.798490531598425 ], [ -0.247921522881989, 35.798955157755167 ], [ -0.251622602719531, 35.798955157755167 ], [ -0.251622602719531, 35.798490531598425 ], [ -0.254583466589564, 35.798490531598425 ], [ -0.254583466589564, 35.798025902724412 ], [ -0.258284546427106, 35.798025902724412 ], [ -0.258284546427106, 35.797561271133148 ], [ -0.261985626264647, 35.797561271133148 ], [ -0.261985626264647, 35.798025902724412 ], [ -0.264206274167172, 35.798025902724412 ], [ -0.264206274167172, 35.798490531598425 ], [ -0.266426922069697, 35.798490531598425 ], [ -0.266426922069697, 35.798955157755167 ], [ -0.267167138037206, 35.798955157755167 ], [ -0.267167138037206, 35.799419781194644 ], [ -0.267907354004714, 35.799419781194644 ], [ -0.267907354004714, 35.799884401916799 ], [ -0.268647569972222, 35.799884401916799 ], [ -0.268647569972222, 35.800349019921647 ], [ -0.269387785939731, 35.800349019921647 ], [ -0.269387785939731, 35.800813635209181 ], [ -0.270128001907239, 35.800813635209181 ], [ -0.270128001907239, 35.801278247779365 ], [ -0.270868217874747, 35.801278247779365 ], [ -0.270868217874747, 35.801742857632192 ], [ -0.271608433842256, 35.801742857632192 ], [ -0.271608433842256, 35.80220746476764 ], [ -0.272348649809764, 35.80220746476764 ], [ -0.272348649809764, 35.803136670886389 ], [ -0.273088865777272, 35.803136670886389 ], [ -0.273088865777272, 35.803601269869652 ], [ -0.273829081744781, 35.803601269869652 ], [ -0.273829081744781, 35.804065866135467 ], [ -0.275309513679797, 35.804065866135467 ], [ -0.275309513679797, 35.803136670886389 ], [ -0.276049729647306, 35.803136670886389 ], [ -0.276049729647306, 35.80220746476764 ], [ -0.276789945614814, 35.80220746476764 ], [ -0.276789945614814, 35.801278247779365 ], [ -0.277530161582322, 35.801278247779365 ], [ -0.277530161582322, 35.800813635209181 ], [ -0.282711673354881, 35.800813635209181 ], [ -0.282711673354881, 35.801742857632192 ], [ -0.283451889322389, 35.801742857632192 ], [ -0.283451889322389, 35.802672069185711 ], [ -0.284192105289897, 35.802672069185711 ], [ -0.284192105289897, 35.803136670886389 ], [ -0.284932321257406, 35.803136670886389 ], [ -0.284932321257406, 35.804995050514783 ], [ -0.285672537224914, 35.804995050514783 ], [ -0.285672537224914, 35.811499036806339 ], [ -0.286412753192422, 35.811499036806339 ], [ -0.286412753192422, 35.81753797569678 ], [ -0.287152969159931, 35.81753797569678 ], [ -0.287152969159931, 35.821254017484272 ], [ -0.286412753192422, 35.821254017484272 ], [ -0.286412753192422, 35.822183000751579 ], [ -0.285672537224914, 35.822183000751579 ], [ -0.285672537224914, 35.822647488308213 ], [ -0.284932321257406, 35.822647488308213 ], [ -0.284932321257406, 35.82311197314683 ], [ -0.284192105289897, 35.82311197314683 ], [ -0.284192105289897, 35.8235764552674 ], [ -0.283451889322389, 35.8235764552674 ], [ -0.283451889322389, 35.824040934669902 ], [ -0.282711673354881, 35.824040934669902 ], [ -0.282711673354881, 35.824505411354338 ], [ -0.281971457387372, 35.824505411354338 ], [ -0.281971457387372, 35.824969885320684 ], [ -0.281231241419864, 35.824969885320684 ], [ -0.281231241419864, 35.82543435656892 ], [ -0.280491025452356, 35.82543435656892 ], [ -0.280491025452356, 35.825898825099053 ], [ -0.278270377549831, 35.825898825099053 ], [ -0.278270377549831, 35.82543435656892 ], [ -0.277530161582322, 35.82543435656892 ], [ -0.277530161582322, 35.824969885320684 ] ] ], [ [ [ 4.448008574990883, 35.887184805720871 ], [ 4.448748790958392, 35.887184805720871 ], [ 4.448748790958392, 35.886720696110231 ], [ 4.450229222893409, 35.886720696110231 ], [ 4.450229222893409, 35.886256583779549 ], [ 4.450969438860917, 35.886256583779549 ], [ 4.450969438860917, 35.885792468728852 ], [ 4.451709654828425, 35.885792468728852 ], [ 4.451709654828425, 35.885328350958126 ], [ 4.452449870795934, 35.885328350958126 ], [ 4.452449870795934, 35.884864230467407 ], [ 4.453190086763442, 35.884864230467407 ], [ 4.453190086763442, 35.883935981326061 ], [ 4.45393030273095, 35.883935981326061 ], [ 4.45393030273095, 35.882079450404035 ], [ 4.454670518698459, 35.882079450404035 ], [ 4.454670518698459, 35.879758725553984 ], [ 4.45393030273095, 35.879758725553984 ], [ 4.45393030273095, 35.877902096717058 ], [ 4.453190086763442, 35.877902096717058 ], [ 4.453190086763442, 35.876973765979955 ], [ 4.452449870795934, 35.876973765979955 ], [ 4.452449870795934, 35.876509596531797 ], [ 4.451709654828425, 35.876509596531797 ], [ 4.451709654828425, 35.876045424363902 ], [ 4.450969438860917, 35.876045424363902 ], [ 4.450969438860917, 35.875581249476319 ], [ 4.450229222893409, 35.875581249476319 ], [ 4.450229222893409, 35.875117071869035 ], [ 4.448748790958392, 35.875117071869035 ], [ 4.448748790958392, 35.874652891542084 ], [ 4.448008574990883, 35.874652891542084 ], [ 4.448008574990883, 35.874188708495474 ], [ 4.447268359023375, 35.874188708495474 ], [ 4.447268359023375, 35.873724522729191 ], [ 4.446528143055867, 35.873724522729191 ], [ 4.446528143055867, 35.873260334243312 ], [ 4.44504771112085, 35.873260334243312 ], [ 4.44504771112085, 35.872796143037782 ], [ 4.442827063218325, 35.872796143037782 ], [ 4.442827063218325, 35.873260334243312 ], [ 4.4406064153158, 35.873260334243312 ], [ 4.4406064153158, 35.873724522729191 ], [ 4.438385767413275, 35.873724522729191 ], [ 4.438385767413275, 35.875117071869035 ], [ 4.437645551445767, 35.875117071869035 ], [ 4.437645551445767, 35.877437932708382 ], [ 4.436905335478258, 35.877437932708382 ], [ 4.436905335478258, 35.880687023653572 ], [ 4.437645551445767, 35.880687023653572 ], [ 4.437645551445767, 35.882543587214421 ], [ 4.438385767413275, 35.882543587214421 ], [ 4.438385767413275, 35.883471852675449 ], [ 4.439125983380783, 35.883471852675449 ], [ 4.439125983380783, 35.883935981326061 ], [ 4.439866199348292, 35.883935981326061 ], [ 4.439866199348292, 35.884400107256724 ], [ 4.4406064153158, 35.884400107256724 ], [ 4.4406064153158, 35.884864230467407 ], [ 4.441346631283309, 35.884864230467407 ], [ 4.441346631283309, 35.885328350958126 ], [ 4.442086847250817, 35.885328350958126 ], [ 4.442086847250817, 35.885792468728852 ], [ 4.442827063218325, 35.885792468728852 ], [ 4.442827063218325, 35.886256583779549 ], [ 4.443567279185833, 35.886256583779549 ], [ 4.443567279185833, 35.887184805720871 ], [ 4.444307495153342, 35.887184805720871 ], [ 4.444307495153342, 35.887648912611461 ], [ 4.44504771112085, 35.887648912611461 ], [ 4.44504771112085, 35.888113016781979 ], [ 4.447268359023375, 35.888113016781979 ], [ 4.447268359023375, 35.887648912611461 ], [ 4.448008574990883, 35.887648912611461 ], [ 4.448008574990883, 35.887184805720871 ] ] ], [ [ [ 1.235471276004713, 41.190348632324053 ], [ 1.236211491972221, 41.190348632324053 ], [ 1.236211491972221, 41.189486456332077 ], [ 1.236951707939729, 41.189486456332077 ], [ 1.236951707939729, 41.189055364078449 ], [ 1.237691923907238, 41.189055364078449 ], [ 1.237691923907238, 41.185606523866817 ], [ 1.238432139874746, 41.185606523866817 ], [ 1.238432139874746, 41.186037638827635 ], [ 1.240652787777271, 41.186037638827635 ], [ 1.240652787777271, 41.185606523866817 ], [ 1.242133219712288, 41.185606523866817 ], [ 1.242133219712288, 41.185175406067621 ], [ 1.242873435679796, 41.185175406067621 ], [ 1.242873435679796, 41.18474428543005 ], [ 1.243613651647304, 41.18474428543005 ], [ 1.243613651647304, 41.18388203563984 ], [ 1.244353867614813, 41.18388203563984 ], [ 1.244353867614813, 41.180432922945414 ], [ 1.245094083582321, 41.180432922945414 ], [ 1.245094083582321, 41.178277135266292 ], [ 1.244353867614813, 41.178277135266292 ], [ 1.244353867614813, 41.177845969215618 ], [ 1.243613651647304, 41.177845969215618 ], [ 1.243613651647304, 41.176983628599459 ], [ 1.242873435679796, 41.176983628599459 ], [ 1.242873435679796, 41.176552454033988 ], [ 1.242133219712288, 41.176552454033988 ], [ 1.242133219712288, 41.171378137866199 ], [ 1.24139300374478, 41.171378137866199 ], [ 1.24139300374478, 41.170946926403879 ], [ 1.240652787777271, 41.170946926403879 ], [ 1.240652787777271, 41.170084494964705 ], [ 1.239912571809763, 41.170084494964705 ], [ 1.239912571809763, 41.16922205217287 ], [ 1.239172355842254, 41.16922205217287 ], [ 1.239172355842254, 41.168790826519711 ], [ 1.233990844069696, 41.168790826519711 ], [ 1.233990844069696, 41.169653274987866 ], [ 1.233250628102188, 41.169653274987866 ], [ 1.233250628102188, 41.170515712103381 ], [ 1.232510412134679, 41.170515712103381 ], [ 1.232510412134679, 41.170946926403879 ], [ 1.231770196167171, 41.170946926403879 ], [ 1.231770196167171, 41.171809346490335 ], [ 1.229549548264646, 41.171809346490335 ], [ 1.229549548264646, 41.171378137866199 ], [ 1.226588684394613, 41.171378137866199 ], [ 1.226588684394613, 41.171809346490335 ], [ 1.225848468427105, 41.171809346490335 ], [ 1.225848468427105, 41.172240552276278 ], [ 1.225108252459596, 41.172240552276278 ], [ 1.225108252459596, 41.173102955333569 ], [ 1.224368036492088, 41.173102955333569 ], [ 1.224368036492088, 41.173965347038035 ], [ 1.223627820524579, 41.173965347038035 ], [ 1.223627820524579, 41.174396538632941 ], [ 1.222887604557071, 41.174396538632941 ], [ 1.222887604557071, 41.174827727389626 ], [ 1.221407172622054, 41.174827727389626 ], [ 1.221407172622054, 41.175258913308078 ], [ 1.21918652471953, 41.175258913308078 ], [ 1.21918652471953, 41.175690096388287 ], [ 1.216965876817005, 41.175690096388287 ], [ 1.216965876817005, 41.176121276630262 ], [ 1.215485444881988, 41.176121276630262 ], [ 1.215485444881988, 41.179570616388638 ], [ 1.214745228914479, 41.179570616388638 ], [ 1.214745228914479, 41.182588639666911 ], [ 1.215485444881988, 41.182588639666911 ], [ 1.215485444881988, 41.183450906487195 ], [ 1.216225660849496, 41.183450906487195 ], [ 1.216225660849496, 41.18474428543005 ], [ 1.216965876817005, 41.18474428543005 ], [ 1.216965876817005, 41.185606523866817 ], [ 1.217706092784513, 41.185606523866817 ], [ 1.217706092784513, 41.186468750950077 ], [ 1.218446308752021, 41.186468750950077 ], [ 1.218446308752021, 41.187762070287071 ], [ 1.21918652471953, 41.187762070287071 ], [ 1.21918652471953, 41.188624268986402 ], [ 1.224368036492088, 41.188624268986402 ], [ 1.224368036492088, 41.18819317105595 ], [ 1.225108252459596, 41.18819317105595 ], [ 1.225108252459596, 41.187762070287071 ], [ 1.225848468427105, 41.187762070287071 ], [ 1.225848468427105, 41.187330966679809 ], [ 1.226588684394613, 41.187330966679809 ], [ 1.226588684394613, 41.18819317105595 ], [ 1.227328900362121, 41.18819317105595 ], [ 1.227328900362121, 41.189055364078449 ], [ 1.22806911632963, 41.189055364078449 ], [ 1.22806911632963, 41.189917545747278 ], [ 1.228809332297138, 41.189917545747278 ], [ 1.228809332297138, 41.19077971606238 ], [ 1.229549548264646, 41.19077971606238 ], [ 1.229549548264646, 41.191641875023713 ], [ 1.234731060037205, 41.191641875023713 ], [ 1.234731060037205, 41.191210796962274 ], [ 1.235471276004713, 41.191210796962274 ], [ 1.235471276004713, 41.190348632324053 ] ] ], [ [ [ -1.481861540718382, 41.4806841953082 ], [ -1.481861540718382, 41.47982585373213 ], [ -1.481121324750874, 41.47982585373213 ], [ -1.481121324750874, 41.478967500787547 ], [ -1.480381108783366, 41.478967500787547 ], [ -1.480381108783366, 41.471671041760793 ], [ -1.481121324750874, 41.471671041760793 ], [ -1.481121324750874, 41.47081258081743 ], [ -1.481861540718382, 41.47081258081743 ], [ -1.481861540718382, 41.469954108505995 ], [ -1.48260175668589, 41.469954108505995 ], [ -1.48260175668589, 41.469095624826537 ], [ -1.483341972653399, 41.469095624826537 ], [ -1.483341972653399, 41.468666378723803 ], [ -1.488523484425957, 41.468666378723803 ], [ -1.488523484425957, 41.468237129779084 ], [ -1.489263700393465, 41.468237129779084 ], [ -1.489263700393465, 41.468666378723803 ], [ -1.490003916360974, 41.468666378723803 ], [ -1.490003916360974, 41.469095624826537 ], [ -1.490744132328482, 41.469095624826537 ], [ -1.490744132328482, 41.469524868087262 ], [ -1.491484348295991, 41.469524868087262 ], [ -1.491484348295991, 41.469954108505995 ], [ -1.492224564263499, 41.469954108505995 ], [ -1.492224564263499, 41.47081258081743 ], [ -1.492964780231007, 41.47081258081743 ], [ -1.492964780231007, 41.471241812710133 ], [ -1.493704996198516, 41.471241812710133 ], [ -1.493704996198516, 41.471671041760793 ], [ -1.494445212166024, 41.471671041760793 ], [ -1.494445212166024, 41.472100267969438 ], [ -1.495185428133532, 41.472100267969438 ], [ -1.495185428133532, 41.478967500787547 ], [ -1.494445212166024, 41.478967500787547 ], [ -1.494445212166024, 41.479396678680899 ], [ -1.493704996198516, 41.479396678680899 ], [ -1.493704996198516, 41.480255025941226 ], [ -1.492964780231007, 41.480255025941226 ], [ -1.492964780231007, 41.481113361833017 ], [ -1.492224564263499, 41.481113361833017 ], [ -1.492224564263499, 41.4815425255157 ], [ -1.491484348295991, 41.4815425255157 ], [ -1.491484348295991, 41.481971686356232 ], [ -1.486302836523432, 41.481971686356232 ], [ -1.486302836523432, 41.4815425255157 ], [ -1.48260175668589, 41.4815425255157 ], [ -1.48260175668589, 41.4806841953082 ], [ -1.481861540718382, 41.4806841953082 ] ] ], [ [ [ 0.185104818110386, 41.933152185371853 ], [ 0.185104818110386, 41.932726025795461 ], [ 0.185845034077895, 41.932726025795461 ], [ 0.185845034077895, 41.932299863371739 ], [ 0.186585250045403, 41.932299863371739 ], [ 0.186585250045403, 41.931021359016711 ], [ 0.187325466012912, 41.931021359016711 ], [ 0.187325466012912, 41.929742829035931 ], [ 0.18806568198042, 41.929742829035931 ], [ 0.18806568198042, 41.928464273429555 ], [ 0.188805897947928, 41.928464273429555 ], [ 0.188805897947928, 41.92761188878891 ], [ 0.189546113915437, 41.92761188878891 ], [ 0.189546113915437, 41.926333290473444 ], [ 0.190286329882945, 41.926333290473444 ], [ 0.190286329882945, 41.925480877360194 ], [ 0.189546113915437, 41.925480877360194 ], [ 0.189546113915437, 41.924202236335979 ], [ 0.188805897947928, 41.924202236335979 ], [ 0.188805897947928, 41.922923569686702 ], [ 0.18806568198042, 41.922923569686702 ], [ 0.18806568198042, 41.921644877412461 ], [ 0.187325466012912, 41.921644877412461 ], [ 0.187325466012912, 41.920366159513392 ], [ 0.186585250045403, 41.920366159513392 ], [ 0.186585250045403, 41.919087415989608 ], [ 0.185845034077895, 41.919087415989608 ], [ 0.185845034077895, 41.918661162453994 ], [ 0.185104818110386, 41.918661162453994 ], [ 0.185104818110386, 41.918234906071213 ], [ 0.184364602142878, 41.918234906071213 ], [ 0.184364602142878, 41.917808646841237 ], [ 0.182884170207862, 41.917808646841237 ], [ 0.182884170207862, 41.917382384764132 ], [ 0.182143954240353, 41.917382384764132 ], [ 0.182143954240353, 41.916956119839853 ], [ 0.181403738272845, 41.916956119839853 ], [ 0.181403738272845, 41.916529852068429 ], [ 0.179923306337828, 41.916529852068429 ], [ 0.179923306337828, 41.916956119839853 ], [ 0.17918309037032, 41.916956119839853 ], [ 0.17918309037032, 41.917382384764132 ], [ 0.177702658435303, 41.917382384764132 ], [ 0.177702658435303, 41.917808646841237 ], [ 0.176962442467795, 41.917808646841237 ], [ 0.176962442467795, 41.918234906071213 ], [ 0.175482010532778, 41.918234906071213 ], [ 0.175482010532778, 41.918661162453994 ], [ 0.17474179456527, 41.918661162453994 ], [ 0.17474179456527, 41.919087415989608 ], [ 0.174001578597761, 41.919087415989608 ], [ 0.174001578597761, 41.920366159513392 ], [ 0.173261362630253, 41.920366159513392 ], [ 0.173261362630253, 41.921644877412461 ], [ 0.172521146662745, 41.921644877412461 ], [ 0.172521146662745, 41.922497341775838 ], [ 0.171780930695237, 41.922497341775838 ], [ 0.171780930695237, 41.925907085340441 ], [ 0.172521146662745, 41.925907085340441 ], [ 0.172521146662745, 41.928464273429555 ], [ 0.173261362630253, 41.928464273429555 ], [ 0.173261362630253, 41.931021359016711 ], [ 0.174001578597761, 41.931021359016711 ], [ 0.174001578597761, 41.931873698100702 ], [ 0.17474179456527, 41.931873698100702 ], [ 0.17474179456527, 41.932299863371739 ], [ 0.176222226500287, 41.932299863371739 ], [ 0.176222226500287, 41.932726025795461 ], [ 0.177702658435303, 41.932726025795461 ], [ 0.177702658435303, 41.933152185371853 ], [ 0.17918309037032, 41.933152185371853 ], [ 0.17918309037032, 41.933578342100922 ], [ 0.180663522305336, 41.933578342100922 ], [ 0.180663522305336, 41.934004495982656 ], [ 0.182884170207862, 41.934004495982656 ], [ 0.182884170207862, 41.933578342100922 ], [ 0.18362438617537, 41.933578342100922 ], [ 0.18362438617537, 41.933152185371853 ], [ 0.185104818110386, 41.933152185371853 ] ] ] ] } }
]
}
