{
"type": "FeatureCollection",
"name": "spain_fires_modis_ba",
"crs": { "type": "name", "properties": { "name": "urn:ogc:def:crs:OGC:1.3:CRS84" } },
"features": [
{ "type": "Feature", "properties": { }, "geometry": { "type": "Polygon", "coordinates": [ [ [ -4.327251719820421, 40.328187025706555 ], [ -4.325771287885404, 40.328187025706555 ], [ -4.325771287885404, 40.327750311338427 ], [ -4.321329992080353, 40.327750311338427 ], [ -4.321329992080353, 40.327313594144591 ], [ -4.319849560145337, 40.327313594144591 ], [ -4.319849560145337, 40.326876874125034 ], [ -4.31836912821032, 40.326876874125034 ], [ -4.31836912821032, 40.32644015127979 ], [ -4.317628912242812, 40.32644015127979 ], [ -4.317628912242812, 40.326003425608825 ], [ -4.316148480307795, 40.326003425608825 ], [ -4.316148480307795, 40.325566697112187 ], [ -4.315408264340286, 40.325566697112187 ], [ -4.315408264340286, 40.325129965789849 ], [ -4.314668048372778, 40.325129965789849 ], [ -4.314668048372778, 40.324693231641845 ], [ -4.313187616437761, 40.324693231641845 ], [ -4.313187616437761, 40.324256494668163 ], [ -4.312447400470253, 40.324256494668163 ], [ -4.312447400470253, 40.323819754868829 ], [ -4.311707184502746, 40.323819754868829 ], [ -4.311707184502746, 40.323383012243838 ], [ -4.310966968535237, 40.323383012243838 ], [ -4.310966968535237, 40.322946266793195 ], [ -4.30948653660022, 40.322946266793195 ], [ -4.30948653660022, 40.32250951851691 ], [ -4.308746320632713, 40.32250951851691 ], [ -4.308746320632713, 40.322072767414994 ], [ -4.308006104665203, 40.322072767414994 ], [ -4.308006104665203, 40.321636013487449 ], [ -4.307265888697695, 40.321636013487449 ], [ -4.307265888697695, 40.321199256734289 ], [ -4.306525672730187, 40.321199256734289 ], [ -4.306525672730187, 40.320762497155513 ], [ -4.305785456762678, 40.320762497155513 ], [ -4.305785456762678, 40.320325734751137 ], [ -4.30504524079517, 40.320325734751137 ], [ -4.30504524079517, 40.319888969521159 ], [ -4.304305024827662, 40.319888969521159 ], [ -4.304305024827662, 40.31945220146558 ], [ -4.303564808860154, 40.31945220146558 ], [ -4.303564808860154, 40.319015430584436 ], [ -4.302824592892645, 40.319015430584436 ], [ -4.302824592892645, 40.318578656877698 ], [ -4.302084376925136, 40.318578656877698 ], [ -4.302084376925136, 40.318141880345401 ], [ -4.301344160957629, 40.318141880345401 ], [ -4.301344160957629, 40.317705100987546 ], [ -4.300603944990121, 40.317705100987546 ], [ -4.300603944990121, 40.316831533795167 ], [ -4.299863729022612, 40.316831533795167 ], [ -4.299863729022612, 40.316394745960643 ], [ -4.299123513055104, 40.316394745960643 ], [ -4.299123513055104, 40.315957955300604 ], [ -4.298383297087595, 40.315957955300604 ], [ -4.298383297087595, 40.315521161815035 ], [ -4.297643081120087, 40.315521161815035 ], [ -4.297643081120087, 40.315084365503942 ], [ -4.296902865152578, 40.315084365503942 ], [ -4.296902865152578, 40.314647566367341 ], [ -4.29616264918507, 40.314647566367341 ], [ -4.29616264918507, 40.314210764405232 ], [ -4.295422433217562, 40.314210764405232 ], [ -4.295422433217562, 40.31377395961762 ], [ -4.286539841607461, 40.31377395961762 ], [ -4.286539841607461, 40.314210764405232 ], [ -4.285059409672445, 40.314210764405232 ], [ -4.285059409672445, 40.314647566367341 ], [ -4.282838761769921, 40.314647566367341 ], [ -4.282838761769921, 40.315084365503942 ], [ -4.282098545802412, 40.315084365503942 ], [ -4.282098545802412, 40.315521161815035 ], [ -4.280618113867395, 40.315521161815035 ], [ -4.280618113867395, 40.315957955300604 ], [ -4.278397465964869, 40.315957955300604 ], [ -4.278397465964869, 40.316394745960643 ], [ -4.276176818062345, 40.316394745960643 ], [ -4.276176818062345, 40.316831533795167 ], [ -4.270995306289787, 40.316831533795167 ], [ -4.270995306289787, 40.316394745960643 ], [ -4.26951487435477, 40.316394745960643 ], [ -4.26951487435477, 40.315521161815035 ], [ -4.268774658387262, 40.315521161815035 ], [ -4.268774658387262, 40.314647566367341 ], [ -4.268034442419753, 40.314647566367341 ], [ -4.268034442419753, 40.312026712212344 ], [ -4.268774658387262, 40.312026712212344 ], [ -4.268774658387262, 40.310279419599652 ], [ -4.26951487435477, 40.310279419599652 ], [ -4.26951487435477, 40.308968920473042 ], [ -4.270255090322278, 40.308968920473042 ], [ -4.270255090322278, 40.307658395917713 ], [ -4.270995306289787, 40.307658395917713 ], [ -4.270995306289787, 40.306784698753852 ], [ -4.271735522257295, 40.306784698753852 ], [ -4.271735522257295, 40.305910990288488 ], [ -4.272475738224803, 40.305910990288488 ], [ -4.272475738224803, 40.305037270521666 ], [ -4.273215954192312, 40.305037270521666 ], [ -4.273215954192312, 40.303726669681325 ], [ -4.273956170159821, 40.303726669681325 ], [ -4.273956170159821, 40.302852921661113 ], [ -4.274696386127329, 40.302852921661113 ], [ -4.274696386127329, 40.301979162339656 ], [ -4.275436602094837, 40.301979162339656 ], [ -4.275436602094837, 40.301105391716987 ], [ -4.276176818062345, 40.301105391716987 ], [ -4.276176818062345, 40.30023160979318 ], [ -4.276917034029854, 40.30023160979318 ], [ -4.276917034029854, 40.299357816568296 ], [ -4.277657249997362, 40.299357816568296 ], [ -4.277657249997362, 40.29848401204238 ], [ -4.278397465964869, 40.29848401204238 ], [ -4.278397465964869, 40.297610196215494 ], [ -4.279137681932379, 40.297610196215494 ], [ -4.279137681932379, 40.297173284064201 ], [ -4.279877897899886, 40.297173284064201 ], [ -4.279877897899886, 40.296299451285975 ], [ -4.280618113867395, 40.296299451285975 ], [ -4.280618113867395, 40.295425607206923 ], [ -4.281358329834903, 40.295425607206923 ], [ -4.281358329834903, 40.294551751827093 ], [ -4.282098545802412, 40.294551751827093 ], [ -4.282098545802412, 40.294114819899406 ], [ -4.282838761769921, 40.294114819899406 ], [ -4.282838761769921, 40.293240947568535 ], [ -4.283578977737428, 40.293240947568535 ], [ -4.283578977737428, 40.292804007165358 ], [ -4.284319193704937, 40.292804007165358 ], [ -4.284319193704937, 40.29193011788356 ], [ -4.285059409672445, 40.29193011788356 ], [ -4.285059409672445, 40.291056217301232 ], [ -4.285799625639953, 40.291056217301232 ], [ -4.285799625639953, 40.288434447751548 ], [ -4.286539841607461, 40.288434447751548 ], [ -4.286539841607461, 40.287560501967619 ], [ -4.28728005757497, 40.287560501967619 ], [ -4.28728005757497, 40.287123524838051 ], [ -4.288020273542479, 40.287123524838051 ], [ -4.288020273542479, 40.286249562103755 ], [ -4.288760489509986, 40.286249562103755 ], [ -4.288760489509986, 40.285812576499055 ], [ -4.289500705477495, 40.285812576499055 ], [ -4.289500705477495, 40.2853755880693 ], [ -4.290981137412512, 40.2853755880693 ], [ -4.290981137412512, 40.284938596814541 ], [ -4.292461569347529, 40.284938596814541 ], [ -4.292461569347529, 40.284501602734736 ], [ -4.296902865152578, 40.284501602734736 ], [ -4.296902865152578, 40.284064605829919 ], [ -4.299123513055104, 40.284064605829919 ], [ -4.299123513055104, 40.283627606100119 ], [ -4.301344160957629, 40.283627606100119 ], [ -4.301344160957629, 40.2831906035453 ], [ -4.302084376925136, 40.2831906035453 ], [ -4.302084376925136, 40.282753598165492 ], [ -4.303564808860154, 40.282753598165492 ], [ -4.303564808860154, 40.282316589960701 ], [ -4.304305024827662, 40.282316589960701 ], [ -4.304305024827662, 40.281879578930933 ], [ -4.305785456762678, 40.281879578930933 ], [ -4.305785456762678, 40.28144256507619 ], [ -4.306525672730187, 40.28144256507619 ], [ -4.306525672730187, 40.281005548396479 ], [ -4.307265888697695, 40.281005548396479 ], [ -4.307265888697695, 40.28056852889182 ], [ -4.308006104665203, 40.28056852889182 ], [ -4.308006104665203, 40.279257453428173 ], [ -4.307265888697695, 40.279257453428173 ], [ -4.307265888697695, 40.27838338899442 ], [ -4.306525672730187, 40.27838338899442 ], [ -4.306525672730187, 40.277946352540162 ], [ -4.305785456762678, 40.277946352540162 ], [ -4.305785456762678, 40.277072271156953 ], [ -4.30504524079517, 40.277072271156953 ], [ -4.30504524079517, 40.276635226228009 ], [ -4.304305024827662, 40.276635226228009 ], [ -4.304305024827662, 40.275761127895471 ], [ -4.303564808860154, 40.275761127895471 ], [ -4.303564808860154, 40.275324074491898 ], [ -4.302824592892645, 40.275324074491898 ], [ -4.302824592892645, 40.274887018263449 ], [ -4.302084376925136, 40.274887018263449 ], [ -4.302084376925136, 40.274012897332007 ], [ -4.301344160957629, 40.274012897332007 ], [ -4.301344160957629, 40.273575832629014 ], [ -4.300603944990121, 40.273575832629014 ], [ -4.300603944990121, 40.273138765101201 ], [ -4.299863729022612, 40.273138765101201 ], [ -4.299863729022612, 40.272701694748548 ], [ -4.299123513055104, 40.272701694748548 ], [ -4.299123513055104, 40.272264621571075 ], [ -4.298383297087595, 40.272264621571075 ], [ -4.298383297087595, 40.27182754556879 ], [ -4.297643081120087, 40.27182754556879 ], [ -4.297643081120087, 40.271390466741693 ], [ -4.296902865152578, 40.271390466741693 ], [ -4.296902865152578, 40.270516300613124 ], [ -4.29616264918507, 40.270516300613124 ], [ -4.29616264918507, 40.269642123185427 ], [ -4.295422433217562, 40.269642123185427 ], [ -4.295422433217562, 40.26920503023441 ], [ -4.29616264918507, 40.26920503023441 ], [ -4.29616264918507, 40.268330835858102 ], [ -4.296902865152578, 40.268330835858102 ], [ -4.296902865152578, 40.267893734432832 ], [ -4.297643081120087, 40.267893734432832 ], [ -4.297643081120087, 40.267456630182807 ], [ -4.298383297087595, 40.267456630182807 ], [ -4.298383297087595, 40.267019523108054 ], [ -4.299123513055104, 40.267019523108054 ], [ -4.299123513055104, 40.266582413208582 ], [ -4.299863729022612, 40.266582413208582 ], [ -4.299863729022612, 40.266145300484375 ], [ -4.300603944990121, 40.266145300484375 ], [ -4.300603944990121, 40.26570818493547 ], [ -4.302084376925136, 40.26570818493547 ], [ -4.302084376925136, 40.265271066561851 ], [ -4.302824592892645, 40.265271066561851 ], [ -4.302824592892645, 40.264833945363534 ], [ -4.305785456762678, 40.264833945363534 ], [ -4.305785456762678, 40.264396821340533 ], [ -4.306525672730187, 40.264396821340533 ], [ -4.306525672730187, 40.264833945363534 ], [ -4.308746320632713, 40.264833945363534 ], [ -4.308746320632713, 40.265271066561851 ], [ -4.310226752567729, 40.265271066561851 ], [ -4.310226752567729, 40.26570818493547 ], [ -4.310966968535237, 40.26570818493547 ], [ -4.310966968535237, 40.266145300484375 ], [ -4.312447400470253, 40.266145300484375 ], [ -4.312447400470253, 40.266582413208582 ], [ -4.313187616437761, 40.266582413208582 ], [ -4.313187616437761, 40.267019523108054 ], [ -4.31392783240527, 40.267019523108054 ], [ -4.31392783240527, 40.267456630182807 ], [ -4.314668048372778, 40.267456630182807 ], [ -4.314668048372778, 40.267893734432832 ], [ -4.315408264340286, 40.267893734432832 ], [ -4.315408264340286, 40.268330835858102 ], [ -4.316148480307795, 40.268330835858102 ], [ -4.316148480307795, 40.268767934458637 ], [ -4.316888696275304, 40.268767934458637 ], [ -4.316888696275304, 40.26920503023441 ], [ -4.317628912242812, 40.26920503023441 ], [ -4.317628912242812, 40.269642123185427 ], [ -4.31836912821032, 40.269642123185427 ], [ -4.31836912821032, 40.270079213311661 ], [ -4.319109344177829, 40.270079213311661 ], [ -4.319109344177829, 40.270516300613124 ], [ -4.319849560145337, 40.270516300613124 ], [ -4.319849560145337, 40.271390466741693 ], [ -4.320589776112845, 40.271390466741693 ], [ -4.320589776112845, 40.27182754556879 ], [ -4.321329992080353, 40.27182754556879 ], [ -4.321329992080353, 40.272264621571075 ], [ -4.322070208047862, 40.272264621571075 ], [ -4.322070208047862, 40.273138765101201 ], [ -4.32281042401537, 40.273138765101201 ], [ -4.32281042401537, 40.273575832629014 ], [ -4.323550639982878, 40.273575832629014 ], [ -4.323550639982878, 40.274449959210152 ], [ -4.324290855950387, 40.274449959210152 ], [ -4.324290855950387, 40.275761127895471 ], [ -4.325031071917895, 40.275761127895471 ], [ -4.325031071917895, 40.277072271156953 ], [ -4.325771287885404, 40.277072271156953 ], [ -4.325771287885404, 40.278820422623753 ], [ -4.326511503852912, 40.278820422623753 ], [ -4.326511503852912, 40.28056852889182 ], [ -4.327251719820421, 40.28056852889182 ], [ -4.327251719820421, 40.281879578930933 ], [ -4.327991935787929, 40.281879578930933 ], [ -4.327991935787929, 40.2831906035453 ], [ -4.328732151755437, 40.2831906035453 ], [ -4.328732151755437, 40.284501602734736 ], [ -4.329472367722945, 40.284501602734736 ], [ -4.329472367722945, 40.2853755880693 ], [ -4.330212583690454, 40.2853755880693 ], [ -4.330212583690454, 40.286249562103755 ], [ -4.330952799657962, 40.286249562103755 ], [ -4.330952799657962, 40.287560501967619 ], [ -4.33169301562547, 40.287560501967619 ], [ -4.33169301562547, 40.288434447751548 ], [ -4.332433231592979, 40.288434447751548 ], [ -4.332433231592979, 40.289745345239332 ], [ -4.333173447560486, 40.289745345239332 ], [ -4.333173447560486, 40.291056217301232 ], [ -4.333913663527995, 40.291056217301232 ], [ -4.333913663527995, 40.292804007165358 ], [ -4.334653879495503, 40.292804007165358 ], [ -4.334653879495503, 40.294551751827093 ], [ -4.335394095463012, 40.294551751827093 ], [ -4.335394095463012, 40.297610196215494 ], [ -4.336134311430521, 40.297610196215494 ], [ -4.336134311430521, 40.303726669681325 ], [ -4.335394095463012, 40.303726669681325 ], [ -4.335394095463012, 40.305474131817746 ], [ -4.336134311430521, 40.305474131817746 ], [ -4.336134311430521, 40.306347845933864 ], [ -4.336874527398028, 40.306347845933864 ], [ -4.336874527398028, 40.306784698753852 ], [ -4.337614743365537, 40.306784698753852 ], [ -4.337614743365537, 40.318141880345401 ], [ -4.336874527398028, 40.318141880345401 ], [ -4.336874527398028, 40.320762497155513 ], [ -4.336134311430521, 40.320762497155513 ], [ -4.336134311430521, 40.322946266793195 ], [ -4.335394095463012, 40.322946266793195 ], [ -4.335394095463012, 40.324256494668163 ], [ -4.334653879495503, 40.324256494668163 ], [ -4.334653879495503, 40.325566697112187 ], [ -4.333913663527995, 40.325566697112187 ], [ -4.333913663527995, 40.32644015127979 ], [ -4.333173447560486, 40.32644015127979 ], [ -4.333173447560486, 40.327313594144591 ], [ -4.33169301562547, 40.327313594144591 ], [ -4.33169301562547, 40.327750311338427 ], [ -4.327251719820421, 40.327750311338427 ], [ -4.327251719820421, 40.328187025706555 ] ] ] } }
]
}
