{
"type": "FeatureCollection",
"name": "spain_fires_modis_ba",
"crs": { "type": "name", "properties": { "name": "urn:ogc:def:crs:OGC:1.3:CRS84" } },
"features": [
{ "type": "Feature", "properties": { }, "geometry": { "type": "MultiPolygon", "coordinates": [ [ [ [ 4.280719766333999, 36.484997878833461 ], [ 4.281459982301508, 36.484997878833461 ], [ 4.281459982301508, 36.482694947716737 ], [ 4.280719766333999, 36.482694947716737 ], [ 4.280719766333999, 36.480852553537773 ], [ 4.279979550366492, 36.480852553537773 ], [ 4.279979550366492, 36.480391948147911 ], [ 4.278499118431475, 36.480391948147911 ], [ 4.278499118431475, 36.479931340020059 ], [ 4.274798038593934, 36.479931340020059 ], [ 4.274798038593934, 36.482694947716737 ], [ 4.275538254561441, 36.482694947716737 ], [ 4.275538254561441, 36.483155539416302 ], [ 4.27627847052895, 36.483155539416302 ], [ 4.27627847052895, 36.484537298086359 ], [ 4.277018686496459, 36.484537298086359 ], [ 4.277018686496459, 36.484997878833461 ], [ 4.277758902463966, 36.484997878833461 ], [ 4.277758902463966, 36.485458456842416 ], [ 4.280719766333999, 36.485458456842416 ], [ 4.280719766333999, 36.484997878833461 ] ] ], [ [ [ 4.2896023579441, 36.487300741496426 ], [ 4.2896023579441, 36.485919032113202 ], [ 4.290342573911608, 36.485919032113202 ], [ 4.290342573911608, 36.485458456842416 ], [ 4.291082789879116, 36.485458456842416 ], [ 4.291082789879116, 36.484076714601137 ], [ 4.290342573911608, 36.484076714601137 ], [ 4.290342573911608, 36.483616128377768 ], [ 4.288121926009083, 36.483616128377768 ], [ 4.288121926009083, 36.484076714601137 ], [ 4.286641494074066, 36.484076714601137 ], [ 4.286641494074066, 36.484537298086359 ], [ 4.285901278106558, 36.484537298086359 ], [ 4.285901278106558, 36.484997878833461 ], [ 4.284420846171542, 36.484997878833461 ], [ 4.284420846171542, 36.488682426235684 ], [ 4.28516106213905, 36.488682426235684 ], [ 4.28516106213905, 36.48914298233894 ], [ 4.288862141976591, 36.48914298233894 ], [ 4.288862141976591, 36.487300741496426 ], [ 4.2896023579441, 36.487300741496426 ] ] ], [ [ [ -6.522732279450141, 38.77618716074236 ], [ -6.523472495417648, 38.77618716074236 ], [ -6.523472495417648, 38.775740565696907 ], [ -6.524212711385157, 38.775740565696907 ], [ -6.524212711385157, 38.777526929100254 ], [ -6.522732279450141, 38.777526929100254 ], [ -6.522732279450141, 38.77618716074236 ] ] ] ] } }
]
}
