{
"type": "FeatureCollection",
"name": "spain_fires_nrt_ba",
"crs": { "type": "name", "properties": { "name": "urn:ogc:def:crs:OGC:1.3:CRS84" } },
"features": [
{ "type": "Feature", "properties": { }, "geometry": { "type": "MultiPolygon", "coordinates": [ [ [ [ -1.343441154794324, 35.31848552382354 ], [ -1.341960722859307, 35.31848552382354 ], [ -1.341960722859307, 35.318018104095017 ], [ -1.341220506891799, 35.318018104095017 ], [ -1.341220506891799, 35.31755068166477 ], [ -1.34048029092429, 35.31755068166477 ], [ -1.34048029092429, 35.317083256532818 ], [ -1.339740074956782, 35.317083256532818 ], [ -1.339740074956782, 35.31661582869917 ], [ -1.338259643021765, 35.31661582869917 ], [ -1.338259643021765, 35.316148398163833 ], [ -1.337519427054257, 35.316148398163833 ], [ -1.337519427054257, 35.315213528988217 ], [ -1.336779211086749, 35.315213528988217 ], [ -1.336779211086749, 35.313343758217513 ], [ -1.33603899511924, 35.313343758217513 ], [ -1.33603899511924, 35.310539021014691 ], [ -1.336779211086749, 35.310539021014691 ], [ -1.336779211086749, 35.308669142183099 ], [ -1.337519427054257, 35.308669142183099 ], [ -1.337519427054257, 35.306799220128873 ], [ -1.338259643021765, 35.306799220128873 ], [ -1.338259643021765, 35.305864242893584 ], [ -1.339740074956782, 35.305864242893584 ], [ -1.339740074956782, 35.305396750223949 ], [ -1.34048029092429, 35.305396750223949 ], [ -1.34048029092429, 35.304929254853015 ], [ -1.341960722859307, 35.304929254853015 ], [ -1.341960722859307, 35.304461756780782 ], [ -1.342700938826815, 35.304461756780782 ], [ -1.342700938826815, 35.304929254853015 ], [ -1.34492158672934, 35.304929254853015 ], [ -1.34492158672934, 35.305396750223949 ], [ -1.346402018664357, 35.305396750223949 ], [ -1.346402018664357, 35.305864242893584 ], [ -1.347882450599374, 35.305864242893584 ], [ -1.347882450599374, 35.306331732861899 ], [ -1.348622666566882, 35.306331732861899 ], [ -1.348622666566882, 35.307266704694499 ], [ -1.34936288253439, 35.307266704694499 ], [ -1.34936288253439, 35.308669142183099 ], [ -1.350103098501899, 35.308669142183099 ], [ -1.350103098501899, 35.310071555358974 ], [ -1.350843314469407, 35.310071555358974 ], [ -1.350843314469407, 35.311006483968946 ], [ -1.351583530436915, 35.311006483968946 ], [ -1.351583530436915, 35.313343758217513 ], [ -1.350843314469407, 35.313343758217513 ], [ -1.350843314469407, 35.314746090347946 ], [ -1.350103098501899, 35.314746090347946 ], [ -1.350103098501899, 35.316148398163833 ], [ -1.34936288253439, 35.316148398163833 ], [ -1.34936288253439, 35.31755068166477 ], [ -1.348622666566882, 35.31755068166477 ], [ -1.348622666566882, 35.318018104095017 ], [ -1.347882450599374, 35.318018104095017 ], [ -1.347882450599374, 35.31848552382354 ], [ -1.346402018664357, 35.31848552382354 ], [ -1.346402018664357, 35.31895294085033 ], [ -1.345661802696849, 35.31895294085033 ], [ -1.345661802696849, 35.319420355175353 ], [ -1.344181370761832, 35.319420355175353 ], [ -1.344181370761832, 35.31895294085033 ], [ -1.343441154794324, 35.31895294085033 ], [ -1.343441154794324, 35.31848552382354 ] ] ], [ [ [ -0.276789945614814, 35.824969885320684 ], [ -0.276789945614814, 35.824505411354338 ], [ -0.276049729647306, 35.824505411354338 ], [ -0.276049729647306, 35.824040934669902 ], [ -0.273088865777272, 35.824040934669902 ], [ -0.273088865777272, 35.8235764552674 ], [ -0.268647569972222, 35.8235764552674 ], [ -0.268647569972222, 35.82311197314683 ], [ -0.264946490134681, 35.82311197314683 ], [ -0.264946490134681, 35.822647488308213 ], [ -0.264206274167172, 35.822647488308213 ], [ -0.264206274167172, 35.822183000751579 ], [ -0.263466058199664, 35.822183000751579 ], [ -0.263466058199664, 35.821718510476927 ], [ -0.262725842232156, 35.821718510476927 ], [ -0.262725842232156, 35.821254017484272 ], [ -0.261985626264647, 35.821254017484272 ], [ -0.261985626264647, 35.820789521773627 ], [ -0.260505194329631, 35.820789521773627 ], [ -0.260505194329631, 35.820325023345006 ], [ -0.259764978362122, 35.820325023345006 ], [ -0.259764978362122, 35.819860522198454 ], [ -0.259024762394614, 35.819860522198454 ], [ -0.259024762394614, 35.81939601833394 ], [ -0.258284546427106, 35.81939601833394 ], [ -0.258284546427106, 35.818931511751508 ], [ -0.256804114492089, 35.818931511751508 ], [ -0.256804114492089, 35.818467002451158 ], [ -0.255323682557072, 35.818467002451158 ], [ -0.255323682557072, 35.818002490432896 ], [ -0.253103034654547, 35.818002490432896 ], [ -0.253103034654547, 35.81753797569678 ], [ -0.251622602719531, 35.81753797569678 ], [ -0.251622602719531, 35.817073458242774 ], [ -0.250142170784514, 35.817073458242774 ], [ -0.250142170784514, 35.816608938070921 ], [ -0.247921522881989, 35.816608938070921 ], [ -0.247921522881989, 35.817073458242774 ], [ -0.247181306914481, 35.817073458242774 ], [ -0.247181306914481, 35.81753797569678 ], [ -0.245700874979464, 35.81753797569678 ], [ -0.245700874979464, 35.818002490432896 ], [ -0.244960659011956, 35.818002490432896 ], [ -0.244960659011956, 35.818467002451158 ], [ -0.244220443044447, 35.818467002451158 ], [ -0.244220443044447, 35.818931511751508 ], [ -0.242740011109431, 35.818931511751508 ], [ -0.242740011109431, 35.81939601833394 ], [ -0.239779147239397, 35.81939601833394 ], [ -0.239779147239397, 35.818931511751508 ], [ -0.237558499336872, 35.818931511751508 ], [ -0.237558499336872, 35.818467002451158 ], [ -0.236078067401856, 35.818467002451158 ], [ -0.236078067401856, 35.818002490432896 ], [ -0.234597635466839, 35.818002490432896 ], [ -0.234597635466839, 35.81753797569678 ], [ -0.232376987564314, 35.81753797569678 ], [ -0.232376987564314, 35.817073458242774 ], [ -0.231636771596806, 35.817073458242774 ], [ -0.231636771596806, 35.816144415181228 ], [ -0.230896555629297, 35.816144415181228 ], [ -0.230896555629297, 35.815215361248384 ], [ -0.230156339661789, 35.815215361248384 ], [ -0.230156339661789, 35.814286296444358 ], [ -0.229416123694281, 35.814286296444358 ], [ -0.229416123694281, 35.813821759965677 ], [ -0.228675907726772, 35.813821759965677 ], [ -0.228675907726772, 35.813357220769255 ], [ -0.227195475791756, 35.813357220769255 ], [ -0.227195475791756, 35.812892678855093 ], [ -0.225715043856739, 35.812892678855093 ], [ -0.225715043856739, 35.812428134223211 ], [ -0.224234611921722, 35.812428134223211 ], [ -0.224234611921722, 35.810569928518746 ], [ -0.223494395954214, 35.810569928518746 ], [ -0.223494395954214, 35.805924224024189 ], [ -0.224234611921722, 35.805924224024189 ], [ -0.224234611921722, 35.803601269869652 ], [ -0.224974827889231, 35.803601269869652 ], [ -0.224974827889231, 35.803136670886389 ], [ -0.225715043856739, 35.803136670886389 ], [ -0.225715043856739, 35.80220746476764 ], [ -0.226455259824247, 35.80220746476764 ], [ -0.226455259824247, 35.801742857632192 ], [ -0.227195475791756, 35.801742857632192 ], [ -0.227195475791756, 35.801278247779365 ], [ -0.227935691759264, 35.801278247779365 ], [ -0.227935691759264, 35.800813635209181 ], [ -0.230896555629297, 35.800813635209181 ], [ -0.230896555629297, 35.800349019921647 ], [ -0.233117203531822, 35.800349019921647 ], [ -0.233117203531822, 35.799884401916799 ], [ -0.234597635466839, 35.799884401916799 ], [ -0.234597635466839, 35.800349019921647 ], [ -0.235337851434347, 35.800349019921647 ], [ -0.235337851434347, 35.800813635209181 ], [ -0.236078067401856, 35.800813635209181 ], [ -0.236078067401856, 35.801278247779365 ], [ -0.236818283369364, 35.801278247779365 ], [ -0.236818283369364, 35.801742857632192 ], [ -0.237558499336872, 35.801742857632192 ], [ -0.237558499336872, 35.80220746476764 ], [ -0.238298715304381, 35.80220746476764 ], [ -0.238298715304381, 35.800813635209181 ], [ -0.239038931271889, 35.800813635209181 ], [ -0.239038931271889, 35.799884401916799 ], [ -0.239779147239397, 35.799884401916799 ], [ -0.239779147239397, 35.798955157755167 ], [ -0.240519363206906, 35.798955157755167 ], [ -0.240519363206906, 35.798025902724412 ], [ -0.241259579174414, 35.798025902724412 ], [ -0.241259579174414, 35.797561271133148 ], [ -0.244220443044447, 35.797561271133148 ], [ -0.244220443044447, 35.798025902724412 ], [ -0.246441090946972, 35.798025902724412 ], [ -0.246441090946972, 35.798490531598425 ], [ -0.248661738849497, 35.798490531598425 ], [ -0.248661738849497, 35.798955157755167 ], [ -0.252362818687039, 35.798955157755167 ], [ -0.252362818687039, 35.798490531598425 ], [ -0.253843250622056, 35.798490531598425 ], [ -0.253843250622056, 35.798025902724412 ], [ -0.255323682557072, 35.798025902724412 ], [ -0.255323682557072, 35.797561271133148 ], [ -0.256063898524581, 35.797561271133148 ], [ -0.256063898524581, 35.797096636824634 ], [ -0.257544330459597, 35.797096636824634 ], [ -0.257544330459597, 35.796631999798905 ], [ -0.259024762394614, 35.796631999798905 ], [ -0.259024762394614, 35.796167360055968 ], [ -0.261245410297139, 35.796167360055968 ], [ -0.261245410297139, 35.796631999798905 ], [ -0.261985626264647, 35.796631999798905 ], [ -0.261985626264647, 35.797096636824634 ], [ -0.262725842232156, 35.797096636824634 ], [ -0.262725842232156, 35.797561271133148 ], [ -0.263466058199664, 35.797561271133148 ], [ -0.263466058199664, 35.798025902724412 ], [ -0.264206274167172, 35.798025902724412 ], [ -0.264206274167172, 35.798490531598425 ], [ -0.264946490134681, 35.798490531598425 ], [ -0.264946490134681, 35.798955157755167 ], [ -0.265686706102189, 35.798955157755167 ], [ -0.265686706102189, 35.799419781194644 ], [ -0.266426922069697, 35.799419781194644 ], [ -0.266426922069697, 35.799884401916799 ], [ -0.267167138037206, 35.799884401916799 ], [ -0.267167138037206, 35.800349019921647 ], [ -0.267907354004714, 35.800349019921647 ], [ -0.267907354004714, 35.800813635209181 ], [ -0.268647569972222, 35.800813635209181 ], [ -0.268647569972222, 35.801278247779365 ], [ -0.269387785939731, 35.801278247779365 ], [ -0.269387785939731, 35.801742857632192 ], [ -0.270128001907239, 35.801742857632192 ], [ -0.270128001907239, 35.80220746476764 ], [ -0.270868217874747, 35.80220746476764 ], [ -0.270868217874747, 35.802672069185711 ], [ -0.271608433842256, 35.802672069185711 ], [ -0.271608433842256, 35.803601269869652 ], [ -0.272348649809764, 35.803601269869652 ], [ -0.272348649809764, 35.804065866135467 ], [ -0.273088865777272, 35.804065866135467 ], [ -0.273088865777272, 35.804530459683846 ], [ -0.274569297712289, 35.804530459683846 ], [ -0.274569297712289, 35.804065866135467 ], [ -0.275309513679797, 35.804065866135467 ], [ -0.275309513679797, 35.803136670886389 ], [ -0.276049729647306, 35.803136670886389 ], [ -0.276049729647306, 35.80220746476764 ], [ -0.276789945614814, 35.80220746476764 ], [ -0.276789945614814, 35.801278247779365 ], [ -0.277530161582322, 35.801278247779365 ], [ -0.277530161582322, 35.800813635209181 ], [ -0.282711673354881, 35.800813635209181 ], [ -0.282711673354881, 35.801742857632192 ], [ -0.283451889322389, 35.801742857632192 ], [ -0.283451889322389, 35.802672069185711 ], [ -0.284192105289897, 35.802672069185711 ], [ -0.284192105289897, 35.803136670886389 ], [ -0.284932321257406, 35.803136670886389 ], [ -0.284932321257406, 35.804995050514783 ], [ -0.285672537224914, 35.804995050514783 ], [ -0.285672537224914, 35.811499036806339 ], [ -0.286412753192422, 35.811499036806339 ], [ -0.286412753192422, 35.81753797569678 ], [ -0.287152969159931, 35.81753797569678 ], [ -0.287152969159931, 35.821254017484272 ], [ -0.286412753192422, 35.821254017484272 ], [ -0.286412753192422, 35.822183000751579 ], [ -0.285672537224914, 35.822183000751579 ], [ -0.285672537224914, 35.822647488308213 ], [ -0.284932321257406, 35.822647488308213 ], [ -0.284932321257406, 35.82311197314683 ], [ -0.284192105289897, 35.82311197314683 ], [ -0.284192105289897, 35.8235764552674 ], [ -0.283451889322389, 35.8235764552674 ], [ -0.283451889322389, 35.824040934669902 ], [ -0.282711673354881, 35.824040934669902 ], [ -0.282711673354881, 35.824505411354338 ], [ -0.281971457387372, 35.824505411354338 ], [ -0.281971457387372, 35.824969885320684 ], [ -0.281231241419864, 35.824969885320684 ], [ -0.281231241419864, 35.82543435656892 ], [ -0.280491025452356, 35.82543435656892 ], [ -0.280491025452356, 35.825898825099053 ], [ -0.278270377549831, 35.825898825099053 ], [ -0.278270377549831, 35.82543435656892 ], [ -0.277530161582322, 35.82543435656892 ], [ -0.277530161582322, 35.824969885320684 ], [ -0.276789945614814, 35.824969885320684 ] ] ], [ [ [ 0.132549484417295, 36.022125078837831 ], [ 0.133289700384803, 36.022125078837831 ], [ 0.133289700384803, 36.02119844118188 ], [ 0.134029916352311, 36.02119844118188 ], [ 0.134029916352311, 36.014711672484637 ], [ 0.133289700384803, 36.014711672484637 ], [ 0.133289700384803, 36.01378494765703 ], [ 0.132549484417295, 36.01378494765703 ], [ 0.132549484417295, 36.012858211933477 ], [ 0.131809268449787, 36.012858211933477 ], [ 0.131809268449787, 36.01239483998576 ], [ 0.131069052482278, 36.01239483998576 ], [ 0.131069052482278, 36.011468087918502 ], [ 0.13032883651477, 36.011468087918502 ], [ 0.13032883651477, 36.011004707799003 ], [ 0.129588620547261, 36.011004707799003 ], [ 0.129588620547261, 36.010541324955597 ], [ 0.128848404579753, 36.010541324955597 ], [ 0.128848404579753, 36.011004707799003 ], [ 0.123666892807195, 36.011004707799003 ], [ 0.123666892807195, 36.011468087918502 ], [ 0.122926676839686, 36.011468087918502 ], [ 0.122926676839686, 36.01239483998576 ], [ 0.122186460872178, 36.01239483998576 ], [ 0.122186460872178, 36.012858211933477 ], [ 0.12144624490467, 36.012858211933477 ], [ 0.12144624490467, 36.013321581157236 ], [ 0.120706028937161, 36.013321581157236 ], [ 0.120706028937161, 36.01378494765703 ], [ 0.119965812969653, 36.01378494765703 ], [ 0.119965812969653, 36.014711672484637 ], [ 0.119225597002145, 36.014711672484637 ], [ 0.119225597002145, 36.018881799368508 ], [ 0.119965812969653, 36.018881799368508 ], [ 0.119965812969653, 36.01934513317952 ], [ 0.120706028937161, 36.01934513317952 ], [ 0.120706028937161, 36.020271792629075 ], [ 0.12144624490467, 36.020271792629075 ], [ 0.12144624490467, 36.020735118267581 ], [ 0.122186460872178, 36.020735118267581 ], [ 0.122186460872178, 36.02119844118188 ], [ 0.122926676839686, 36.02119844118188 ], [ 0.122926676839686, 36.022125078837831 ], [ 0.123666892807195, 36.022125078837831 ], [ 0.123666892807195, 36.022588393579454 ], [ 0.124407108774703, 36.022588393579454 ], [ 0.124407108774703, 36.023051705596806 ], [ 0.125147324742211, 36.023051705596806 ], [ 0.125147324742211, 36.023978321458699 ], [ 0.131069052482278, 36.023978321458699 ], [ 0.131069052482278, 36.023515014889895 ], [ 0.131809268449787, 36.023515014889895 ], [ 0.131809268449787, 36.022588393579454 ], [ 0.132549484417295, 36.022588393579454 ], [ 0.132549484417295, 36.022125078837831 ] ] ], [ [ [ -5.098556757964105, 36.676361812562291 ], [ -5.098556757964105, 36.675902372040525 ], [ -5.097816541996597, 36.675902372040525 ], [ -5.097816541996597, 36.674983482765938 ], [ -5.097076326029088, 36.674983482765938 ], [ -5.097076326029088, 36.67452403401316 ], [ -5.09633611006158, 36.67452403401316 ], [ -5.09633611006158, 36.673605128276698 ], [ -5.095595894094072, 36.673605128276698 ], [ -5.095595894094072, 36.673145671293035 ], [ -5.094855678126563, 36.673145671293035 ], [ -5.094855678126563, 36.672686211565782 ], [ -5.094115462159055, 36.672686211565782 ], [ -5.094115462159055, 36.671767283880513 ], [ -5.093375246191546, 36.671767283880513 ], [ -5.093375246191546, 36.671307815922532 ], [ -5.092635030224037, 36.671307815922532 ], [ -5.092635030224037, 36.669929395587367 ], [ -5.093375246191546, 36.669929395587367 ], [ -5.093375246191546, 36.666712985449806 ], [ -5.094115462159055, 36.666712985449806 ], [ -5.094115462159055, 36.662117880635506 ], [ -5.093375246191546, 36.662117880635506 ], [ -5.093375246191546, 36.658901144039326 ], [ -5.092635030224037, 36.658901144039326 ], [ -5.092635030224037, 36.656603392746028 ], [ -5.093375246191546, 36.656603392746028 ], [ -5.093375246191546, 36.655224709052433 ], [ -5.094115462159055, 36.655224709052433 ], [ -5.094115462159055, 36.654305572874598 ], [ -5.085973086516463, 36.654305572874598 ], [ -5.085973086516463, 36.653846000671066 ], [ -5.084492654581446, 36.653846000671066 ], [ -5.084492654581446, 36.652926848034909 ], [ -5.083752438613938, 36.652926848034909 ], [ -5.083752438613938, 36.652007684426664 ], [ -5.083012222646429, 36.652007684426664 ], [ -5.083012222646429, 36.651088509846439 ], [ -5.082272006678921, 36.651088509846439 ], [ -5.082272006678921, 36.650628918441868 ], [ -5.081531790711413, 36.650628918441868 ], [ -5.081531790711413, 36.650169324294353 ], [ -5.080051358776395, 36.650169324294353 ], [ -5.080051358776395, 36.649709727403888 ], [ -5.07857092684138, 36.649709727403888 ], [ -5.07857092684138, 36.648790525394197 ], [ -5.077830710873872, 36.648790525394197 ], [ -5.077830710873872, 36.64511360764039 ], [ -5.077090494906363, 36.64511360764039 ], [ -5.077090494906363, 36.643275082935993 ], [ -5.077830710873872, 36.643275082935993 ], [ -5.077830710873872, 36.64235580412727 ], [ -5.07857092684138, 36.64235580412727 ], [ -5.07857092684138, 36.641896160608837 ], [ -5.079311142808888, 36.641896160608837 ], [ -5.079311142808888, 36.640976865343859 ], [ -5.080051358776395, 36.640976865343859 ], [ -5.080051358776395, 36.640517213597342 ], [ -5.080791574743905, 36.640517213597342 ], [ -5.080791574743905, 36.63959790187635 ], [ -5.081531790711413, 36.63959790187635 ], [ -5.081531790711413, 36.639138241901897 ], [ -5.082272006678921, 36.639138241901897 ], [ -5.082272006678921, 36.638218913725105 ], [ -5.083012222646429, 36.638218913725105 ], [ -5.083012222646429, 36.637759245522808 ], [ -5.083752438613938, 36.637759245522808 ], [ -5.083752438613938, 36.636839900890493 ], [ -5.084492654581446, 36.636839900890493 ], [ -5.084492654581446, 36.636380224460474 ], [ -5.085232870548955, 36.636380224460474 ], [ -5.085232870548955, 36.634081801172542 ], [ -5.085973086516463, 36.634081801172542 ], [ -5.085973086516463, 36.630404181303668 ], [ -5.086713302483972, 36.630404181303668 ], [ -5.086713302483972, 36.629484748912446 ], [ -5.087453518451481, 36.629484748912446 ], [ -5.087453518451481, 36.628565305551845 ], [ -5.088193734418988, 36.628565305551845 ], [ -5.088193734418988, 36.627186119943595 ], [ -5.089674166354004, 36.627186119943595 ], [ -5.089674166354004, 36.626726385922929 ], [ -5.091154598289021, 36.626726385922929 ], [ -5.091154598289021, 36.626266649159994 ], [ -5.093375246191546, 36.626266649159994 ], [ -5.093375246191546, 36.625806909654813 ], [ -5.094115462159055, 36.625806909654813 ], [ -5.094115462159055, 36.625347167407384 ], [ -5.094855678126563, 36.625347167407384 ], [ -5.094855678126563, 36.624427674685869 ], [ -5.095595894094072, 36.624427674685869 ], [ -5.095595894094072, 36.623967924211811 ], [ -5.09633611006158, 36.623967924211811 ], [ -5.09633611006158, 36.623508170995557 ], [ -5.101517621834138, 36.623508170995557 ], [ -5.101517621834138, 36.623967924211811 ], [ -5.108179565541714, 36.623967924211811 ], [ -5.108179565541714, 36.624427674685869 ], [ -5.108919781509222, 36.624427674685869 ], [ -5.108919781509222, 36.624887422417736 ], [ -5.109659997476729, 36.624887422417736 ], [ -5.109659997476729, 36.625347167407384 ], [ -5.110400213444238, 36.625347167407384 ], [ -5.110400213444238, 36.625806909654813 ], [ -5.111880645379255, 36.625806909654813 ], [ -5.111880645379255, 36.625347167407384 ], [ -5.114841509249288, 36.625347167407384 ], [ -5.114841509249288, 36.624887422417736 ], [ -5.116321941184305, 36.624887422417736 ], [ -5.116321941184305, 36.625347167407384 ], [ -5.117062157151813, 36.625347167407384 ], [ -5.117062157151813, 36.626726385922929 ], [ -5.117802373119321, 36.626726385922929 ], [ -5.117802373119321, 36.627645851221985 ], [ -5.118542589086831, 36.627645851221985 ], [ -5.118542589086831, 36.628565305551845 ], [ -5.119282805054338, 36.628565305551845 ], [ -5.119282805054338, 36.629484748912446 ], [ -5.120023021021846, 36.629484748912446 ], [ -5.120023021021846, 36.630863893385722 ], [ -5.120763236989355, 36.630863893385722 ], [ -5.120763236989355, 36.63178330932265 ], [ -5.121503452956863, 36.63178330932265 ], [ -5.121503452956863, 36.632702714289934 ], [ -5.122243668924372, 36.632702714289934 ], [ -5.122243668924372, 36.633622108287483 ], [ -5.122983884891879, 36.633622108287483 ], [ -5.122983884891879, 36.635001178715243 ], [ -5.123724100859388, 36.635001178715243 ], [ -5.123724100859388, 36.635920545287931 ], [ -5.124464316826897, 36.635920545287931 ], [ -5.124464316826897, 36.636839900890493 ], [ -5.125204532794405, 36.636839900890493 ], [ -5.125204532794405, 36.63959790187635 ], [ -5.124464316826897, 36.63959790187635 ], [ -5.124464316826897, 36.645573231959546 ], [ -5.125204532794405, 36.645573231959546 ], [ -5.125204532794405, 36.646492472369403 ], [ -5.125944748761913, 36.646492472369403 ], [ -5.125944748761913, 36.647411701807911 ], [ -5.126684964729422, 36.647411701807911 ], [ -5.126684964729422, 36.648790525394197 ], [ -5.12742518069693, 36.648790525394197 ], [ -5.12742518069693, 36.651088509846439 ], [ -5.126684964729422, 36.651088509846439 ], [ -5.126684964729422, 36.652926848034909 ], [ -5.125944748761913, 36.652926848034909 ], [ -5.125944748761913, 36.653846000671066 ], [ -5.124464316826897, 36.653846000671066 ], [ -5.124464316826897, 36.654305572874598 ], [ -5.123724100859388, 36.654305572874598 ], [ -5.123724100859388, 36.654765142335052 ], [ -5.120763236989355, 36.654765142335052 ], [ -5.120763236989355, 36.654305572874598 ], [ -5.120023021021846, 36.654305572874598 ], [ -5.120023021021846, 36.653846000671066 ], [ -5.118542589086831, 36.653846000671066 ], [ -5.118542589086831, 36.653386425724513 ], [ -5.117802373119321, 36.653386425724513 ], [ -5.117802373119321, 36.654765142335052 ], [ -5.118542589086831, 36.654765142335052 ], [ -5.118542589086831, 36.657062948490989 ], [ -5.120023021021846, 36.657062948490989 ], [ -5.120023021021846, 36.657522501492807 ], [ -5.122243668924372, 36.657522501492807 ], [ -5.122243668924372, 36.657982051751489 ], [ -5.123724100859388, 36.657982051751489 ], [ -5.123724100859388, 36.66073929569658 ], [ -5.124464316826897, 36.66073929569658 ], [ -5.124464316826897, 36.664415467334535 ], [ -5.123724100859388, 36.664415467334535 ], [ -5.123724100859388, 36.664874976444345 ], [ -5.122983884891879, 36.664874976444345 ], [ -5.122983884891879, 36.665334482810792 ], [ -5.122243668924372, 36.665334482810792 ], [ -5.122243668924372, 36.665793986433862 ], [ -5.121503452956863, 36.665793986433862 ], [ -5.121503452956863, 36.666253487313526 ], [ -5.120763236989355, 36.666253487313526 ], [ -5.120763236989355, 36.666712985449806 ], [ -5.120023021021846, 36.666712985449806 ], [ -5.120023021021846, 36.66717248084268 ], [ -5.117802373119321, 36.66717248084268 ], [ -5.117802373119321, 36.666712985449806 ], [ -5.115581725216797, 36.666712985449806 ], [ -5.115581725216797, 36.666253487313526 ], [ -5.11410129328178, 36.666253487313526 ], [ -5.11410129328178, 36.66717248084268 ], [ -5.113361077314271, 36.66717248084268 ], [ -5.113361077314271, 36.669929395587367 ], [ -5.112620861346763, 36.669929395587367 ], [ -5.112620861346763, 36.672686211565782 ], [ -5.111880645379255, 36.672686211565782 ], [ -5.111880645379255, 36.674983482765938 ], [ -5.110400213444238, 36.674983482765938 ], [ -5.110400213444238, 36.675442928775055 ], [ -5.108179565541714, 36.675442928775055 ], [ -5.108179565541714, 36.675902372040525 ], [ -5.10521870167168, 36.675902372040525 ], [ -5.10521870167168, 36.676361812562291 ], [ -5.102998053769155, 36.676361812562291 ], [ -5.102998053769155, 36.676821250340389 ], [ -5.100777405866629, 36.676821250340389 ], [ -5.100777405866629, 36.677280685374775 ], [ -5.100037189899121, 36.677280685374775 ], [ -5.100037189899121, 36.676821250340389 ], [ -5.099296973931613, 36.676821250340389 ], [ -5.099296973931613, 36.676361812562291 ], [ -5.098556757964105, 36.676361812562291 ] ] ], [ [ [ -5.754388105176488, 37.484804846563641 ], [ -5.754388105176488, 37.48435027948905 ], [ -5.753647889208981, 37.48435027948905 ], [ -5.753647889208981, 37.483895709648721 ], [ -5.752907673241473, 37.483895709648721 ], [ -5.752907673241473, 37.48253198353347 ], [ -5.752167457273964, 37.48253198353347 ], [ -5.752167457273964, 37.480713643326844 ], [ -5.751427241306456, 37.480713643326844 ], [ -5.751427241306456, 37.478895258869954 ], [ -5.750687025338948, 37.478895258869954 ], [ -5.750687025338948, 37.477076830163533 ], [ -5.751427241306456, 37.477076830163533 ], [ -5.751427241306456, 37.475258357208354 ], [ -5.752167457273964, 37.475258357208354 ], [ -5.752167457273964, 37.473894473454173 ], [ -5.754388105176488, 37.473894473454173 ], [ -5.754388105176488, 37.473439840005163 ], [ -5.757348969046522, 37.473439840005163 ], [ -5.757348969046522, 37.472985203790699 ], [ -5.759569616949047, 37.472985203790699 ], [ -5.759569616949047, 37.47253056481081 ], [ -5.76253048081908, 37.47253056481081 ], [ -5.76253048081908, 37.472075923065468 ], [ -5.767711992591639, 37.472075923065468 ], [ -5.767711992591639, 37.47253056481081 ], [ -5.769192424526656, 37.47253056481081 ], [ -5.769192424526656, 37.472985203790699 ], [ -5.771413072429181, 37.472985203790699 ], [ -5.771413072429181, 37.473439840005163 ], [ -5.772153288396689, 37.473439840005163 ], [ -5.772153288396689, 37.473894473454173 ], [ -5.772893504364196, 37.473894473454173 ], [ -5.772893504364196, 37.475712979595436 ], [ -5.773633720331706, 37.475712979595436 ], [ -5.773633720331706, 37.479349859132597 ], [ -5.772893504364196, 37.479349859132597 ], [ -5.772893504364196, 37.48116823252699 ], [ -5.772153288396689, 37.48116823252699 ], [ -5.772153288396689, 37.481622818961476 ], [ -5.770672856461672, 37.481622818961476 ], [ -5.770672856461672, 37.482077402630317 ], [ -5.768452208559149, 37.482077402630317 ], [ -5.768452208559149, 37.48253198353347 ], [ -5.76697177662413, 37.48253198353347 ], [ -5.76697177662413, 37.48298656167092 ], [ -5.765491344689115, 37.48298656167092 ], [ -5.765491344689115, 37.483441137042682 ], [ -5.764010912754097, 37.483441137042682 ], [ -5.764010912754097, 37.483895709648721 ], [ -5.76253048081908, 37.483895709648721 ], [ -5.76253048081908, 37.48435027948905 ], [ -5.761050048884065, 37.48435027948905 ], [ -5.761050048884065, 37.484804846563641 ], [ -5.759569616949047, 37.484804846563641 ], [ -5.759569616949047, 37.485259410872473 ], [ -5.758089185014031, 37.485259410872473 ], [ -5.758089185014031, 37.485713972415553 ], [ -5.756608753079013, 37.485713972415553 ], [ -5.756608753079013, 37.485259410872473 ], [ -5.755868537111506, 37.485259410872473 ], [ -5.755868537111506, 37.484804846563641 ], [ -5.754388105176488, 37.484804846563641 ] ] ], [ [ [ -3.476743573153344, 40.253467802761868 ], [ -3.475263141218327, 40.253467802761868 ], [ -3.475263141218327, 40.253030605299436 ], [ -3.47378270928331, 40.253030605299436 ], [ -3.47378270928331, 40.252593405012497 ], [ -3.473042493315802, 40.252593405012497 ], [ -3.473042493315802, 40.252156201901066 ], [ -3.471562061380785, 40.252156201901066 ], [ -3.471562061380785, 40.251718995965156 ], [ -3.470081629445768, 40.251718995965156 ], [ -3.470081629445768, 40.251281787204768 ], [ -3.468601197510752, 40.251281787204768 ], [ -3.468601197510752, 40.250844575619915 ], [ -3.467860981543244, 40.250844575619915 ], [ -3.467860981543244, 40.249970143976832 ], [ -3.467120765575736, 40.249970143976832 ], [ -3.467120765575736, 40.248658475328888 ], [ -3.466380549608227, 40.248658475328888 ], [ -3.466380549608227, 40.246909544256376 ], [ -3.465640333640719, 40.246909544256376 ], [ -3.465640333640719, 40.24559781629582 ], [ -3.46490011767321, 40.24559781629582 ], [ -3.46490011767321, 40.243848806140534 ], [ -3.464159901705703, 40.243848806140534 ], [ -3.464159901705703, 40.241225206177418 ], [ -3.46490011767321, 40.241225206177418 ], [ -3.46490011767321, 40.239476083049205 ], [ -3.465640333640719, 40.239476083049205 ], [ -3.465640333640719, 40.238601504539439 ], [ -3.467120765575736, 40.238601504539439 ], [ -3.467120765575736, 40.238164211048165 ], [ -3.469341413478261, 40.238164211048165 ], [ -3.469341413478261, 40.237726914732633 ], [ -3.470821845413277, 40.237726914732633 ], [ -3.470821845413277, 40.237289615592864 ], [ -3.473042493315802, 40.237289615592864 ], [ -3.473042493315802, 40.236852313628852 ], [ -3.475263141218327, 40.236852313628852 ], [ -3.475263141218327, 40.236415008840616 ], [ -3.477483789120852, 40.236415008840616 ], [ -3.477483789120852, 40.236852313628852 ], [ -3.478964221055869, 40.236852313628852 ], [ -3.478964221055869, 40.237289615592864 ], [ -3.481184868958394, 40.237289615592864 ], [ -3.481184868958394, 40.237726914732633 ], [ -3.482665300893411, 40.237726914732633 ], [ -3.482665300893411, 40.238164211048165 ], [ -3.483405516860918, 40.238164211048165 ], [ -3.483405516860918, 40.239038795206454 ], [ -3.484145732828428, 40.239038795206454 ], [ -3.484145732828428, 40.239476083049205 ], [ -3.484885948795936, 40.239476083049205 ], [ -3.484885948795936, 40.240350650261888 ], [ -3.485626164763444, 40.240350650261888 ], [ -3.485626164763444, 40.243411546540848 ], [ -3.484885948795936, 40.243411546540848 ], [ -3.484885948795936, 40.247346781261115 ], [ -3.484145732828428, 40.247346781261115 ], [ -3.484145732828428, 40.250844575619915 ], [ -3.483405516860918, 40.250844575619915 ], [ -3.483405516860918, 40.253030605299436 ], [ -3.481925084925902, 40.253030605299436 ], [ -3.481925084925902, 40.253467802761868 ], [ -3.480444652990886, 40.253467802761868 ], [ -3.480444652990886, 40.253904997399822 ], [ -3.479704437023377, 40.253904997399822 ], [ -3.479704437023377, 40.25434218921324 ], [ -3.47822400508836, 40.25434218921324 ], [ -3.47822400508836, 40.253904997399822 ], [ -3.476743573153344, 40.253904997399822 ], [ -3.476743573153344, 40.253467802761868 ] ] ], [ [ [ -1.481861540718382, 41.4806841953082 ], [ -1.481861540718382, 41.47982585373213 ], [ -1.481121324750874, 41.47982585373213 ], [ -1.481121324750874, 41.478967500787547 ], [ -1.480381108783366, 41.478967500787547 ], [ -1.480381108783366, 41.478109136474494 ], [ -1.479640892815857, 41.478109136474494 ], [ -1.479640892815857, 41.472529491336047 ], [ -1.480381108783366, 41.472529491336047 ], [ -1.480381108783366, 41.469954108505995 ], [ -1.481121324750874, 41.469954108505995 ], [ -1.481121324750874, 41.469524868087262 ], [ -1.481861540718382, 41.469524868087262 ], [ -1.481861540718382, 41.468666378723803 ], [ -1.48260175668589, 41.468666378723803 ], [ -1.48260175668589, 41.467807877992371 ], [ -1.485562620555924, 41.467807877992371 ], [ -1.485562620555924, 41.468237129779084 ], [ -1.487043052490941, 41.468237129779084 ], [ -1.487043052490941, 41.468666378723803 ], [ -1.489263700393465, 41.468666378723803 ], [ -1.489263700393465, 41.469095624826537 ], [ -1.490744132328482, 41.469095624826537 ], [ -1.490744132328482, 41.469524868087262 ], [ -1.492964780231007, 41.469524868087262 ], [ -1.492964780231007, 41.469954108505995 ], [ -1.493704996198516, 41.469954108505995 ], [ -1.493704996198516, 41.47038334608272 ], [ -1.494445212166024, 41.47038334608272 ], [ -1.494445212166024, 41.471671041760793 ], [ -1.495185428133532, 41.471671041760793 ], [ -1.495185428133532, 41.473387929543144 ], [ -1.495925644101041, 41.473387929543144 ], [ -1.495925644101041, 41.476392373743145 ], [ -1.495185428133532, 41.476392373743145 ], [ -1.495185428133532, 41.478967500787547 ], [ -1.494445212166024, 41.478967500787547 ], [ -1.494445212166024, 41.479396678680899 ], [ -1.493704996198516, 41.479396678680899 ], [ -1.493704996198516, 41.480255025941226 ], [ -1.492964780231007, 41.480255025941226 ], [ -1.492964780231007, 41.481113361833017 ], [ -1.492224564263499, 41.481113361833017 ], [ -1.492224564263499, 41.4815425255157 ], [ -1.491484348295991, 41.4815425255157 ], [ -1.491484348295991, 41.481971686356232 ], [ -1.486302836523432, 41.481971686356232 ], [ -1.486302836523432, 41.4815425255157 ], [ -1.48260175668589, 41.4815425255157 ], [ -1.48260175668589, 41.4806841953082 ], [ -1.481861540718382, 41.4806841953082 ] ] ], [ [ [ -8.06534235573751, 41.681223457191848 ], [ -8.06534235573751, 41.680367776981598 ], [ -8.064602139770001, 41.680367776981598 ], [ -8.064602139770001, 41.679512085393299 ], [ -8.063861923802493, 41.679512085393299 ], [ -8.063861923802493, 41.679084235332382 ], [ -8.063121707834984, 41.679084235332382 ], [ -8.063121707834984, 41.67822852667706 ], [ -8.062381491867477, 41.67822852667706 ], [ -8.062381491867477, 41.677800668082654 ], [ -8.061641275899968, 41.677800668082654 ], [ -8.061641275899968, 41.6769449423604 ], [ -8.060901059932458, 41.6769449423604 ], [ -8.060901059932458, 41.671810349092219 ], [ -8.061641275899968, 41.671810349092219 ], [ -8.061641275899968, 41.671382447831043 ], [ -8.062381491867477, 41.671382447831043 ], [ -8.062381491867477, 41.670954543725458 ], [ -8.063121707834984, 41.670954543725458 ], [ -8.063121707834984, 41.670526636775463 ], [ -8.063861923802493, 41.670526636775463 ], [ -8.063861923802493, 41.670098726981067 ], [ -8.064602139770001, 41.670098726981067 ], [ -8.064602139770001, 41.669670814342268 ], [ -8.06534235573751, 41.669670814342268 ], [ -8.06534235573751, 41.667531208482515 ], [ -8.066082571705017, 41.667531208482515 ], [ -8.066082571705017, 41.66282382528761 ], [ -8.066822787672526, 41.66282382528761 ], [ -8.066822787672526, 41.658544087366508 ], [ -8.068303219607543, 41.658544087366508 ], [ -8.068303219607543, 41.658116097930872 ], [ -8.06904343557505, 41.658116097930872 ], [ -8.06904343557505, 41.657688105650976 ], [ -8.06978365154256, 41.657688105650976 ], [ -8.06978365154256, 41.657260110526828 ], [ -8.072744515412591, 41.657260110526828 ], [ -8.072744515412591, 41.657688105650976 ], [ -8.074224947347609, 41.657688105650976 ], [ -8.074224947347609, 41.658116097930872 ], [ -8.074965163315117, 41.658116097930872 ], [ -8.074965163315117, 41.658544087366508 ], [ -8.076445595250133, 41.658544087366508 ], [ -8.076445595250133, 41.658972073957891 ], [ -8.07792602718515, 41.658972073957891 ], [ -8.07792602718515, 41.659400057705 ], [ -8.078666243152659, 41.659400057705 ], [ -8.078666243152659, 41.65982803860782 ], [ -8.080146675087676, 41.65982803860782 ], [ -8.080146675087676, 41.660683991880653 ], [ -8.080886891055185, 41.660683991880653 ], [ -8.080886891055185, 41.661539933776339 ], [ -8.081627107022694, 41.661539933776339 ], [ -8.081627107022694, 41.66239586429483 ], [ -8.082367322990201, 41.66239586429483 ], [ -8.082367322990201, 41.66282382528761 ], [ -8.083107538957709, 41.66282382528761 ], [ -8.083107538957709, 41.663679738740228 ], [ -8.083847754925218, 41.663679738740228 ], [ -8.083847754925218, 41.664535640815579 ], [ -8.084587970892727, 41.664535640815579 ], [ -8.084587970892727, 41.665391531513578 ], [ -8.085328186860234, 41.665391531513578 ], [ -8.085328186860234, 41.667531208482515 ], [ -8.086068402827742, 41.667531208482515 ], [ -8.086068402827742, 41.670954543725458 ], [ -8.086808618795251, 41.670954543725458 ], [ -8.086808618795251, 41.671810349092219 ], [ -8.086068402827742, 41.671810349092219 ], [ -8.086068402827742, 41.672238247508979 ], [ -8.085328186860234, 41.672238247508979 ], [ -8.085328186860234, 41.672666143081322 ], [ -8.084587970892727, 41.672666143081322 ], [ -8.084587970892727, 41.673094035809228 ], [ -8.083847754925218, 41.673094035809228 ], [ -8.083847754925218, 41.673949812731749 ], [ -8.083107538957709, 41.673949812731749 ], [ -8.083107538957709, 41.674377696926349 ], [ -8.082367322990201, 41.674377696926349 ], [ -8.082367322990201, 41.674805578276505 ], [ -8.080146675087676, 41.674805578276505 ], [ -8.080146675087676, 41.674377696926349 ], [ -8.079406459120168, 41.674377696926349 ], [ -8.079406459120168, 41.673949812731749 ], [ -8.07792602718515, 41.673949812731749 ], [ -8.07792602718515, 41.673521925692711 ], [ -8.076445595250133, 41.673521925692711 ], [ -8.076445595250133, 41.673949812731749 ], [ -8.075705379282624, 41.673949812731749 ], [ -8.075705379282624, 41.674377696926349 ], [ -8.074965163315117, 41.674377696926349 ], [ -8.074965163315117, 41.674805578276505 ], [ -8.074224947347609, 41.674805578276505 ], [ -8.074224947347609, 41.6769449423604 ], [ -8.0734847313801, 41.6769449423604 ], [ -8.0734847313801, 41.680795618508981 ], [ -8.072004299445084, 41.680795618508981 ], [ -8.072004299445084, 41.681223457191848 ], [ -8.06978365154256, 41.681223457191848 ], [ -8.06978365154256, 41.681651293030178 ], [ -8.067563003640034, 41.681651293030178 ], [ -8.067563003640034, 41.682079126023979 ], [ -8.066822787672526, 41.682079126023979 ], [ -8.066822787672526, 41.681651293030178 ], [ -8.066082571705017, 41.681651293030178 ], [ -8.066082571705017, 41.681223457191848 ], [ -8.06534235573751, 41.681223457191848 ] ] ], [ [ [ 0.185104818110386, 41.932299863371739 ], [ 0.185845034077895, 41.932299863371739 ], [ 0.185845034077895, 41.931447529982364 ], [ 0.186585250045403, 41.931447529982364 ], [ 0.186585250045403, 41.931021359016711 ], [ 0.187325466012912, 41.931021359016711 ], [ 0.187325466012912, 41.930169008543487 ], [ 0.18806568198042, 41.930169008543487 ], [ 0.18806568198042, 41.92931664668108 ], [ 0.188805897947928, 41.92931664668108 ], [ 0.188805897947928, 41.928464273429555 ], [ 0.189546113915437, 41.928464273429555 ], [ 0.189546113915437, 41.924202236335979 ], [ 0.188805897947928, 41.924202236335979 ], [ 0.188805897947928, 41.919513666678057 ], [ 0.18806568198042, 41.919513666678057 ], [ 0.18806568198042, 41.918234906071213 ], [ 0.187325466012912, 41.918234906071213 ], [ 0.187325466012912, 41.917382384764132 ], [ 0.186585250045403, 41.917382384764132 ], [ 0.186585250045403, 41.916529852068429 ], [ 0.185845034077895, 41.916529852068429 ], [ 0.185845034077895, 41.916103581449839 ], [ 0.185104818110386, 41.916103581449839 ], [ 0.185104818110386, 41.915677307984119 ], [ 0.177702658435303, 41.915677307984119 ], [ 0.177702658435303, 41.916103581449839 ], [ 0.176222226500287, 41.916103581449839 ], [ 0.176222226500287, 41.916956119839853 ], [ 0.175482010532778, 41.916956119839853 ], [ 0.175482010532778, 41.917382384764132 ], [ 0.17474179456527, 41.917382384764132 ], [ 0.17474179456527, 41.918234906071213 ], [ 0.174001578597761, 41.918234906071213 ], [ 0.174001578597761, 41.918661162453994 ], [ 0.173261362630253, 41.918661162453994 ], [ 0.173261362630253, 41.919087415989608 ], [ 0.172521146662745, 41.919087415989608 ], [ 0.172521146662745, 41.919939914519318 ], [ 0.171780930695237, 41.919939914519318 ], [ 0.171780930695237, 41.920366159513392 ], [ 0.171040714727728, 41.920366159513392 ], [ 0.171040714727728, 41.928890461478971 ], [ 0.171780930695237, 41.928890461478971 ], [ 0.171780930695237, 41.92931664668108 ], [ 0.172521146662745, 41.92931664668108 ], [ 0.172521146662745, 41.930169008543487 ], [ 0.173261362630253, 41.930169008543487 ], [ 0.173261362630253, 41.931021359016711 ], [ 0.174001578597761, 41.931021359016711 ], [ 0.174001578597761, 41.931873698100702 ], [ 0.17474179456527, 41.931873698100702 ], [ 0.17474179456527, 41.932299863371739 ], [ 0.175482010532778, 41.932299863371739 ], [ 0.175482010532778, 41.933152185371853 ], [ 0.179923306337828, 41.933152185371853 ], [ 0.179923306337828, 41.933578342100922 ], [ 0.184364602142878, 41.933578342100922 ], [ 0.184364602142878, 41.933152185371853 ], [ 0.185104818110386, 41.933152185371853 ], [ 0.185104818110386, 41.932299863371739 ] ] ], [ [ [ -2.216895996454158, 43.045762894770256 ], [ -2.216895996454158, 43.045344248849148 ], [ -2.215415564519142, 43.045344248849148 ], [ -2.215415564519142, 43.044925600070989 ], [ -2.213194916616617, 43.044925600070989 ], [ -2.213194916616617, 43.044506948435782 ], [ -2.212454700649109, 43.044506948435782 ], [ -2.212454700649109, 43.043250976387839 ], [ -2.2117144846816, 43.043250976387839 ], [ -2.2117144846816, 43.040320274946268 ], [ -2.210974268714092, 43.040320274946268 ], [ -2.210974268714092, 43.035295889632046 ], [ -2.2117144846816, 43.035295889632046 ], [ -2.2117144846816, 43.031946070863157 ], [ -2.212454700649109, 43.031946070863157 ], [ -2.212454700649109, 43.029433586793843 ], [ -2.213194916616617, 43.029433586793843 ], [ -2.213194916616617, 43.029014829449622 ], [ -2.213935132584125, 43.029014829449622 ], [ -2.213935132584125, 43.028596069248458 ], [ -2.215415564519142, 43.028596069248458 ], [ -2.215415564519142, 43.028177306190337 ], [ -2.21615578048665, 43.028177306190337 ], [ -2.21615578048665, 43.027758540275293 ], [ -2.218376428389175, 43.027758540275293 ], [ -2.218376428389175, 43.028177306190337 ], [ -2.2205970762917, 43.028177306190337 ], [ -2.2205970762917, 43.028596069248458 ], [ -2.222817724194225, 43.028596069248458 ], [ -2.222817724194225, 43.029014829449622 ], [ -2.22503837209675, 43.029014829449622 ], [ -2.22503837209675, 43.029433586793843 ], [ -2.225778588064259, 43.029433586793843 ], [ -2.225778588064259, 43.030689841684811 ], [ -2.226518804031767, 43.030689841684811 ], [ -2.226518804031767, 43.031527330660673 ], [ -2.227259019999275, 43.031527330660673 ], [ -2.227259019999275, 43.032783542697238 ], [ -2.227999235966783, 43.032783542697238 ], [ -2.227999235966783, 43.033621003103427 ], [ -2.228739451934292, 43.033621003103427 ], [ -2.228739451934292, 43.03487717228537 ], [ -2.2294796679018, 43.03487717228537 ], [ -2.2294796679018, 43.036133315754434 ], [ -2.230219883869309, 43.036133315754434 ], [ -2.230219883869309, 43.036970730448857 ], [ -2.230960099836817, 43.036970730448857 ], [ -2.230960099836817, 43.038226831062964 ], [ -2.230219883869309, 43.038226831062964 ], [ -2.230219883869309, 43.041994978626512 ], [ -2.2294796679018, 43.041994978626512 ], [ -2.2294796679018, 43.043250976387839 ], [ -2.228739451934292, 43.043250976387839 ], [ -2.228739451934292, 43.043669636594203 ], [ -2.227999235966783, 43.043669636594203 ], [ -2.227999235966783, 43.04408829394351 ], [ -2.227259019999275, 43.04408829394351 ], [ -2.227259019999275, 43.044506948435782 ], [ -2.225778588064259, 43.044506948435782 ], [ -2.225778588064259, 43.044925600070989 ], [ -2.22503837209675, 43.044925600070989 ], [ -2.22503837209675, 43.045344248849148 ], [ -2.224298156129242, 43.045344248849148 ], [ -2.224298156129242, 43.045762894770256 ], [ -2.223557940161733, 43.045762894770256 ], [ -2.223557940161733, 43.0461815378343 ], [ -2.222817724194225, 43.0461815378343 ], [ -2.222817724194225, 43.046600178041274 ], [ -2.2205970762917, 43.046600178041274 ], [ -2.2205970762917, 43.0461815378343 ], [ -2.218376428389175, 43.0461815378343 ], [ -2.218376428389175, 43.045762894770256 ], [ -2.216895996454158, 43.045762894770256 ] ] ], [ [ [ -5.821007542252239, 43.550230433520795 ], [ -5.821007542252239, 43.549400056708208 ], [ -5.82026732628473, 43.549400056708208 ], [ -5.82026732628473, 43.546908857629347 ], [ -5.819527110317222, 43.546908857629347 ], [ -5.819527110317222, 43.54192615058799 ], [ -5.818786894349714, 43.54192615058799 ], [ -5.818786894349714, 43.541510906411077 ], [ -5.818046678382206, 43.541510906411077 ], [ -5.818046678382206, 43.541095659374164 ], [ -5.817306462414698, 43.541095659374164 ], [ -5.817306462414698, 43.540680409477226 ], [ -5.816566246447189, 43.540680409477226 ], [ -5.816566246447189, 43.539434642626411 ], [ -5.815826030479681, 43.539434642626411 ], [ -5.815826030479681, 43.537773580118674 ], [ -5.815085814512173, 43.537773580118674 ], [ -5.815085814512173, 43.536527753207956 ], [ -5.815826030479681, 43.536527753207956 ], [ -5.815826030479681, 43.535281900557365 ], [ -5.816566246447189, 43.535281900557365 ], [ -5.816566246447189, 43.53403602216698 ], [ -5.817306462414698, 43.53403602216698 ], [ -5.817306462414698, 43.533205422273518 ], [ -5.818046678382206, 43.533205422273518 ], [ -5.818046678382206, 43.531959500983589 ], [ -5.821747758219748, 43.531959500983589 ], [ -5.821747758219748, 43.53237481094019 ], [ -5.823228190154764, 43.53237481094019 ], [ -5.823228190154764, 43.531959500983589 ], [ -5.823968406122273, 43.531959500983589 ], [ -5.823968406122273, 43.531544188167018 ], [ -5.82544883805729, 43.531544188167018 ], [ -5.82544883805729, 43.531128872490477 ], [ -5.826189054024797, 43.531128872490477 ], [ -5.826189054024797, 43.530713553953994 ], [ -5.826929269992306, 43.530713553953994 ], [ -5.826929269992306, 43.530298232557548 ], [ -5.828409701927322, 43.530298232557548 ], [ -5.828409701927322, 43.529882908301154 ], [ -5.829149917894831, 43.529882908301154 ], [ -5.829149917894831, 43.529467581184797 ], [ -5.829890133862339, 43.529467581184797 ], [ -5.829890133862339, 43.529052251208505 ], [ -5.830630349829847, 43.529052251208505 ], [ -5.830630349829847, 43.528636918372264 ], [ -5.832110781764865, 43.528636918372264 ], [ -5.832110781764865, 43.529052251208505 ], [ -5.832850997732372, 43.529052251208505 ], [ -5.832850997732372, 43.529467581184797 ], [ -5.833591213699881, 43.529467581184797 ], [ -5.833591213699881, 43.529882908301154 ], [ -5.834331429667389, 43.529882908301154 ], [ -5.834331429667389, 43.530298232557548 ], [ -5.835071645634897, 43.530298232557548 ], [ -5.835071645634897, 43.530713553953994 ], [ -5.835811861602406, 43.530713553953994 ], [ -5.835811861602406, 43.531544188167018 ], [ -5.836552077569914, 43.531544188167018 ], [ -5.836552077569914, 43.531959500983589 ], [ -5.837292293537423, 43.531959500983589 ], [ -5.837292293537423, 43.53237481094019 ], [ -5.838032509504931, 43.53237481094019 ], [ -5.838032509504931, 43.532790118036843 ], [ -5.83877272547244, 43.532790118036843 ], [ -5.83877272547244, 43.533205422273518 ], [ -5.841733589342473, 43.533205422273518 ], [ -5.841733589342473, 43.532790118036843 ], [ -5.842473805309981, 43.532790118036843 ], [ -5.842473805309981, 43.53237481094019 ], [ -5.843954237244998, 43.53237481094019 ], [ -5.843954237244998, 43.531959500983589 ], [ -5.846174885147523, 43.531959500983589 ], [ -5.846174885147523, 43.53237481094019 ], [ -5.846915101115031, 43.53237481094019 ], [ -5.846915101115031, 43.532790118036843 ], [ -5.847655317082539, 43.532790118036843 ], [ -5.847655317082539, 43.533620723650237 ], [ -5.848395533050048, 43.533620723650237 ], [ -5.848395533050048, 43.53403602216698 ], [ -5.849135749017555, 43.53403602216698 ], [ -5.849135749017555, 43.534451317823752 ], [ -5.849875964985064, 43.534451317823752 ], [ -5.849875964985064, 43.534866610620547 ], [ -5.850616180952573, 43.534866610620547 ], [ -5.850616180952573, 43.535281900557365 ], [ -5.85135639692008, 43.535281900557365 ], [ -5.85135639692008, 43.536943031704851 ], [ -5.852096612887589, 43.536943031704851 ], [ -5.852096612887589, 43.542756630361758 ], [ -5.852836828855097, 43.542756630361758 ], [ -5.852836828855097, 43.544002328572311 ], [ -5.852096612887589, 43.544002328572311 ], [ -5.852096612887589, 43.54607843505606 ], [ -5.85135639692008, 43.54607843505606 ], [ -5.85135639692008, 43.54773926876247 ], [ -5.850616180952573, 43.54773926876247 ], [ -5.850616180952573, 43.549400056708208 ], [ -5.849875964985064, 43.549400056708208 ], [ -5.849875964985064, 43.550230433520795 ], [ -5.849135749017555, 43.550230433520795 ], [ -5.849135749017555, 43.550645617637002 ], [ -5.847655317082539, 43.550645617637002 ], [ -5.847655317082539, 43.551060798893154 ], [ -5.846915101115031, 43.551060798893154 ], [ -5.846915101115031, 43.551475977289243 ], [ -5.844694453212505, 43.551475977289243 ], [ -5.844694453212505, 43.551060798893154 ], [ -5.842473805309981, 43.551060798893154 ], [ -5.842473805309981, 43.550645617637002 ], [ -5.840253157407456, 43.550645617637002 ], [ -5.840253157407456, 43.550230433520795 ], [ -5.83877272547244, 43.550230433520795 ], [ -5.83877272547244, 43.549815246544526 ], [ -5.836552077569914, 43.549815246544526 ], [ -5.836552077569914, 43.549400056708208 ], [ -5.835071645634897, 43.549400056708208 ], [ -5.835071645634897, 43.548984864011857 ], [ -5.832850997732372, 43.548984864011857 ], [ -5.832850997732372, 43.548569668455436 ], [ -5.832110781764865, 43.548569668455436 ], [ -5.832110781764865, 43.548984864011857 ], [ -5.831370565797356, 43.548984864011857 ], [ -5.831370565797356, 43.549815246544526 ], [ -5.830630349829847, 43.549815246544526 ], [ -5.830630349829847, 43.550230433520795 ], [ -5.829890133862339, 43.550230433520795 ], [ -5.829890133862339, 43.550645617637002 ], [ -5.829149917894831, 43.550645617637002 ], [ -5.829149917894831, 43.551475977289243 ], [ -5.828409701927322, 43.551475977289243 ], [ -5.828409701927322, 43.551891152825284 ], [ -5.822487974187256, 43.551891152825284 ], [ -5.822487974187256, 43.551060798893154 ], [ -5.821747758219748, 43.551060798893154 ], [ -5.821747758219748, 43.550230433520795 ], [ -5.821007542252239, 43.550230433520795 ] ] ], [ [ [ 1.242133219712288, 36.135555728038689 ], [ 1.243613651647304, 36.135555728038689 ], [ 1.243613651647304, 36.135093078437173 ], [ 1.245094083582321, 36.135093078437173 ], [ 1.245094083582321, 36.13463042610794 ], [ 1.245834299549829, 36.13463042610794 ], [ 1.245834299549829, 36.134167771051025 ], [ 1.246574515517338, 36.134167771051025 ], [ 1.246574515517338, 36.132317123546741 ], [ 1.247314731484846, 36.132317123546741 ], [ 1.247314731484846, 36.130929109278505 ], [ 1.248054947452355, 36.130929109278505 ], [ 1.248054947452355, 36.129078385401499 ], [ 1.248795163419863, 36.129078385401499 ], [ 1.248795163419863, 36.123988669722088 ], [ 1.248054947452355, 36.123988669722088 ], [ 1.248054947452355, 36.122137782198543 ], [ 1.247314731484846, 36.122137782198543 ], [ 1.247314731484846, 36.121212322072857 ], [ 1.246574515517338, 36.121212322072857 ], [ 1.246574515517338, 36.120749587919107 ], [ 1.245834299549829, 36.120749587919107 ], [ 1.245834299549829, 36.119824111429786 ], [ 1.242133219712288, 36.119824111429786 ], [ 1.242133219712288, 36.120286851038067 ], [ 1.239912571809763, 36.120286851038067 ], [ 1.239912571809763, 36.120749587919107 ], [ 1.237691923907238, 36.120749587919107 ], [ 1.237691923907238, 36.121212322072857 ], [ 1.236951707939729, 36.121212322072857 ], [ 1.236951707939729, 36.122137782198543 ], [ 1.236211491972221, 36.122137782198543 ], [ 1.236211491972221, 36.122600508170429 ], [ 1.235471276004713, 36.122600508170429 ], [ 1.235471276004713, 36.123525951932208 ], [ 1.233990844069696, 36.123525951932208 ], [ 1.233990844069696, 36.123988669722088 ], [ 1.232510412134679, 36.123988669722088 ], [ 1.232510412134679, 36.124451384784592 ], [ 1.230289764232154, 36.124451384784592 ], [ 1.230289764232154, 36.124914097119721 ], [ 1.229549548264646, 36.124914097119721 ], [ 1.229549548264646, 36.127227617884188 ], [ 1.228809332297138, 36.127227617884188 ], [ 1.228809332297138, 36.129078385401499 ], [ 1.22806911632963, 36.129078385401499 ], [ 1.22806911632963, 36.132317123546741 ], [ 1.228809332297138, 36.132317123546741 ], [ 1.228809332297138, 36.13370511326643 ], [ 1.229549548264646, 36.13370511326643 ], [ 1.229549548264646, 36.13463042610794 ], [ 1.230289764232154, 36.13463042610794 ], [ 1.230289764232154, 36.135093078437173 ], [ 1.231770196167171, 36.135093078437173 ], [ 1.231770196167171, 36.135555728038689 ], [ 1.232510412134679, 36.135555728038689 ], [ 1.232510412134679, 36.136018374912496 ], [ 1.233990844069696, 36.136018374912496 ], [ 1.233990844069696, 36.136481019058579 ], [ 1.235471276004713, 36.136481019058579 ], [ 1.235471276004713, 36.136943660476909 ], [ 1.238432139874746, 36.136943660476909 ], [ 1.238432139874746, 36.136481019058579 ], [ 1.239912571809763, 36.136481019058579 ], [ 1.239912571809763, 36.136018374912496 ], [ 1.242133219712288, 36.136018374912496 ], [ 1.242133219712288, 36.135555728038689 ] ] ], [ [ [ 2.882451803710757, 36.601436792063076 ], [ 2.883192019678265, 36.601436792063076 ], [ 2.883192019678265, 36.600517014187183 ], [ 2.883932235645773, 36.600517014187183 ], [ 2.883932235645773, 36.599597225345263 ], [ 2.884672451613281, 36.599597225345263 ], [ 2.884672451613281, 36.598677425537396 ], [ 2.88541266758079, 36.598677425537396 ], [ 2.88541266758079, 36.597757614763687 ], [ 2.886152883548299, 36.597757614763687 ], [ 2.886152883548299, 36.592238519845012 ], [ 2.88541266758079, 36.592238519845012 ], [ 2.88541266758079, 36.591778577449873 ], [ 2.884672451613281, 36.591778577449873 ], [ 2.884672451613281, 36.591318632313481 ], [ 2.883932235645773, 36.591318632313481 ], [ 2.883932235645773, 36.590858684435844 ], [ 2.883192019678265, 36.590858684435844 ], [ 2.883192019678265, 36.590398733816969 ], [ 2.882451803710757, 36.590398733816969 ], [ 2.882451803710757, 36.58993878045689 ], [ 2.881711587743248, 36.58993878045689 ], [ 2.881711587743248, 36.589478824355602 ], [ 2.88097137177574, 36.589478824355602 ], [ 2.88097137177574, 36.589018865513104 ], [ 2.878750723873215, 36.589018865513104 ], [ 2.878750723873215, 36.589478824355602 ], [ 2.878010507905707, 36.589478824355602 ], [ 2.878010507905707, 36.58993878045689 ], [ 2.877270291938198, 36.58993878045689 ], [ 2.877270291938198, 36.590398733816969 ], [ 2.87653007597069, 36.590398733816969 ], [ 2.87653007597069, 36.590858684435844 ], [ 2.875789860003182, 36.590858684435844 ], [ 2.875789860003182, 36.591318632313481 ], [ 2.875049644035673, 36.591318632313481 ], [ 2.875049644035673, 36.591778577449873 ], [ 2.874309428068165, 36.591778577449873 ], [ 2.874309428068165, 36.592238519845012 ], [ 2.873569212100656, 36.592238519845012 ], [ 2.873569212100656, 36.592698459498877 ], [ 2.872828996133148, 36.592698459498877 ], [ 2.872828996133148, 36.593618330582743 ], [ 2.87208878016564, 36.593618330582743 ], [ 2.87208878016564, 36.594078262012708 ], [ 2.871348564198132, 36.594078262012708 ], [ 2.871348564198132, 36.594538190701364 ], [ 2.870608348230624, 36.594538190701364 ], [ 2.870608348230624, 36.599137326812055 ], [ 2.871348564198132, 36.599137326812055 ], [ 2.871348564198132, 36.600057121136963 ], [ 2.87208878016564, 36.600057121136963 ], [ 2.87208878016564, 36.600976904495894 ], [ 2.872828996133148, 36.600976904495894 ], [ 2.872828996133148, 36.601896676888721 ], [ 2.873569212100656, 36.601896676888721 ], [ 2.873569212100656, 36.602816438315351 ], [ 2.874309428068165, 36.602816438315351 ], [ 2.874309428068165, 36.603276314916315 ], [ 2.875049644035673, 36.603276314916315 ], [ 2.875049644035673, 36.603736188775677 ], [ 2.88097137177574, 36.603736188775677 ], [ 2.88097137177574, 36.603276314916315 ], [ 2.881711587743248, 36.603276314916315 ], [ 2.881711587743248, 36.602356558972815 ], [ 2.882451803710757, 36.602356558972815 ], [ 2.882451803710757, 36.601436792063076 ] ] ], [ [ [ 3.230353308439674, 36.637299574577931 ], [ 3.231093524407182, 36.637299574577931 ], [ 3.231093524407182, 36.636839900890493 ], [ 3.232573956342199, 36.636839900890493 ], [ 3.232573956342199, 36.636380224460474 ], [ 3.234054388277215, 36.636380224460474 ], [ 3.234054388277215, 36.635920545287931 ], [ 3.235534820212232, 36.635920545287931 ], [ 3.235534820212232, 36.635460863372849 ], [ 3.236275036179741, 36.635460863372849 ], [ 3.236275036179741, 36.635001178715243 ], [ 3.237755468114757, 36.635001178715243 ], [ 3.237755468114757, 36.634541491315147 ], [ 3.238495684082265, 36.634541491315147 ], [ 3.238495684082265, 36.633162412659935 ], [ 3.239235900049774, 36.633162412659935 ], [ 3.239235900049774, 36.63178330932265 ], [ 3.239976116017282, 36.63178330932265 ], [ 3.239976116017282, 36.629025028603316 ], [ 3.239235900049774, 36.629025028603316 ], [ 3.239235900049774, 36.627645851221985 ], [ 3.238495684082265, 36.627645851221985 ], [ 3.238495684082265, 36.626726385922929 ], [ 3.237755468114757, 36.626726385922929 ], [ 3.237755468114757, 36.625347167407384 ], [ 3.237015252147248, 36.625347167407384 ], [ 3.237015252147248, 36.624887422417736 ], [ 3.230353308439674, 36.624887422417736 ], [ 3.230353308439674, 36.625347167407384 ], [ 3.229613092472166, 36.625347167407384 ], [ 3.229613092472166, 36.625806909654813 ], [ 3.228872876504657, 36.625806909654813 ], [ 3.228872876504657, 36.626266649159994 ], [ 3.22739244456964, 36.626266649159994 ], [ 3.22739244456964, 36.626726385922929 ], [ 3.226652228602132, 36.626726385922929 ], [ 3.226652228602132, 36.627186119943595 ], [ 3.225912012634624, 36.627186119943595 ], [ 3.225912012634624, 36.627645851221985 ], [ 3.225171796667116, 36.627645851221985 ], [ 3.225171796667116, 36.628105579758056 ], [ 3.224431580699607, 36.628105579758056 ], [ 3.224431580699607, 36.628565305551845 ], [ 3.223691364732099, 36.628565305551845 ], [ 3.223691364732099, 36.629025028603316 ], [ 3.222210932797082, 36.629025028603316 ], [ 3.222210932797082, 36.62994446647923 ], [ 3.221470716829573, 36.62994446647923 ], [ 3.221470716829573, 36.63178330932265 ], [ 3.220730500862065, 36.63178330932265 ], [ 3.220730500862065, 36.635001178715243 ], [ 3.221470716829573, 36.635001178715243 ], [ 3.221470716829573, 36.636839900890493 ], [ 3.222210932797082, 36.636839900890493 ], [ 3.222210932797082, 36.637299574577931 ], [ 3.22295114876459, 36.637299574577931 ], [ 3.22295114876459, 36.637759245522808 ], [ 3.223691364732099, 36.637759245522808 ], [ 3.223691364732099, 36.638218913725105 ], [ 3.225171796667116, 36.638218913725105 ], [ 3.225171796667116, 36.638678579184806 ], [ 3.22739244456964, 36.638678579184806 ], [ 3.22739244456964, 36.638218913725105 ], [ 3.228872876504657, 36.638218913725105 ], [ 3.228872876504657, 36.637759245522808 ], [ 3.230353308439674, 36.637759245522808 ], [ 3.230353308439674, 36.637299574577931 ] ] ], [ [ [ 3.127463288956015, 36.688306303054155 ], [ 3.127463288956015, 36.687846933872635 ], [ 3.128943720891032, 36.687846933872635 ], [ 3.128943720891032, 36.686468809864046 ], [ 3.12968393685854, 36.686468809864046 ], [ 3.12968393685854, 36.685550046805048 ], [ 3.130424152826048, 36.685550046805048 ], [ 3.130424152826048, 36.684171881636921 ], [ 3.131164368793557, 36.684171881636921 ], [ 3.131164368793557, 36.683253091138575 ], [ 3.131904584761065, 36.683253091138575 ], [ 3.131904584761065, 36.681874884811897 ], [ 3.132644800728573, 36.681874884811897 ], [ 3.132644800728573, 36.680956066874856 ], [ 3.133385016696082, 36.680956066874856 ], [ 3.133385016696082, 36.679577819390644 ], [ 3.13412523266359, 36.679577819390644 ], [ 3.13412523266359, 36.676361812562291 ], [ 3.133385016696082, 36.676361812562291 ], [ 3.133385016696082, 36.67452403401316 ], [ 3.132644800728573, 36.67452403401316 ], [ 3.132644800728573, 36.674064582516735 ], [ 3.131164368793557, 36.674064582516735 ], [ 3.131164368793557, 36.673605128276698 ], [ 3.12968393685854, 36.673605128276698 ], [ 3.12968393685854, 36.673145671293035 ], [ 3.128943720891032, 36.673145671293035 ], [ 3.128943720891032, 36.672686211565782 ], [ 3.127463288956015, 36.672686211565782 ], [ 3.127463288956015, 36.672226749094932 ], [ 3.125982857020999, 36.672226749094932 ], [ 3.125982857020999, 36.671767283880513 ], [ 3.120061129280932, 36.671767283880513 ], [ 3.120061129280932, 36.672226749094932 ], [ 3.119320913313424, 36.672226749094932 ], [ 3.119320913313424, 36.672686211565782 ], [ 3.118580697345915, 36.672686211565782 ], [ 3.118580697345915, 36.673145671293035 ], [ 3.117840481378407, 36.673145671293035 ], [ 3.117840481378407, 36.674064582516735 ], [ 3.117100265410898, 36.674064582516735 ], [ 3.117100265410898, 36.67452403401316 ], [ 3.11636004944339, 36.67452403401316 ], [ 3.11636004944339, 36.674983482765938 ], [ 3.115619833475882, 36.674983482765938 ], [ 3.115619833475882, 36.675902372040525 ], [ 3.114879617508374, 36.675902372040525 ], [ 3.114879617508374, 36.676361812562291 ], [ 3.114139401540865, 36.676361812562291 ], [ 3.114139401540865, 36.676821250340389 ], [ 3.113399185573357, 36.676821250340389 ], [ 3.113399185573357, 36.677280685374775 ], [ 3.112658969605848, 36.677280685374775 ], [ 3.112658969605848, 36.678199547212365 ], [ 3.11191875363834, 36.678199547212365 ], [ 3.11191875363834, 36.678658974015555 ], [ 3.111178537670832, 36.678658974015555 ], [ 3.111178537670832, 36.679118398074984 ], [ 3.110438321703324, 36.679118398074984 ], [ 3.110438321703324, 36.684171881636921 ], [ 3.111178537670832, 36.684171881636921 ], [ 3.111178537670832, 36.684631272770233 ], [ 3.11191875363834, 36.684631272770233 ], [ 3.11191875363834, 36.685090661159613 ], [ 3.112658969605848, 36.685090661159613 ], [ 3.112658969605848, 36.685550046805048 ], [ 3.113399185573357, 36.685550046805048 ], [ 3.113399185573357, 36.68600942970653 ], [ 3.114139401540865, 36.68600942970653 ], [ 3.114139401540865, 36.686468809864046 ], [ 3.114879617508374, 36.686468809864046 ], [ 3.114879617508374, 36.68692818727758 ], [ 3.115619833475882, 36.68692818727758 ], [ 3.115619833475882, 36.687387561947112 ], [ 3.11636004944339, 36.687387561947112 ], [ 3.11636004944339, 36.687846933872635 ], [ 3.117100265410898, 36.687846933872635 ], [ 3.117100265410898, 36.688306303054155 ], [ 3.117840481378407, 36.688306303054155 ], [ 3.117840481378407, 36.688765669491623 ], [ 3.118580697345915, 36.688765669491623 ], [ 3.118580697345915, 36.689225033185046 ], [ 3.119320913313424, 36.689225033185046 ], [ 3.119320913313424, 36.689684394134424 ], [ 3.122281777183456, 36.689684394134424 ], [ 3.122281777183456, 36.689225033185046 ], [ 3.123762209118474, 36.689225033185046 ], [ 3.123762209118474, 36.688765669491623 ], [ 3.12524264105349, 36.688765669491623 ], [ 3.12524264105349, 36.688306303054155 ], [ 3.127463288956015, 36.688306303054155 ] ] ], [ [ [ 3.086011194775548, 36.754885782112567 ], [ 3.086011194775548, 36.754426810952772 ], [ 3.087491626710565, 36.754426810952772 ], [ 3.087491626710565, 36.753967837047014 ], [ 3.088231842678073, 36.753967837047014 ], [ 3.088231842678073, 36.752131913965158 ], [ 3.088972058645582, 36.752131913965158 ], [ 3.088972058645582, 36.750295946949642 ], [ 3.089712274613091, 36.750295946949642 ], [ 3.089712274613091, 36.748918942857074 ], [ 3.088972058645582, 36.748918942857074 ], [ 3.088972058645582, 36.74708289895969 ], [ 3.088231842678073, 36.74708289895969 ], [ 3.088231842678073, 36.74524681113099 ], [ 3.087491626710565, 36.74524681113099 ], [ 3.087491626710565, 36.743410679371763 ], [ 3.086751410743056, 36.743410679371763 ], [ 3.086751410743056, 36.742951639567913 ], [ 3.08527097880804, 36.742951639567913 ], [ 3.08527097880804, 36.742492597018455 ], [ 3.083050330905515, 36.742492597018455 ], [ 3.083050330905515, 36.742033551723452 ], [ 3.08082968300299, 36.742033551723452 ], [ 3.08082968300299, 36.741574503682855 ], [ 3.078609035100465, 36.741574503682855 ], [ 3.078609035100465, 36.742033551723452 ], [ 3.077128603165448, 36.742033551723452 ], [ 3.077128603165448, 36.742492597018455 ], [ 3.07638838719794, 36.742492597018455 ], [ 3.07638838719794, 36.742951639567913 ], [ 3.074907955262923, 36.742951639567913 ], [ 3.074907955262923, 36.744787782309629 ], [ 3.074167739295415, 36.744787782309629 ], [ 3.074167739295415, 36.74708289895969 ], [ 3.073427523327906, 36.74708289895969 ], [ 3.073427523327906, 36.749377946967037 ], [ 3.072687307360398, 36.749377946967037 ], [ 3.072687307360398, 36.750754942822262 ], [ 3.073427523327906, 36.750754942822262 ], [ 3.073427523327906, 36.752590898854436 ], [ 3.074167739295415, 36.752590898854436 ], [ 3.074167739295415, 36.753967837047014 ], [ 3.074907955262923, 36.753967837047014 ], [ 3.074907955262923, 36.754426810952772 ], [ 3.07638838719794, 36.754426810952772 ], [ 3.07638838719794, 36.754885782112567 ], [ 3.077128603165448, 36.754885782112567 ], [ 3.077128603165448, 36.755344750526469 ], [ 3.077868819132957, 36.755344750526469 ], [ 3.077868819132957, 36.755803716194414 ], [ 3.078609035100465, 36.755803716194414 ], [ 3.078609035100465, 36.756262679116404 ], [ 3.082310114938007, 36.756262679116404 ], [ 3.082310114938007, 36.755803716194414 ], [ 3.083790546873024, 36.755803716194414 ], [ 3.083790546873024, 36.755344750526469 ], [ 3.08527097880804, 36.755344750526469 ], [ 3.08527097880804, 36.754885782112567 ], [ 3.086011194775548, 36.754885782112567 ] ] ], [ [ [ 1.978648107383081, 41.464373761387826 ], [ 1.979388323350589, 41.464373761387826 ], [ 1.979388323350589, 41.463944484023486 ], [ 1.980128539318097, 41.463944484023486 ], [ 1.980128539318097, 41.463515203817195 ], [ 1.980868755285605, 41.463515203817195 ], [ 1.980868755285605, 41.463085920768989 ], [ 1.981608971253114, 41.463085920768989 ], [ 1.981608971253114, 41.462227346146804 ], [ 1.982349187220622, 41.462227346146804 ], [ 1.982349187220622, 41.461798054572846 ], [ 1.98308940318813, 41.461798054572846 ], [ 1.98308940318813, 41.461368760156972 ], [ 1.983829619155639, 41.461368760156972 ], [ 1.983829619155639, 41.460939462899212 ], [ 1.984569835123147, 41.460939462899212 ], [ 1.984569835123147, 41.460510162799537 ], [ 1.985310051090655, 41.460510162799537 ], [ 1.985310051090655, 41.459222245449205 ], [ 1.986050267058164, 41.459222245449205 ], [ 1.986050267058164, 41.457504982529208 ], [ 1.986790483025672, 41.457504982529208 ], [ 1.986790483025672, 41.455787674139529 ], [ 1.98753069899318, 41.455787674139529 ], [ 1.98753069899318, 41.454499663008015 ], [ 1.986790483025672, 41.454499663008015 ], [ 1.986790483025672, 41.452782275047241 ], [ 1.986050267058164, 41.452782275047241 ], [ 1.986050267058164, 41.451064841617743 ], [ 1.985310051090655, 41.451064841617743 ], [ 1.985310051090655, 41.449347362719848 ], [ 1.984569835123147, 41.449347362719848 ], [ 1.984569835123147, 41.448917985890979 ], [ 1.981608971253114, 41.448917985890979 ], [ 1.981608971253114, 41.448488606220351 ], [ 1.978648107383081, 41.448488606220351 ], [ 1.978648107383081, 41.448059223707993 ], [ 1.975687243513047, 41.448059223707993 ], [ 1.975687243513047, 41.448917985890979 ], [ 1.974947027545539, 41.448917985890979 ], [ 1.974947027545539, 41.449776736706959 ], [ 1.97420681157803, 41.449776736706959 ], [ 1.97420681157803, 41.450635476155917 ], [ 1.973466595610522, 41.450635476155917 ], [ 1.973466595610522, 41.451923564016063 ], [ 1.972726379643014, 41.451923564016063 ], [ 1.972726379643014, 41.452782275047241 ], [ 1.971986163675505, 41.452782275047241 ], [ 1.971986163675505, 41.454070320280536 ], [ 1.971245947707997, 41.454070320280536 ], [ 1.971245947707997, 41.45836361967293 ], [ 1.971986163675505, 41.45836361967293 ], [ 1.971986163675505, 41.462227346146804 ], [ 1.972726379643014, 41.462227346146804 ], [ 1.972726379643014, 41.462656634878854 ], [ 1.973466595610522, 41.462656634878854 ], [ 1.973466595610522, 41.463085920768989 ], [ 1.97420681157803, 41.463085920768989 ], [ 1.97420681157803, 41.463515203817195 ], [ 1.974947027545539, 41.463515203817195 ], [ 1.974947027545539, 41.463944484023486 ], [ 1.975687243513047, 41.463944484023486 ], [ 1.975687243513047, 41.464373761387826 ], [ 1.976427459480555, 41.464373761387826 ], [ 1.976427459480555, 41.465232307590696 ], [ 1.977907891415572, 41.465232307590696 ], [ 1.977907891415572, 41.464803035910236 ], [ 1.978648107383081, 41.464803035910236 ], [ 1.978648107383081, 41.464373761387826 ] ] ], [ [ [ 1.772868068415763, 42.706565770869567 ], [ 1.77434850035078, 42.706565770869567 ], [ 1.77434850035078, 42.705723861139319 ], [ 1.775088716318289, 42.705723861139319 ], [ 1.775088716318289, 42.704040007424354 ], [ 1.775828932285797, 42.704040007424354 ], [ 1.775828932285797, 42.698988172245535 ], [ 1.775088716318289, 42.698988172245535 ], [ 1.775088716318289, 42.694777995602578 ], [ 1.77434850035078, 42.694777995602578 ], [ 1.77434850035078, 42.690988592567969 ], [ 1.773608284383272, 42.690988592567969 ], [ 1.773608284383272, 42.690567533514184 ], [ 1.772868068415763, 42.690567533514184 ], [ 1.772868068415763, 42.690146471605971 ], [ 1.772127852448256, 42.690146471605971 ], [ 1.772127852448256, 42.689725406843344 ], [ 1.770647420513238, 42.689725406843344 ], [ 1.770647420513238, 42.689304339226304 ], [ 1.769166988578222, 42.689304339226304 ], [ 1.769166988578222, 42.688883268754857 ], [ 1.768426772610714, 42.688883268754857 ], [ 1.768426772610714, 42.688462195428997 ], [ 1.766946340675697, 42.688462195428997 ], [ 1.766946340675697, 42.68804111924873 ], [ 1.76546590874068, 42.68804111924873 ], [ 1.76546590874068, 42.688462195428997 ], [ 1.763985476805663, 42.688462195428997 ], [ 1.763985476805663, 42.688883268754857 ], [ 1.763245260838155, 42.688883268754857 ], [ 1.763245260838155, 42.689304339226304 ], [ 1.761764828903139, 42.689304339226304 ], [ 1.761764828903139, 42.689725406843344 ], [ 1.76102461293563, 42.689725406843344 ], [ 1.76102461293563, 42.690146471605971 ], [ 1.759544181000614, 42.690146471605971 ], [ 1.759544181000614, 42.690567533514184 ], [ 1.758803965033105, 42.690567533514184 ], [ 1.758803965033105, 42.690988592567969 ], [ 1.758063749065597, 42.690988592567969 ], [ 1.758063749065597, 42.691409648767333 ], [ 1.75658331713058, 42.691409648767333 ], [ 1.75658331713058, 42.691830702112277 ], [ 1.755843101163072, 42.691830702112277 ], [ 1.755843101163072, 42.692672800238846 ], [ 1.755102885195564, 42.692672800238846 ], [ 1.755102885195564, 42.693514886947682 ], [ 1.754362669228055, 42.693514886947682 ], [ 1.754362669228055, 42.694356962238729 ], [ 1.753622453260546, 42.694356962238729 ], [ 1.753622453260546, 42.697304135842025 ], [ 1.752882237293039, 42.697304135842025 ], [ 1.752882237293039, 42.701093153523928 ], [ 1.753622453260546, 42.701093153523928 ], [ 1.753622453260546, 42.703198063439686 ], [ 1.754362669228055, 42.703198063439686 ], [ 1.754362669228055, 42.704040007424354 ], [ 1.755102885195564, 42.704040007424354 ], [ 1.755102885195564, 42.7044609751349 ], [ 1.755843101163072, 42.7044609751349 ], [ 1.755843101163072, 42.704881939990912 ], [ 1.75658331713058, 42.704881939990912 ], [ 1.75658331713058, 42.70530290199239 ], [ 1.758063749065597, 42.70530290199239 ], [ 1.758063749065597, 42.705723861139319 ], [ 1.758803965033105, 42.705723861139319 ], [ 1.758803965033105, 42.706144817431721 ], [ 1.759544181000614, 42.706144817431721 ], [ 1.759544181000614, 42.706565770869567 ], [ 1.763245260838155, 42.706565770869567 ], [ 1.763245260838155, 42.706144817431721 ], [ 1.76546590874068, 42.706144817431721 ], [ 1.76546590874068, 42.706565770869567 ], [ 1.766946340675697, 42.706565770869567 ], [ 1.766946340675697, 42.706986721452878 ], [ 1.768426772610714, 42.706986721452878 ], [ 1.768426772610714, 42.70740766918162 ], [ 1.769166988578222, 42.70740766918162 ], [ 1.769166988578222, 42.707828614055813 ], [ 1.771387636480747, 42.707828614055813 ], [ 1.771387636480747, 42.70740766918162 ], [ 1.772127852448256, 42.70740766918162 ], [ 1.772127852448256, 42.706986721452878 ], [ 1.772868068415763, 42.706986721452878 ], [ 1.772868068415763, 42.706565770869567 ] ] ], [ [ [ 2.010477393985939, 42.721718193476534 ], [ 2.011217609953447, 42.721718193476534 ], [ 2.011217609953447, 42.721297342804554 ], [ 2.011957825920955, 42.721297342804554 ], [ 2.011957825920955, 42.719193046624746 ], [ 2.012698041888464, 42.719193046624746 ], [ 2.012698041888464, 42.71582602429546 ], [ 2.013438257855972, 42.71582602429546 ], [ 2.013438257855972, 42.714563343820615 ], [ 2.012698041888464, 42.714563343820615 ], [ 2.012698041888464, 42.713721542564308 ], [ 2.011957825920955, 42.713721542564308 ], [ 2.011957825920955, 42.71330063765425 ], [ 2.011217609953447, 42.71330063765425 ], [ 2.011217609953447, 42.712879729889586 ], [ 2.010477393985939, 42.712879729889586 ], [ 2.010477393985939, 42.712458819270317 ], [ 2.009737178018431, 42.712458819270317 ], [ 2.009737178018431, 42.711616989468006 ], [ 2.008996962050922, 42.711616989468006 ], [ 2.008996962050922, 42.711196070284963 ], [ 2.008256746083414, 42.711196070284963 ], [ 2.008256746083414, 42.710775148247336 ], [ 2.007516530115905, 42.710775148247336 ], [ 2.007516530115905, 42.70993329560833 ], [ 2.006776314148397, 42.70993329560833 ], [ 2.006776314148397, 42.709512365006972 ], [ 2.006036098180889, 42.709512365006972 ], [ 2.006036098180889, 42.70909143155103 ], [ 2.005295882213381, 42.70909143155103 ], [ 2.005295882213381, 42.708249556075451 ], [ 2.006036098180889, 42.708249556075451 ], [ 2.006036098180889, 42.704881939990912 ], [ 2.005295882213381, 42.704881939990912 ], [ 2.005295882213381, 42.702777087165551 ], [ 2.004555666245873, 42.702777087165551 ], [ 2.004555666245873, 42.702356108036916 ], [ 2.003815450278363, 42.702356108036916 ], [ 2.003815450278363, 42.701935126053762 ], [ 2.002335018343347, 42.701935126053762 ], [ 2.002335018343347, 42.701514141216094 ], [ 2.000854586408331, 42.701514141216094 ], [ 2.000854586408331, 42.701093153523928 ], [ 2.000114370440822, 42.701093153523928 ], [ 2.000114370440822, 42.700672162977241 ], [ 1.998633938505805, 42.700672162977241 ], [ 1.998633938505805, 42.700251169576056 ], [ 1.997153506570789, 42.700251169576056 ], [ 1.997153506570789, 42.699830173320379 ], [ 1.994192642700756, 42.699830173320379 ], [ 1.994192642700756, 42.700251169576056 ], [ 1.992712210765739, 42.700251169576056 ], [ 1.992712210765739, 42.700672162977241 ], [ 1.99197199479823, 42.700672162977241 ], [ 1.99197199479823, 42.701093153523928 ], [ 1.990491562863214, 42.701093153523928 ], [ 1.990491562863214, 42.701514141216094 ], [ 1.989011130928197, 42.701514141216094 ], [ 1.989011130928197, 42.701935126053762 ], [ 1.988270914960689, 42.701935126053762 ], [ 1.988270914960689, 42.702777087165551 ], [ 1.98753069899318, 42.702777087165551 ], [ 1.98753069899318, 42.7044609751349 ], [ 1.986790483025672, 42.7044609751349 ], [ 1.986790483025672, 42.703198063439686 ], [ 1.986050267058164, 42.703198063439686 ], [ 1.986050267058164, 42.702356108036916 ], [ 1.985310051090655, 42.702356108036916 ], [ 1.985310051090655, 42.701935126053762 ], [ 1.980128539318097, 42.701935126053762 ], [ 1.980128539318097, 42.702356108036916 ], [ 1.979388323350589, 42.702356108036916 ], [ 1.979388323350589, 42.703198063439686 ], [ 1.978648107383081, 42.703198063439686 ], [ 1.978648107383081, 42.704040007424354 ], [ 1.977907891415572, 42.704040007424354 ], [ 1.977907891415572, 42.7044609751349 ], [ 1.977167675448064, 42.7044609751349 ], [ 1.977167675448064, 42.70909143155103 ], [ 1.977907891415572, 42.70909143155103 ], [ 1.977907891415572, 42.709512365006972 ], [ 1.978648107383081, 42.709512365006972 ], [ 1.978648107383081, 42.70993329560833 ], [ 1.979388323350589, 42.70993329560833 ], [ 1.979388323350589, 42.710775148247336 ], [ 1.980128539318097, 42.710775148247336 ], [ 1.980128539318097, 42.711196070284963 ], [ 1.980868755285605, 42.711196070284963 ], [ 1.980868755285605, 42.711616989468006 ], [ 1.981608971253114, 42.711616989468006 ], [ 1.981608971253114, 42.712037905796464 ], [ 1.983829619155639, 42.712037905796464 ], [ 1.983829619155639, 42.711616989468006 ], [ 1.984569835123147, 42.711616989468006 ], [ 1.984569835123147, 42.711196070284963 ], [ 1.985310051090655, 42.711196070284963 ], [ 1.985310051090655, 42.710775148247336 ], [ 1.986050267058164, 42.710775148247336 ], [ 1.986050267058164, 42.714142444619768 ], [ 1.986790483025672, 42.714142444619768 ], [ 1.986790483025672, 42.719613911570029 ], [ 1.98753069899318, 42.719613911570029 ], [ 1.98753069899318, 42.720455632896609 ], [ 1.988270914960689, 42.720455632896609 ], [ 1.988270914960689, 42.721297342804554 ], [ 1.989011130928197, 42.721297342804554 ], [ 1.989011130928197, 42.721718193476534 ], [ 1.989751346895706, 42.721718193476534 ], [ 1.989751346895706, 42.722559886256469 ], [ 2.000854586408331, 42.722559886256469 ], [ 2.000854586408331, 42.722980728364426 ], [ 2.008256746083414, 42.722980728364426 ], [ 2.008256746083414, 42.722559886256469 ], [ 2.009737178018431, 42.722559886256469 ], [ 2.009737178018431, 42.722139041293836 ], [ 2.010477393985939, 42.722139041293836 ], [ 2.010477393985939, 42.721718193476534 ] ] ], [ [ [ 1.501208808340205, 42.912489503006078 ], [ 1.501208808340205, 42.912069948687886 ], [ 1.502689240275221, 42.912069948687886 ], [ 1.502689240275221, 42.911650391513561 ], [ 1.504169672210238, 42.911650391513561 ], [ 1.504169672210238, 42.911230831483131 ], [ 1.505650104145255, 42.911230831483131 ], [ 1.505650104145255, 42.910811268596582 ], [ 1.507130536080271, 42.910811268596582 ], [ 1.507130536080271, 42.910391702853921 ], [ 1.508610968015288, 42.910391702853921 ], [ 1.508610968015288, 42.909972134255163 ], [ 1.510091399950305, 42.909972134255163 ], [ 1.510091399950305, 42.910391702853921 ], [ 1.51231204785283, 42.910391702853921 ], [ 1.51231204785283, 42.910811268596582 ], [ 1.515272911722863, 42.910811268596582 ], [ 1.515272911722863, 42.910391702853921 ], [ 1.516013127690371, 42.910391702853921 ], [ 1.516013127690371, 42.9095525628003 ], [ 1.51675334365788, 42.9095525628003 ], [ 1.51675334365788, 42.908713411322275 ], [ 1.517493559625388, 42.908713411322275 ], [ 1.517493559625388, 42.907874248419873 ], [ 1.518233775592897, 42.907874248419873 ], [ 1.518233775592897, 42.90367826254311 ], [ 1.519714207527913, 42.90367826254311 ], [ 1.519714207527913, 42.903258648247061 ], [ 1.521934855430438, 42.903258648247061 ], [ 1.521934855430438, 42.902839031094977 ], [ 1.523415287365455, 42.902839031094977 ], [ 1.523415287365455, 42.902419411086825 ], [ 1.524155503332963, 42.902419411086825 ], [ 1.524155503332963, 42.901160533926102 ], [ 1.524895719300472, 42.901160533926102 ], [ 1.524895719300472, 42.899062348204183 ], [ 1.52563593526798, 42.899062348204183 ], [ 1.52563593526798, 42.898223053923232 ], [ 1.524895719300472, 42.898223053923232 ], [ 1.524895719300472, 42.896544431089147 ], [ 1.524155503332963, 42.896544431089147 ], [ 1.524155503332963, 42.894865762558986 ], [ 1.523415287365455, 42.894865762558986 ], [ 1.523415287365455, 42.894446088286458 ], [ 1.522675071397946, 42.894446088286458 ], [ 1.522675071397946, 42.894026411157938 ], [ 1.52119463946293, 42.894026411157938 ], [ 1.52119463946293, 42.893606731173428 ], [ 1.520454423495422, 42.893606731173428 ], [ 1.520454423495422, 42.89318704833294 ], [ 1.519714207527913, 42.89318704833294 ], [ 1.519714207527913, 42.892767362636476 ], [ 1.518973991560405, 42.892767362636476 ], [ 1.518973991560405, 42.892347674084029 ], [ 1.518233775592897, 42.892347674084029 ], [ 1.518233775592897, 42.891927982675604 ], [ 1.517493559625388, 42.891927982675604 ], [ 1.517493559625388, 42.891508288411217 ], [ 1.516013127690371, 42.891508288411217 ], [ 1.516013127690371, 42.891088591290853 ], [ 1.514532695755355, 42.891088591290853 ], [ 1.514532695755355, 42.891508288411217 ], [ 1.511571831885322, 42.891508288411217 ], [ 1.511571831885322, 42.891927982675604 ], [ 1.50787075204778, 42.891927982675604 ], [ 1.50787075204778, 42.892347674084029 ], [ 1.504909888177747, 42.892347674084029 ], [ 1.504909888177747, 42.892767362636476 ], [ 1.502689240275221, 42.892767362636476 ], [ 1.502689240275221, 42.89318704833294 ], [ 1.501949024307713, 42.89318704833294 ], [ 1.501949024307713, 42.893606731173428 ], [ 1.501208808340205, 42.893606731173428 ], [ 1.501208808340205, 42.894026411157938 ], [ 1.500468592372696, 42.894026411157938 ], [ 1.500468592372696, 42.893606731173428 ], [ 1.499728376405188, 42.893606731173428 ], [ 1.499728376405188, 42.89318704833294 ], [ 1.49898816043768, 42.89318704833294 ], [ 1.49898816043768, 42.892767362636476 ], [ 1.498247944470172, 42.892767362636476 ], [ 1.498247944470172, 42.892347674084029 ], [ 1.496767512535155, 42.892347674084029 ], [ 1.496767512535155, 42.892767362636476 ], [ 1.496027296567646, 42.892767362636476 ], [ 1.496027296567646, 42.89318704833294 ], [ 1.495287080600138, 42.89318704833294 ], [ 1.495287080600138, 42.894026411157938 ], [ 1.49454686463263, 42.894026411157938 ], [ 1.49454686463263, 42.894865762558986 ], [ 1.493806648665121, 42.894865762558986 ], [ 1.493806648665121, 42.895285433975523 ], [ 1.493066432697613, 42.895285433975523 ], [ 1.493066432697613, 42.896124768240604 ], [ 1.492326216730105, 42.896124768240604 ], [ 1.492326216730105, 42.896964091081692 ], [ 1.491586000762597, 42.896964091081692 ], [ 1.491586000762597, 42.897383748218211 ], [ 1.490845784795088, 42.897383748218211 ], [ 1.490845784795088, 42.896544431089147 ], [ 1.491586000762597, 42.896544431089147 ], [ 1.491586000762597, 42.89570510253607 ], [ 1.490845784795088, 42.89570510253607 ], [ 1.490845784795088, 42.894026411157938 ], [ 1.49010556882758, 42.894026411157938 ], [ 1.49010556882758, 42.892347674084029 ], [ 1.489365352860071, 42.892347674084029 ], [ 1.489365352860071, 42.891927982675604 ], [ 1.488625136892563, 42.891927982675604 ], [ 1.488625136892563, 42.891508288411217 ], [ 1.487144704957546, 42.891508288411217 ], [ 1.487144704957546, 42.891088591290853 ], [ 1.486404488990039, 42.891088591290853 ], [ 1.486404488990039, 42.890668891314533 ], [ 1.484924057055021, 42.890668891314533 ], [ 1.484924057055021, 42.891088591290853 ], [ 1.483443625120005, 42.891088591290853 ], [ 1.483443625120005, 42.891508288411217 ], [ 1.482703409152497, 42.891508288411217 ], [ 1.482703409152497, 42.891927982675604 ], [ 1.481963193184988, 42.891927982675604 ], [ 1.481963193184988, 42.892347674084029 ], [ 1.48122297721748, 42.892347674084029 ], [ 1.48122297721748, 42.893606731173428 ], [ 1.480482761249971, 42.893606731173428 ], [ 1.480482761249971, 42.895285433975523 ], [ 1.479742545282463, 42.895285433975523 ], [ 1.479742545282463, 42.896544431089147 ], [ 1.480482761249971, 42.896544431089147 ], [ 1.480482761249971, 42.898642702491721 ], [ 1.48122297721748, 42.898642702491721 ], [ 1.48122297721748, 42.899901631061049 ], [ 1.481963193184988, 42.899901631061049 ], [ 1.481963193184988, 42.900321268205431 ], [ 1.482703409152497, 42.900321268205431 ], [ 1.482703409152497, 42.900740902493787 ], [ 1.484183841087513, 42.900740902493787 ], [ 1.484183841087513, 42.901160533926102 ], [ 1.484924057055021, 42.901160533926102 ], [ 1.484924057055021, 42.901580162502384 ], [ 1.486404488990039, 42.901580162502384 ], [ 1.486404488990039, 42.901160533926102 ], [ 1.487144704957546, 42.901160533926102 ], [ 1.487144704957546, 42.900740902493787 ], [ 1.487884920925055, 42.900740902493787 ], [ 1.487884920925055, 42.900321268205431 ], [ 1.488625136892563, 42.900321268205431 ], [ 1.488625136892563, 42.908713411322275 ], [ 1.489365352860071, 42.908713411322275 ], [ 1.489365352860071, 42.9095525628003 ], [ 1.49010556882758, 42.9095525628003 ], [ 1.49010556882758, 42.909972134255163 ], [ 1.490845784795088, 42.909972134255163 ], [ 1.490845784795088, 42.910811268596582 ], [ 1.491586000762597, 42.910811268596582 ], [ 1.491586000762597, 42.911230831483131 ], [ 1.492326216730105, 42.911230831483131 ], [ 1.492326216730105, 42.911650391513561 ], [ 1.493806648665121, 42.911650391513561 ], [ 1.493806648665121, 42.912069948687886 ], [ 1.495287080600138, 42.912069948687886 ], [ 1.495287080600138, 42.912489503006078 ], [ 1.496027296567646, 42.912489503006078 ], [ 1.496027296567646, 42.912909054468159 ], [ 1.497507728502663, 42.912909054468159 ], [ 1.497507728502663, 42.913328603074113 ], [ 1.498247944470172, 42.913328603074113 ], [ 1.498247944470172, 42.912909054468159 ], [ 1.499728376405188, 42.912909054468159 ], [ 1.499728376405188, 42.912489503006078 ], [ 1.501208808340205, 42.912489503006078 ] ] ], [ [ [ 2.306563780989273, 43.225933268718883 ], [ 2.306563780989273, 43.225515854446755 ], [ 2.307303996956781, 43.225515854446755 ], [ 2.307303996956781, 43.223846168775957 ], [ 2.308044212924289, 43.223846168775957 ], [ 2.308044212924289, 43.22259387451156 ], [ 2.313225724696848, 43.22259387451156 ], [ 2.313225724696848, 43.223011308791236 ], [ 2.315446372599373, 43.223011308791236 ], [ 2.315446372599373, 43.22259387451156 ], [ 2.316186588566881, 43.22259387451156 ], [ 2.316186588566881, 43.221758997377563 ], [ 2.316926804534389, 43.221758997377563 ], [ 2.316926804534389, 43.220924108810742 ], [ 2.317667020501898, 43.220924108810742 ], [ 2.317667020501898, 43.220089208811132 ], [ 2.318407236469405, 43.220089208811132 ], [ 2.318407236469405, 43.215497054452825 ], [ 2.317667020501898, 43.215497054452825 ], [ 2.317667020501898, 43.214662080140506 ], [ 2.316926804534389, 43.214662080140506 ], [ 2.316926804534389, 43.214244588697113 ], [ 2.316186588566881, 43.214244588697113 ], [ 2.316186588566881, 43.213409597235824 ], [ 2.315446372599373, 43.213409597235824 ], [ 2.315446372599373, 43.212574594341923 ], [ 2.314706156631865, 43.212574594341923 ], [ 2.314706156631865, 43.212157088607761 ], [ 2.297681189379173, 43.212157088607761 ], [ 2.297681189379173, 43.21173958001544 ], [ 2.296940973411664, 43.21173958001544 ], [ 2.296940973411664, 43.211322068564975 ], [ 2.296200757444156, 43.211322068564975 ], [ 2.296200757444156, 43.210904554256366 ], [ 2.294720325509139, 43.210904554256366 ], [ 2.294720325509139, 43.210487037089635 ], [ 2.293239893574123, 43.210487037089635 ], [ 2.293239893574123, 43.210904554256366 ], [ 2.292499677606614, 43.210904554256366 ], [ 2.292499677606614, 43.211322068564975 ], [ 2.291759461639106, 43.211322068564975 ], [ 2.291759461639106, 43.21173958001544 ], [ 2.290279029704089, 43.21173958001544 ], [ 2.290279029704089, 43.212574594341923 ], [ 2.289538813736581, 43.212574594341923 ], [ 2.289538813736581, 43.214244588697113 ], [ 2.288798597769073, 43.214244588697113 ], [ 2.288798597769073, 43.216749494485057 ], [ 2.288058381801564, 43.216749494485057 ], [ 2.288058381801564, 43.222176437373662 ], [ 2.288798597769073, 43.222176437373662 ], [ 2.288798597769073, 43.22259387451156 ], [ 2.289538813736581, 43.22259387451156 ], [ 2.289538813736581, 43.223428740212704 ], [ 2.290279029704089, 43.223428740212704 ], [ 2.290279029704089, 43.224263594480995 ], [ 2.291019245671597, 43.224263594480995 ], [ 2.291019245671597, 43.224681017327796 ], [ 2.296200757444156, 43.224681017327796 ], [ 2.296200757444156, 43.223846168775957 ], [ 2.296940973411664, 43.223846168775957 ], [ 2.296940973411664, 43.223428740212704 ], [ 2.297681189379173, 43.223428740212704 ], [ 2.297681189379173, 43.224263594480995 ], [ 2.298421405346681, 43.224263594480995 ], [ 2.298421405346681, 43.225933268718883 ], [ 2.299901837281698, 43.225933268718883 ], [ 2.299901837281698, 43.226350680132789 ], [ 2.300642053249205, 43.226350680132789 ], [ 2.300642053249205, 43.226768088688459 ], [ 2.301382269216714, 43.226768088688459 ], [ 2.301382269216714, 43.227185494385886 ], [ 2.303602917119239, 43.227185494385886 ], [ 2.303602917119239, 43.226768088688459 ], [ 2.305083349054255, 43.226768088688459 ], [ 2.305083349054255, 43.226350680132789 ], [ 2.305823565021764, 43.226350680132789 ], [ 2.305823565021764, 43.225933268718883 ], [ 2.306563780989273, 43.225933268718883 ] ] ], [ [ [ 4.525731251579258, 43.702825037557609 ], [ 4.525731251579258, 43.701582625956696 ], [ 4.526471467546767, 43.701582625956696 ], [ 4.526471467546767, 43.687085921540778 ], [ 4.525731251579258, 43.687085921540778 ], [ 4.525731251579258, 43.686257432584114 ], [ 4.52499103561175, 43.686257432584114 ], [ 4.52499103561175, 43.685843183814718 ], [ 4.524250819644242, 43.685843183814718 ], [ 4.524250819644242, 43.685014677693793 ], [ 4.523510603676733, 43.685014677693793 ], [ 4.523510603676733, 43.684600420342278 ], [ 4.522770387709225, 43.684600420342278 ], [ 4.522770387709225, 43.683771897057142 ], [ 4.522030171741717, 43.683771897057142 ], [ 4.522030171741717, 43.683357631123521 ], [ 4.521289955774209, 43.683357631123521 ], [ 4.521289955774209, 43.682943362329198 ], [ 4.5205497398067, 43.682943362329198 ], [ 4.5205497398067, 43.682529090674194 ], [ 4.519809523839192, 43.682529090674194 ], [ 4.519809523839192, 43.682943362329198 ], [ 4.510186716261583, 43.682943362329198 ], [ 4.510186716261583, 43.683357631123521 ], [ 4.508706284326567, 43.683357631123521 ], [ 4.508706284326567, 43.684186160130054 ], [ 4.507966068359059, 43.684186160130054 ], [ 4.507966068359059, 43.685014677693793 ], [ 4.50722585239155, 43.685014677693793 ], [ 4.50722585239155, 43.685843183814718 ], [ 4.506485636424041, 43.685843183814718 ], [ 4.506485636424041, 43.6941276156656 ], [ 4.50722585239155, 43.6941276156656 ], [ 4.50722585239155, 43.694955995914526 ], [ 4.507966068359059, 43.694955995914526 ], [ 4.507966068359059, 43.695370181747869 ], [ 4.508706284326567, 43.695370181747869 ], [ 4.508706284326567, 43.69578436472046 ], [ 4.509446500294075, 43.69578436472046 ], [ 4.509446500294075, 43.696612722083373 ], [ 4.510186716261583, 43.696612722083373 ], [ 4.510186716261583, 43.697441068003258 ], [ 4.510926932229093, 43.697441068003258 ], [ 4.510926932229093, 43.698683565427366 ], [ 4.5116671481966, 43.698683565427366 ], [ 4.5116671481966, 43.699926037104575 ], [ 4.512407364164109, 43.699926037104575 ], [ 4.512407364164109, 43.701582625956696 ], [ 4.513147580131617, 43.701582625956696 ], [ 4.513147580131617, 43.702825037557609 ], [ 4.513887796099125, 43.702825037557609 ], [ 4.513887796099125, 43.703653297654292 ], [ 4.514628012066634, 43.703653297654292 ], [ 4.514628012066634, 43.704067423411445 ], [ 4.515368228034141, 43.704067423411445 ], [ 4.515368228034141, 43.704481546307818 ], [ 4.51610844400165, 43.704481546307818 ], [ 4.51610844400165, 43.704895666343397 ], [ 4.516848659969158, 43.704895666343397 ], [ 4.516848659969158, 43.705309783518175 ], [ 4.517588875936666, 43.705309783518175 ], [ 4.517588875936666, 43.705723897832158 ], [ 4.518329091904175, 43.705723897832158 ], [ 4.518329091904175, 43.70613800928534 ], [ 4.523510603676733, 43.70613800928534 ], [ 4.523510603676733, 43.704895666343397 ], [ 4.524250819644242, 43.704895666343397 ], [ 4.524250819644242, 43.703653297654292 ], [ 4.52499103561175, 43.703653297654292 ], [ 4.52499103561175, 43.702825037557609 ], [ 4.525731251579258, 43.702825037557609 ] ] ] ] } }
]
}
