{
"type": "FeatureCollection",
"name": "spain_fires_modis_ba",
"crs": { "type": "name", "properties": { "name": "urn:ogc:def:crs:OGC:1.3:CRS84" } },
"features": [
{ "type": "Feature", "properties": { }, "geometry": { "type": "Polygon", "coordinates": [ [ [ -1.948197600248633, 42.004280888818656 ], [ -1.944496520411091, 42.004280888818656 ], [ -1.944496520411091, 42.003855204808403 ], [ -1.943756304443583, 42.003855204808403 ], [ -1.943756304443583, 42.003429517950089 ], [ -1.946717168313616, 42.003429517950089 ], [ -1.946717168313616, 42.003855204808403 ], [ -1.948197600248633, 42.003855204808403 ], [ -1.948197600248633, 42.004280888818656 ] ] ] } }
]
}
