{
"type": "FeatureCollection",
"name": "spain_fires_modis_ba",
"crs": { "type": "name", "properties": { "name": "urn:ogc:def:crs:OGC:1.3:CRS84" } },
"features": [
{ "type": "Feature", "properties": { }, "geometry": { "type": "MultiPolygon", "coordinates": [ [ [ [ -4.105186929567919, 40.8601716142147 ], [ -4.105186929567919, 40.859738360792797 ], [ -4.104446713600411, 40.859738360792797 ], [ -4.104446713600411, 40.858438583523906 ], [ -4.103706497632903, 40.858438583523906 ], [ -4.103706497632903, 40.85627223139889 ], [ -4.104446713600411, 40.85627223139889 ], [ -4.104446713600411, 40.853672515333024 ], [ -4.105186929567919, 40.853672515333024 ], [ -4.105186929567919, 40.852372619043997 ], [ -4.105927145535428, 40.852372619043997 ], [ -4.105927145535428, 40.851506007349165 ], [ -4.106667361502937, 40.851506007349165 ], [ -4.106667361502937, 40.850639384319344 ], [ -4.107407577470445, 40.850639384319344 ], [ -4.107407577470445, 40.849772749954589 ], [ -4.108147793437953, 40.849772749954589 ], [ -4.108147793437953, 40.849339428521624 ], [ -4.108888009405462, 40.849339428521624 ], [ -4.108888009405462, 40.848906104254944 ], [ -4.11406952117802, 40.848906104254944 ], [ -4.11406952117802, 40.849339428521624 ], [ -4.114809737145528, 40.849339428521624 ], [ -4.114809737145528, 40.849772749954589 ], [ -4.115549953113037, 40.849772749954589 ], [ -4.115549953113037, 40.850206068553831 ], [ -4.116290169080545, 40.850206068553831 ], [ -4.116290169080545, 40.852805920640769 ], [ -4.115549953113037, 40.852805920640769 ], [ -4.115549953113037, 40.854105808428486 ], [ -4.114809737145528, 40.854105808428486 ], [ -4.114809737145528, 40.854972386118042 ], [ -4.11406952117802, 40.854972386118042 ], [ -4.11406952117802, 40.855838952472411 ], [ -4.113329305210511, 40.855838952472411 ], [ -4.113329305210511, 40.856705507491554 ], [ -4.112589089243003, 40.856705507491554 ], [ -4.112589089243003, 40.857572051175396 ], [ -4.111848873275495, 40.857572051175396 ], [ -4.111848873275495, 40.858005318766565 ], [ -4.111108657307986, 40.858005318766565 ], [ -4.111108657307986, 40.858871845447382 ], [ -4.110368441340478, 40.858871845447382 ], [ -4.110368441340478, 40.859305104537022 ], [ -4.108888009405462, 40.859305104537022 ], [ -4.108888009405462, 40.859738360792797 ], [ -4.107407577470445, 40.859738360792797 ], [ -4.107407577470445, 40.8601716142147 ], [ -4.105186929567919, 40.8601716142147 ] ] ], [ [ [ -7.600486728142275, 41.433029045518573 ], [ -7.600486728142275, 41.432599560707011 ], [ -7.599746512174766, 41.432599560707011 ], [ -7.599746512174766, 41.430452094026094 ], [ -7.599006296207259, 41.430452094026094 ], [ -7.599006296207259, 41.428304556307197 ], [ -7.59826608023975, 41.428304556307197 ], [ -7.59826608023975, 41.426586474985179 ], [ -7.599006296207259, 41.426586474985179 ], [ -7.599006296207259, 41.427015999577911 ], [ -7.599746512174766, 41.427015999577911 ], [ -7.599746512174766, 41.427875040238924 ], [ -7.600486728142275, 41.427875040238924 ], [ -7.600486728142275, 41.429163579919276 ], [ -7.601226944109785, 41.429163579919276 ], [ -7.601226944109785, 41.430022592165329 ], [ -7.601967160077292, 41.430022592165329 ], [ -7.601967160077292, 41.430452094026094 ], [ -7.6027073760448, 41.430452094026094 ], [ -7.6027073760448, 41.430881593045335 ], [ -7.603447592012309, 41.430881593045335 ], [ -7.603447592012309, 41.431740582559243 ], [ -7.6027073760448, 41.431740582559243 ], [ -7.6027073760448, 41.432599560707011 ], [ -7.601967160077292, 41.432599560707011 ], [ -7.601967160077292, 41.433029045518573 ], [ -7.600486728142275, 41.433029045518573 ] ] ] ] } }
]
}
