{
"type": "FeatureCollection",
"name": "spain_fires_modis_ba",
"crs": { "type": "name", "properties": { "name": "urn:ogc:def:crs:OGC:1.3:CRS84" } },
"features": [
{ "type": "Feature", "properties": { }, "geometry": { "type": "MultiPolygon", "coordinates": [ [ [ [ 3.388759525486457, 36.43477846355821 ], [ 3.389499741453966, 36.43477846355821 ], [ 3.389499741453966, 36.43339581797462 ], [ 3.388759525486457, 36.43339581797462 ], [ 3.388759525486457, 36.429247733446985 ], [ 3.388019309518949, 36.429247733446985 ], [ 3.388019309518949, 36.426482220618162 ], [ 3.387279093551441, 36.426482220618162 ], [ 3.387279093551441, 36.419568007564493 ], [ 3.386538877583932, 36.419568007564493 ], [ 3.386538877583932, 36.418646065973782 ], [ 3.385798661616424, 36.418646065973782 ], [ 3.385798661616424, 36.417724113438275 ], [ 3.385058445648916, 36.417724113438275 ], [ 3.385058445648916, 36.418185091074122 ], [ 3.383578013713899, 36.418185091074122 ], [ 3.383578013713899, 36.418646065973782 ], [ 3.38283779774639, 36.418646065973782 ], [ 3.38283779774639, 36.419568007564493 ], [ 3.382097581778882, 36.419568007564493 ], [ 3.382097581778882, 36.429708642674065 ], [ 3.381357365811374, 36.429708642674065 ], [ 3.381357365811374, 36.430630452918628 ], [ 3.380617149843865, 36.430630452918628 ], [ 3.380617149843865, 36.432013147761303 ], [ 3.379876933876357, 36.432013147761303 ], [ 3.379876933876357, 36.434317584433671 ], [ 3.380617149843865, 36.434317584433671 ], [ 3.380617149843865, 36.435239339946072 ], [ 3.381357365811374, 36.435239339946072 ], [ 3.381357365811374, 36.435700213597251 ], [ 3.382097581778882, 36.435700213597251 ], [ 3.382097581778882, 36.43616108451171 ], [ 3.383578013713899, 36.43616108451171 ], [ 3.383578013713899, 36.436621952689457 ], [ 3.386538877583932, 36.436621952689457 ], [ 3.386538877583932, 36.43616108451171 ], [ 3.387279093551441, 36.43616108451171 ], [ 3.387279093551441, 36.435700213597251 ], [ 3.388759525486457, 36.435700213597251 ], [ 3.388759525486457, 36.43477846355821 ] ] ], [ [ [ 4.074939727366683, 36.449985939311325 ], [ 4.074199511399175, 36.449985939311325 ], [ 4.074199511399175, 36.449525150504279 ], [ 4.073459295431667, 36.449525150504279 ], [ 4.073459295431667, 36.449064358960101 ], [ 4.071978863496649, 36.449064358960101 ], [ 4.071978863496649, 36.448603564678841 ], [ 4.070498431561633, 36.448603564678841 ], [ 4.070498431561633, 36.449525150504279 ], [ 4.069758215594124, 36.449525150504279 ], [ 4.069758215594124, 36.450907508714053 ], [ 4.070498431561633, 36.450907508714053 ], [ 4.070498431561633, 36.451368289309698 ], [ 4.071238647529142, 36.451368289309698 ], [ 4.071238647529142, 36.452289842289474 ], [ 4.071978863496649, 36.452289842289474 ], [ 4.071978863496649, 36.45643669520593 ], [ 4.072719079464158, 36.45643669520593 ], [ 4.072719079464158, 36.456897442954713 ], [ 4.073459295431667, 36.456897442954713 ], [ 4.073459295431667, 36.457358187966165 ], [ 4.074939727366683, 36.457358187966165 ], [ 4.074939727366683, 36.456897442954713 ], [ 4.075679943334192, 36.456897442954713 ], [ 4.075679943334192, 36.452750614673583 ], [ 4.074939727366683, 36.452750614673583 ], [ 4.074939727366683, 36.449985939311325 ] ] ], [ [ [ 3.985373595298175, 36.484997878833461 ], [ 3.986113811265682, 36.484997878833461 ], [ 3.986113811265682, 36.484537298086359 ], [ 3.9875942432007, 36.484537298086359 ], [ 3.9875942432007, 36.484076714601137 ], [ 4.001658346583358, 36.484076714601137 ], [ 4.001658346583358, 36.483616128377768 ], [ 4.004619210453392, 36.483616128377768 ], [ 4.004619210453392, 36.482694947716737 ], [ 4.0053594264209, 36.482694947716737 ], [ 4.0053594264209, 36.480852553537773 ], [ 4.003878994485883, 36.480852553537773 ], [ 4.003878994485883, 36.480391948147911 ], [ 4.001658346583358, 36.480391948147911 ], [ 4.001658346583358, 36.479931340020059 ], [ 4.000177914648342, 36.479931340020059 ], [ 4.000177914648342, 36.47947072915418 ], [ 3.997957266745816, 36.47947072915418 ], [ 3.997957266745816, 36.479931340020059 ], [ 3.992035539005749, 36.479931340020059 ], [ 3.992035539005749, 36.47947072915418 ], [ 3.989814891103225, 36.47947072915418 ], [ 3.989814891103225, 36.479010115550324 ], [ 3.988334459168208, 36.479010115550324 ], [ 3.988334459168208, 36.478549499208498 ], [ 3.986854027233191, 36.478549499208498 ], [ 3.986854027233191, 36.478088880128702 ], [ 3.984633379330667, 36.478088880128702 ], [ 3.984633379330667, 36.477628258310958 ], [ 3.980192083525616, 36.477628258310958 ], [ 3.980192083525616, 36.478549499208498 ], [ 3.979451867558108, 36.478549499208498 ], [ 3.979451867558108, 36.479931340020059 ], [ 3.977971435623091, 36.479931340020059 ], [ 3.977971435623091, 36.480391948147911 ], [ 3.977231219655583, 36.480391948147911 ], [ 3.977231219655583, 36.481773756103365 ], [ 3.976491003688075, 36.481773756103365 ], [ 3.976491003688075, 36.483616128377768 ], [ 3.977231219655583, 36.483616128377768 ], [ 3.977231219655583, 36.485458456842416 ], [ 3.978711651590599, 36.485458456842416 ], [ 3.978711651590599, 36.485919032113202 ], [ 3.979451867558108, 36.485919032113202 ], [ 3.979451867558108, 36.486379604645805 ], [ 3.982412731428141, 36.486379604645805 ], [ 3.982412731428141, 36.485919032113202 ], [ 3.983893163363158, 36.485919032113202 ], [ 3.983893163363158, 36.485458456842416 ], [ 3.985373595298175, 36.485458456842416 ], [ 3.985373595298175, 36.484997878833461 ] ] ], [ [ [ 3.690767640229858, 36.592238519845012 ], [ 3.691507856197366, 36.592238519845012 ], [ 3.691507856197366, 36.591778577449873 ], [ 3.692248072164874, 36.591778577449873 ], [ 3.692248072164874, 36.591318632313481 ], [ 3.692988288132383, 36.591318632313481 ], [ 3.692988288132383, 36.590858684435844 ], [ 3.693728504099891, 36.590858684435844 ], [ 3.693728504099891, 36.590398733816969 ], [ 3.694468720067399, 36.590398733816969 ], [ 3.694468720067399, 36.58993878045689 ], [ 3.695949152002416, 36.58993878045689 ], [ 3.695949152002416, 36.589478824355602 ], [ 3.696689367969924, 36.589478824355602 ], [ 3.696689367969924, 36.589018865513104 ], [ 3.697429583937433, 36.589018865513104 ], [ 3.697429583937433, 36.588558903929453 ], [ 3.698169799904941, 36.588558903929453 ], [ 3.698169799904941, 36.588098939604613 ], [ 3.699650231839958, 36.588098939604613 ], [ 3.699650231839958, 36.587638972538635 ], [ 3.700390447807466, 36.587638972538635 ], [ 3.700390447807466, 36.587179002731524 ], [ 3.702611095709991, 36.587179002731524 ], [ 3.702611095709991, 36.586719030183275 ], [ 3.704091527645007, 36.586719030183275 ], [ 3.704091527645007, 36.586259054893922 ], [ 3.706312175547532, 36.586259054893922 ], [ 3.706312175547532, 36.585799076863474 ], [ 3.708532823450057, 36.585799076863474 ], [ 3.708532823450057, 36.585339096091928 ], [ 3.712233903287599, 36.585339096091928 ], [ 3.712233903287599, 36.584879112579316 ], [ 3.715194767157632, 36.584879112579316 ], [ 3.715194767157632, 36.583959137330936 ], [ 3.715934983125141, 36.583959137330936 ], [ 3.715934983125141, 36.579359096629247 ], [ 3.715194767157632, 36.579359096629247 ], [ 3.715194767157632, 36.578439055597713 ], [ 3.714454551190124, 36.578439055597713 ], [ 3.714454551190124, 36.577519003602681 ], [ 3.713714335222616, 36.577519003602681 ], [ 3.713714335222616, 36.577058973493884 ], [ 3.712974119255108, 36.577058973493884 ], [ 3.712974119255108, 36.576598940644253 ], [ 3.712233903287599, 36.576598940644253 ], [ 3.712233903287599, 36.576138905053817 ], [ 3.711493687320091, 36.576138905053817 ], [ 3.711493687320091, 36.575678866722569 ], [ 3.710753471352583, 36.575678866722569 ], [ 3.710753471352583, 36.575218825650531 ], [ 3.710013255385074, 36.575218825650531 ], [ 3.710013255385074, 36.574758781837708 ], [ 3.709273039417566, 36.574758781837708 ], [ 3.709273039417566, 36.574298735284124 ], [ 3.708532823450057, 36.574298735284124 ], [ 3.708532823450057, 36.573838685989791 ], [ 3.706312175547532, 36.573838685989791 ], [ 3.706312175547532, 36.573378633954711 ], [ 3.704831743612516, 36.573378633954711 ], [ 3.704831743612516, 36.572918579178904 ], [ 3.704091527645007, 36.572918579178904 ], [ 3.704091527645007, 36.572458521662405 ], [ 3.702611095709991, 36.572458521662405 ], [ 3.702611095709991, 36.571998461405187 ], [ 3.701870879742482, 36.571998461405187 ], [ 3.701870879742482, 36.571538398407291 ], [ 3.701130663774975, 36.571538398407291 ], [ 3.701130663774975, 36.571078332668719 ], [ 3.700390447807466, 36.571078332668719 ], [ 3.700390447807466, 36.570158192969622 ], [ 3.699650231839958, 36.570158192969622 ], [ 3.699650231839958, 36.569698119009125 ], [ 3.698910015872449, 36.569698119009125 ], [ 3.698910015872449, 36.568777962866271 ], [ 3.698169799904941, 36.568777962866271 ], [ 3.698169799904941, 36.567397708097594 ], [ 3.697429583937433, 36.567397708097594 ], [ 3.697429583937433, 36.566937617693576 ], [ 3.696689367969924, 36.566937617693576 ], [ 3.696689367969924, 36.566477524549015 ], [ 3.695949152002416, 36.566477524549015 ], [ 3.695949152002416, 36.56601742866394 ], [ 3.694468720067399, 36.56601742866394 ], [ 3.694468720067399, 36.566477524549015 ], [ 3.692988288132383, 36.566477524549015 ], [ 3.692988288132383, 36.566937617693576 ], [ 3.691507856197366, 36.566937617693576 ], [ 3.691507856197366, 36.567397708097594 ], [ 3.690767640229858, 36.567397708097594 ], [ 3.690767640229858, 36.568317880683963 ], [ 3.690027424262349, 36.568317880683963 ], [ 3.690027424262349, 36.568777962866271 ], [ 3.689287208294841, 36.568777962866271 ], [ 3.689287208294841, 36.569238042308001 ], [ 3.688546992327332, 36.569238042308001 ], [ 3.688546992327332, 36.569698119009125 ], [ 3.687806776359824, 36.569698119009125 ], [ 3.687806776359824, 36.570158192969622 ], [ 3.687066560392317, 36.570158192969622 ], [ 3.687066560392317, 36.570618264189505 ], [ 3.686326344424808, 36.570618264189505 ], [ 3.686326344424808, 36.571538398407291 ], [ 3.685586128457299, 36.571538398407291 ], [ 3.685586128457299, 36.571998461405187 ], [ 3.684845912489791, 36.571998461405187 ], [ 3.684845912489791, 36.572918579178904 ], [ 3.684105696522282, 36.572918579178904 ], [ 3.684105696522282, 36.573838685989791 ], [ 3.683365480554774, 36.573838685989791 ], [ 3.683365480554774, 36.574298735284124 ], [ 3.681885048619758, 36.574298735284124 ], [ 3.681885048619758, 36.574758781837708 ], [ 3.675963320879691, 36.574758781837708 ], [ 3.675963320879691, 36.574298735284124 ], [ 3.673742672977166, 36.574298735284124 ], [ 3.673742672977166, 36.574758781837708 ], [ 3.672262241042149, 36.574758781837708 ], [ 3.672262241042149, 36.575218825650531 ], [ 3.671522025074641, 36.575218825650531 ], [ 3.671522025074641, 36.576138905053817 ], [ 3.670781809107133, 36.576138905053817 ], [ 3.670781809107133, 36.584879112579316 ], [ 3.671522025074641, 36.584879112579316 ], [ 3.671522025074641, 36.586259054893922 ], [ 3.672262241042149, 36.586259054893922 ], [ 3.672262241042149, 36.587179002731524 ], [ 3.673002457009657, 36.587179002731524 ], [ 3.673002457009657, 36.587638972538635 ], [ 3.673742672977166, 36.587638972538635 ], [ 3.673742672977166, 36.588098939604613 ], [ 3.674482888944675, 36.588098939604613 ], [ 3.674482888944675, 36.588558903929453 ], [ 3.675223104912182, 36.588558903929453 ], [ 3.675223104912182, 36.589018865513104 ], [ 3.675963320879691, 36.589018865513104 ], [ 3.675963320879691, 36.589478824355602 ], [ 3.676703536847199, 36.589478824355602 ], [ 3.676703536847199, 36.58993878045689 ], [ 3.677443752814708, 36.58993878045689 ], [ 3.677443752814708, 36.590398733816969 ], [ 3.678183968782216, 36.590398733816969 ], [ 3.678183968782216, 36.590858684435844 ], [ 3.679664400717233, 36.590858684435844 ], [ 3.679664400717233, 36.591318632313481 ], [ 3.68040461668474, 36.591318632313481 ], [ 3.68040461668474, 36.591778577449873 ], [ 3.68114483265225, 36.591778577449873 ], [ 3.68114483265225, 36.592238519845012 ], [ 3.681885048619758, 36.592238519845012 ], [ 3.681885048619758, 36.592698459498877 ], [ 3.682625264587266, 36.592698459498877 ], [ 3.682625264587266, 36.593158396411461 ], [ 3.683365480554774, 36.593158396411461 ], [ 3.683365480554774, 36.593618330582743 ], [ 3.684105696522282, 36.593618330582743 ], [ 3.684105696522282, 36.594078262012708 ], [ 3.687806776359824, 36.594078262012708 ], [ 3.687806776359824, 36.593618330582743 ], [ 3.689287208294841, 36.593618330582743 ], [ 3.689287208294841, 36.593158396411461 ], [ 3.690027424262349, 36.593158396411461 ], [ 3.690027424262349, 36.592698459498877 ], [ 3.690767640229858, 36.592698459498877 ], [ 3.690767640229858, 36.592238519845012 ] ] ], [ [ [ 4.073459295431667, 36.859001150897633 ], [ 4.074199511399175, 36.859001150897633 ], [ 4.074199511399175, 36.858084453146724 ], [ 4.074939727366683, 36.858084453146724 ], [ 4.074939727366683, 36.857167744400442 ], [ 4.075679943334192, 36.857167744400442 ], [ 4.075679943334192, 36.856709385904075 ], [ 4.0764201593017, 36.856709385904075 ], [ 4.0764201593017, 36.85625102465891 ], [ 4.077160375269208, 36.85625102465891 ], [ 4.077160375269208, 36.855792660664946 ], [ 4.077900591236716, 36.855792660664946 ], [ 4.077900591236716, 36.855334293922205 ], [ 4.078640807204224, 36.855334293922205 ], [ 4.078640807204224, 36.854875924430708 ], [ 4.080861455106749, 36.854875924430708 ], [ 4.080861455106749, 36.854417552190448 ], [ 4.083082103009275, 36.854417552190448 ], [ 4.083082103009275, 36.853959177201467 ], [ 4.085302750911799, 36.853959177201467 ], [ 4.085302750911799, 36.853500799463745 ], [ 4.088263614781833, 36.853500799463745 ], [ 4.088263614781833, 36.853959177201467 ], [ 4.090484262684358, 36.853959177201467 ], [ 4.090484262684358, 36.854417552190448 ], [ 4.091964694619375, 36.854417552190448 ], [ 4.091964694619375, 36.854875924430708 ], [ 4.093445126554392, 36.854875924430708 ], [ 4.093445126554392, 36.855334293922205 ], [ 4.096405990424424, 36.855334293922205 ], [ 4.096405990424424, 36.854417552190448 ], [ 4.095665774456916, 36.854417552190448 ], [ 4.095665774456916, 36.85258403574219 ], [ 4.094925558489408, 36.85258403574219 ], [ 4.094925558489408, 36.851667261025895 ], [ 4.0941853425219, 36.851667261025895 ], [ 4.0941853425219, 36.850750475314946 ], [ 4.093445126554392, 36.850750475314946 ], [ 4.093445126554392, 36.850292078336508 ], [ 4.091964694619375, 36.850292078336508 ], [ 4.091964694619375, 36.849833678609457 ], [ 4.08974404671685, 36.849833678609457 ], [ 4.08974404671685, 36.849375276133784 ], [ 4.086042966879308, 36.849375276133784 ], [ 4.086042966879308, 36.849833678609457 ], [ 4.080121239139241, 36.849833678609457 ], [ 4.080121239139241, 36.849375276133784 ], [ 4.078640807204224, 36.849375276133784 ], [ 4.078640807204224, 36.848916870909527 ], [ 4.077900591236716, 36.848916870909527 ], [ 4.077900591236716, 36.848458462936684 ], [ 4.077160375269208, 36.848458462936684 ], [ 4.077160375269208, 36.848000052215262 ], [ 4.0764201593017, 36.848000052215262 ], [ 4.0764201593017, 36.847541638745291 ], [ 4.074939727366683, 36.847541638745291 ], [ 4.074939727366683, 36.847083222526777 ], [ 4.072719079464158, 36.847083222526777 ], [ 4.072719079464158, 36.847541638745291 ], [ 4.071238647529142, 36.847541638745291 ], [ 4.071238647529142, 36.848000052215262 ], [ 4.069017999626616, 36.848000052215262 ], [ 4.069017999626616, 36.848458462936684 ], [ 4.066797351724091, 36.848458462936684 ], [ 4.066797351724091, 36.848000052215262 ], [ 4.063836487854058, 36.848000052215262 ], [ 4.063836487854058, 36.847541638745291 ], [ 4.06309627188655, 36.847541638745291 ], [ 4.06309627188655, 36.847083222526777 ], [ 4.061615839951533, 36.847083222526777 ], [ 4.061615839951533, 36.84662480355972 ], [ 4.060875623984025, 36.84662480355972 ], [ 4.060875623984025, 36.845707957380064 ], [ 4.060135408016516, 36.845707957380064 ], [ 4.060135408016516, 36.845249530167493 ], [ 4.059395192049008, 36.845249530167493 ], [ 4.059395192049008, 36.844332667496914 ], [ 4.0586549760815, 36.844332667496914 ], [ 4.0586549760815, 36.843874232038935 ], [ 4.057914760113992, 36.843874232038935 ], [ 4.057914760113992, 36.842957352877669 ], [ 4.057174544146483, 36.842957352877669 ], [ 4.057174544146483, 36.842498909174395 ], [ 4.056434328178975, 36.842498909174395 ], [ 4.056434328178975, 36.842040462722721 ], [ 4.054213680276449, 36.842040462722721 ], [ 4.054213680276449, 36.842498909174395 ], [ 4.053473464308941, 36.842498909174395 ], [ 4.053473464308941, 36.842957352877669 ], [ 4.052733248341433, 36.842957352877669 ], [ 4.052733248341433, 36.843874232038935 ], [ 4.051993032373924, 36.843874232038935 ], [ 4.051993032373924, 36.845249530167493 ], [ 4.051252816406416, 36.845249530167493 ], [ 4.051252816406416, 36.847083222526777 ], [ 4.051993032373924, 36.847083222526777 ], [ 4.051993032373924, 36.848458462936684 ], [ 4.052733248341433, 36.848458462936684 ], [ 4.052733248341433, 36.849833678609457 ], [ 4.051993032373924, 36.849833678609457 ], [ 4.051993032373924, 36.858084453146724 ], [ 4.052733248341433, 36.858084453146724 ], [ 4.052733248341433, 36.859001150897633 ], [ 4.053473464308941, 36.859001150897633 ], [ 4.053473464308941, 36.859459495649801 ], [ 4.054953896243958, 36.859459495649801 ], [ 4.054953896243958, 36.859917837653079 ], [ 4.065316919789075, 36.859917837653079 ], [ 4.065316919789075, 36.860376176907472 ], [ 4.066057135756584, 36.860376176907472 ], [ 4.066057135756584, 36.860834513412961 ], [ 4.066797351724091, 36.860834513412961 ], [ 4.066797351724091, 36.861292847169537 ], [ 4.0675375676916, 36.861292847169537 ], [ 4.0675375676916, 36.862209506435853 ], [ 4.068277783659108, 36.862209506435853 ], [ 4.068277783659108, 36.866334337059506 ], [ 4.069017999626616, 36.866334337059506 ], [ 4.069017999626616, 36.867250935847522 ], [ 4.071238647529142, 36.867250935847522 ], [ 4.071238647529142, 36.866334337059506 ], [ 4.071978863496649, 36.866334337059506 ], [ 4.071978863496649, 36.864501106494714 ], [ 4.072719079464158, 36.864501106494714 ], [ 4.072719079464158, 36.860376176907472 ], [ 4.073459295431667, 36.860376176907472 ], [ 4.073459295431667, 36.859001150897633 ] ] ], [ [ [ -0.321202903665314, 39.368565481422486 ], [ -0.321202903665314, 39.367236887013497 ], [ -0.321943119632822, 39.367236887013497 ], [ -0.321943119632822, 39.36679401659341 ], [ -0.322683335600331, 39.36679401659341 ], [ -0.322683335600331, 39.366351143364781 ], [ -0.324163767535347, 39.366351143364781 ], [ -0.324163767535347, 39.36679401659341 ], [ -0.325644199470364, 39.36679401659341 ], [ -0.325644199470364, 39.368565481422486 ], [ -0.324903983502856, 39.368565481422486 ], [ -0.324903983502856, 39.369008340608353 ], [ -0.321943119632822, 39.369008340608353 ], [ -0.321943119632822, 39.368565481422486 ], [ -0.321202903665314, 39.368565481422486 ] ] ], [ [ [ 4.786287272142192, 36.656603392746028 ], [ 4.788507920044717, 36.656603392746028 ], [ 4.788507920044717, 36.656143834257939 ], [ 4.78776770407721, 36.656143834257939 ], [ 4.78776770407721, 36.65568427302675 ], [ 4.7870274881097, 36.65568427302675 ], [ 4.7870274881097, 36.655224709052433 ], [ 4.786287272142192, 36.655224709052433 ], [ 4.786287272142192, 36.656603392746028 ] ] ], [ [ [ 4.788507920044717, 36.656603392746028 ], [ 4.788507920044717, 36.657062948490989 ], [ 4.789248136012225, 36.657062948490989 ], [ 4.789248136012225, 36.656603392746028 ], [ 4.788507920044717, 36.656603392746028 ] ] ], [ [ [ 4.797390511654816, 36.664874976444345 ], [ 4.798130727622326, 36.664874976444345 ], [ 4.798130727622326, 36.664415467334535 ], [ 4.798870943589835, 36.664415467334535 ], [ 4.798870943589835, 36.663955955481377 ], [ 4.799611159557342, 36.663955955481377 ], [ 4.799611159557342, 36.662117880635506 ], [ 4.798870943589835, 36.662117880635506 ], [ 4.798870943589835, 36.661658355065804 ], [ 4.798130727622326, 36.661658355065804 ], [ 4.798130727622326, 36.661198826752823 ], [ 4.796650295687309, 36.661198826752823 ], [ 4.796650295687309, 36.66073929569658 ], [ 4.795910079719801, 36.66073929569658 ], [ 4.795910079719801, 36.660279761897101 ], [ 4.795169863752291, 36.660279761897101 ], [ 4.795169863752291, 36.659820225354387 ], [ 4.794429647784784, 36.659820225354387 ], [ 4.794429647784784, 36.65936068606846 ], [ 4.793689431817276, 36.65936068606846 ], [ 4.793689431817276, 36.658901144039326 ], [ 4.792949215849767, 36.658901144039326 ], [ 4.792949215849767, 36.658441599266993 ], [ 4.792208999882258, 36.658441599266993 ], [ 4.792208999882258, 36.657982051751489 ], [ 4.791468783914751, 36.657982051751489 ], [ 4.791468783914751, 36.657522501492807 ], [ 4.790728567947242, 36.657522501492807 ], [ 4.790728567947242, 36.657062948490989 ], [ 4.789248136012225, 36.657062948490989 ], [ 4.789248136012225, 36.657522501492807 ], [ 4.789988351979734, 36.657522501492807 ], [ 4.789988351979734, 36.658441599266993 ], [ 4.790728567947242, 36.658441599266993 ], [ 4.790728567947242, 36.659820225354387 ], [ 4.791468783914751, 36.659820225354387 ], [ 4.791468783914751, 36.66073929569658 ], [ 4.792208999882258, 36.66073929569658 ], [ 4.792208999882258, 36.661198826752823 ], [ 4.792949215849767, 36.661198826752823 ], [ 4.792949215849767, 36.666253487313526 ], [ 4.793689431817276, 36.666253487313526 ], [ 4.793689431817276, 36.666712985449806 ], [ 4.795910079719801, 36.666712985449806 ], [ 4.795910079719801, 36.666253487313526 ], [ 4.796650295687309, 36.666253487313526 ], [ 4.796650295687309, 36.665334482810792 ], [ 4.797390511654816, 36.665334482810792 ], [ 4.797390511654816, 36.664874976444345 ] ] ], [ [ [ 4.106028798002033, 36.766818068408192 ], [ 4.106028798002033, 36.767276965423314 ], [ 4.104548366067017, 36.767276965423314 ], [ 4.104548366067017, 36.768653639990944 ], [ 4.105288582034524, 36.768653639990944 ], [ 4.105288582034524, 36.76957140930444 ], [ 4.108989661872067, 36.76957140930444 ], [ 4.108989661872067, 36.767735859692152 ], [ 4.109729877839575, 36.767735859692152 ], [ 4.109729877839575, 36.767276965423314 ], [ 4.108989661872067, 36.767276965423314 ], [ 4.108989661872067, 36.766818068408192 ], [ 4.106028798002033, 36.766818068408192 ] ] ], [ [ [ 4.142299380409941, 36.864501106494714 ], [ 4.140818948474925, 36.864501106494714 ], [ 4.140818948474925, 36.864959418259481 ], [ 4.140078732507416, 36.864959418259481 ], [ 4.140078732507416, 36.866792637828048 ], [ 4.140818948474925, 36.866792637828048 ], [ 4.140818948474925, 36.867250935847522 ], [ 4.14303959637745, 36.867250935847522 ], [ 4.14303959637745, 36.866334337059506 ], [ 4.143779812344959, 36.866334337059506 ], [ 4.143779812344959, 36.865876033541888 ], [ 4.14303959637745, 36.865876033541888 ], [ 4.14303959637745, 36.864959418259481 ], [ 4.142299380409941, 36.864959418259481 ], [ 4.142299380409941, 36.864501106494714 ] ] ] ] } }
]
}
