{
"type": "FeatureCollection",
"name": "spain_fires_modis_ba",
"crs": { "type": "name", "properties": { "name": "urn:ogc:def:crs:OGC:1.3:CRS84" } },
"features": [
{ "type": "Feature", "properties": { }, "geometry": { "type": "MultiPolygon", "coordinates": [ [ [ [ 3.331762895988315, 36.427404069173633 ], [ 3.331762895988315, 36.426943146264129 ], [ 3.333983543890841, 36.426943146264129 ], [ 3.333983543890841, 36.426482220618162 ], [ 3.33842483969589, 36.426482220618162 ], [ 3.33842483969589, 36.426021292235781 ], [ 3.339165055663398, 36.426021292235781 ], [ 3.339165055663398, 36.425560361116951 ], [ 3.339905271630907, 36.425560361116951 ], [ 3.339905271630907, 36.424177551342147 ], [ 3.339165055663398, 36.424177551342147 ], [ 3.339165055663398, 36.423716609277804 ], [ 3.335463975825857, 36.423716609277804 ], [ 3.335463975825857, 36.424177551342147 ], [ 3.331022680020807, 36.424177551342147 ], [ 3.331022680020807, 36.424638490670134 ], [ 3.329542248085791, 36.424638490670134 ], [ 3.329542248085791, 36.426943146264129 ], [ 3.331022680020807, 36.426943146264129 ], [ 3.331022680020807, 36.427404069173633 ], [ 3.331762895988315, 36.427404069173633 ] ] ], [ [ [ -6.645608130056524, 40.04767381889507 ], [ -6.644867914089016, 40.04767381889507 ], [ -6.644867914089016, 40.045481169839185 ], [ -6.645608130056524, 40.045481169839185 ], [ -6.645608130056524, 40.045042631564982 ], [ -6.649309209894064, 40.045042631564982 ], [ -6.649309209894064, 40.045481169839185 ], [ -6.650049425861574, 40.045481169839185 ], [ -6.650049425861574, 40.045919705292398 ], [ -6.650789641829082, 40.045919705292398 ], [ -6.650789641829082, 40.047235294725937 ], [ -6.650049425861574, 40.047235294725937 ], [ -6.650049425861574, 40.04767381889507 ], [ -6.649309209894064, 40.04767381889507 ], [ -6.649309209894064, 40.048112340243165 ], [ -6.645608130056524, 40.048112340243165 ], [ -6.645608130056524, 40.04767381889507 ] ] ], [ [ [ -7.755191865351517, 43.292265779571096 ], [ -7.754451649384009, 43.292265779571096 ], [ -7.754451649384009, 43.291014891651251 ], [ -7.755191865351517, 43.291014891651251 ], [ -7.755191865351517, 43.288513038628729 ], [ -7.755932081319026, 43.288513038628729 ], [ -7.755932081319026, 43.288096053119816 ], [ -7.757412513254041, 43.288096053119816 ], [ -7.757412513254041, 43.287679064752297 ], [ -7.760373377124075, 43.287679064752297 ], [ -7.760373377124075, 43.288513038628729 ], [ -7.761113593091584, 43.288513038628729 ], [ -7.761113593091584, 43.289763978003784 ], [ -7.760373377124075, 43.289763978003784 ], [ -7.760373377124075, 43.290180952078224 ], [ -7.75815272922155, 43.290180952078224 ], [ -7.75815272922155, 43.292265779571096 ], [ -7.757412513254041, 43.292265779571096 ], [ -7.757412513254041, 43.292682736493767 ], [ -7.755191865351517, 43.292682736493767 ], [ -7.755191865351517, 43.292265779571096 ] ] ] ] } }
]
}
