{
"type": "FeatureCollection",
"name": "spain_fires_modis_ba",
"crs": { "type": "name", "properties": { "name": "urn:ogc:def:crs:OGC:1.3:CRS84" } },
"features": [
{ "type": "Feature", "properties": { }, "geometry": { "type": "Polygon", "coordinates": [ [ [ -8.06904343557505, 37.492986580951801 ], [ -8.066082571705017, 37.492986580951801 ], [ -8.066082571705017, 37.492532063662495 ], [ -8.056459764127409, 37.492532063662495 ], [ -8.056459764127409, 37.49207754360723 ], [ -8.055719548159901, 37.49207754360723 ], [ -8.055719548159901, 37.487532190930025 ], [ -8.056459764127409, 37.487532190930025 ], [ -8.056459764127409, 37.487077640450103 ], [ -8.057940196062425, 37.487077640450103 ], [ -8.057940196062425, 37.487532190930025 ], [ -8.063861923802493, 37.487532190930025 ], [ -8.063861923802493, 37.487986738644132 ], [ -8.06534235573751, 37.487986738644132 ], [ -8.06534235573751, 37.488441283592394 ], [ -8.06978365154256, 37.488441283592394 ], [ -8.06978365154256, 37.489350365191392 ], [ -8.070523867510069, 37.489350365191392 ], [ -8.070523867510069, 37.49207754360723 ], [ -8.06978365154256, 37.49207754360723 ], [ -8.06978365154256, 37.492532063662495 ], [ -8.06904343557505, 37.492532063662495 ], [ -8.06904343557505, 37.492986580951801 ] ] ] } }
]
}
