{
"type": "FeatureCollection",
"name": "spain_fires_modis_ba",
"crs": { "type": "name", "properties": { "name": "urn:ogc:def:crs:OGC:1.3:CRS84" } },
"features": [
{ "type": "Feature", "properties": { }, "geometry": { "type": "MultiPolygon", "coordinates": [ [ [ [ 3.709273039417566, 36.599597225345263 ], [ 3.710753471352583, 36.599597225345263 ], [ 3.710753471352583, 36.598677425537396 ], [ 3.711493687320091, 36.598677425537396 ], [ 3.711493687320091, 36.597297705264687 ], [ 3.710753471352583, 36.597297705264687 ], [ 3.710753471352583, 36.596837793024264 ], [ 3.70779260748255, 36.596837793024264 ], [ 3.70779260748255, 36.597297705264687 ], [ 3.70705239151504, 36.597297705264687 ], [ 3.70705239151504, 36.599597225345263 ], [ 3.70779260748255, 36.599597225345263 ], [ 3.70779260748255, 36.600057121136963 ], [ 3.709273039417566, 36.600057121136963 ], [ 3.709273039417566, 36.599597225345263 ] ] ], [ [ [ -4.201415005344002, 40.311153071556902 ], [ -4.201415005344002, 40.310716246990992 ], [ -4.200674789376495, 40.310716246990992 ], [ -4.200674789376495, 40.310279419599652 ], [ -4.19845414147397, 40.310279419599652 ], [ -4.19845414147397, 40.309842589382875 ], [ -4.197713925506461, 40.309842589382875 ], [ -4.197713925506461, 40.307221548748473 ], [ -4.196973709538954, 40.307221548748473 ], [ -4.196973709538954, 40.302416043413039 ], [ -4.197713925506461, 40.302416043413039 ], [ -4.197713925506461, 40.301105391716987 ], [ -4.19845414147397, 40.301105391716987 ], [ -4.19845414147397, 40.30023160979318 ], [ -4.199194357441478, 40.30023160979318 ], [ -4.199194357441478, 40.299794714593375 ], [ -4.19845414147397, 40.299794714593375 ], [ -4.19845414147397, 40.294988680929592 ], [ -4.199194357441478, 40.294988680929592 ], [ -4.199194357441478, 40.29367788514655 ], [ -4.199934573408987, 40.29367788514655 ], [ -4.199934573408987, 40.293240947568535 ], [ -4.20289543727902, 40.293240947568535 ], [ -4.20289543727902, 40.29367788514655 ], [ -4.205116085181545, 40.29367788514655 ], [ -4.205116085181545, 40.294114819899406 ], [ -4.208076949051578, 40.294114819899406 ], [ -4.208076949051578, 40.294551751827093 ], [ -4.209557380986594, 40.294551751827093 ], [ -4.209557380986594, 40.294988680929592 ], [ -4.210297596954103, 40.294988680929592 ], [ -4.210297596954103, 40.299357816568296 ], [ -4.211037812921611, 40.299357816568296 ], [ -4.211037812921611, 40.301105391716987 ], [ -4.21177802888912, 40.301105391716987 ], [ -4.21177802888912, 40.304163539453441 ], [ -4.211037812921611, 40.304163539453441 ], [ -4.211037812921611, 40.304600406400226 ], [ -4.210297596954103, 40.304600406400226 ], [ -4.210297596954103, 40.305037270521666 ], [ -4.209557380986594, 40.305037270521666 ], [ -4.209557380986594, 40.305474131817746 ], [ -4.208817165019086, 40.305474131817746 ], [ -4.208817165019086, 40.305910990288488 ], [ -4.208076949051578, 40.305910990288488 ], [ -4.208076949051578, 40.306347845933864 ], [ -4.207336733084071, 40.306347845933864 ], [ -4.207336733084071, 40.306784698753852 ], [ -4.206596517116561, 40.306784698753852 ], [ -4.206596517116561, 40.308095240261558 ], [ -4.205856301149054, 40.308095240261558 ], [ -4.205856301149054, 40.309842589382875 ], [ -4.205116085181545, 40.309842589382875 ], [ -4.205116085181545, 40.310716246990992 ], [ -4.204375869214036, 40.310716246990992 ], [ -4.204375869214036, 40.311153071556902 ], [ -4.203635653246529, 40.311153071556902 ], [ -4.203635653246529, 40.311589893297345 ], [ -4.202155221311512, 40.311589893297345 ], [ -4.202155221311512, 40.311153071556902 ], [ -4.201415005344002, 40.311153071556902 ] ] ], [ [ [ -7.483532605275959, 41.286840486283602 ], [ -7.483532605275959, 41.288131821121894 ], [ -7.482792389308449, 41.288131821121894 ], [ -7.482792389308449, 41.289423130402731 ], [ -7.483532605275959, 41.289423130402731 ], [ -7.483532605275959, 41.289853561150231 ], [ -7.481311957373435, 41.289853561150231 ], [ -7.481311957373435, 41.287701379015502 ], [ -7.482052173340942, 41.287701379015502 ], [ -7.482052173340942, 41.286840486283602 ], [ -7.483532605275959, 41.286840486283602 ] ] ], [ [ [ -7.588643272662142, 41.760324668269959 ], [ -7.587903056694633, 41.760324668269959 ], [ -7.587903056694633, 41.759897355907803 ], [ -7.588643272662142, 41.759897355907803 ], [ -7.588643272662142, 41.760324668269959 ] ] ], [ [ [ -7.587162840727125, 41.760751977786661 ], [ -7.587162840727125, 41.760324668269959 ], [ -7.587903056694633, 41.760324668269959 ], [ -7.587903056694633, 41.760751977786661 ], [ -7.587162840727125, 41.760751977786661 ] ] ], [ [ [ -8.482824161412211, 41.945935648636308 ], [ -8.482824161412211, 41.947213854015367 ], [ -8.482083945444701, 41.947213854015367 ], [ -8.482083945444701, 41.946787788403142 ], [ -8.481343729477194, 41.946787788403142 ], [ -8.481343729477194, 41.945935648636308 ], [ -8.482824161412211, 41.945935648636308 ] ] ] ] } }
]
}
