{
"type": "FeatureCollection",
"name": "spain_fires_nrt_ba",
"crs": { "type": "name", "properties": { "name": "urn:ogc:def:crs:OGC:1.3:CRS84" } },
"features": [
{ "type": "Feature", "properties": { }, "geometry": { "type": "MultiPolygon", "coordinates": [ [ [ [ -0.280491025452356, 39.955960960993671 ], [ -0.280491025452356, 39.955521847394145 ], [ -0.279010593517339, 39.955521847394145 ], [ -0.279010593517339, 39.955082730975199 ], [ -0.278270377549831, 39.955082730975199 ], [ -0.278270377549831, 39.954643611736806 ], [ -0.276789945614814, 39.954643611736806 ], [ -0.276789945614814, 39.954204489679 ], [ -0.275309513679797, 39.954204489679 ], [ -0.275309513679797, 39.953765364801768 ], [ -0.273829081744781, 39.953765364801768 ], [ -0.273829081744781, 39.953326237105131 ], [ -0.272348649809764, 39.953326237105131 ], [ -0.272348649809764, 39.95288710658911 ], [ -0.270868217874747, 39.95288710658911 ], [ -0.270868217874747, 39.952447973253676 ], [ -0.270128001907239, 39.952447973253676 ], [ -0.270128001907239, 39.952008837098866 ], [ -0.268647569972222, 39.952008837098866 ], [ -0.268647569972222, 39.951569698124686 ], [ -0.267167138037206, 39.951569698124686 ], [ -0.267167138037206, 39.951130556331115 ], [ -0.265686706102189, 39.951130556331115 ], [ -0.265686706102189, 39.950691411718196 ], [ -0.264206274167172, 39.950691411718196 ], [ -0.264206274167172, 39.950252264285922 ], [ -0.262725842232156, 39.950252264285922 ], [ -0.262725842232156, 39.949813114034292 ], [ -0.261985626264647, 39.949813114034292 ], [ -0.261985626264647, 39.949373960963335 ], [ -0.260505194329631, 39.949373960963335 ], [ -0.260505194329631, 39.948934805073044 ], [ -0.259024762394614, 39.948934805073044 ], [ -0.259024762394614, 39.948495646363433 ], [ -0.257544330459597, 39.948495646363433 ], [ -0.257544330459597, 39.948056484834503 ], [ -0.256063898524581, 39.948056484834503 ], [ -0.256063898524581, 39.947617320486259 ], [ -0.254583466589564, 39.947617320486259 ], [ -0.254583466589564, 39.947178153318724 ], [ -0.253843250622056, 39.947178153318724 ], [ -0.253843250622056, 39.946738983331883 ], [ -0.252362818687039, 39.946738983331883 ], [ -0.252362818687039, 39.946299810525765 ], [ -0.250882386752022, 39.946299810525765 ], [ -0.250882386752022, 39.945860634900377 ], [ -0.249401954817006, 39.945860634900377 ], [ -0.249401954817006, 39.945421456455712 ], [ -0.247921522881989, 39.945421456455712 ], [ -0.247921522881989, 39.944982275191784 ], [ -0.246441090946972, 39.944982275191784 ], [ -0.246441090946972, 39.944543091108599 ], [ -0.244960659011956, 39.944543091108599 ], [ -0.244960659011956, 39.944103904206173 ], [ -0.244220443044447, 39.944103904206173 ], [ -0.244220443044447, 39.943664714484513 ], [ -0.242740011109431, 39.943664714484513 ], [ -0.242740011109431, 39.943225521943617 ], [ -0.241259579174414, 39.943225521943617 ], [ -0.241259579174414, 39.942786326583487 ], [ -0.239779147239397, 39.942786326583487 ], [ -0.239779147239397, 39.942347128404151 ], [ -0.238298715304381, 39.942347128404151 ], [ -0.238298715304381, 39.941907927405616 ], [ -0.236818283369364, 39.941907927405616 ], [ -0.236818283369364, 39.941468723587867 ], [ -0.236078067401856, 39.941468723587867 ], [ -0.236078067401856, 39.941029516950934 ], [ -0.234597635466839, 39.941029516950934 ], [ -0.234597635466839, 39.940590307494809 ], [ -0.233117203531822, 39.940590307494809 ], [ -0.233117203531822, 39.940151095219512 ], [ -0.231636771596806, 39.940151095219512 ], [ -0.231636771596806, 39.939711880125053 ], [ -0.230156339661789, 39.939711880125053 ], [ -0.230156339661789, 39.939272662211422 ], [ -0.228675907726772, 39.939272662211422 ], [ -0.228675907726772, 39.938833441478643 ], [ -0.227935691759264, 39.938833441478643 ], [ -0.227935691759264, 39.938394217926707 ], [ -0.226455259824247, 39.938394217926707 ], [ -0.226455259824247, 39.937954991555635 ], [ -0.224974827889231, 39.937954991555635 ], [ -0.224974827889231, 39.937515762365443 ], [ -0.223494395954214, 39.937515762365443 ], [ -0.223494395954214, 39.937076530356116 ], [ -0.222013964019197, 39.937076530356116 ], [ -0.222013964019197, 39.936637295527682 ], [ -0.220533532084181, 39.936637295527682 ], [ -0.220533532084181, 39.936198057880134 ], [ -0.219793316116672, 39.936198057880134 ], [ -0.219793316116672, 39.9357588174135 ], [ -0.218312884181656, 39.9357588174135 ], [ -0.218312884181656, 39.93531957412776 ], [ -0.216832452246639, 39.93531957412776 ], [ -0.216832452246639, 39.934880328022935 ], [ -0.215352020311622, 39.934880328022935 ], [ -0.215352020311622, 39.934441079099038 ], [ -0.213871588376606, 39.934441079099038 ], [ -0.213871588376606, 39.93400182735607 ], [ -0.212391156441589, 39.93400182735607 ], [ -0.212391156441589, 39.933562572794045 ], [ -0.210910724506572, 39.933562572794045 ], [ -0.210910724506572, 39.933123315412963 ], [ -0.210170508539064, 39.933123315412963 ], [ -0.210170508539064, 39.932684055212832 ], [ -0.208690076604047, 39.932684055212832 ], [ -0.208690076604047, 39.932244792193679 ], [ -0.207209644669031, 39.932244792193679 ], [ -0.207209644669031, 39.931805526355475 ], [ -0.205729212734014, 39.931805526355475 ], [ -0.205729212734014, 39.931366257698258 ], [ -0.204248780798997, 39.931366257698258 ], [ -0.204248780798997, 39.930926986222019 ], [ -0.203508564831489, 39.930926986222019 ], [ -0.203508564831489, 39.930048434812555 ], [ -0.204248780798997, 39.930048434812555 ], [ -0.204248780798997, 39.929169872127098 ], [ -0.204988996766506, 39.929169872127098 ], [ -0.204988996766506, 39.927852006956627 ], [ -0.205729212734014, 39.927852006956627 ], [ -0.205729212734014, 39.926534116415574 ], [ -0.206469428701522, 39.926534116415574 ], [ -0.206469428701522, 39.925655508626882 ], [ -0.207209644669031, 39.925655508626882 ], [ -0.207209644669031, 39.924337575801992 ], [ -0.207949860636539, 39.924337575801992 ], [ -0.207949860636539, 39.923019617607096 ], [ -0.208690076604047, 39.923019617607096 ], [ -0.208690076604047, 39.921701634042378 ], [ -0.209430292571556, 39.921701634042378 ], [ -0.209430292571556, 39.920822964238326 ], [ -0.210170508539064, 39.920822964238326 ], [ -0.210170508539064, 39.919504938391064 ], [ -0.209430292571556, 39.919504938391064 ], [ -0.209430292571556, 39.919065590804358 ], [ -0.208690076604047, 39.919065590804358 ], [ -0.208690076604047, 39.918186887174549 ], [ -0.207949860636539, 39.918186887174549 ], [ -0.207949860636539, 39.917747531131454 ], [ -0.207209644669031, 39.917747531131454 ], [ -0.207209644669031, 39.9173081722696 ], [ -0.206469428701522, 39.9173081722696 ], [ -0.206469428701522, 39.916868810588973 ], [ -0.205729212734014, 39.916868810588973 ], [ -0.205729212734014, 39.915990078771458 ], [ -0.204988996766506, 39.915990078771458 ], [ -0.204988996766506, 39.915550708634569 ], [ -0.204248780798997, 39.915550708634569 ], [ -0.204248780798997, 39.915111335678958 ], [ -0.203508564831489, 39.915111335678958 ], [ -0.203508564831489, 39.914671959904609 ], [ -0.202768348863981, 39.914671959904609 ], [ -0.202768348863981, 39.913793199899764 ], [ -0.202028132896472, 39.913793199899764 ], [ -0.202028132896472, 39.913353815669275 ], [ -0.201287916928964, 39.913353815669275 ], [ -0.201287916928964, 39.912914428620098 ], [ -0.200547700961456, 39.912914428620098 ], [ -0.200547700961456, 39.91247503875222 ], [ -0.199807484993947, 39.91247503875222 ], [ -0.199807484993947, 39.911596250560436 ], [ -0.199067269026439, 39.911596250560436 ], [ -0.199067269026439, 39.911156852236559 ], [ -0.198327053058931, 39.911156852236559 ], [ -0.198327053058931, 39.910717451093994 ], [ -0.197586837091422, 39.910717451093994 ], [ -0.197586837091422, 39.910278047132799 ], [ -0.196846621123914, 39.910278047132799 ], [ -0.196846621123914, 39.909399230754467 ], [ -0.196106405156406, 39.909399230754467 ], [ -0.196106405156406, 39.908959818337365 ], [ -0.195366189188897, 39.908959818337365 ], [ -0.195366189188897, 39.908520403101626 ], [ -0.194625973221389, 39.908520403101626 ], [ -0.194625973221389, 39.907641564174341 ], [ -0.193885757253881, 39.907641564174341 ], [ -0.193885757253881, 39.907202140482795 ], [ -0.193145541286372, 39.907202140482795 ], [ -0.193145541286372, 39.906762713972668 ], [ -0.192405325318864, 39.906762713972668 ], [ -0.192405325318864, 39.90632328464396 ], [ -0.191665109351356, 39.90632328464396 ], [ -0.191665109351356, 39.905444417530816 ], [ -0.190924893383847, 39.905444417530816 ], [ -0.190924893383847, 39.905004979746408 ], [ -0.190184677416339, 39.905004979746408 ], [ -0.190184677416339, 39.904565539143455 ], [ -0.189444461448831, 39.904565539143455 ], [ -0.189444461448831, 39.904126095721949 ], [ -0.188704245481322, 39.904126095721949 ], [ -0.188704245481322, 39.903247200423358 ], [ -0.187964029513814, 39.903247200423358 ], [ -0.187964029513814, 39.90280774854628 ], [ -0.187223813546306, 39.90280774854628 ], [ -0.187223813546306, 39.902368293850685 ], [ -0.186483597578797, 39.902368293850685 ], [ -0.186483597578797, 39.901928836336594 ], [ -0.185743381611289, 39.901928836336594 ], [ -0.185743381611289, 39.901049912852919 ], [ -0.186483597578797, 39.901049912852919 ], [ -0.186483597578797, 39.900170978095339 ], [ -0.187223813546306, 39.900170978095339 ], [ -0.187223813546306, 39.899731506488841 ], [ -0.187964029513814, 39.899731506488841 ], [ -0.187964029513814, 39.898852554820486 ], [ -0.188704245481322, 39.898852554820486 ], [ -0.188704245481322, 39.898413074758651 ], [ -0.189444461448831, 39.898413074758651 ], [ -0.189444461448831, 39.897534106179677 ], [ -0.190184677416339, 39.897534106179677 ], [ -0.190184677416339, 39.896655126327033 ], [ -0.190924893383847, 39.896655126327033 ], [ -0.190924893383847, 39.896215632173103 ], [ -0.191665109351356, 39.896215632173103 ], [ -0.191665109351356, 39.895336635410068 ], [ -0.192405325318864, 39.895336635410068 ], [ -0.192405325318864, 39.894897132800978 ], [ -0.193145541286372, 39.894897132800978 ], [ -0.193145541286372, 39.894018119127701 ], [ -0.193885757253881, 39.894018119127701 ], [ -0.193885757253881, 39.893578608063521 ], [ -0.194625973221389, 39.893578608063521 ], [ -0.194625973221389, 39.89269957748013 ], [ -0.195366189188897, 39.89269957748013 ], [ -0.195366189188897, 39.892260057960925 ], [ -0.196106405156406, 39.892260057960925 ], [ -0.196106405156406, 39.891381010467562 ], [ -0.196846621123914, 39.891381010467562 ], [ -0.196846621123914, 39.890941482493417 ], [ -0.197586837091422, 39.890941482493417 ], [ -0.197586837091422, 39.890062418090224 ], [ -0.198327053058931, 39.890062418090224 ], [ -0.198327053058931, 39.889622881661204 ], [ -0.199067269026439, 39.889622881661204 ], [ -0.199067269026439, 39.88874380034833 ], [ -0.199807484993947, 39.88874380034833 ], [ -0.199807484993947, 39.887864707762397 ], [ -0.200547700961456, 39.887864707762397 ], [ -0.200547700961456, 39.88742515724207 ], [ -0.201287916928964, 39.88742515724207 ], [ -0.201287916928964, 39.886546047746684 ], [ -0.202028132896472, 39.886546047746684 ], [ -0.202028132896472, 39.886106488771652 ], [ -0.202768348863981, 39.886106488771652 ], [ -0.202768348863981, 39.885227362366962 ], [ -0.203508564831489, 39.885227362366962 ], [ -0.203508564831489, 39.88478779493731 ], [ -0.204248780798997, 39.88478779493731 ], [ -0.204248780798997, 39.88390865162345 ], [ -0.204988996766506, 39.88390865162345 ], [ -0.204988996766506, 39.883469075739242 ], [ -0.205729212734014, 39.883469075739242 ], [ -0.205729212734014, 39.882589915516341 ], [ -0.206469428701522, 39.882589915516341 ], [ -0.206469428701522, 39.882150331177662 ], [ -0.207209644669031, 39.882150331177662 ], [ -0.207209644669031, 39.881271154045869 ], [ -0.207949860636539, 39.881271154045869 ], [ -0.207949860636539, 39.88039196564155 ], [ -0.208690076604047, 39.88039196564155 ], [ -0.208690076604047, 39.879952367212233 ], [ -0.209430292571556, 39.879952367212233 ], [ -0.209430292571556, 39.879073161899257 ], [ -0.210170508539064, 39.879073161899257 ], [ -0.210170508539064, 39.878633555015639 ], [ -0.210910724506572, 39.878633555015639 ], [ -0.210910724506572, 39.877754332794161 ], [ -0.211650940474081, 39.877754332794161 ], [ -0.211650940474081, 39.877314717456315 ], [ -0.212391156441589, 39.877314717456315 ], [ -0.212391156441589, 39.876435478326449 ], [ -0.213131372409097, 39.876435478326449 ], [ -0.213131372409097, 39.87467696625027 ], [ -0.208690076604047, 39.87467696625027 ], [ -0.208690076604047, 39.87423733118618 ], [ -0.202768348863981, 39.87423733118618 ], [ -0.202768348863981, 39.87379769330407 ], [ -0.197586837091422, 39.87379769330407 ], [ -0.197586837091422, 39.873358052603976 ], [ -0.192405325318864, 39.873358052603976 ], [ -0.192405325318864, 39.872918409085891 ], [ -0.191665109351356, 39.872918409085891 ], [ -0.191665109351356, 39.87203911359579 ], [ -0.192405325318864, 39.87203911359579 ], [ -0.192405325318864, 39.865004343893276 ], [ -0.193145541286372, 39.865004343893276 ], [ -0.193145541286372, 39.857968852823767 ], [ -0.193885757253881, 39.857968852823767 ], [ -0.193885757253881, 39.850932640419416 ], [ -0.194625973221389, 39.850932640419416 ], [ -0.194625973221389, 39.843895706712374 ], [ -0.195366189188897, 39.843895706712374 ], [ -0.195366189188897, 39.837737798050419 ], [ -0.194625973221389, 39.837737798050419 ], [ -0.194625973221389, 39.837297926301304 ], [ -0.193885757253881, 39.837297926301304 ], [ -0.193885757253881, 39.836858051734851 ], [ -0.193145541286372, 39.836858051734851 ], [ -0.193145541286372, 39.83641817435106 ], [ -0.192405325318864, 39.83641817435106 ], [ -0.192405325318864, 39.835978294149946 ], [ -0.191665109351356, 39.835978294149946 ], [ -0.191665109351356, 39.835538411131502 ], [ -0.190924893383847, 39.835538411131502 ], [ -0.190924893383847, 39.835098525295741 ], [ -0.190184677416339, 39.835098525295741 ], [ -0.190184677416339, 39.834658636642686 ], [ -0.189444461448831, 39.834658636642686 ], [ -0.189444461448831, 39.834218745172322 ], [ -0.188704245481322, 39.834218745172322 ], [ -0.188704245481322, 39.833778850884677 ], [ -0.187964029513814, 39.833778850884677 ], [ -0.187964029513814, 39.832899053857552 ], [ -0.187223813546306, 39.832899053857552 ], [ -0.187223813546306, 39.83245915111808 ], [ -0.186483597578797, 39.83245915111808 ], [ -0.186483597578797, 39.832019245561341 ], [ -0.185743381611289, 39.832019245561341 ], [ -0.185743381611289, 39.831579337187378 ], [ -0.185003165643781, 39.831579337187378 ], [ -0.185003165643781, 39.831139425996149 ], [ -0.184262949676272, 39.831139425996149 ], [ -0.184262949676272, 39.830699511987703 ], [ -0.183522733708764, 39.830699511987703 ], [ -0.183522733708764, 39.830259595162019 ], [ -0.182782517741256, 39.830259595162019 ], [ -0.182782517741256, 39.829819675519126 ], [ -0.182042301773747, 39.829819675519126 ], [ -0.182042301773747, 39.828499899687202 ], [ -0.182782517741256, 39.828499899687202 ], [ -0.182782517741256, 39.827620035046628 ], [ -0.183522733708764, 39.827620035046628 ], [ -0.183522733708764, 39.82674015913738 ], [ -0.184262949676272, 39.82674015913738 ], [ -0.184262949676272, 39.825860271959513 ], [ -0.185003165643781, 39.825860271959513 ], [ -0.185003165643781, 39.824980373513085 ], [ -0.185743381611289, 39.824980373513085 ], [ -0.185743381611289, 39.824100463798167 ], [ -0.186483597578797, 39.824100463798167 ], [ -0.186483597578797, 39.823220542814809 ], [ -0.187223813546306, 39.823220542814809 ], [ -0.187223813546306, 39.822340610563081 ], [ -0.187964029513814, 39.822340610563081 ], [ -0.187964029513814, 39.821460667043056 ], [ -0.188704245481322, 39.821460667043056 ], [ -0.188704245481322, 39.820580712254781 ], [ -0.189444461448831, 39.820580712254781 ], [ -0.189444461448831, 39.819700746198329 ], [ -0.190184677416339, 39.819700746198329 ], [ -0.190184677416339, 39.818820768873771 ], [ -0.190924893383847, 39.818820768873771 ], [ -0.190924893383847, 39.818380775985958 ], [ -0.191665109351356, 39.818380775985958 ], [ -0.191665109351356, 39.81750078175935 ], [ -0.192405325318864, 39.81750078175935 ], [ -0.192405325318864, 39.81662077626477 ], [ -0.193145541286372, 39.81662077626477 ], [ -0.193145541286372, 39.815740759502305 ], [ -0.193885757253881, 39.815740759502305 ], [ -0.193885757253881, 39.814860731471995 ], [ -0.194625973221389, 39.814860731471995 ], [ -0.194625973221389, 39.813980692173935 ], [ -0.195366189188897, 39.813980692173935 ], [ -0.195366189188897, 39.813100641608159 ], [ -0.196106405156406, 39.813100641608159 ], [ -0.196106405156406, 39.812220579774753 ], [ -0.196846621123914, 39.812220579774753 ], [ -0.196846621123914, 39.811340506673766 ], [ -0.197586837091422, 39.811340506673766 ], [ -0.197586837091422, 39.810460422305255 ], [ -0.198327053058931, 39.810460422305255 ], [ -0.198327053058931, 39.809580326669305 ], [ -0.199067269026439, 39.809580326669305 ], [ -0.199067269026439, 39.808700219765967 ], [ -0.199807484993947, 39.808700219765967 ], [ -0.199807484993947, 39.811340506673766 ], [ -0.200547700961456, 39.811340506673766 ], [ -0.200547700961456, 39.813980692173935 ], [ -0.201287916928964, 39.813980692173935 ], [ -0.201287916928964, 39.81662077626477 ], [ -0.202028132896472, 39.81662077626477 ], [ -0.202028132896472, 39.819260758944559 ], [ -0.202768348863981, 39.819260758944559 ], [ -0.202768348863981, 39.821900640211602 ], [ -0.203508564831489, 39.821900640211602 ], [ -0.203508564831489, 39.823660504715029 ], [ -0.204248780798997, 39.823660504715029 ], [ -0.204248780798997, 39.824100463798167 ], [ -0.221273748051689, 39.824100463798167 ], [ -0.221273748051689, 39.824540420064174 ], [ -0.240519363206906, 39.824540420064174 ], [ -0.240519363206906, 39.824980373513085 ], [ -0.259024762394614, 39.824980373513085 ], [ -0.259024762394614, 39.825420324144865 ], [ -0.259764978362122, 39.825420324144865 ], [ -0.259764978362122, 39.825860271959513 ], [ -0.260505194329631, 39.825860271959513 ], [ -0.260505194329631, 39.82674015913738 ], [ -0.261245410297139, 39.82674015913738 ], [ -0.261245410297139, 39.827180098500591 ], [ -0.261985626264647, 39.827180098500591 ], [ -0.261985626264647, 39.827620035046628 ], [ -0.262725842232156, 39.827620035046628 ], [ -0.262725842232156, 39.828499899687202 ], [ -0.263466058199664, 39.828499899687202 ], [ -0.263466058199664, 39.828939827781696 ], [ -0.264206274167172, 39.828939827781696 ], [ -0.264206274167172, 39.829379753059015 ], [ -0.264946490134681, 39.829379753059015 ], [ -0.264946490134681, 39.830259595162019 ], [ -0.265686706102189, 39.830259595162019 ], [ -0.265686706102189, 39.830699511987703 ], [ -0.266426922069697, 39.830699511987703 ], [ -0.266426922069697, 39.831139425996149 ], [ -0.267167138037206, 39.831139425996149 ], [ -0.267167138037206, 39.832019245561341 ], [ -0.267907354004714, 39.832019245561341 ], [ -0.267907354004714, 39.83245915111808 ], [ -0.268647569972222, 39.83245915111808 ], [ -0.268647569972222, 39.832899053857552 ], [ -0.269387785939731, 39.832899053857552 ], [ -0.269387785939731, 39.833778850884677 ], [ -0.270128001907239, 39.833778850884677 ], [ -0.270128001907239, 39.834218745172322 ], [ -0.270868217874747, 39.834218745172322 ], [ -0.270868217874747, 39.834658636642686 ], [ -0.271608433842256, 39.834658636642686 ], [ -0.271608433842256, 39.835538411131502 ], [ -0.272348649809764, 39.835538411131502 ], [ -0.272348649809764, 39.835978294149946 ], [ -0.273088865777272, 39.835978294149946 ], [ -0.273088865777272, 39.83641817435106 ], [ -0.273829081744781, 39.83641817435106 ], [ -0.273829081744781, 39.837297926301304 ], [ -0.274569297712289, 39.837297926301304 ], [ -0.274569297712289, 39.837737798050419 ], [ -0.275309513679797, 39.837737798050419 ], [ -0.275309513679797, 39.838617533096581 ], [ -0.276049729647306, 39.838617533096581 ], [ -0.276049729647306, 39.839057396393606 ], [ -0.276789945614814, 39.839057396393606 ], [ -0.276789945614814, 39.839497256873251 ], [ -0.277530161582322, 39.839497256873251 ], [ -0.277530161582322, 39.840376969380401 ], [ -0.278270377549831, 39.840376969380401 ], [ -0.278270377549831, 39.840816821407884 ], [ -0.279010593517339, 39.840816821407884 ], [ -0.279010593517339, 39.841256670617959 ], [ -0.279750809484847, 39.841256670617959 ], [ -0.279750809484847, 39.84213636058584 ], [ -0.280491025452356, 39.84213636058584 ], [ -0.280491025452356, 39.842576201343647 ], [ -0.281231241419864, 39.842576201343647 ], [ -0.281231241419864, 39.843016039284002 ], [ -0.281971457387372, 39.843016039284002 ], [ -0.281971457387372, 39.843895706712374 ], [ -0.282711673354881, 39.843895706712374 ], [ -0.282711673354881, 39.844335536200369 ], [ -0.283451889322389, 39.844335536200369 ], [ -0.283451889322389, 39.844775362870891 ], [ -0.284192105289897, 39.844775362870891 ], [ -0.284192105289897, 39.845655007759504 ], [ -0.284932321257406, 39.845655007759504 ], [ -0.284932321257406, 39.846094825977566 ], [ -0.285672537224914, 39.846094825977566 ], [ -0.285672537224914, 39.846534641378135 ], [ -0.286412753192422, 39.846534641378135 ], [ -0.286412753192422, 39.847414263726712 ], [ -0.287152969159931, 39.847414263726712 ], [ -0.287152969159931, 39.847854070674728 ], [ -0.287893185127439, 39.847854070674728 ], [ -0.287893185127439, 39.848293874805201 ], [ -0.288633401094947, 39.848293874805201 ], [ -0.288633401094947, 39.849173474613522 ], [ -0.289373617062456, 39.849173474613522 ], [ -0.289373617062456, 39.84961327029135 ], [ -0.290113833029964, 39.84961327029135 ], [ -0.290113833029964, 39.850053063151613 ], [ -0.290854048997472, 39.850053063151613 ], [ -0.290854048997472, 39.850932640419416 ], [ -0.291594264964981, 39.850932640419416 ], [ -0.291594264964981, 39.851372424826941 ], [ -0.292334480932489, 39.851372424826941 ], [ -0.292334480932489, 39.852251985189184 ], [ -0.293074696899997, 39.852251985189184 ], [ -0.293074696899997, 39.852691761143888 ], [ -0.293814912867506, 39.852691761143888 ], [ -0.293814912867506, 39.853131534280976 ], [ -0.294555128835014, 39.853131534280976 ], [ -0.294555128835014, 39.85401107210226 ], [ -0.295295344802522, 39.85401107210226 ], [ -0.295295344802522, 39.854450836786441 ], [ -0.296035560770031, 39.854450836786441 ], [ -0.296035560770031, 39.854890598652972 ], [ -0.296775776737539, 39.854890598652972 ], [ -0.296775776737539, 39.85577011393304 ], [ -0.297515992705047, 39.85577011393304 ], [ -0.297515992705047, 39.856209867346571 ], [ -0.298256208672556, 39.856209867346571 ], [ -0.298256208672556, 39.856649617942409 ], [ -0.298996424640064, 39.856649617942409 ], [ -0.298996424640064, 39.857529110681028 ], [ -0.299736640607572, 39.857529110681028 ], [ -0.299736640607572, 39.857968852823767 ], [ -0.300476856575081, 39.857968852823767 ], [ -0.300476856575081, 39.858408592148805 ], [ -0.301217072542589, 39.858408592148805 ], [ -0.301217072542589, 39.859288062345705 ], [ -0.301957288510097, 39.859288062345705 ], [ -0.301957288510097, 39.859727793217544 ], [ -0.302697504477606, 39.859727793217544 ], [ -0.302697504477606, 39.860167521271642 ], [ -0.303437720445114, 39.860167521271642 ], [ -0.303437720445114, 39.861046968926573 ], [ -0.304177936412622, 39.861046968926573 ], [ -0.304177936412622, 39.861486688527386 ], [ -0.304918152380131, 39.861486688527386 ], [ -0.304918152380131, 39.86192640531042 ], [ -0.305658368347639, 39.86192640531042 ], [ -0.305658368347639, 39.862805830423142 ], [ -0.306398584315147, 39.862805830423142 ], [ -0.306398584315147, 39.8632455387528 ], [ -0.307138800282656, 39.8632455387528 ], [ -0.307138800282656, 39.863685244264651 ], [ -0.307879016250164, 39.863685244264651 ], [ -0.307879016250164, 39.864564646834893 ], [ -0.309359448185181, 39.864564646834893 ], [ -0.309359448185181, 39.865004343893276 ], [ -0.310099664152689, 39.865004343893276 ], [ -0.310099664152689, 39.865444038133809 ], [ -0.310839880120197, 39.865444038133809 ], [ -0.310839880120197, 39.865883729556508 ], [ -0.312320312055214, 39.865883729556508 ], [ -0.312320312055214, 39.866323418161329 ], [ -0.313060528022722, 39.866323418161329 ], [ -0.313060528022722, 39.866763103948315 ], [ -0.314540959957739, 39.866763103948315 ], [ -0.314540959957739, 39.86720278691741 ], [ -0.315281175925247, 39.86720278691741 ], [ -0.315281175925247, 39.867642467068627 ], [ -0.316761607860264, 39.867642467068627 ], [ -0.316761607860264, 39.868961490614943 ], [ -0.316021391892756, 39.868961490614943 ], [ -0.316021391892756, 39.869840825556288 ], [ -0.315281175925247, 39.869840825556288 ], [ -0.315281175925247, 39.870280488800077 ], [ -0.314540959957739, 39.870280488800077 ], [ -0.314540959957739, 39.87115980683383 ], [ -0.313800743990231, 39.87115980683383 ], [ -0.313800743990231, 39.871599461623795 ], [ -0.313060528022722, 39.871599461623795 ], [ -0.313060528022722, 39.872478762749829 ], [ -0.312320312055214, 39.872478762749829 ], [ -0.312320312055214, 39.873358052603976 ], [ -0.311580096087706, 39.873358052603976 ], [ -0.311580096087706, 39.87379769330407 ], [ -0.310839880120197, 39.87379769330407 ], [ -0.310839880120197, 39.87467696625027 ], [ -0.310099664152689, 39.87467696625027 ], [ -0.310099664152689, 39.875116598496348 ], [ -0.309359448185181, 39.875116598496348 ], [ -0.309359448185181, 39.875995854534452 ], [ -0.308619232217672, 39.875995854534452 ], [ -0.308619232217672, 39.876875099300413 ], [ -0.307879016250164, 39.876875099300413 ], [ -0.307879016250164, 39.877314717456315 ], [ -0.307138800282656, 39.877314717456315 ], [ -0.307138800282656, 39.878193945313932 ], [ -0.306398584315147, 39.878193945313932 ], [ -0.306398584315147, 39.878633555015639 ], [ -0.305658368347639, 39.878633555015639 ], [ -0.305658368347639, 39.879512765964797 ], [ -0.304918152380131, 39.879512765964797 ], [ -0.304918152380131, 39.88039196564155 ], [ -0.304177936412622, 39.88039196564155 ], [ -0.304177936412622, 39.880831561252776 ], [ -0.303437720445114, 39.880831561252776 ], [ -0.303437720445114, 39.881710744020836 ], [ -0.302697504477606, 39.881710744020836 ], [ -0.302697504477606, 39.882150331177662 ], [ -0.301957288510097, 39.882150331177662 ], [ -0.301957288510097, 39.883029497036873 ], [ -0.301217072542589, 39.883029497036873 ], [ -0.301217072542589, 39.88390865162345 ], [ -0.300476856575081, 39.88390865162345 ], [ -0.300476856575081, 39.884348224689475 ], [ -0.299736640607572, 39.884348224689475 ], [ -0.299736640607572, 39.885227362366962 ], [ -0.298996424640064, 39.885227362366962 ], [ -0.298996424640064, 39.885666926978409 ], [ -0.298256208672556, 39.885666926978409 ], [ -0.298256208672556, 39.886546047746684 ], [ -0.297515992705047, 39.886546047746684 ], [ -0.297515992705047, 39.88742515724207 ], [ -0.296775776737539, 39.88742515724207 ], [ -0.296775776737539, 39.887864707762397 ], [ -0.296035560770031, 39.887864707762397 ], [ -0.296035560770031, 39.88874380034833 ], [ -0.295295344802522, 39.88874380034833 ], [ -0.295295344802522, 39.889183342413901 ], [ -0.292334480932489, 39.889183342413901 ], [ -0.292334480932489, 39.889622881661204 ], [ -0.289373617062456, 39.889622881661204 ], [ -0.289373617062456, 39.890062418090224 ], [ -0.286412753192422, 39.890062418090224 ], [ -0.286412753192422, 39.890501951700976 ], [ -0.284192105289897, 39.890501951700976 ], [ -0.284192105289897, 39.890941482493417 ], [ -0.281231241419864, 39.890941482493417 ], [ -0.281231241419864, 39.891381010467562 ], [ -0.278270377549831, 39.891381010467562 ], [ -0.278270377549831, 39.89182053562341 ], [ -0.275309513679797, 39.89182053562341 ], [ -0.275309513679797, 39.892260057960925 ], [ -0.272348649809764, 39.892260057960925 ], [ -0.272348649809764, 39.89269957748013 ], [ -0.270128001907239, 39.89269957748013 ], [ -0.270128001907239, 39.893139094180988 ], [ -0.267167138037206, 39.893139094180988 ], [ -0.267167138037206, 39.893578608063521 ], [ -0.264206274167172, 39.893578608063521 ], [ -0.264206274167172, 39.894018119127701 ], [ -0.261245410297139, 39.894018119127701 ], [ -0.261245410297139, 39.894457627373519 ], [ -0.258284546427106, 39.894457627373519 ], [ -0.258284546427106, 39.894897132800978 ], [ -0.256063898524581, 39.894897132800978 ], [ -0.256063898524581, 39.895336635410068 ], [ -0.253103034654547, 39.895336635410068 ], [ -0.253103034654547, 39.895776135200784 ], [ -0.250142170784514, 39.895776135200784 ], [ -0.250142170784514, 39.896215632173103 ], [ -0.249401954817006, 39.896215632173103 ], [ -0.249401954817006, 39.897534106179677 ], [ -0.253103034654547, 39.897534106179677 ], [ -0.253103034654547, 39.897973591878376 ], [ -0.263466058199664, 39.897973591878376 ], [ -0.263466058199664, 39.898413074758651 ], [ -0.273829081744781, 39.898413074758651 ], [ -0.273829081744781, 39.898852554820486 ], [ -0.284192105289897, 39.898852554820486 ], [ -0.284192105289897, 39.899292032063897 ], [ -0.294555128835014, 39.899292032063897 ], [ -0.294555128835014, 39.899731506488841 ], [ -0.304918152380131, 39.899731506488841 ], [ -0.304918152380131, 39.900170978095339 ], [ -0.315281175925247, 39.900170978095339 ], [ -0.315281175925247, 39.900610446883363 ], [ -0.325644199470364, 39.900610446883363 ], [ -0.325644199470364, 39.901049912852919 ], [ -0.327124631405381, 39.901049912852919 ], [ -0.327124631405381, 39.901928836336594 ], [ -0.326384415437872, 39.901928836336594 ], [ -0.326384415437872, 39.903247200423358 ], [ -0.325644199470364, 39.903247200423358 ], [ -0.325644199470364, 39.905004979746408 ], [ -0.324903983502856, 39.905004979746408 ], [ -0.324903983502856, 39.906762713972668 ], [ -0.324163767535347, 39.906762713972668 ], [ -0.324163767535347, 39.908520403101626 ], [ -0.323423551567839, 39.908520403101626 ], [ -0.323423551567839, 39.910278047132799 ], [ -0.322683335600331, 39.910278047132799 ], [ -0.322683335600331, 39.912035646065675 ], [ -0.321943119632822, 39.912035646065675 ], [ -0.321943119632822, 39.913353815669275 ], [ -0.321202903665314, 39.913353815669275 ], [ -0.321202903665314, 39.915111335678958 ], [ -0.320462687697806, 39.915111335678958 ], [ -0.320462687697806, 39.916868810588973 ], [ -0.319722471730297, 39.916868810588973 ], [ -0.319722471730297, 39.918626240398844 ], [ -0.318982255762789, 39.918626240398844 ], [ -0.318982255762789, 39.920383625108059 ], [ -0.318242039795281, 39.920383625108059 ], [ -0.318242039795281, 39.922140964716135 ], [ -0.317501823827772, 39.922140964716135 ], [ -0.317501823827772, 39.923458939824272 ], [ -0.316761607860264, 39.923458939824272 ], [ -0.316761607860264, 39.924337575801992 ], [ -0.316021391892756, 39.924337575801992 ], [ -0.316021391892756, 39.923898259222575 ], [ -0.315281175925247, 39.923898259222575 ], [ -0.315281175925247, 39.923458939824272 ], [ -0.314540959957739, 39.923458939824272 ], [ -0.314540959957739, 39.923019617607096 ], [ -0.313800743990231, 39.923019617607096 ], [ -0.313800743990231, 39.922580292571048 ], [ -0.313060528022722, 39.922580292571048 ], [ -0.313060528022722, 39.922140964716135 ], [ -0.311580096087706, 39.922140964716135 ], [ -0.311580096087706, 39.921701634042378 ], [ -0.310839880120197, 39.921701634042378 ], [ -0.310839880120197, 39.92126230054977 ], [ -0.310099664152689, 39.92126230054977 ], [ -0.310099664152689, 39.920822964238326 ], [ -0.309359448185181, 39.920822964238326 ], [ -0.309359448185181, 39.920383625108059 ], [ -0.308619232217672, 39.920383625108059 ], [ -0.308619232217672, 39.919944283158969 ], [ -0.307879016250164, 39.919944283158969 ], [ -0.307879016250164, 39.919504938391064 ], [ -0.307138800282656, 39.919504938391064 ], [ -0.307138800282656, 39.919065590804358 ], [ -0.306398584315147, 39.919065590804358 ], [ -0.306398584315147, 39.918626240398844 ], [ -0.304918152380131, 39.918626240398844 ], [ -0.304918152380131, 39.918186887174549 ], [ -0.304177936412622, 39.918186887174549 ], [ -0.304177936412622, 39.917747531131454 ], [ -0.303437720445114, 39.917747531131454 ], [ -0.303437720445114, 39.9173081722696 ], [ -0.302697504477606, 39.9173081722696 ], [ -0.302697504477606, 39.916868810588973 ], [ -0.301957288510097, 39.916868810588973 ], [ -0.301957288510097, 39.916429446089595 ], [ -0.301217072542589, 39.916429446089595 ], [ -0.301217072542589, 39.915990078771458 ], [ -0.300476856575081, 39.915990078771458 ], [ -0.300476856575081, 39.915550708634569 ], [ -0.298996424640064, 39.915550708634569 ], [ -0.298996424640064, 39.915111335678958 ], [ -0.298256208672556, 39.915111335678958 ], [ -0.298256208672556, 39.914671959904609 ], [ -0.297515992705047, 39.914671959904609 ], [ -0.297515992705047, 39.914232581311545 ], [ -0.296775776737539, 39.914232581311545 ], [ -0.296775776737539, 39.913793199899764 ], [ -0.296035560770031, 39.913793199899764 ], [ -0.296035560770031, 39.913353815669275 ], [ -0.293074696899997, 39.913353815669275 ], [ -0.293074696899997, 39.913793199899764 ], [ -0.291594264964981, 39.913793199899764 ], [ -0.291594264964981, 39.914232581311545 ], [ -0.290854048997472, 39.914232581311545 ], [ -0.290854048997472, 39.914671959904609 ], [ -0.289373617062456, 39.914671959904609 ], [ -0.289373617062456, 39.915111335678958 ], [ -0.287893185127439, 39.915111335678958 ], [ -0.287893185127439, 39.915550708634569 ], [ -0.286412753192422, 39.915550708634569 ], [ -0.286412753192422, 39.915990078771458 ], [ -0.285672537224914, 39.915990078771458 ], [ -0.285672537224914, 39.916429446089595 ], [ -0.284192105289897, 39.916429446089595 ], [ -0.284192105289897, 39.916868810588973 ], [ -0.282711673354881, 39.916868810588973 ], [ -0.282711673354881, 39.9173081722696 ], [ -0.281231241419864, 39.9173081722696 ], [ -0.281231241419864, 39.917747531131454 ], [ -0.280491025452356, 39.917747531131454 ], [ -0.280491025452356, 39.918186887174549 ], [ -0.279010593517339, 39.918186887174549 ], [ -0.279010593517339, 39.918626240398844 ], [ -0.277530161582322, 39.918626240398844 ], [ -0.277530161582322, 39.919065590804358 ], [ -0.276049729647306, 39.919065590804358 ], [ -0.276049729647306, 39.919504938391064 ], [ -0.275309513679797, 39.919504938391064 ], [ -0.275309513679797, 39.919944283158969 ], [ -0.273829081744781, 39.919944283158969 ], [ -0.273829081744781, 39.920383625108059 ], [ -0.272348649809764, 39.920383625108059 ], [ -0.272348649809764, 39.920822964238326 ], [ -0.270868217874747, 39.920822964238326 ], [ -0.270868217874747, 39.92126230054977 ], [ -0.270128001907239, 39.92126230054977 ], [ -0.270128001907239, 39.921701634042378 ], [ -0.268647569972222, 39.921701634042378 ], [ -0.268647569972222, 39.922140964716135 ], [ -0.267167138037206, 39.922140964716135 ], [ -0.267167138037206, 39.922580292571048 ], [ -0.265686706102189, 39.922580292571048 ], [ -0.265686706102189, 39.923019617607096 ], [ -0.264946490134681, 39.923019617607096 ], [ -0.264946490134681, 39.923458939824272 ], [ -0.263466058199664, 39.923458939824272 ], [ -0.263466058199664, 39.923898259222575 ], [ -0.261985626264647, 39.923898259222575 ], [ -0.261985626264647, 39.924337575801992 ], [ -0.260505194329631, 39.924337575801992 ], [ -0.260505194329631, 39.92477688956253 ], [ -0.259024762394614, 39.92477688956253 ], [ -0.259024762394614, 39.92521620050416 ], [ -0.258284546427106, 39.92521620050416 ], [ -0.258284546427106, 39.925655508626882 ], [ -0.256804114492089, 39.925655508626882 ], [ -0.256804114492089, 39.926094813930689 ], [ -0.255323682557072, 39.926094813930689 ], [ -0.255323682557072, 39.926534116415574 ], [ -0.253843250622056, 39.926534116415574 ], [ -0.253843250622056, 39.92697341608153 ], [ -0.253103034654547, 39.92697341608153 ], [ -0.253103034654547, 39.92741271292855 ], [ -0.251622602719531, 39.92741271292855 ], [ -0.251622602719531, 39.927852006956627 ], [ -0.250142170784514, 39.927852006956627 ], [ -0.250142170784514, 39.928291298165753 ], [ -0.249401954817006, 39.928291298165753 ], [ -0.249401954817006, 39.929609154879309 ], [ -0.257544330459597, 39.929609154879309 ], [ -0.257544330459597, 39.929169872127098 ], [ -0.267167138037206, 39.929169872127098 ], [ -0.267167138037206, 39.928730586555908 ], [ -0.277530161582322, 39.928730586555908 ], [ -0.277530161582322, 39.928291298165753 ], [ -0.287152969159931, 39.928291298165753 ], [ -0.287152969159931, 39.927852006956627 ], [ -0.297515992705047, 39.927852006956627 ], [ -0.297515992705047, 39.92741271292855 ], [ -0.304177936412622, 39.92741271292855 ], [ -0.304177936412622, 39.928730586555908 ], [ -0.304918152380131, 39.928730586555908 ], [ -0.304918152380131, 39.931805526355475 ], [ -0.305658368347639, 39.931805526355475 ], [ -0.305658368347639, 39.934441079099038 ], [ -0.306398584315147, 39.934441079099038 ], [ -0.306398584315147, 39.937515762365443 ], [ -0.307138800282656, 39.937515762365443 ], [ -0.307138800282656, 39.940151095219512 ], [ -0.307879016250164, 39.940151095219512 ], [ -0.307879016250164, 39.943225521943617 ], [ -0.308619232217672, 39.943225521943617 ], [ -0.308619232217672, 39.945860634900377 ], [ -0.309359448185181, 39.945860634900377 ], [ -0.309359448185181, 39.948934805073044 ], [ -0.310099664152689, 39.948934805073044 ], [ -0.310099664152689, 39.949813114034292 ], [ -0.308619232217672, 39.949813114034292 ], [ -0.308619232217672, 39.950252264285922 ], [ -0.307138800282656, 39.950252264285922 ], [ -0.307138800282656, 39.950691411718196 ], [ -0.304918152380131, 39.950691411718196 ], [ -0.304918152380131, 39.951130556331115 ], [ -0.302697504477606, 39.951130556331115 ], [ -0.302697504477606, 39.951569698124686 ], [ -0.301217072542589, 39.951569698124686 ], [ -0.301217072542589, 39.952008837098866 ], [ -0.298996424640064, 39.952008837098866 ], [ -0.298996424640064, 39.952447973253676 ], [ -0.297515992705047, 39.952447973253676 ], [ -0.297515992705047, 39.95288710658911 ], [ -0.295295344802522, 39.95288710658911 ], [ -0.295295344802522, 39.953326237105131 ], [ -0.293814912867506, 39.953326237105131 ], [ -0.293814912867506, 39.953765364801768 ], [ -0.291594264964981, 39.953765364801768 ], [ -0.291594264964981, 39.954204489679 ], [ -0.290113833029964, 39.954204489679 ], [ -0.290113833029964, 39.954643611736806 ], [ -0.287893185127439, 39.954643611736806 ], [ -0.287893185127439, 39.955082730975199 ], [ -0.285672537224914, 39.955082730975199 ], [ -0.285672537224914, 39.955521847394145 ], [ -0.284192105289897, 39.955521847394145 ], [ -0.284192105289897, 39.955960960993671 ], [ -0.280491025452356, 39.955960960993671 ] ] ], [ [ [ -5.732921842118747, 43.53403602216698 ], [ -5.732921842118747, 43.533620723650237 ], [ -5.73144141018373, 43.533620723650237 ], [ -5.73144141018373, 43.533205422273518 ], [ -5.729960978248714, 43.533205422273518 ], [ -5.729960978248714, 43.532790118036843 ], [ -5.727740330346189, 43.532790118036843 ], [ -5.727740330346189, 43.53237481094019 ], [ -5.726259898411173, 43.53237481094019 ], [ -5.726259898411173, 43.531959500983589 ], [ -5.724779466476156, 43.531959500983589 ], [ -5.724779466476156, 43.531544188167018 ], [ -5.723299034541139, 43.531544188167018 ], [ -5.723299034541139, 43.531128872490477 ], [ -5.721818602606122, 43.531128872490477 ], [ -5.721818602606122, 43.530713553953994 ], [ -5.719597954703597, 43.530713553953994 ], [ -5.719597954703597, 43.529882908301154 ], [ -5.720338170671106, 43.529882908301154 ], [ -5.720338170671106, 43.529467581184797 ], [ -5.721078386638613, 43.529467581184797 ], [ -5.721078386638613, 43.529052251208505 ], [ -5.721818602606122, 43.529052251208505 ], [ -5.721818602606122, 43.528636918372264 ], [ -5.72255881857363, 43.528636918372264 ], [ -5.72255881857363, 43.528221582676068 ], [ -5.723299034541139, 43.528221582676068 ], [ -5.723299034541139, 43.527390902703871 ], [ -5.724039250508648, 43.527390902703871 ], [ -5.724039250508648, 43.526975558427864 ], [ -5.724779466476156, 43.526975558427864 ], [ -5.724779466476156, 43.526560211291923 ], [ -5.725519682443664, 43.526560211291923 ], [ -5.725519682443664, 43.526144861296039 ], [ -5.726259898411173, 43.526144861296039 ], [ -5.726259898411173, 43.525729508440229 ], [ -5.727000114378681, 43.525729508440229 ], [ -5.727000114378681, 43.525314152724491 ], [ -5.727740330346189, 43.525314152724491 ], [ -5.727740330346189, 43.524898794148825 ], [ -5.728480546313697, 43.524898794148825 ], [ -5.728480546313697, 43.524483432713232 ], [ -5.729220762281205, 43.524483432713232 ], [ -5.729220762281205, 43.524068068417712 ], [ -5.729960978248714, 43.524068068417712 ], [ -5.729960978248714, 43.523652701262279 ], [ -5.730701194216222, 43.523652701262279 ], [ -5.730701194216222, 43.523237331246925 ], [ -5.73144141018373, 43.523237331246925 ], [ -5.73144141018373, 43.522821958371658 ], [ -5.732181626151239, 43.522821958371658 ], [ -5.732181626151239, 43.522406582636464 ], [ -5.732921842118747, 43.522406582636464 ], [ -5.732921842118747, 43.521991204041377 ], [ -5.733662058086256, 43.521991204041377 ], [ -5.733662058086256, 43.521575822586357 ], [ -5.734402274053765, 43.521575822586357 ], [ -5.734402274053765, 43.521160438271444 ], [ -5.735142490021273, 43.521160438271444 ], [ -5.735142490021273, 43.520745051096618 ], [ -5.73588270598878, 43.520745051096618 ], [ -5.73588270598878, 43.520329661061893 ], [ -5.73662292195629, 43.520329661061893 ], [ -5.73662292195629, 43.519914268167263 ], [ -5.737363137923798, 43.519914268167263 ], [ -5.737363137923798, 43.522821958371658 ], [ -5.73662292195629, 43.522821958371658 ], [ -5.73662292195629, 43.526144861296039 ], [ -5.73588270598878, 43.526144861296039 ], [ -5.73588270598878, 43.529467581184797 ], [ -5.735142490021273, 43.529467581184797 ], [ -5.735142490021273, 43.533205422273518 ], [ -5.734402274053765, 43.533205422273518 ], [ -5.734402274053765, 43.53403602216698 ], [ -5.732921842118747, 43.53403602216698 ] ] ] ] } }
]
}
