{
"type": "FeatureCollection",
"name": "spain_fires_nrt_ba",
"crs": { "type": "name", "properties": { "name": "urn:ogc:def:crs:OGC:1.3:CRS84" } },
"features": [
{ "type": "Feature", "properties": { }, "geometry": { "type": "MultiPolygon", "coordinates": [ [ [ [ -0.272348649809764, 35.536008878650335 ], [ -0.271608433842256, 35.536008878650335 ], [ -0.271608433842256, 35.53507655783536 ], [ -0.270868217874747, 35.53507655783536 ], [ -0.270868217874747, 35.534144226185013 ], [ -0.270128001907239, 35.534144226185013 ], [ -0.270128001907239, 35.532745708393463 ], [ -0.270868217874747, 35.532745708393463 ], [ -0.270868217874747, 35.528083806354168 ], [ -0.271608433842256, 35.528083806354168 ], [ -0.271608433842256, 35.523421633453495 ], [ -0.272348649809764, 35.523421633453495 ], [ -0.272348649809764, 35.522955401266628 ], [ -0.274569297712289, 35.522955401266628 ], [ -0.274569297712289, 35.522489166371336 ], [ -0.276789945614814, 35.522489166371336 ], [ -0.276789945614814, 35.522022928767583 ], [ -0.279010593517339, 35.522022928767583 ], [ -0.279010593517339, 35.522955401266628 ], [ -0.279750809484847, 35.522955401266628 ], [ -0.279750809484847, 35.523887862931907 ], [ -0.280491025452356, 35.523887862931907 ], [ -0.280491025452356, 35.524354089701824 ], [ -0.281231241419864, 35.524354089701824 ], [ -0.281231241419864, 35.534610393364595 ], [ -0.280491025452356, 35.534610393364595 ], [ -0.280491025452356, 35.53507655783536 ], [ -0.279750809484847, 35.53507655783536 ], [ -0.279750809484847, 35.536008878650335 ], [ -0.279010593517339, 35.536008878650335 ], [ -0.279010593517339, 35.536941188629832 ], [ -0.273088865777272, 35.536941188629832 ], [ -0.273088865777272, 35.536475034994524 ], [ -0.272348649809764, 35.536475034994524 ], [ -0.272348649809764, 35.536008878650335 ] ] ], [ [ [ -9.006156850440602, 38.927421662286093 ], [ -9.005416634473093, 38.927421662286093 ], [ -9.005416634473093, 38.926530366450876 ], [ -9.004676418505586, 38.926530366450876 ], [ -9.004676418505586, 38.925639059417215 ], [ -9.003936202538076, 38.925639059417215 ], [ -9.003936202538076, 38.918062497505481 ], [ -9.004676418505586, 38.918062497505481 ], [ -9.004676418505586, 38.917171084090562 ], [ -9.005416634473093, 38.917171084090562 ], [ -9.005416634473093, 38.916279659478015 ], [ -9.006156850440602, 38.916279659478015 ], [ -9.006156850440602, 38.915833942972647 ], [ -9.006897066408111, 38.915833942972647 ], [ -9.006897066408111, 38.915388223667904 ], [ -9.007637282375619, 38.915388223667904 ], [ -9.007637282375619, 38.914942501563786 ], [ -9.009117714310635, 38.914942501563786 ], [ -9.009117714310635, 38.914496776660307 ], [ -9.009857930278143, 38.914496776660307 ], [ -9.009857930278143, 38.914051048957482 ], [ -9.010598146245652, 38.914051048957482 ], [ -9.010598146245652, 38.913605318455303 ], [ -9.012078578180668, 38.913605318455303 ], [ -9.012078578180668, 38.914051048957482 ], [ -9.013559010115685, 38.914051048957482 ], [ -9.013559010115685, 38.914496776660307 ], [ -9.015039442050702, 38.914496776660307 ], [ -9.015039442050702, 38.914942501563786 ], [ -9.016519873985718, 38.914942501563786 ], [ -9.016519873985718, 38.915388223667904 ], [ -9.018000305920735, 38.915388223667904 ], [ -9.018000305920735, 38.915833942972647 ], [ -9.018740521888244, 38.915833942972647 ], [ -9.018740521888244, 38.916279659478015 ], [ -9.020220953823259, 38.916279659478015 ], [ -9.020220953823259, 38.916725373183986 ], [ -9.021701385758277, 38.916725373183986 ], [ -9.021701385758277, 38.918062497505481 ], [ -9.022441601725784, 38.918062497505481 ], [ -9.022441601725784, 38.922073719299874 ], [ -9.023181817693294, 38.922073719299874 ], [ -9.023181817693294, 38.92296507112647 ], [ -9.022441601725784, 38.92296507112647 ], [ -9.022441601725784, 38.923410742840474 ], [ -9.021701385758277, 38.923410742840474 ], [ -9.021701385758277, 38.924302077869861 ], [ -9.020961169790768, 38.924302077869861 ], [ -9.020961169790768, 38.924747741185215 ], [ -9.020220953823259, 38.924747741185215 ], [ -9.020220953823259, 38.925193401701009 ], [ -9.019480737855751, 38.925193401701009 ], [ -9.019480737855751, 38.925639059417215 ], [ -9.018740521888244, 38.925639059417215 ], [ -9.018740521888244, 38.926530366450876 ], [ -9.018000305920735, 38.926530366450876 ], [ -9.018000305920735, 38.926976015768297 ], [ -9.017260089953226, 38.926976015768297 ], [ -9.017260089953226, 38.927421662286093 ], [ -9.016519873985718, 38.927421662286093 ], [ -9.016519873985718, 38.927867306004288 ], [ -9.015779658018211, 38.927867306004288 ], [ -9.015779658018211, 38.928312946922837 ], [ -9.006897066408111, 38.928312946922837 ], [ -9.006897066408111, 38.927867306004288 ], [ -9.006156850440602, 38.927867306004288 ], [ -9.006156850440602, 38.927421662286093 ] ] ], [ [ [ -3.097012781821568, 39.048978421293718 ], [ -3.097012781821568, 39.048533539418798 ], [ -3.09627256585406, 39.048533539418798 ], [ -3.09627256585406, 39.048088654741733 ], [ -3.095532349886552, 39.048088654741733 ], [ -3.095532349886552, 39.047198876981199 ], [ -3.094792133919043, 39.047198876981199 ], [ -3.094792133919043, 39.046753983897744 ], [ -3.094051917951535, 39.046753983897744 ], [ -3.094051917951535, 39.046309088012187 ], [ -3.093311701984026, 39.046309088012187 ], [ -3.093311701984026, 39.045864189324526 ], [ -3.092571486016518, 39.045864189324526 ], [ -3.092571486016518, 39.045419287834783 ], [ -3.09183127004901, 39.045419287834783 ], [ -3.09183127004901, 39.044974383542943 ], [ -3.091091054081502, 39.044974383542943 ], [ -3.091091054081502, 39.039635313481874 ], [ -3.09183127004901, 39.039635313481874 ], [ -3.09183127004901, 39.038745429243797 ], [ -3.092571486016518, 39.038745429243797 ], [ -3.092571486016518, 39.038300482921834 ], [ -3.093311701984026, 39.038300482921834 ], [ -3.093311701984026, 39.037410581872109 ], [ -3.094051917951535, 39.037410581872109 ], [ -3.094051917951535, 39.034740811477242 ], [ -3.094792133919043, 39.034740811477242 ], [ -3.094792133919043, 39.032960908509985 ], [ -3.095532349886552, 39.032960908509985 ], [ -3.095532349886552, 39.032515925763576 ], [ -3.097012781821568, 39.032515925763576 ], [ -3.097012781821568, 39.032070940215362 ], [ -3.099233429724093, 39.032070940215362 ], [ -3.099233429724093, 39.031625951865337 ], [ -3.102934509561635, 39.031625951865337 ], [ -3.102934509561635, 39.032070940215362 ], [ -3.104414941496652, 39.032070940215362 ], [ -3.104414941496652, 39.032515925763576 ], [ -3.106635589399176, 39.032515925763576 ], [ -3.106635589399176, 39.032960908509985 ], [ -3.107375805366685, 39.032960908509985 ], [ -3.107375805366685, 39.033850865597294 ], [ -3.108116021334193, 39.033850865597294 ], [ -3.108116021334193, 39.034740811477242 ], [ -3.108856237301702, 39.034740811477242 ], [ -3.108856237301702, 39.035185780214427 ], [ -3.10959645326921, 39.035185780214427 ], [ -3.10959645326921, 39.039635313481874 ], [ -3.110336669236718, 39.039635313481874 ], [ -3.110336669236718, 39.043639653855045 ], [ -3.10959645326921, 39.043639653855045 ], [ -3.10959645326921, 39.04408456655306 ], [ -3.108856237301702, 39.04408456655306 ], [ -3.108856237301702, 39.044974383542943 ], [ -3.108116021334193, 39.044974383542943 ], [ -3.108116021334193, 39.045864189324526 ], [ -3.107375805366685, 39.045864189324526 ], [ -3.107375805366685, 39.046753983897744 ], [ -3.106635589399176, 39.046753983897744 ], [ -3.106635589399176, 39.047198876981199 ], [ -3.105895373431669, 39.047198876981199 ], [ -3.105895373431669, 39.048088654741733 ], [ -3.10515515746416, 39.048088654741733 ], [ -3.10515515746416, 39.048978421293718 ], [ -3.104414941496652, 39.048978421293718 ], [ -3.104414941496652, 39.049868176637084 ], [ -3.098493213756585, 39.049868176637084 ], [ -3.098493213756585, 39.049423300366485 ], [ -3.097752997789076, 39.049423300366485 ], [ -3.097752997789076, 39.048978421293718 ], [ -3.097012781821568, 39.048978421293718 ] ] ], [ [ [ -4.856506136588879, 39.983180497479587 ], [ -4.855765920621371, 39.983180497479587 ], [ -4.855765920621371, 39.982302617101041 ], [ -4.855025704653862, 39.982302617101041 ], [ -4.855025704653862, 39.977035097959757 ], [ -4.855765920621371, 39.977035097959757 ], [ -4.855765920621371, 39.976157138625112 ], [ -4.856506136588879, 39.976157138625112 ], [ -4.856506136588879, 39.975279168011262 ], [ -4.857246352556387, 39.975279168011262 ], [ -4.857246352556387, 39.974840178474658 ], [ -4.857986568523896, 39.974840178474658 ], [ -4.857986568523896, 39.974401186118286 ], [ -4.860207216426422, 39.974401186118286 ], [ -4.860207216426422, 39.973962190942132 ], [ -4.862427864328946, 39.973962190942132 ], [ -4.862427864328946, 39.973523192946224 ], [ -4.863168080296454, 39.973523192946224 ], [ -4.863168080296454, 39.973084192130564 ], [ -4.863908296263963, 39.973084192130564 ], [ -4.863908296263963, 39.971328160670524 ], [ -4.86464851223147, 39.971328160670524 ], [ -4.86464851223147, 39.970450128022193 ], [ -4.865388728198979, 39.970450128022193 ], [ -4.865388728198979, 39.970011107468473 ], [ -4.866869160133996, 39.970011107468473 ], [ -4.866869160133996, 39.969572084095056 ], [ -4.867609376101504, 39.969572084095056 ], [ -4.867609376101504, 39.969133057901956 ], [ -4.869830024004029, 39.969133057901956 ], [ -4.869830024004029, 39.969572084095056 ], [ -4.870570239971538, 39.969572084095056 ], [ -4.870570239971538, 39.970011107468473 ], [ -4.872050671906554, 39.970011107468473 ], [ -4.872050671906554, 39.970450128022193 ], [ -4.872790887874062, 39.970450128022193 ], [ -4.872790887874062, 39.971767172765134 ], [ -4.873531103841571, 39.971767172765134 ], [ -4.873531103841571, 39.974840178474658 ], [ -4.874271319809079, 39.974840178474658 ], [ -4.874271319809079, 39.977913046015146 ], [ -4.875011535776587, 39.977913046015146 ], [ -4.875011535776587, 39.98054682250514 ], [ -4.874271319809079, 39.98054682250514 ], [ -4.874271319809079, 39.980985775383949 ], [ -4.873531103841571, 39.980985775383949 ], [ -4.873531103841571, 39.981863672681904 ], [ -4.872790887874062, 39.981863672681904 ], [ -4.872790887874062, 39.982741558700283 ], [ -4.872050671906554, 39.982741558700283 ], [ -4.872050671906554, 39.983180497479587 ], [ -4.868349592069014, 39.983180497479587 ], [ -4.868349592069014, 39.983619433438989 ], [ -4.86464851223147, 39.983619433438989 ], [ -4.86464851223147, 39.984058366578445 ], [ -4.861687648361438, 39.984058366578445 ], [ -4.861687648361438, 39.984497296897977 ], [ -4.857246352556387, 39.984497296897977 ], [ -4.857246352556387, 39.984058366578445 ], [ -4.856506136588879, 39.984058366578445 ], [ -4.856506136588879, 39.983180497479587 ] ] ], [ [ [ -3.475263141218327, 40.253467802761868 ], [ -3.475263141218327, 40.253030605299436 ], [ -3.47378270928331, 40.253030605299436 ], [ -3.47378270928331, 40.252593405012497 ], [ -3.473042493315802, 40.252593405012497 ], [ -3.473042493315802, 40.252156201901066 ], [ -3.471562061380785, 40.252156201901066 ], [ -3.471562061380785, 40.251718995965156 ], [ -3.470081629445768, 40.251718995965156 ], [ -3.470081629445768, 40.251281787204768 ], [ -3.468601197510752, 40.251281787204768 ], [ -3.468601197510752, 40.250844575619915 ], [ -3.467860981543244, 40.250844575619915 ], [ -3.467860981543244, 40.249970143976832 ], [ -3.467120765575736, 40.249970143976832 ], [ -3.467120765575736, 40.248658475328888 ], [ -3.466380549608227, 40.248658475328888 ], [ -3.466380549608227, 40.246909544256376 ], [ -3.465640333640719, 40.246909544256376 ], [ -3.465640333640719, 40.24559781629582 ], [ -3.46490011767321, 40.24559781629582 ], [ -3.46490011767321, 40.243848806140534 ], [ -3.464159901705703, 40.243848806140534 ], [ -3.464159901705703, 40.241662479898736 ], [ -3.46490011767321, 40.241662479898736 ], [ -3.46490011767321, 40.240350650261888 ], [ -3.465640333640719, 40.240350650261888 ], [ -3.465640333640719, 40.239476083049205 ], [ -3.466380549608227, 40.239476083049205 ], [ -3.466380549608227, 40.238164211048165 ], [ -3.467120765575736, 40.238164211048165 ], [ -3.467120765575736, 40.237726914732633 ], [ -3.467860981543244, 40.237726914732633 ], [ -3.467860981543244, 40.237289615592864 ], [ -3.470821845413277, 40.237289615592864 ], [ -3.470821845413277, 40.236852313628852 ], [ -3.474522925250819, 40.236852313628852 ], [ -3.474522925250819, 40.236415008840616 ], [ -3.477483789120852, 40.236415008840616 ], [ -3.477483789120852, 40.236852313628852 ], [ -3.478964221055869, 40.236852313628852 ], [ -3.478964221055869, 40.237289615592864 ], [ -3.481184868958394, 40.237289615592864 ], [ -3.481184868958394, 40.237726914732633 ], [ -3.482665300893411, 40.237726914732633 ], [ -3.482665300893411, 40.238164211048165 ], [ -3.483405516860918, 40.238164211048165 ], [ -3.483405516860918, 40.239476083049205 ], [ -3.484145732828428, 40.239476083049205 ], [ -3.484145732828428, 40.240350650261888 ], [ -3.484885948795936, 40.240350650261888 ], [ -3.484885948795936, 40.241662479898736 ], [ -3.485626164763444, 40.241662479898736 ], [ -3.485626164763444, 40.242537018868425 ], [ -3.486366380730952, 40.242537018868425 ], [ -3.486366380730952, 40.243411546540848 ], [ -3.485626164763444, 40.243411546540848 ], [ -3.485626164763444, 40.247346781261115 ], [ -3.484885948795936, 40.247346781261115 ], [ -3.484885948795936, 40.250844575619915 ], [ -3.484145732828428, 40.250844575619915 ], [ -3.484145732828428, 40.251281787204768 ], [ -3.483405516860918, 40.251281787204768 ], [ -3.483405516860918, 40.252156201901066 ], [ -3.482665300893411, 40.252156201901066 ], [ -3.482665300893411, 40.252593405012497 ], [ -3.481925084925902, 40.252593405012497 ], [ -3.481925084925902, 40.253030605299436 ], [ -3.481184868958394, 40.253030605299436 ], [ -3.481184868958394, 40.253467802761868 ], [ -3.480444652990886, 40.253467802761868 ], [ -3.480444652990886, 40.253904997399822 ], [ -3.479704437023377, 40.253904997399822 ], [ -3.479704437023377, 40.25434218921324 ], [ -3.47822400508836, 40.25434218921324 ], [ -3.47822400508836, 40.253904997399822 ], [ -3.476743573153344, 40.253904997399822 ], [ -3.476743573153344, 40.253467802761868 ], [ -3.475263141218327, 40.253467802761868 ] ] ], [ [ [ -1.611399335032341, 42.629483758407098 ], [ -1.610659119064833, 42.629483758407098 ], [ -1.610659119064833, 42.629062282644114 ], [ -1.609918903097324, 42.629062282644114 ], [ -1.609918903097324, 42.628640804027214 ], [ -1.609178687129815, 42.628640804027214 ], [ -1.609178687129815, 42.627797838231658 ], [ -1.608438471162308, 42.627797838231658 ], [ -1.608438471162308, 42.627376351053023 ], [ -1.607698255194799, 42.627376351053023 ], [ -1.607698255194799, 42.622739803731029 ], [ -1.608438471162308, 42.622739803731029 ], [ -1.608438471162308, 42.62231828230577 ], [ -1.609178687129815, 42.62231828230577 ], [ -1.609178687129815, 42.621896758026637 ], [ -1.609918903097324, 42.621896758026637 ], [ -1.609918903097324, 42.621053700906799 ], [ -1.610659119064833, 42.621053700906799 ], [ -1.610659119064833, 42.620632168066095 ], [ -1.611399335032341, 42.620632168066095 ], [ -1.611399335032341, 42.620210632371553 ], [ -1.612139550999849, 42.620210632371553 ], [ -1.612139550999849, 42.618946008164841 ], [ -1.612879766967357, 42.618946008164841 ], [ -1.612879766967357, 42.61725980260222 ], [ -1.613619982934866, 42.61725980260222 ], [ -1.613619982934866, 42.615573551378468 ], [ -1.612879766967357, 42.615573551378468 ], [ -1.612879766967357, 42.613887254493811 ], [ -1.612139550999849, 42.613887254493811 ], [ -1.612139550999849, 42.613044088928696 ], [ -1.612879766967357, 42.613044088928696 ], [ -1.612879766967357, 42.610936125074737 ], [ -1.613619982934866, 42.610936125074737 ], [ -1.613619982934866, 42.609671312517108 ], [ -1.614360198902374, 42.609671312517108 ], [ -1.614360198902374, 42.609249702623714 ], [ -1.616580846804899, 42.609249702623714 ], [ -1.616580846804899, 42.60882808987656 ], [ -1.618061278739916, 42.60882808987656 ], [ -1.618061278739916, 42.608406474275661 ], [ -1.621022142609949, 42.608406474275661 ], [ -1.621022142609949, 42.609249702623714 ], [ -1.621762358577457, 42.609249702623714 ], [ -1.621762358577457, 42.610092919556742 ], [ -1.622502574544966, 42.610092919556742 ], [ -1.622502574544966, 42.610936125074737 ], [ -1.623242790512474, 42.610936125074737 ], [ -1.623242790512474, 42.614730408643737 ], [ -1.623983006479983, 42.614730408643737 ], [ -1.623983006479983, 42.615151981438004 ], [ -1.624723222447491, 42.615151981438004 ], [ -1.624723222447491, 42.612622501865467 ], [ -1.625463438414999, 42.612622501865467 ], [ -1.625463438414999, 42.61177931917765 ], [ -1.626203654382508, 42.61177931917765 ], [ -1.626203654382508, 42.610936125074737 ], [ -1.626943870350016, 42.610936125074737 ], [ -1.626943870350016, 42.610092919556742 ], [ -1.632865598090083, 42.610092919556742 ], [ -1.632865598090083, 42.610936125074737 ], [ -1.633605814057591, 42.610936125074737 ], [ -1.633605814057591, 42.611357723553077 ], [ -1.634346030025099, 42.611357723553077 ], [ -1.634346030025099, 42.612200911948449 ], [ -1.635086245992607, 42.612200911948449 ], [ -1.635086245992607, 42.616416682697974 ], [ -1.634346030025099, 42.616416682697974 ], [ -1.634346030025099, 42.618946008164841 ], [ -1.633605814057591, 42.618946008164841 ], [ -1.633605814057591, 42.619367552420918 ], [ -1.632125382122574, 42.619367552420918 ], [ -1.632125382122574, 42.619789093823158 ], [ -1.631385166155066, 42.619789093823158 ], [ -1.631385166155066, 42.620210632371553 ], [ -1.628424302285032, 42.620210632371553 ], [ -1.628424302285032, 42.626954861020479 ], [ -1.627684086317524, 42.626954861020479 ], [ -1.627684086317524, 42.627797838231658 ], [ -1.626943870350016, 42.627797838231658 ], [ -1.626943870350016, 42.628219322556397 ], [ -1.626203654382508, 42.628219322556397 ], [ -1.626203654382508, 42.629062282644114 ], [ -1.625463438414999, 42.629062282644114 ], [ -1.625463438414999, 42.629483758407098 ], [ -1.621022142609949, 42.629483758407098 ], [ -1.621022142609949, 42.629062282644114 ], [ -1.620281926642441, 42.629062282644114 ], [ -1.620281926642441, 42.628219322556397 ], [ -1.619541710674932, 42.628219322556397 ], [ -1.619541710674932, 42.627376351053023 ], [ -1.618801494707424, 42.627376351053023 ], [ -1.618801494707424, 42.626954861020479 ], [ -1.618061278739916, 42.626954861020479 ], [ -1.618061278739916, 42.628219322556397 ], [ -1.617321062772408, 42.628219322556397 ], [ -1.617321062772408, 42.629062282644114 ], [ -1.616580846804899, 42.629062282644114 ], [ -1.616580846804899, 42.629483758407098 ], [ -1.615840630837391, 42.629483758407098 ], [ -1.615840630837391, 42.629905231316165 ], [ -1.614360198902374, 42.629905231316165 ], [ -1.614360198902374, 42.630326701371303 ], [ -1.612139550999849, 42.630326701371303 ], [ -1.612139550999849, 42.629905231316165 ], [ -1.611399335032341, 42.629905231316165 ], [ -1.611399335032341, 42.629483758407098 ] ] ], [ [ [ -5.724039250508648, 43.536943031704851 ], [ -5.724039250508648, 43.536527753207956 ], [ -5.72255881857363, 43.536527753207956 ], [ -5.72255881857363, 43.535697187634213 ], [ -5.721818602606122, 43.535697187634213 ], [ -5.721818602606122, 43.534866610620547 ], [ -5.721078386638613, 43.534866610620547 ], [ -5.721078386638613, 43.533620723650237 ], [ -5.720338170671106, 43.533620723650237 ], [ -5.720338170671106, 43.532790118036843 ], [ -5.719597954703597, 43.532790118036843 ], [ -5.719597954703597, 43.531959500983589 ], [ -5.718857738736089, 43.531959500983589 ], [ -5.718857738736089, 43.530713553953994 ], [ -5.718117522768581, 43.530713553953994 ], [ -5.718117522768581, 43.529882908301154 ], [ -5.717377306801072, 43.529882908301154 ], [ -5.717377306801072, 43.529052251208505 ], [ -5.716637090833564, 43.529052251208505 ], [ -5.716637090833564, 43.527806244119944 ], [ -5.715896874866057, 43.527806244119944 ], [ -5.715896874866057, 43.526975558427864 ], [ -5.715156658898548, 43.526975558427864 ], [ -5.715156658898548, 43.525314152724491 ], [ -5.715896874866057, 43.525314152724491 ], [ -5.715896874866057, 43.521575822586357 ], [ -5.716637090833564, 43.521575822586357 ], [ -5.716637090833564, 43.520329661061893 ], [ -5.717377306801072, 43.520329661061893 ], [ -5.717377306801072, 43.519914268167263 ], [ -5.718117522768581, 43.519914268167263 ], [ -5.718117522768581, 43.519498872412733 ], [ -5.718857738736089, 43.519498872412733 ], [ -5.718857738736089, 43.519083473798304 ], [ -5.719597954703597, 43.519083473798304 ], [ -5.719597954703597, 43.518252667989771 ], [ -5.720338170671106, 43.518252667989771 ], [ -5.720338170671106, 43.517837260795666 ], [ -5.721078386638613, 43.517837260795666 ], [ -5.721078386638613, 43.51742185074167 ], [ -5.721818602606122, 43.51742185074167 ], [ -5.721818602606122, 43.517006437827789 ], [ -5.723299034541139, 43.517006437827789 ], [ -5.723299034541139, 43.516591022054023 ], [ -5.724779466476156, 43.516591022054023 ], [ -5.724779466476156, 43.516175603420372 ], [ -5.726259898411173, 43.516175603420372 ], [ -5.726259898411173, 43.515760181926844 ], [ -5.727740330346189, 43.515760181926844 ], [ -5.727740330346189, 43.51534475757343 ], [ -5.729220762281205, 43.51534475757343 ], [ -5.729220762281205, 43.514929330360154 ], [ -5.729960978248714, 43.514929330360154 ], [ -5.729960978248714, 43.514513900287 ], [ -5.73144141018373, 43.514513900287 ], [ -5.73144141018373, 43.514098467353968 ], [ -5.732921842118747, 43.514098467353968 ], [ -5.732921842118747, 43.513683031561072 ], [ -5.734402274053765, 43.513683031561072 ], [ -5.734402274053765, 43.514098467353968 ], [ -5.73662292195629, 43.514098467353968 ], [ -5.73662292195629, 43.514513900287 ], [ -5.738843569858814, 43.514513900287 ], [ -5.738843569858814, 43.514929330360154 ], [ -5.74032400179383, 43.514929330360154 ], [ -5.74032400179383, 43.51534475757343 ], [ -5.741064217761339, 43.51534475757343 ], [ -5.741064217761339, 43.515760181926844 ], [ -5.741804433728848, 43.515760181926844 ], [ -5.741804433728848, 43.516591022054023 ], [ -5.742544649696356, 43.516591022054023 ], [ -5.742544649696356, 43.51742185074167 ], [ -5.743284865663864, 43.51742185074167 ], [ -5.743284865663864, 43.518252667989771 ], [ -5.744025081631372, 43.518252667989771 ], [ -5.744025081631372, 43.519083473798304 ], [ -5.744765297598882, 43.519083473798304 ], [ -5.744765297598882, 43.519498872412733 ], [ -5.745505513566389, 43.519498872412733 ], [ -5.745505513566389, 43.520329661061893 ], [ -5.746245729533897, 43.520329661061893 ], [ -5.746245729533897, 43.523652701262279 ], [ -5.745505513566389, 43.523652701262279 ], [ -5.745505513566389, 43.529052251208505 ], [ -5.744765297598882, 43.529052251208505 ], [ -5.744765297598882, 43.531128872490477 ], [ -5.744025081631372, 43.531128872490477 ], [ -5.744025081631372, 43.531544188167018 ], [ -5.743284865663864, 43.531544188167018 ], [ -5.743284865663864, 43.531959500983589 ], [ -5.742544649696356, 43.531959500983589 ], [ -5.742544649696356, 43.53237481094019 ], [ -5.741804433728848, 43.53237481094019 ], [ -5.741804433728848, 43.532790118036843 ], [ -5.741064217761339, 43.532790118036843 ], [ -5.741064217761339, 43.533205422273518 ], [ -5.74032400179383, 43.533205422273518 ], [ -5.74032400179383, 43.533620723650237 ], [ -5.739583785826321, 43.533620723650237 ], [ -5.739583785826321, 43.53403602216698 ], [ -5.738843569858814, 43.53403602216698 ], [ -5.738843569858814, 43.534451317823752 ], [ -5.738103353891305, 43.534451317823752 ], [ -5.738103353891305, 43.534866610620547 ], [ -5.737363137923798, 43.534866610620547 ], [ -5.737363137923798, 43.535281900557365 ], [ -5.73662292195629, 43.535281900557365 ], [ -5.73662292195629, 43.535697187634213 ], [ -5.73588270598878, 43.535697187634213 ], [ -5.73588270598878, 43.536112471851069 ], [ -5.735142490021273, 43.536112471851069 ], [ -5.735142490021273, 43.536527753207956 ], [ -5.734402274053765, 43.536527753207956 ], [ -5.734402274053765, 43.536943031704851 ], [ -5.733662058086256, 43.536943031704851 ], [ -5.733662058086256, 43.537358307341755 ], [ -5.732921842118747, 43.537358307341755 ], [ -5.732921842118747, 43.537773580118674 ], [ -5.729960978248714, 43.537773580118674 ], [ -5.729960978248714, 43.537358307341755 ], [ -5.727000114378681, 43.537358307341755 ], [ -5.727000114378681, 43.536943031704851 ], [ -5.724039250508648, 43.536943031704851 ] ] ], [ [ [ -5.858018340627656, 43.55811844265704 ], [ -5.858018340627656, 43.55770331002217 ], [ -5.85653790869264, 43.55770331002217 ], [ -5.85653790869264, 43.557288174527208 ], [ -5.855797692725131, 43.557288174527208 ], [ -5.855797692725131, 43.556457894957013 ], [ -5.855057476757623, 43.556457894957013 ], [ -5.855057476757623, 43.553966987604447 ], [ -5.854317260790114, 43.553966987604447 ], [ -5.854317260790114, 43.551891152825284 ], [ -5.853577044822605, 43.551891152825284 ], [ -5.853577044822605, 43.552306325501249 ], [ -5.852836828855097, 43.552306325501249 ], [ -5.852836828855097, 43.552721495317144 ], [ -5.852096612887589, 43.552721495317144 ], [ -5.852096612887589, 43.553136662272983 ], [ -5.85135639692008, 43.553136662272983 ], [ -5.85135639692008, 43.553551826368746 ], [ -5.849875964985064, 43.553551826368746 ], [ -5.849875964985064, 43.553136662272983 ], [ -5.848395533050048, 43.553136662272983 ], [ -5.848395533050048, 43.552721495317144 ], [ -5.846174885147523, 43.552721495317144 ], [ -5.846174885147523, 43.552306325501249 ], [ -5.844694453212505, 43.552306325501249 ], [ -5.844694453212505, 43.551891152825284 ], [ -5.843214021277489, 43.551891152825284 ], [ -5.843214021277489, 43.551475977289243 ], [ -5.841733589342473, 43.551475977289243 ], [ -5.841733589342473, 43.551060798893154 ], [ -5.840253157407456, 43.551060798893154 ], [ -5.840253157407456, 43.550645617637002 ], [ -5.83877272547244, 43.550645617637002 ], [ -5.83877272547244, 43.550230433520795 ], [ -5.837292293537423, 43.550230433520795 ], [ -5.837292293537423, 43.549815246544526 ], [ -5.835811861602406, 43.549815246544526 ], [ -5.835811861602406, 43.549400056708208 ], [ -5.834331429667389, 43.549400056708208 ], [ -5.834331429667389, 43.548984864011857 ], [ -5.832850997732372, 43.548984864011857 ], [ -5.832850997732372, 43.548569668455436 ], [ -5.832110781764865, 43.548569668455436 ], [ -5.832110781764865, 43.548984864011857 ], [ -5.831370565797356, 43.548984864011857 ], [ -5.831370565797356, 43.549815246544526 ], [ -5.830630349829847, 43.549815246544526 ], [ -5.830630349829847, 43.550230433520795 ], [ -5.829890133862339, 43.550230433520795 ], [ -5.829890133862339, 43.550645617637002 ], [ -5.829149917894831, 43.550645617637002 ], [ -5.829149917894831, 43.551475977289243 ], [ -5.828409701927322, 43.551475977289243 ], [ -5.828409701927322, 43.551891152825284 ], [ -5.822487974187256, 43.551891152825284 ], [ -5.822487974187256, 43.551060798893154 ], [ -5.821747758219748, 43.551060798893154 ], [ -5.821747758219748, 43.550230433520795 ], [ -5.821007542252239, 43.550230433520795 ], [ -5.821007542252239, 43.549400056708208 ], [ -5.82026732628473, 43.549400056708208 ], [ -5.82026732628473, 43.546908857629347 ], [ -5.819527110317222, 43.546908857629347 ], [ -5.819527110317222, 43.54192615058799 ], [ -5.818786894349714, 43.54192615058799 ], [ -5.818786894349714, 43.541510906411077 ], [ -5.818046678382206, 43.541510906411077 ], [ -5.818046678382206, 43.541095659374164 ], [ -5.817306462414698, 43.541095659374164 ], [ -5.817306462414698, 43.540680409477226 ], [ -5.816566246447189, 43.540680409477226 ], [ -5.816566246447189, 43.539434642626411 ], [ -5.815826030479681, 43.539434642626411 ], [ -5.815826030479681, 43.537773580118674 ], [ -5.815085814512173, 43.537773580118674 ], [ -5.815085814512173, 43.536527753207956 ], [ -5.815826030479681, 43.536527753207956 ], [ -5.815826030479681, 43.535281900557365 ], [ -5.816566246447189, 43.535281900557365 ], [ -5.816566246447189, 43.53403602216698 ], [ -5.817306462414698, 43.53403602216698 ], [ -5.817306462414698, 43.533205422273518 ], [ -5.818046678382206, 43.533205422273518 ], [ -5.818046678382206, 43.531959500983589 ], [ -5.823968406122273, 43.531959500983589 ], [ -5.823968406122273, 43.531544188167018 ], [ -5.824708622089781, 43.531544188167018 ], [ -5.824708622089781, 43.531128872490477 ], [ -5.826189054024797, 43.531128872490477 ], [ -5.826189054024797, 43.530713553953994 ], [ -5.826929269992306, 43.530713553953994 ], [ -5.826929269992306, 43.530298232557548 ], [ -5.827669485959815, 43.530298232557548 ], [ -5.827669485959815, 43.529882908301154 ], [ -5.829149917894831, 43.529882908301154 ], [ -5.829149917894831, 43.529467581184797 ], [ -5.829890133862339, 43.529467581184797 ], [ -5.829890133862339, 43.529052251208505 ], [ -5.830630349829847, 43.529052251208505 ], [ -5.830630349829847, 43.528636918372264 ], [ -5.832110781764865, 43.528636918372264 ], [ -5.832110781764865, 43.529052251208505 ], [ -5.832850997732372, 43.529052251208505 ], [ -5.832850997732372, 43.529467581184797 ], [ -5.833591213699881, 43.529467581184797 ], [ -5.833591213699881, 43.529882908301154 ], [ -5.834331429667389, 43.529882908301154 ], [ -5.834331429667389, 43.530298232557548 ], [ -5.835071645634897, 43.530298232557548 ], [ -5.835071645634897, 43.530713553953994 ], [ -5.835811861602406, 43.530713553953994 ], [ -5.835811861602406, 43.531544188167018 ], [ -5.836552077569914, 43.531544188167018 ], [ -5.836552077569914, 43.531959500983589 ], [ -5.837292293537423, 43.531959500983589 ], [ -5.837292293537423, 43.53237481094019 ], [ -5.838032509504931, 43.53237481094019 ], [ -5.838032509504931, 43.532790118036843 ], [ -5.83877272547244, 43.532790118036843 ], [ -5.83877272547244, 43.533205422273518 ], [ -5.841733589342473, 43.533205422273518 ], [ -5.841733589342473, 43.532790118036843 ], [ -5.842473805309981, 43.532790118036843 ], [ -5.842473805309981, 43.53237481094019 ], [ -5.843954237244998, 43.53237481094019 ], [ -5.843954237244998, 43.531959500983589 ], [ -5.846174885147523, 43.531959500983589 ], [ -5.846174885147523, 43.53237481094019 ], [ -5.846915101115031, 43.53237481094019 ], [ -5.846915101115031, 43.532790118036843 ], [ -5.848395533050048, 43.532790118036843 ], [ -5.848395533050048, 43.533205422273518 ], [ -5.849135749017555, 43.533205422273518 ], [ -5.849135749017555, 43.533620723650237 ], [ -5.849875964985064, 43.533620723650237 ], [ -5.849875964985064, 43.53403602216698 ], [ -5.850616180952573, 43.53403602216698 ], [ -5.850616180952573, 43.537773580118674 ], [ -5.85135639692008, 43.537773580118674 ], [ -5.85135639692008, 43.540680409477226 ], [ -5.852096612887589, 43.540680409477226 ], [ -5.852096612887589, 43.541510906411077 ], [ -5.852836828855097, 43.541510906411077 ], [ -5.852836828855097, 43.542756630361758 ], [ -5.853577044822605, 43.542756630361758 ], [ -5.853577044822605, 43.543587098695482 ], [ -5.854317260790114, 43.543587098695482 ], [ -5.854317260790114, 43.544417555589114 ], [ -5.855057476757623, 43.544417555589114 ], [ -5.855057476757623, 43.545663219479366 ], [ -5.855797692725131, 43.545663219479366 ], [ -5.855797692725131, 43.54815447003898 ], [ -5.85653790869264, 43.54815447003898 ], [ -5.85653790869264, 43.54773926876247 ], [ -5.857278124660148, 43.54773926876247 ], [ -5.857278124660148, 43.547324064625933 ], [ -5.858018340627656, 43.547324064625933 ], [ -5.858018340627656, 43.546908857629347 ], [ -5.858758556595164, 43.546908857629347 ], [ -5.858758556595164, 43.54607843505606 ], [ -5.860238988530181, 43.54607843505606 ], [ -5.860238988530181, 43.546493647772721 ], [ -5.860979204497688, 43.546493647772721 ], [ -5.860979204497688, 43.546908857629347 ], [ -5.861719420465197, 43.546908857629347 ], [ -5.861719420465197, 43.547324064625933 ], [ -5.862459636432706, 43.547324064625933 ], [ -5.862459636432706, 43.54773926876247 ], [ -5.863199852400214, 43.54773926876247 ], [ -5.863199852400214, 43.54815447003898 ], [ -5.863940068367723, 43.54815447003898 ], [ -5.863940068367723, 43.548569668455436 ], [ -5.864680284335232, 43.548569668455436 ], [ -5.864680284335232, 43.548984864011857 ], [ -5.86542050030274, 43.548984864011857 ], [ -5.86542050030274, 43.549400056708208 ], [ -5.866160716270247, 43.549400056708208 ], [ -5.866160716270247, 43.550230433520795 ], [ -5.866900932237757, 43.550230433520795 ], [ -5.866900932237757, 43.550645617637002 ], [ -5.867641148205265, 43.550645617637002 ], [ -5.867641148205265, 43.554797301495626 ], [ -5.866900932237757, 43.554797301495626 ], [ -5.866900932237757, 43.555212454151096 ], [ -5.866160716270247, 43.555212454151096 ], [ -5.866160716270247, 43.556042750881794 ], [ -5.86542050030274, 43.556042750881794 ], [ -5.86542050030274, 43.556873036172156 ], [ -5.864680284335232, 43.556873036172156 ], [ -5.864680284335232, 43.557288174527208 ], [ -5.863940068367723, 43.557288174527208 ], [ -5.863940068367723, 43.55811844265704 ], [ -5.863199852400214, 43.55811844265704 ], [ -5.863199852400214, 43.558533572431813 ], [ -5.862459636432706, 43.558533572431813 ], [ -5.862459636432706, 43.558948699346487 ], [ -5.861719420465197, 43.558948699346487 ], [ -5.861719420465197, 43.558533572431813 ], [ -5.860238988530181, 43.558533572431813 ], [ -5.860238988530181, 43.55811844265704 ], [ -5.858018340627656, 43.55811844265704 ] ] ], [ [ [ -0.276789945614814, 35.824505411354338 ], [ -0.276049729647306, 35.824505411354338 ], [ -0.276049729647306, 35.824040934669902 ], [ -0.273088865777272, 35.824040934669902 ], [ -0.273088865777272, 35.8235764552674 ], [ -0.268647569972222, 35.8235764552674 ], [ -0.268647569972222, 35.82311197314683 ], [ -0.264946490134681, 35.82311197314683 ], [ -0.264946490134681, 35.822647488308213 ], [ -0.264206274167172, 35.822647488308213 ], [ -0.264206274167172, 35.822183000751579 ], [ -0.262725842232156, 35.822183000751579 ], [ -0.262725842232156, 35.821718510476927 ], [ -0.261245410297139, 35.821718510476927 ], [ -0.261245410297139, 35.821254017484272 ], [ -0.260505194329631, 35.821254017484272 ], [ -0.260505194329631, 35.820789521773627 ], [ -0.259024762394614, 35.820789521773627 ], [ -0.259024762394614, 35.820325023345006 ], [ -0.257544330459597, 35.820325023345006 ], [ -0.257544330459597, 35.819860522198454 ], [ -0.256804114492089, 35.819860522198454 ], [ -0.256804114492089, 35.81939601833394 ], [ -0.255323682557072, 35.81939601833394 ], [ -0.255323682557072, 35.818931511751508 ], [ -0.253843250622056, 35.818931511751508 ], [ -0.253843250622056, 35.818467002451158 ], [ -0.253103034654547, 35.818467002451158 ], [ -0.253103034654547, 35.818002490432896 ], [ -0.251622602719531, 35.818002490432896 ], [ -0.251622602719531, 35.81753797569678 ], [ -0.250142170784514, 35.81753797569678 ], [ -0.250142170784514, 35.817073458242774 ], [ -0.249401954817006, 35.817073458242774 ], [ -0.249401954817006, 35.816608938070921 ], [ -0.247921522881989, 35.816608938070921 ], [ -0.247921522881989, 35.817073458242774 ], [ -0.247181306914481, 35.817073458242774 ], [ -0.247181306914481, 35.81753797569678 ], [ -0.245700874979464, 35.81753797569678 ], [ -0.245700874979464, 35.818002490432896 ], [ -0.244960659011956, 35.818002490432896 ], [ -0.244960659011956, 35.818467002451158 ], [ -0.244220443044447, 35.818467002451158 ], [ -0.244220443044447, 35.818931511751508 ], [ -0.242740011109431, 35.818931511751508 ], [ -0.242740011109431, 35.81939601833394 ], [ -0.239779147239397, 35.81939601833394 ], [ -0.239779147239397, 35.818931511751508 ], [ -0.237558499336872, 35.818931511751508 ], [ -0.237558499336872, 35.818467002451158 ], [ -0.236078067401856, 35.818467002451158 ], [ -0.236078067401856, 35.818002490432896 ], [ -0.234597635466839, 35.818002490432896 ], [ -0.234597635466839, 35.81753797569678 ], [ -0.232376987564314, 35.81753797569678 ], [ -0.232376987564314, 35.817073458242774 ], [ -0.231636771596806, 35.817073458242774 ], [ -0.231636771596806, 35.816144415181228 ], [ -0.230896555629297, 35.816144415181228 ], [ -0.230896555629297, 35.815215361248384 ], [ -0.230156339661789, 35.815215361248384 ], [ -0.230156339661789, 35.814286296444358 ], [ -0.229416123694281, 35.814286296444358 ], [ -0.229416123694281, 35.813821759965677 ], [ -0.228675907726772, 35.813821759965677 ], [ -0.228675907726772, 35.813357220769255 ], [ -0.227195475791756, 35.813357220769255 ], [ -0.227195475791756, 35.812892678855093 ], [ -0.225715043856739, 35.812892678855093 ], [ -0.225715043856739, 35.812428134223211 ], [ -0.224234611921722, 35.812428134223211 ], [ -0.224234611921722, 35.810569928518746 ], [ -0.223494395954214, 35.810569928518746 ], [ -0.223494395954214, 35.805924224024189 ], [ -0.224234611921722, 35.805924224024189 ], [ -0.224234611921722, 35.803601269869652 ], [ -0.224974827889231, 35.803601269869652 ], [ -0.224974827889231, 35.803136670886389 ], [ -0.225715043856739, 35.803136670886389 ], [ -0.225715043856739, 35.80220746476764 ], [ -0.226455259824247, 35.80220746476764 ], [ -0.226455259824247, 35.801742857632192 ], [ -0.227195475791756, 35.801742857632192 ], [ -0.227195475791756, 35.801278247779365 ], [ -0.227935691759264, 35.801278247779365 ], [ -0.227935691759264, 35.800813635209181 ], [ -0.230896555629297, 35.800813635209181 ], [ -0.230896555629297, 35.800349019921647 ], [ -0.233117203531822, 35.800349019921647 ], [ -0.233117203531822, 35.799884401916799 ], [ -0.234597635466839, 35.799884401916799 ], [ -0.234597635466839, 35.800349019921647 ], [ -0.235337851434347, 35.800349019921647 ], [ -0.235337851434347, 35.800813635209181 ], [ -0.236078067401856, 35.800813635209181 ], [ -0.236078067401856, 35.801278247779365 ], [ -0.236818283369364, 35.801278247779365 ], [ -0.236818283369364, 35.801742857632192 ], [ -0.237558499336872, 35.801742857632192 ], [ -0.237558499336872, 35.80220746476764 ], [ -0.238298715304381, 35.80220746476764 ], [ -0.238298715304381, 35.800813635209181 ], [ -0.239038931271889, 35.800813635209181 ], [ -0.239038931271889, 35.799884401916799 ], [ -0.239779147239397, 35.799884401916799 ], [ -0.239779147239397, 35.798955157755167 ], [ -0.240519363206906, 35.798955157755167 ], [ -0.240519363206906, 35.798025902724412 ], [ -0.241259579174414, 35.798025902724412 ], [ -0.241259579174414, 35.797561271133148 ], [ -0.244220443044447, 35.797561271133148 ], [ -0.244220443044447, 35.798025902724412 ], [ -0.246441090946972, 35.798025902724412 ], [ -0.246441090946972, 35.798490531598425 ], [ -0.248661738849497, 35.798490531598425 ], [ -0.248661738849497, 35.798955157755167 ], [ -0.252362818687039, 35.798955157755167 ], [ -0.252362818687039, 35.798490531598425 ], [ -0.253843250622056, 35.798490531598425 ], [ -0.253843250622056, 35.798025902724412 ], [ -0.255323682557072, 35.798025902724412 ], [ -0.255323682557072, 35.797561271133148 ], [ -0.256063898524581, 35.797561271133148 ], [ -0.256063898524581, 35.797096636824634 ], [ -0.257544330459597, 35.797096636824634 ], [ -0.257544330459597, 35.796631999798905 ], [ -0.259024762394614, 35.796631999798905 ], [ -0.259024762394614, 35.796167360055968 ], [ -0.261245410297139, 35.796167360055968 ], [ -0.261245410297139, 35.796631999798905 ], [ -0.261985626264647, 35.796631999798905 ], [ -0.261985626264647, 35.797096636824634 ], [ -0.262725842232156, 35.797096636824634 ], [ -0.262725842232156, 35.797561271133148 ], [ -0.263466058199664, 35.797561271133148 ], [ -0.263466058199664, 35.798025902724412 ], [ -0.264206274167172, 35.798025902724412 ], [ -0.264206274167172, 35.798490531598425 ], [ -0.264946490134681, 35.798490531598425 ], [ -0.264946490134681, 35.798955157755167 ], [ -0.265686706102189, 35.798955157755167 ], [ -0.265686706102189, 35.799419781194644 ], [ -0.266426922069697, 35.799419781194644 ], [ -0.266426922069697, 35.799884401916799 ], [ -0.267167138037206, 35.799884401916799 ], [ -0.267167138037206, 35.800349019921647 ], [ -0.267907354004714, 35.800349019921647 ], [ -0.267907354004714, 35.800813635209181 ], [ -0.268647569972222, 35.800813635209181 ], [ -0.268647569972222, 35.801278247779365 ], [ -0.269387785939731, 35.801278247779365 ], [ -0.269387785939731, 35.801742857632192 ], [ -0.270128001907239, 35.801742857632192 ], [ -0.270128001907239, 35.80220746476764 ], [ -0.270868217874747, 35.80220746476764 ], [ -0.270868217874747, 35.802672069185711 ], [ -0.271608433842256, 35.802672069185711 ], [ -0.271608433842256, 35.803601269869652 ], [ -0.272348649809764, 35.803601269869652 ], [ -0.272348649809764, 35.804065866135467 ], [ -0.273088865777272, 35.804065866135467 ], [ -0.273088865777272, 35.804530459683846 ], [ -0.274569297712289, 35.804530459683846 ], [ -0.274569297712289, 35.804065866135467 ], [ -0.275309513679797, 35.804065866135467 ], [ -0.275309513679797, 35.803136670886389 ], [ -0.276049729647306, 35.803136670886389 ], [ -0.276049729647306, 35.80220746476764 ], [ -0.276789945614814, 35.80220746476764 ], [ -0.276789945614814, 35.801278247779365 ], [ -0.277530161582322, 35.801278247779365 ], [ -0.277530161582322, 35.800813635209181 ], [ -0.282711673354881, 35.800813635209181 ], [ -0.282711673354881, 35.801742857632192 ], [ -0.283451889322389, 35.801742857632192 ], [ -0.283451889322389, 35.802672069185711 ], [ -0.284192105289897, 35.802672069185711 ], [ -0.284192105289897, 35.803136670886389 ], [ -0.284932321257406, 35.803136670886389 ], [ -0.284932321257406, 35.804995050514783 ], [ -0.285672537224914, 35.804995050514783 ], [ -0.285672537224914, 35.811499036806339 ], [ -0.286412753192422, 35.811499036806339 ], [ -0.286412753192422, 35.81753797569678 ], [ -0.287152969159931, 35.81753797569678 ], [ -0.287152969159931, 35.821254017484272 ], [ -0.286412753192422, 35.821254017484272 ], [ -0.286412753192422, 35.822183000751579 ], [ -0.285672537224914, 35.822183000751579 ], [ -0.285672537224914, 35.822647488308213 ], [ -0.284932321257406, 35.822647488308213 ], [ -0.284932321257406, 35.82311197314683 ], [ -0.284192105289897, 35.82311197314683 ], [ -0.284192105289897, 35.8235764552674 ], [ -0.283451889322389, 35.8235764552674 ], [ -0.283451889322389, 35.824040934669902 ], [ -0.282711673354881, 35.824040934669902 ], [ -0.282711673354881, 35.824505411354338 ], [ -0.281971457387372, 35.824505411354338 ], [ -0.281971457387372, 35.824969885320684 ], [ -0.281231241419864, 35.824969885320684 ], [ -0.281231241419864, 35.82543435656892 ], [ -0.280491025452356, 35.82543435656892 ], [ -0.280491025452356, 35.825898825099053 ], [ -0.278270377549831, 35.825898825099053 ], [ -0.278270377549831, 35.82543435656892 ], [ -0.277530161582322, 35.82543435656892 ], [ -0.277530161582322, 35.824969885320684 ], [ -0.276789945614814, 35.824969885320684 ], [ -0.276789945614814, 35.824505411354338 ] ] ], [ [ [ 1.244353867614813, 36.135093078437173 ], [ 1.245094083582321, 36.135093078437173 ], [ 1.245094083582321, 36.134167771051025 ], [ 1.245834299549829, 36.134167771051025 ], [ 1.245834299549829, 36.133242452754182 ], [ 1.246574515517338, 36.133242452754182 ], [ 1.246574515517338, 36.132779789514281 ], [ 1.247314731484846, 36.132779789514281 ], [ 1.247314731484846, 36.131854454851599 ], [ 1.248054947452355, 36.131854454851599 ], [ 1.248054947452355, 36.130929109278505 ], [ 1.248795163419863, 36.130929109278505 ], [ 1.248795163419863, 36.130003752795091 ], [ 1.249535379387371, 36.130003752795091 ], [ 1.249535379387371, 36.124451384784592 ], [ 1.248795163419863, 36.124451384784592 ], [ 1.248795163419863, 36.123525951932208 ], [ 1.248054947452355, 36.123525951932208 ], [ 1.248054947452355, 36.122600508170429 ], [ 1.247314731484846, 36.122600508170429 ], [ 1.247314731484846, 36.121675053499345 ], [ 1.246574515517338, 36.121675053499345 ], [ 1.246574515517338, 36.120749587919107 ], [ 1.245834299549829, 36.120749587919107 ], [ 1.245834299549829, 36.119824111429786 ], [ 1.242133219712288, 36.119824111429786 ], [ 1.242133219712288, 36.120286851038067 ], [ 1.239912571809763, 36.120286851038067 ], [ 1.239912571809763, 36.120749587919107 ], [ 1.237691923907238, 36.120749587919107 ], [ 1.237691923907238, 36.121212322072857 ], [ 1.235471276004713, 36.121212322072857 ], [ 1.235471276004713, 36.121675053499345 ], [ 1.234731060037205, 36.121675053499345 ], [ 1.234731060037205, 36.122137782198543 ], [ 1.233990844069696, 36.122137782198543 ], [ 1.233990844069696, 36.122600508170429 ], [ 1.233250628102188, 36.122600508170429 ], [ 1.233250628102188, 36.123525951932208 ], [ 1.232510412134679, 36.123525951932208 ], [ 1.232510412134679, 36.123988669722088 ], [ 1.231770196167171, 36.123988669722088 ], [ 1.231770196167171, 36.124451384784592 ], [ 1.231029980199663, 36.124451384784592 ], [ 1.231029980199663, 36.124914097119721 ], [ 1.230289764232154, 36.124914097119721 ], [ 1.230289764232154, 36.125839513607794 ], [ 1.229549548264646, 36.125839513607794 ], [ 1.229549548264646, 36.126302217760696 ], [ 1.228809332297138, 36.126302217760696 ], [ 1.228809332297138, 36.130466432400581 ], [ 1.22806911632963, 36.130466432400581 ], [ 1.22806911632963, 36.132779789514281 ], [ 1.228809332297138, 36.132779789514281 ], [ 1.228809332297138, 36.133242452754182 ], [ 1.229549548264646, 36.133242452754182 ], [ 1.229549548264646, 36.13370511326643 ], [ 1.230289764232154, 36.13370511326643 ], [ 1.230289764232154, 36.134167771051025 ], [ 1.231029980199663, 36.134167771051025 ], [ 1.231029980199663, 36.13463042610794 ], [ 1.231770196167171, 36.13463042610794 ], [ 1.231770196167171, 36.135093078437173 ], [ 1.232510412134679, 36.135093078437173 ], [ 1.232510412134679, 36.136018374912496 ], [ 1.233250628102188, 36.136018374912496 ], [ 1.233250628102188, 36.136481019058579 ], [ 1.234731060037205, 36.136481019058579 ], [ 1.234731060037205, 36.136943660476909 ], [ 1.235471276004713, 36.136943660476909 ], [ 1.235471276004713, 36.136481019058579 ], [ 1.24139300374478, 36.136481019058579 ], [ 1.24139300374478, 36.136018374912496 ], [ 1.244353867614813, 36.136018374912496 ], [ 1.244353867614813, 36.135093078437173 ] ] ], [ [ [ 3.748504485695508, 36.186892875113685 ], [ 3.749244701663016, 36.186892875113685 ], [ 3.749244701663016, 36.186430528374551 ], [ 3.749984917630524, 36.186430528374551 ], [ 3.749984917630524, 36.185968178906165 ], [ 3.750725133598033, 36.185968178906165 ], [ 3.750725133598033, 36.185505826708528 ], [ 3.75220556553305, 36.185505826708528 ], [ 3.75220556553305, 36.185043471781654 ], [ 3.752945781500558, 36.185043471781654 ], [ 3.752945781500558, 36.184581114125564 ], [ 3.753685997468065, 36.184581114125564 ], [ 3.753685997468065, 36.184118753740272 ], [ 3.754426213435575, 36.184118753740272 ], [ 3.754426213435575, 36.182731656209292 ], [ 3.755166429403083, 36.182731656209292 ], [ 3.755166429403083, 36.179957387460668 ], [ 3.755906645370591, 36.179957387460668 ], [ 3.755906645370591, 36.176720616415025 ], [ 3.755166429403083, 36.176720616415025 ], [ 3.755166429403083, 36.175795800126778 ], [ 3.754426213435575, 36.175795800126778 ], [ 3.754426213435575, 36.174408555227394 ], [ 3.753685997468065, 36.174408555227394 ], [ 3.753685997468065, 36.173483711649958 ], [ 3.752945781500558, 36.173483711649958 ], [ 3.752945781500558, 36.172558857157064 ], [ 3.745543621825474, 36.172558857157064 ], [ 3.745543621825474, 36.17209642581733 ], [ 3.743322973922949, 36.17209642581733 ], [ 3.743322973922949, 36.172558857157064 ], [ 3.742582757955441, 36.172558857157064 ], [ 3.742582757955441, 36.173483711649958 ], [ 3.741842541987933, 36.173483711649958 ], [ 3.741842541987933, 36.173946134803117 ], [ 3.741102326020424, 36.173946134803117 ], [ 3.741102326020424, 36.174870972922768 ], [ 3.740362110052916, 36.174870972922768 ], [ 3.740362110052916, 36.182269284907314 ], [ 3.739621894085408, 36.182269284907314 ], [ 3.739621894085408, 36.183194024782118 ], [ 3.740362110052916, 36.183194024782118 ], [ 3.740362110052916, 36.185043471781654 ], [ 3.741102326020424, 36.185043471781654 ], [ 3.741102326020424, 36.186892875113685 ], [ 3.741842541987933, 36.186892875113685 ], [ 3.741842541987933, 36.187355219123539 ], [ 3.743322973922949, 36.187355219123539 ], [ 3.743322973922949, 36.187817560404099 ], [ 3.744063189890458, 36.187817560404099 ], [ 3.744063189890458, 36.188279898955365 ], [ 3.747024053760491, 36.188279898955365 ], [ 3.747024053760491, 36.187817560404099 ], [ 3.747764269728, 36.187817560404099 ], [ 3.747764269728, 36.187355219123539 ], [ 3.748504485695508, 36.187355219123539 ], [ 3.748504485695508, 36.186892875113685 ] ] ], [ [ [ 2.882451803710757, 36.601896676888721 ], [ 2.883192019678265, 36.601896676888721 ], [ 2.883192019678265, 36.601436792063076 ], [ 2.883932235645773, 36.601436792063076 ], [ 2.883932235645773, 36.600976904495894 ], [ 2.884672451613281, 36.600976904495894 ], [ 2.884672451613281, 36.600057121136963 ], [ 2.88541266758079, 36.600057121136963 ], [ 2.88541266758079, 36.599597225345263 ], [ 2.886152883548299, 36.599597225345263 ], [ 2.886152883548299, 36.592238519845012 ], [ 2.88541266758079, 36.592238519845012 ], [ 2.88541266758079, 36.591778577449873 ], [ 2.884672451613281, 36.591778577449873 ], [ 2.884672451613281, 36.590858684435844 ], [ 2.883932235645773, 36.590858684435844 ], [ 2.883932235645773, 36.590398733816969 ], [ 2.883192019678265, 36.590398733816969 ], [ 2.883192019678265, 36.58993878045689 ], [ 2.882451803710757, 36.58993878045689 ], [ 2.882451803710757, 36.589018865513104 ], [ 2.880231155808231, 36.589018865513104 ], [ 2.880231155808231, 36.589478824355602 ], [ 2.875789860003182, 36.589478824355602 ], [ 2.875789860003182, 36.58993878045689 ], [ 2.874309428068165, 36.58993878045689 ], [ 2.874309428068165, 36.590858684435844 ], [ 2.873569212100656, 36.590858684435844 ], [ 2.873569212100656, 36.591778577449873 ], [ 2.872828996133148, 36.591778577449873 ], [ 2.872828996133148, 36.592698459498877 ], [ 2.87208878016564, 36.592698459498877 ], [ 2.87208878016564, 36.593618330582743 ], [ 2.871348564198132, 36.593618330582743 ], [ 2.871348564198132, 36.594538190701364 ], [ 2.870608348230624, 36.594538190701364 ], [ 2.870608348230624, 36.599137326812055 ], [ 2.871348564198132, 36.599137326812055 ], [ 2.871348564198132, 36.600057121136963 ], [ 2.87208878016564, 36.600057121136963 ], [ 2.87208878016564, 36.600976904495894 ], [ 2.872828996133148, 36.600976904495894 ], [ 2.872828996133148, 36.601896676888721 ], [ 2.873569212100656, 36.601896676888721 ], [ 2.873569212100656, 36.602816438315351 ], [ 2.874309428068165, 36.602816438315351 ], [ 2.874309428068165, 36.603276314916315 ], [ 2.875049644035673, 36.603276314916315 ], [ 2.875049644035673, 36.603736188775677 ], [ 2.88097137177574, 36.603736188775677 ], [ 2.88097137177574, 36.603276314916315 ], [ 2.881711587743248, 36.603276314916315 ], [ 2.881711587743248, 36.602816438315351 ], [ 2.882451803710757, 36.602816438315351 ], [ 2.882451803710757, 36.601896676888721 ] ] ], [ [ [ 3.233314172309707, 36.636839900890493 ], [ 3.234054388277215, 36.636839900890493 ], [ 3.234054388277215, 36.636380224460474 ], [ 3.235534820212232, 36.636380224460474 ], [ 3.235534820212232, 36.635920545287931 ], [ 3.236275036179741, 36.635920545287931 ], [ 3.236275036179741, 36.635460863372849 ], [ 3.237015252147248, 36.635460863372849 ], [ 3.237015252147248, 36.635001178715243 ], [ 3.237755468114757, 36.635001178715243 ], [ 3.237755468114757, 36.634541491315147 ], [ 3.238495684082265, 36.634541491315147 ], [ 3.238495684082265, 36.633622108287483 ], [ 3.239235900049774, 36.633622108287483 ], [ 3.239235900049774, 36.632702714289934 ], [ 3.239976116017282, 36.632702714289934 ], [ 3.239976116017282, 36.627645851221985 ], [ 3.239235900049774, 36.627645851221985 ], [ 3.239235900049774, 36.626726385922929 ], [ 3.238495684082265, 36.626726385922929 ], [ 3.238495684082265, 36.625806909654813 ], [ 3.237755468114757, 36.625806909654813 ], [ 3.237755468114757, 36.625347167407384 ], [ 3.237015252147248, 36.625347167407384 ], [ 3.237015252147248, 36.624427674685869 ], [ 3.236275036179741, 36.624427674685869 ], [ 3.236275036179741, 36.623508170995557 ], [ 3.235534820212232, 36.623508170995557 ], [ 3.235534820212232, 36.623048415037132 ], [ 3.233314172309707, 36.623048415037132 ], [ 3.233314172309707, 36.623508170995557 ], [ 3.230353308439674, 36.623508170995557 ], [ 3.230353308439674, 36.623967924211811 ], [ 3.228132660537149, 36.623967924211811 ], [ 3.228132660537149, 36.624427674685869 ], [ 3.22739244456964, 36.624427674685869 ], [ 3.22739244456964, 36.624887422417736 ], [ 3.226652228602132, 36.624887422417736 ], [ 3.226652228602132, 36.625347167407384 ], [ 3.225912012634624, 36.625347167407384 ], [ 3.225912012634624, 36.626266649159994 ], [ 3.225171796667116, 36.626266649159994 ], [ 3.225171796667116, 36.627186119943595 ], [ 3.224431580699607, 36.627186119943595 ], [ 3.224431580699607, 36.628105579758056 ], [ 3.223691364732099, 36.628105579758056 ], [ 3.223691364732099, 36.628565305551845 ], [ 3.22295114876459, 36.628565305551845 ], [ 3.22295114876459, 36.629484748912446 ], [ 3.222210932797082, 36.629484748912446 ], [ 3.222210932797082, 36.630404181303668 ], [ 3.221470716829573, 36.630404181303668 ], [ 3.221470716829573, 36.630863893385722 ], [ 3.220730500862065, 36.630863893385722 ], [ 3.220730500862065, 36.635920545287931 ], [ 3.221470716829573, 36.635920545287931 ], [ 3.221470716829573, 36.636380224460474 ], [ 3.222210932797082, 36.636380224460474 ], [ 3.222210932797082, 36.637299574577931 ], [ 3.22295114876459, 36.637299574577931 ], [ 3.22295114876459, 36.637759245522808 ], [ 3.223691364732099, 36.637759245522808 ], [ 3.223691364732099, 36.638218913725105 ], [ 3.228132660537149, 36.638218913725105 ], [ 3.228132660537149, 36.637759245522808 ], [ 3.23183374037469, 36.637759245522808 ], [ 3.23183374037469, 36.637299574577931 ], [ 3.233314172309707, 36.637299574577931 ], [ 3.233314172309707, 36.636839900890493 ] ] ], [ [ [ 3.12524264105349, 36.688306303054155 ], [ 3.127463288956015, 36.688306303054155 ], [ 3.127463288956015, 36.687846933872635 ], [ 3.128943720891032, 36.687846933872635 ], [ 3.128943720891032, 36.686468809864046 ], [ 3.12968393685854, 36.686468809864046 ], [ 3.12968393685854, 36.685550046805048 ], [ 3.130424152826048, 36.685550046805048 ], [ 3.130424152826048, 36.684171881636921 ], [ 3.131164368793557, 36.684171881636921 ], [ 3.131164368793557, 36.683253091138575 ], [ 3.131904584761065, 36.683253091138575 ], [ 3.131904584761065, 36.681874884811897 ], [ 3.132644800728573, 36.681874884811897 ], [ 3.132644800728573, 36.680956066874856 ], [ 3.133385016696082, 36.680956066874856 ], [ 3.133385016696082, 36.679577819390644 ], [ 3.13412523266359, 36.679577819390644 ], [ 3.13412523266359, 36.676361812562291 ], [ 3.133385016696082, 36.676361812562291 ], [ 3.133385016696082, 36.67452403401316 ], [ 3.132644800728573, 36.67452403401316 ], [ 3.132644800728573, 36.674064582516735 ], [ 3.131164368793557, 36.674064582516735 ], [ 3.131164368793557, 36.673605128276698 ], [ 3.12968393685854, 36.673605128276698 ], [ 3.12968393685854, 36.673145671293035 ], [ 3.128943720891032, 36.673145671293035 ], [ 3.128943720891032, 36.672686211565782 ], [ 3.127463288956015, 36.672686211565782 ], [ 3.127463288956015, 36.672226749094932 ], [ 3.125982857020999, 36.672226749094932 ], [ 3.125982857020999, 36.671767283880513 ], [ 3.120061129280932, 36.671767283880513 ], [ 3.120061129280932, 36.672226749094932 ], [ 3.119320913313424, 36.672226749094932 ], [ 3.119320913313424, 36.672686211565782 ], [ 3.118580697345915, 36.672686211565782 ], [ 3.118580697345915, 36.673145671293035 ], [ 3.117840481378407, 36.673145671293035 ], [ 3.117840481378407, 36.674064582516735 ], [ 3.117100265410898, 36.674064582516735 ], [ 3.117100265410898, 36.67452403401316 ], [ 3.11636004944339, 36.67452403401316 ], [ 3.11636004944339, 36.674983482765938 ], [ 3.115619833475882, 36.674983482765938 ], [ 3.115619833475882, 36.675902372040525 ], [ 3.114879617508374, 36.675902372040525 ], [ 3.114879617508374, 36.676361812562291 ], [ 3.114139401540865, 36.676361812562291 ], [ 3.114139401540865, 36.676821250340389 ], [ 3.113399185573357, 36.676821250340389 ], [ 3.113399185573357, 36.677280685374775 ], [ 3.112658969605848, 36.677280685374775 ], [ 3.112658969605848, 36.678199547212365 ], [ 3.11191875363834, 36.678199547212365 ], [ 3.11191875363834, 36.678658974015555 ], [ 3.111178537670832, 36.678658974015555 ], [ 3.111178537670832, 36.679118398074984 ], [ 3.110438321703324, 36.679118398074984 ], [ 3.110438321703324, 36.684171881636921 ], [ 3.111178537670832, 36.684171881636921 ], [ 3.111178537670832, 36.684631272770233 ], [ 3.11191875363834, 36.684631272770233 ], [ 3.11191875363834, 36.685090661159613 ], [ 3.112658969605848, 36.685090661159613 ], [ 3.112658969605848, 36.685550046805048 ], [ 3.113399185573357, 36.685550046805048 ], [ 3.113399185573357, 36.68600942970653 ], [ 3.114139401540865, 36.68600942970653 ], [ 3.114139401540865, 36.686468809864046 ], [ 3.114879617508374, 36.686468809864046 ], [ 3.114879617508374, 36.68692818727758 ], [ 3.115619833475882, 36.68692818727758 ], [ 3.115619833475882, 36.687387561947112 ], [ 3.11636004944339, 36.687387561947112 ], [ 3.11636004944339, 36.687846933872635 ], [ 3.117100265410898, 36.687846933872635 ], [ 3.117100265410898, 36.688306303054155 ], [ 3.117840481378407, 36.688306303054155 ], [ 3.117840481378407, 36.688765669491623 ], [ 3.118580697345915, 36.688765669491623 ], [ 3.118580697345915, 36.689225033185046 ], [ 3.119320913313424, 36.689225033185046 ], [ 3.119320913313424, 36.689684394134424 ], [ 3.122281777183456, 36.689684394134424 ], [ 3.122281777183456, 36.689225033185046 ], [ 3.123762209118474, 36.689225033185046 ], [ 3.123762209118474, 36.688765669491623 ], [ 3.12524264105349, 36.688765669491623 ], [ 3.12524264105349, 36.688306303054155 ] ] ], [ [ [ 1.777309364220814, 42.718351308170263 ], [ 1.77878979615583, 42.718351308170263 ], [ 1.77878979615583, 42.717930434661042 ], [ 1.779530012123338, 42.717930434661042 ], [ 1.779530012123338, 42.717509558297202 ], [ 1.780270228090847, 42.717509558297202 ], [ 1.780270228090847, 42.717088679078707 ], [ 1.781010444058355, 42.717088679078707 ], [ 1.781010444058355, 42.716667797005591 ], [ 1.781750660025863, 42.716667797005591 ], [ 1.781750660025863, 42.715405133658464 ], [ 1.782490875993372, 42.715405133658464 ], [ 1.782490875993372, 42.712037905796464 ], [ 1.78323109196088, 42.712037905796464 ], [ 1.78323109196088, 42.708249556075451 ], [ 1.783971307928389, 42.708249556075451 ], [ 1.783971307928389, 42.706565770869567 ], [ 1.78323109196088, 42.706565770869567 ], [ 1.78323109196088, 42.70530290199239 ], [ 1.782490875993372, 42.70530290199239 ], [ 1.782490875993372, 42.704040007424354 ], [ 1.781750660025863, 42.704040007424354 ], [ 1.781750660025863, 42.702777087165551 ], [ 1.781010444058355, 42.702777087165551 ], [ 1.781010444058355, 42.701514141216094 ], [ 1.780270228090847, 42.701514141216094 ], [ 1.780270228090847, 42.701093153523928 ], [ 1.778049580188322, 42.701093153523928 ], [ 1.778049580188322, 42.700672162977241 ], [ 1.776569148253305, 42.700672162977241 ], [ 1.776569148253305, 42.700251169576056 ], [ 1.775088716318289, 42.700251169576056 ], [ 1.775088716318289, 42.698988172245535 ], [ 1.77434850035078, 42.698988172245535 ], [ 1.77434850035078, 42.697725149224624 ], [ 1.775088716318289, 42.697725149224624 ], [ 1.775088716318289, 42.692672800238846 ], [ 1.77434850035078, 42.692672800238846 ], [ 1.77434850035078, 42.690988592567969 ], [ 1.773608284383272, 42.690988592567969 ], [ 1.773608284383272, 42.690567533514184 ], [ 1.772868068415763, 42.690567533514184 ], [ 1.772868068415763, 42.690146471605971 ], [ 1.772127852448256, 42.690146471605971 ], [ 1.772127852448256, 42.689725406843344 ], [ 1.771387636480747, 42.689725406843344 ], [ 1.771387636480747, 42.689304339226304 ], [ 1.770647420513238, 42.689304339226304 ], [ 1.770647420513238, 42.688883268754857 ], [ 1.769166988578222, 42.688883268754857 ], [ 1.769166988578222, 42.688462195428997 ], [ 1.768426772610714, 42.688462195428997 ], [ 1.768426772610714, 42.68804111924873 ], [ 1.767686556643205, 42.68804111924873 ], [ 1.767686556643205, 42.687620040214071 ], [ 1.766946340675697, 42.687620040214071 ], [ 1.766946340675697, 42.687198958325013 ], [ 1.76546590874068, 42.687198958325013 ], [ 1.76546590874068, 42.686777873581562 ], [ 1.76102461293563, 42.686777873581562 ], [ 1.76102461293563, 42.687198958325013 ], [ 1.755843101163072, 42.687198958325013 ], [ 1.755843101163072, 42.687620040214071 ], [ 1.755102885195564, 42.687620040214071 ], [ 1.755102885195564, 42.688462195428997 ], [ 1.754362669228055, 42.688462195428997 ], [ 1.754362669228055, 42.689304339226304 ], [ 1.753622453260546, 42.689304339226304 ], [ 1.753622453260546, 42.690146471605971 ], [ 1.752882237293039, 42.690146471605971 ], [ 1.752882237293039, 42.690567533514184 ], [ 1.75214202132553, 42.690567533514184 ], [ 1.75214202132553, 42.691409648767333 ], [ 1.751401805358022, 42.691409648767333 ], [ 1.751401805358022, 42.692251752602779 ], [ 1.750661589390514, 42.692251752602779 ], [ 1.750661589390514, 42.696462100513408 ], [ 1.751401805358022, 42.696462100513408 ], [ 1.751401805358022, 42.697304135842025 ], [ 1.75214202132553, 42.697304135842025 ], [ 1.75214202132553, 42.698146159752746 ], [ 1.752882237293039, 42.698146159752746 ], [ 1.752882237293039, 42.69940917421021 ], [ 1.753622453260546, 42.69940917421021 ], [ 1.753622453260546, 42.702356108036916 ], [ 1.754362669228055, 42.702356108036916 ], [ 1.754362669228055, 42.704040007424354 ], [ 1.755102885195564, 42.704040007424354 ], [ 1.755102885195564, 42.7044609751349 ], [ 1.755843101163072, 42.7044609751349 ], [ 1.755843101163072, 42.704881939990912 ], [ 1.75658331713058, 42.704881939990912 ], [ 1.75658331713058, 42.70530290199239 ], [ 1.757323533098088, 42.70530290199239 ], [ 1.757323533098088, 42.705723861139319 ], [ 1.758803965033105, 42.705723861139319 ], [ 1.758803965033105, 42.706144817431721 ], [ 1.759544181000614, 42.706144817431721 ], [ 1.759544181000614, 42.706986721452878 ], [ 1.760284396968121, 42.706986721452878 ], [ 1.760284396968121, 42.709512365006972 ], [ 1.76102461293563, 42.709512365006972 ], [ 1.76102461293563, 42.711616989468006 ], [ 1.761764828903139, 42.711616989468006 ], [ 1.761764828903139, 42.712879729889586 ], [ 1.762505044870647, 42.712879729889586 ], [ 1.762505044870647, 42.71330063765425 ], [ 1.763245260838155, 42.71330063765425 ], [ 1.763245260838155, 42.713721542564308 ], [ 1.763985476805663, 42.713721542564308 ], [ 1.763985476805663, 42.714142444619768 ], [ 1.764725692773172, 42.714142444619768 ], [ 1.764725692773172, 42.714563343820615 ], [ 1.766206124708188, 42.714563343820615 ], [ 1.766206124708188, 42.714984240166849 ], [ 1.766946340675697, 42.714984240166849 ], [ 1.766946340675697, 42.715405133658464 ], [ 1.767686556643205, 42.715405133658464 ], [ 1.767686556643205, 42.71582602429546 ], [ 1.768426772610714, 42.71582602429546 ], [ 1.768426772610714, 42.716246912077835 ], [ 1.769166988578222, 42.716246912077835 ], [ 1.769166988578222, 42.717088679078707 ], [ 1.76990720454573, 42.717088679078707 ], [ 1.76990720454573, 42.717930434661042 ], [ 1.770647420513238, 42.717930434661042 ], [ 1.770647420513238, 42.718772178824828 ], [ 1.771387636480747, 42.718772178824828 ], [ 1.771387636480747, 42.719193046624746 ], [ 1.776569148253305, 42.719193046624746 ], [ 1.776569148253305, 42.718772178824828 ], [ 1.777309364220814, 42.718772178824828 ], [ 1.777309364220814, 42.718351308170263 ] ] ] ] } }
]
}
