{
"type": "FeatureCollection",
"name": "spain_fires_nrt_ba",
"crs": { "type": "name", "properties": { "name": "urn:ogc:def:crs:OGC:1.3:CRS84" } },
"features": [
{ "type": "Feature", "properties": { }, "geometry": { "type": "MultiPolygon", "coordinates": [ [ [ [ -1.900083562360591, 36.972128759221675 ], [ -1.899343346393083, 36.972128759221675 ], [ -1.899343346393083, 36.970755746537762 ], [ -1.898603130425575, 36.970755746537762 ], [ -1.898603130425575, 36.96984039098858 ], [ -1.897862914458066, 36.96984039098858 ], [ -1.897862914458066, 36.96709425829458 ], [ -1.898603130425575, 36.96709425829458 ], [ -1.898603130425575, 36.964348026533024 ], [ -1.899343346393083, 36.964348026533024 ], [ -1.899343346393083, 36.961601695706641 ], [ -1.900083562360591, 36.961601695706641 ], [ -1.900083562360591, 36.96068623008393 ], [ -1.900823778328099, 36.96068623008393 ], [ -1.900823778328099, 36.960228493144996 ], [ -1.901563994295608, 36.960228493144996 ], [ -1.901563994295608, 36.959313011012128 ], [ -1.902304210263116, 36.959313011012128 ], [ -1.902304210263116, 36.958855265818187 ], [ -1.903784642198133, 36.958855265818187 ], [ -1.903784642198133, 36.959313011012128 ], [ -1.906745506068166, 36.959313011012128 ], [ -1.906745506068166, 36.959770753454407 ], [ -1.908966153970691, 36.959770753454407 ], [ -1.908966153970691, 36.960228493144996 ], [ -1.9097063699382, 36.960228493144996 ], [ -1.9097063699382, 36.961143964271145 ], [ -1.910446585905708, 36.961143964271145 ], [ -1.910446585905708, 36.961601695706641 ], [ -1.911186801873216, 36.961601695706641 ], [ -1.911186801873216, 36.962059424390425 ], [ -1.911927017840724, 36.962059424390425 ], [ -1.911927017840724, 36.962974873502759 ], [ -1.912667233808233, 36.962974873502759 ], [ -1.912667233808233, 36.970755746537762 ], [ -1.911927017840724, 36.970755746537762 ], [ -1.911927017840724, 36.971671091079031 ], [ -1.911186801873216, 36.971671091079031 ], [ -1.911186801873216, 36.972128759221675 ], [ -1.910446585905708, 36.972128759221675 ], [ -1.910446585905708, 36.973044087250884 ], [ -1.9097063699382, 36.973044087250884 ], [ -1.9097063699382, 36.973501747137441 ], [ -1.90526507413315, 36.973501747137441 ], [ -1.90526507413315, 36.97395940427193 ], [ -1.900823778328099, 36.97395940427193 ], [ -1.900823778328099, 36.973044087250884 ], [ -1.900083562360591, 36.973044087250884 ], [ -1.900083562360591, 36.972128759221675 ] ] ], [ [ [ -5.164435979072347, 37.387464477747635 ], [ -5.163695763104838, 37.387464477747635 ], [ -5.163695763104838, 37.386554157639708 ], [ -5.162215331169821, 37.386554157639708 ], [ -5.162215331169821, 37.387009319075268 ], [ -5.161475115202313, 37.387009319075268 ], [ -5.161475115202313, 37.387464477747635 ], [ -5.160734899234804, 37.387464477747635 ], [ -5.160734899234804, 37.387919633656793 ], [ -5.159994683267296, 37.387919633656793 ], [ -5.159994683267296, 37.388374786802729 ], [ -5.159254467299788, 37.388374786802729 ], [ -5.159254467299788, 37.388829937185427 ], [ -5.157033819397263, 37.388829937185427 ], [ -5.157033819397263, 37.388374786802729 ], [ -5.156293603429756, 37.388374786802729 ], [ -5.156293603429756, 37.387919633656793 ], [ -5.154813171494737, 37.387919633656793 ], [ -5.154813171494737, 37.387464477747635 ], [ -5.154072955527229, 37.387464477747635 ], [ -5.154072955527229, 37.387009319075268 ], [ -5.153332739559722, 37.387009319075268 ], [ -5.153332739559722, 37.386098993440967 ], [ -5.152592523592213, 37.386098993440967 ], [ -5.152592523592213, 37.38473348426573 ], [ -5.151852307624704, 37.38473348426573 ], [ -5.151852307624704, 37.383823130999872 ], [ -5.151112091657197, 37.383823130999872 ], [ -5.151112091657197, 37.382912766681549 ], [ -5.150371875689688, 37.382912766681549 ], [ -5.150371875689688, 37.382002391310884 ], [ -5.149631659722179, 37.382002391310884 ], [ -5.149631659722179, 37.381092004887947 ], [ -5.148891443754672, 37.381092004887947 ], [ -5.148891443754672, 37.374718990472104 ], [ -5.149631659722179, 37.374718990472104 ], [ -5.149631659722179, 37.373808515634522 ], [ -5.150371875689688, 37.373808515634522 ], [ -5.150371875689688, 37.373353274071448 ], [ -5.151112091657197, 37.373353274071448 ], [ -5.151112091657197, 37.372442782656805 ], [ -5.151852307624704, 37.372442782656805 ], [ -5.151852307624704, 37.371532280190898 ], [ -5.153332739559722, 37.371532280190898 ], [ -5.153332739559722, 37.371987532805242 ], [ -5.155553387462247, 37.371987532805242 ], [ -5.155553387462247, 37.372442782656805 ], [ -5.157033819397263, 37.372442782656805 ], [ -5.157033819397263, 37.372898029745542 ], [ -5.159254467299788, 37.372898029745542 ], [ -5.159254467299788, 37.373353274071448 ], [ -5.160734899234804, 37.373353274071448 ], [ -5.160734899234804, 37.373808515634522 ], [ -5.162955547137329, 37.373808515634522 ], [ -5.162955547137329, 37.374263754434743 ], [ -5.164435979072347, 37.374263754434743 ], [ -5.164435979072347, 37.375629454258195 ], [ -5.165176195039855, 37.375629454258195 ], [ -5.165176195039855, 37.377450348675495 ], [ -5.165916411007364, 37.377450348675495 ], [ -5.165916411007364, 37.378815990477591 ], [ -5.16739684294238, 37.378815990477591 ], [ -5.16739684294238, 37.379271198885675 ], [ -5.170357706812412, 37.379271198885675 ], [ -5.170357706812412, 37.379726404530764 ], [ -5.17183813874743, 37.379726404530764 ], [ -5.17183813874743, 37.380636807531907 ], [ -5.172578354714938, 37.380636807531907 ], [ -5.172578354714938, 37.382457580377753 ], [ -5.173318570682446, 37.382457580377753 ], [ -5.173318570682446, 37.385188656753954 ], [ -5.172578354714938, 37.385188656753954 ], [ -5.172578354714938, 37.387009319075268 ], [ -5.17183813874743, 37.387009319075268 ], [ -5.17183813874743, 37.387919633656793 ], [ -5.168877274877397, 37.387919633656793 ], [ -5.168877274877397, 37.388374786802729 ], [ -5.166656626974872, 37.388374786802729 ], [ -5.166656626974872, 37.388829937185427 ], [ -5.165176195039855, 37.388829937185427 ], [ -5.165176195039855, 37.387919633656793 ], [ -5.164435979072347, 37.387919633656793 ], [ -5.164435979072347, 37.387464477747635 ] ] ], [ [ [ -5.767711992591639, 38.944354155355775 ], [ -5.76697177662413, 38.944354155355775 ], [ -5.76697177662413, 38.943908615230264 ], [ -5.765491344689115, 38.943908615230264 ], [ -5.765491344689115, 38.942126426728613 ], [ -5.764751128721605, 38.942126426728613 ], [ -5.764751128721605, 38.940789755953048 ], [ -5.759569616949047, 38.940789755953048 ], [ -5.759569616949047, 38.940344193428032 ], [ -5.755868537111506, 38.940344193428032 ], [ -5.755868537111506, 38.939453059978334 ], [ -5.755128321143998, 38.939453059978334 ], [ -5.755128321143998, 38.939007489053672 ], [ -5.754388105176488, 38.939007489053672 ], [ -5.754388105176488, 38.938116338804726 ], [ -5.753647889208981, 38.938116338804726 ], [ -5.753647889208981, 38.937225177356403 ], [ -5.752907673241473, 38.937225177356403 ], [ -5.752907673241473, 38.936779592432494 ], [ -5.753647889208981, 38.936779592432494 ], [ -5.753647889208981, 38.932769202126451 ], [ -5.754388105176488, 38.932769202126451 ], [ -5.754388105176488, 38.930986733641319 ], [ -5.755128321143998, 38.930986733641319 ], [ -5.755128321143998, 38.93054110952076 ], [ -5.755868537111506, 38.93054110952076 ], [ -5.755868537111506, 38.930095482600521 ], [ -5.756608753079013, 38.930095482600521 ], [ -5.756608753079013, 38.929649852880601 ], [ -5.757348969046522, 38.929649852880601 ], [ -5.757348969046522, 38.929204220361015 ], [ -5.758089185014031, 38.929204220361015 ], [ -5.758089185014031, 38.928758585041741 ], [ -5.758829400981539, 38.928758585041741 ], [ -5.758829400981539, 38.928312946922837 ], [ -5.759569616949047, 38.928312946922837 ], [ -5.759569616949047, 38.927867306004288 ], [ -5.760309832916556, 38.927867306004288 ], [ -5.760309832916556, 38.927421662286093 ], [ -5.761050048884065, 38.927421662286093 ], [ -5.761050048884065, 38.926976015768297 ], [ -5.761790264851572, 38.926976015768297 ], [ -5.761790264851572, 38.92608471433384 ], [ -5.76253048081908, 38.92608471433384 ], [ -5.76253048081908, 38.925639059417215 ], [ -5.76327069678659, 38.925639059417215 ], [ -5.76327069678659, 38.925193401701009 ], [ -5.764010912754097, 38.925193401701009 ], [ -5.764010912754097, 38.924747741185215 ], [ -5.764751128721605, 38.924747741185215 ], [ -5.764751128721605, 38.924302077869861 ], [ -5.765491344689115, 38.924302077869861 ], [ -5.765491344689115, 38.92385641175494 ], [ -5.766231560656622, 38.92385641175494 ], [ -5.766231560656622, 38.923410742840474 ], [ -5.772153288396689, 38.923410742840474 ], [ -5.772153288396689, 38.924302077869861 ], [ -5.772893504364196, 38.924302077869861 ], [ -5.772893504364196, 38.924747741185215 ], [ -5.773633720331706, 38.924747741185215 ], [ -5.773633720331706, 38.925639059417215 ], [ -5.774373936299214, 38.925639059417215 ], [ -5.774373936299214, 38.92608471433384 ], [ -5.775114152266722, 38.92608471433384 ], [ -5.775114152266722, 38.926976015768297 ], [ -5.77585436823423, 38.926976015768297 ], [ -5.77585436823423, 38.927421662286093 ], [ -5.77659458420174, 38.927421662286093 ], [ -5.77659458420174, 38.928312946922837 ], [ -5.777334800169248, 38.928312946922837 ], [ -5.777334800169248, 38.928758585041741 ], [ -5.778075016136755, 38.928758585041741 ], [ -5.778075016136755, 38.929204220361015 ], [ -5.778815232104265, 38.929204220361015 ], [ -5.778815232104265, 38.928758585041741 ], [ -5.779555448071773, 38.928758585041741 ], [ -5.779555448071773, 38.927867306004288 ], [ -5.78029566403928, 38.927867306004288 ], [ -5.78029566403928, 38.927421662286093 ], [ -5.783256527909313, 38.927421662286093 ], [ -5.783256527909313, 38.926530366450876 ], [ -5.783996743876822, 38.926530366450876 ], [ -5.783996743876822, 38.925639059417215 ], [ -5.784736959844331, 38.925639059417215 ], [ -5.784736959844331, 38.924302077869861 ], [ -5.785477175811839, 38.924302077869861 ], [ -5.785477175811839, 38.92296507112647 ], [ -5.786217391779348, 38.92296507112647 ], [ -5.786217391779348, 38.922073719299874 ], [ -5.790658687584397, 38.922073719299874 ], [ -5.790658687584397, 38.922519396612934 ], [ -5.791398903551905, 38.922519396612934 ], [ -5.791398903551905, 38.918953899722688 ], [ -5.792139119519415, 38.918953899722688 ], [ -5.792139119519415, 38.918508200013804 ], [ -5.792879335486922, 38.918508200013804 ], [ -5.792879335486922, 38.917616792197727 ], [ -5.793619551454431, 38.917616792197727 ], [ -5.793619551454431, 38.917171084090562 ], [ -5.79435976742194, 38.917171084090562 ], [ -5.79435976742194, 38.916725373183986 ], [ -5.795099983389448, 38.916725373183986 ], [ -5.795099983389448, 38.916279659478015 ], [ -5.795840199356956, 38.916279659478015 ], [ -5.795840199356956, 38.915833942972647 ], [ -5.798060847259481, 38.915833942972647 ], [ -5.798060847259481, 38.916279659478015 ], [ -5.798801063226989, 38.916279659478015 ], [ -5.798801063226989, 38.916725373183986 ], [ -5.800281495162006, 38.916725373183986 ], [ -5.800281495162006, 38.917171084090562 ], [ -5.801021711129514, 38.917171084090562 ], [ -5.801021711129514, 38.918062497505481 ], [ -5.801761927097022, 38.918062497505481 ], [ -5.801761927097022, 38.91984529074211 ], [ -5.802502143064531, 38.91984529074211 ], [ -5.802502143064531, 38.922073719299874 ], [ -5.801761927097022, 38.922073719299874 ], [ -5.801761927097022, 38.92385641175494 ], [ -5.801021711129514, 38.92385641175494 ], [ -5.801021711129514, 38.925193401701009 ], [ -5.800281495162006, 38.925193401701009 ], [ -5.800281495162006, 38.925639059417215 ], [ -5.798801063226989, 38.925639059417215 ], [ -5.798801063226989, 38.926976015768297 ], [ -5.799541279194496, 38.926976015768297 ], [ -5.799541279194496, 38.927867306004288 ], [ -5.800281495162006, 38.927867306004288 ], [ -5.800281495162006, 38.932769202126451 ], [ -5.799541279194496, 38.932769202126451 ], [ -5.799541279194496, 38.933214812248416 ], [ -5.798801063226989, 38.933214812248416 ], [ -5.798801063226989, 38.93410602409309 ], [ -5.798060847259481, 38.93410602409309 ], [ -5.798060847259481, 38.934551625815793 ], [ -5.797320631291973, 38.934551625815793 ], [ -5.797320631291973, 38.934997224738723 ], [ -5.796580415324465, 38.934997224738723 ], [ -5.796580415324465, 38.935442820861866 ], [ -5.795840199356956, 38.935442820861866 ], [ -5.795840199356956, 38.935888414185214 ], [ -5.787697823714364, 38.935888414185214 ], [ -5.787697823714364, 38.939453059978334 ], [ -5.786957607746857, 38.939453059978334 ], [ -5.786957607746857, 38.940344193428032 ], [ -5.786217391779348, 38.940344193428032 ], [ -5.786217391779348, 38.940789755953048 ], [ -5.785477175811839, 38.940789755953048 ], [ -5.785477175811839, 38.941680872603342 ], [ -5.784736959844331, 38.941680872603342 ], [ -5.784736959844331, 38.942126426728613 ], [ -5.782516311941805, 38.942126426728613 ], [ -5.782516311941805, 38.941680872603342 ], [ -5.78029566403928, 38.941680872603342 ], [ -5.78029566403928, 38.941235315678156 ], [ -5.778075016136755, 38.941235315678156 ], [ -5.778075016136755, 38.939898628103123 ], [ -5.777334800169248, 38.939898628103123 ], [ -5.777334800169248, 38.93767075948049 ], [ -5.77659458420174, 38.93767075948049 ], [ -5.77659458420174, 38.936779592432494 ], [ -5.77585436823423, 38.936779592432494 ], [ -5.77585436823423, 38.938561915329132 ], [ -5.775114152266722, 38.938561915329132 ], [ -5.775114152266722, 38.941235315678156 ], [ -5.774373936299214, 38.941235315678156 ], [ -5.774373936299214, 38.94346307230478 ], [ -5.773633720331706, 38.94346307230478 ], [ -5.773633720331706, 38.943908615230264 ], [ -5.772893504364196, 38.943908615230264 ], [ -5.772893504364196, 38.944354155355775 ], [ -5.772153288396689, 38.944354155355775 ], [ -5.772153288396689, 38.9447996926813 ], [ -5.770672856461672, 38.9447996926813 ], [ -5.770672856461672, 38.945245227206847 ], [ -5.769192424526656, 38.945245227206847 ], [ -5.769192424526656, 38.9447996926813 ], [ -5.767711992591639, 38.9447996926813 ], [ -5.767711992591639, 38.944354155355775 ] ] ], [ [ [ -7.673027892958092, 41.030652881802979 ], [ -7.672287676990583, 41.030652881802979 ], [ -7.672287676990583, 41.030220745402552 ], [ -7.671547461023076, 41.030220745402552 ], [ -7.671547461023076, 41.029788606165845 ], [ -7.670807245055567, 41.029788606165845 ], [ -7.670807245055567, 41.029356464092892 ], [ -7.670067029088058, 41.029356464092892 ], [ -7.670067029088058, 41.028924319183666 ], [ -7.66932681312055, 41.028924319183666 ], [ -7.66932681312055, 41.028492171438195 ], [ -7.668586597153041, 41.028492171438195 ], [ -7.668586597153041, 41.027627867438518 ], [ -7.667846381185534, 41.027627867438518 ], [ -7.667846381185534, 41.027195711184326 ], [ -7.664885517315501, 41.027195711184326 ], [ -7.664885517315501, 41.027627867438518 ], [ -7.659704005542943, 41.027627867438518 ], [ -7.659704005542943, 41.027195711184326 ], [ -7.658963789575433, 41.027195711184326 ], [ -7.658963789575433, 41.026763552093904 ], [ -7.658223573607924, 41.026763552093904 ], [ -7.658223573607924, 41.025899225404402 ], [ -7.657483357640417, 41.025899225404402 ], [ -7.657483357640417, 41.025034887370055 ], [ -7.656743141672909, 41.025034887370055 ], [ -7.656743141672909, 41.020280825394259 ], [ -7.657483357640417, 41.020280825394259 ], [ -7.657483357640417, 41.019416413619609 ], [ -7.658223573607924, 41.019416413619609 ], [ -7.658223573607924, 41.018551990500484 ], [ -7.658963789575433, 41.018551990500484 ], [ -7.658963789575433, 41.017687556036918 ], [ -7.659704005542943, 41.017687556036918 ], [ -7.659704005542943, 41.01682311022897 ], [ -7.66044422151045, 41.01682311022897 ], [ -7.66044422151045, 41.015958653076673 ], [ -7.661184437477959, 41.015958653076673 ], [ -7.661184437477959, 41.015094184580086 ], [ -7.661924653445467, 41.015094184580086 ], [ -7.661924653445467, 41.014229704739265 ], [ -7.662664869412974, 41.014229704739265 ], [ -7.662664869412974, 41.013365213554245 ], [ -7.663405085380483, 41.013365213554245 ], [ -7.663405085380483, 41.012500711025076 ], [ -7.664145301347991, 41.012500711025076 ], [ -7.664145301347991, 41.011636197151809 ], [ -7.664885517315501, 41.011636197151809 ], [ -7.664885517315501, 41.010771671934485 ], [ -7.666365949250517, 41.010771671934485 ], [ -7.666365949250517, 41.010339405071825 ], [ -7.667846381185534, 41.010339405071825 ], [ -7.667846381185534, 41.009907135373169 ], [ -7.670067029088058, 41.009907135373169 ], [ -7.670067029088058, 41.009474862838523 ], [ -7.671547461023076, 41.009474862838523 ], [ -7.671547461023076, 41.009042587467896 ], [ -7.673027892958092, 41.009042587467896 ], [ -7.673027892958092, 41.008610309261279 ], [ -7.674508324893108, 41.008610309261279 ], [ -7.674508324893108, 41.009042587467896 ], [ -7.675988756828125, 41.009042587467896 ], [ -7.675988756828125, 41.009474862838523 ], [ -7.676728972795632, 41.009474862838523 ], [ -7.676728972795632, 41.009907135373169 ], [ -7.678209404730651, 41.009907135373169 ], [ -7.678209404730651, 41.010339405071825 ], [ -7.678949620698158, 41.010339405071825 ], [ -7.678949620698158, 41.010771671934485 ], [ -7.680430052633175, 41.010771671934485 ], [ -7.680430052633175, 41.011203935961149 ], [ -7.681170268600684, 41.011203935961149 ], [ -7.681170268600684, 41.011636197151809 ], [ -7.681910484568193, 41.011636197151809 ], [ -7.681910484568193, 41.012068455506451 ], [ -7.682650700535701, 41.012068455506451 ], [ -7.682650700535701, 41.012932963707669 ], [ -7.683390916503209, 41.012932963707669 ], [ -7.683390916503209, 41.013797460564774 ], [ -7.684131132470718, 41.013797460564774 ], [ -7.684131132470718, 41.014229704739265 ], [ -7.684871348438225, 41.014229704739265 ], [ -7.684871348438225, 41.01682311022897 ], [ -7.685611564405734, 41.01682311022897 ], [ -7.685611564405734, 41.019848620924996 ], [ -7.686351780373242, 41.019848620924996 ], [ -7.686351780373242, 41.022441805198447 ], [ -7.687091996340749, 41.022441805198447 ], [ -7.687091996340749, 41.025467057805329 ], [ -7.687832212308258, 41.025467057805329 ], [ -7.687832212308258, 41.026763552093904 ], [ -7.687091996340749, 41.026763552093904 ], [ -7.687091996340749, 41.028060020856479 ], [ -7.686351780373242, 41.028060020856479 ], [ -7.686351780373242, 41.028924319183666 ], [ -7.685611564405734, 41.028924319183666 ], [ -7.685611564405734, 41.030220745402552 ], [ -7.684871348438225, 41.030220745402552 ], [ -7.684871348438225, 41.031085015367125 ], [ -7.684131132470718, 41.031085015367125 ], [ -7.684131132470718, 41.031517146094991 ], [ -7.680430052633175, 41.031517146094991 ], [ -7.680430052633175, 41.031949273986577 ], [ -7.674508324893108, 41.031949273986577 ], [ -7.674508324893108, 41.031517146094991 ], [ -7.673768108925601, 41.031517146094991 ], [ -7.673768108925601, 41.031085015367125 ], [ -7.673027892958092, 41.031085015367125 ], [ -7.673027892958092, 41.030652881802979 ] ] ], [ [ [ -6.955758620442515, 41.057871756849352 ], [ -6.955758620442515, 41.057007838605884 ], [ -6.955018404475007, 41.057007838605884 ], [ -6.955018404475007, 41.055711939965896 ], [ -6.9542781885075, 41.055711939965896 ], [ -6.9542781885075, 41.05484799335612 ], [ -6.953537972539991, 41.05484799335612 ], [ -6.953537972539991, 41.053552052166907 ], [ -6.952797756572482, 41.053552052166907 ], [ -6.952797756572482, 41.053120066097314 ], [ -6.952057540604975, 41.053120066097314 ], [ -6.952057540604975, 41.052688077191135 ], [ -6.951317324637466, 41.052688077191135 ], [ -6.951317324637466, 41.052256085448377 ], [ -6.950577108669957, 41.052256085448377 ], [ -6.950577108669957, 41.05182409086904 ], [ -6.94983689270245, 41.05182409086904 ], [ -6.94983689270245, 41.050960093200679 ], [ -6.949096676734942, 41.050960093200679 ], [ -6.949096676734942, 41.048800049390159 ], [ -6.948356460767433, 41.048800049390159 ], [ -6.948356460767433, 41.047071963284239 ], [ -6.949096676734942, 41.047071963284239 ], [ -6.949096676734942, 41.045343831794277 ], [ -6.94983689270245, 41.045343831794277 ], [ -6.94983689270245, 41.044047703393765 ], [ -6.951317324637466, 41.044047703393765 ], [ -6.951317324637466, 41.043615654920657 ], [ -6.952057540604975, 41.043615654920657 ], [ -6.952057540604975, 41.043183603611105 ], [ -6.952797756572482, 41.043183603611105 ], [ -6.952797756572482, 41.042751549465109 ], [ -6.955018404475007, 41.042751549465109 ], [ -6.955018404475007, 41.043183603611105 ], [ -6.955758620442515, 41.043183603611105 ], [ -6.955758620442515, 41.043615654920657 ], [ -6.957239052377533, 41.043615654920657 ], [ -6.957239052377533, 41.044047703393765 ], [ -6.958719484312549, 41.044047703393765 ], [ -6.958719484312549, 41.043615654920657 ], [ -6.959459700280057, 41.043615654920657 ], [ -6.959459700280057, 41.042751549465109 ], [ -6.960199916247566, 41.042751549465109 ], [ -6.960199916247566, 41.042319492482662 ], [ -6.960940132215074, 41.042319492482662 ], [ -6.960940132215074, 41.041887432663778 ], [ -6.961680348182582, 41.041887432663778 ], [ -6.961680348182582, 41.041455370008464 ], [ -6.975004235597734, 41.041455370008464 ], [ -6.975004235597734, 41.041887432663778 ], [ -6.975744451565242, 41.041887432663778 ], [ -6.975744451565242, 41.042319492482662 ], [ -6.976484667532749, 41.042319492482662 ], [ -6.976484667532749, 41.042751549465109 ], [ -6.977224883500257, 41.042751549465109 ], [ -6.977224883500257, 41.043183603611105 ], [ -6.977965099467767, 41.043183603611105 ], [ -6.977965099467767, 41.043615654920657 ], [ -6.978705315435274, 41.043615654920657 ], [ -6.978705315435274, 41.044047703393765 ], [ -6.979445531402782, 41.044047703393765 ], [ -6.979445531402782, 41.044479749030401 ], [ -6.980185747370291, 41.044479749030401 ], [ -6.980185747370291, 41.044047703393765 ], [ -6.983146611240326, 41.044047703393765 ], [ -6.983146611240326, 41.044479749030401 ], [ -6.983886827207833, 41.044479749030401 ], [ -6.983886827207833, 41.044911791830579 ], [ -6.985367259142849, 41.044911791830579 ], [ -6.985367259142849, 41.045343831794277 ], [ -6.986107475110358, 41.045343831794277 ], [ -6.986107475110358, 41.048368032118454 ], [ -6.986847691077866, 41.048368032118454 ], [ -6.986847691077866, 41.05182409086904 ], [ -6.986107475110358, 41.05182409086904 ], [ -6.986107475110358, 41.052688077191135 ], [ -6.985367259142849, 41.052688077191135 ], [ -6.985367259142849, 41.053120066097314 ], [ -6.984627043175341, 41.053120066097314 ], [ -6.984627043175341, 41.053984035399914 ], [ -6.983886827207833, 41.053984035399914 ], [ -6.983886827207833, 41.05441601579632 ], [ -6.981666179305307, 41.05441601579632 ], [ -6.981666179305307, 41.05484799335612 ], [ -6.978705315435274, 41.05484799335612 ], [ -6.978705315435274, 41.055279968079311 ], [ -6.975744451565242, 41.055279968079311 ], [ -6.975744451565242, 41.055711939965896 ], [ -6.974264019630224, 41.055711939965896 ], [ -6.974264019630224, 41.056143909015852 ], [ -6.973523803662716, 41.056143909015852 ], [ -6.973523803662716, 41.056575875229179 ], [ -6.972783587695208, 41.056575875229179 ], [ -6.972783587695208, 41.057007838605884 ], [ -6.972043371727699, 41.057007838605884 ], [ -6.972043371727699, 41.057439799145939 ], [ -6.97130315576019, 41.057439799145939 ], [ -6.97130315576019, 41.057871756849352 ], [ -6.970562939792683, 41.057871756849352 ], [ -6.970562939792683, 41.058303711716114 ], [ -6.969822723825174, 41.058303711716114 ], [ -6.969822723825174, 41.058735663746226 ], [ -6.966861859955141, 41.058735663746226 ], [ -6.966861859955141, 41.058303711716114 ], [ -6.957979268345041, 41.058303711716114 ], [ -6.957979268345041, 41.057871756849352 ], [ -6.955758620442515, 41.057871756849352 ] ] ], [ [ [ -8.028331557362092, 41.491841601243159 ], [ -8.027591341394585, 41.491841601243159 ], [ -8.027591341394585, 41.491412505773511 ], [ -8.026110909459566, 41.491412505773511 ], [ -8.026110909459566, 41.490983407461606 ], [ -8.025370693492059, 41.490983407461606 ], [ -8.025370693492059, 41.490554306307416 ], [ -8.02463047752455, 41.490554306307416 ], [ -8.02463047752455, 41.490125202310985 ], [ -8.023890261557041, 41.490125202310985 ], [ -8.023890261557041, 41.48969609547229 ], [ -8.022409829622026, 41.48969609547229 ], [ -8.022409829622026, 41.489266985791339 ], [ -8.021669613654517, 41.489266985791339 ], [ -8.021669613654517, 41.48883787326816 ], [ -8.020929397687009, 41.48883787326816 ], [ -8.020929397687009, 41.487121394753068 ], [ -8.0201891817195, 41.487121394753068 ], [ -8.0201891817195, 41.4815425255157 ], [ -8.020929397687009, 41.4815425255157 ], [ -8.020929397687009, 41.478538320052081 ], [ -8.021669613654517, 41.478538320052081 ], [ -8.021669613654517, 41.476392373743145 ], [ -8.022409829622026, 41.476392373743145 ], [ -8.022409829622026, 41.475963175955073 ], [ -8.023150045589533, 41.475963175955073 ], [ -8.023150045589533, 41.475533975324922 ], [ -8.023890261557041, 41.475533975324922 ], [ -8.023890261557041, 41.475104771852692 ], [ -8.025370693492059, 41.475104771852692 ], [ -8.025370693492059, 41.474675565538398 ], [ -8.026851125427076, 41.474675565538398 ], [ -8.026851125427076, 41.475104771852692 ], [ -8.028331557362092, 41.475104771852692 ], [ -8.028331557362092, 41.474675565538398 ], [ -8.029071773329601, 41.474675565538398 ], [ -8.029071773329601, 41.474246356382039 ], [ -8.02981198929711, 41.474246356382039 ], [ -8.02981198929711, 41.473817144383617 ], [ -8.030552205264618, 41.473817144383617 ], [ -8.030552205264618, 41.473387929543144 ], [ -8.031292421232127, 41.473387929543144 ], [ -8.031292421232127, 41.473817144383617 ], [ -8.033513069134651, 41.473817144383617 ], [ -8.033513069134651, 41.474246356382039 ], [ -8.035733717037175, 41.474246356382039 ], [ -8.035733717037175, 41.474675565538398 ], [ -8.036473933004684, 41.474675565538398 ], [ -8.036473933004684, 41.475104771852692 ], [ -8.037214148972193, 41.475104771852692 ], [ -8.037214148972193, 41.476392373743145 ], [ -8.037954364939701, 41.476392373743145 ], [ -8.037954364939701, 41.477679950054807 ], [ -8.038694580907208, 41.477679950054807 ], [ -8.038694580907208, 41.479396678680899 ], [ -8.039434796874717, 41.479396678680899 ], [ -8.039434796874717, 41.4806841953082 ], [ -8.040175012842225, 41.4806841953082 ], [ -8.040175012842225, 41.481971686356232 ], [ -8.040915228809734, 41.481971686356232 ], [ -8.040915228809734, 41.483688301296766 ], [ -8.041655444777243, 41.483688301296766 ], [ -8.041655444777243, 41.48497573265935 ], [ -8.04239566074475, 41.48497573265935 ], [ -8.04239566074475, 41.486692268018743 ], [ -8.041655444777243, 41.486692268018743 ], [ -8.041655444777243, 41.488408757902725 ], [ -8.040915228809734, 41.488408757902725 ], [ -8.040915228809734, 41.48969609547229 ], [ -8.040175012842225, 41.48969609547229 ], [ -8.040175012842225, 41.490125202310985 ], [ -8.039434796874717, 41.490125202310985 ], [ -8.039434796874717, 41.490554306307416 ], [ -8.037954364939701, 41.490554306307416 ], [ -8.037954364939701, 41.490983407461606 ], [ -8.037214148972193, 41.490983407461606 ], [ -8.037214148972193, 41.491412505773511 ], [ -8.035733717037175, 41.491412505773511 ], [ -8.035733717037175, 41.491841601243159 ], [ -8.034993501069668, 41.491841601243159 ], [ -8.034993501069668, 41.492270693870537 ], [ -8.033513069134651, 41.492270693870537 ], [ -8.033513069134651, 41.492699783655624 ], [ -8.032772853167142, 41.492699783655624 ], [ -8.032772853167142, 41.493128870598426 ], [ -8.030552205264618, 41.493128870598426 ], [ -8.030552205264618, 41.492699783655624 ], [ -8.029071773329601, 41.492699783655624 ], [ -8.029071773329601, 41.492270693870537 ], [ -8.028331557362092, 41.492270693870537 ], [ -8.028331557362092, 41.491841601243159 ] ] ], [ [ [ -8.319976648560376, 41.749641005600289 ], [ -8.319236432592868, 41.749641005600289 ], [ -8.319236432592868, 41.748786235762388 ], [ -8.318496216625359, 41.748786235762388 ], [ -8.318496216625359, 41.747076661943048 ], [ -8.31775600065785, 41.747076661943048 ], [ -8.31775600065785, 41.744512215855764 ], [ -8.318496216625359, 41.744512215855764 ], [ -8.318496216625359, 41.742375099205269 ], [ -8.319236432592868, 41.742375099205269 ], [ -8.319236432592868, 41.74152023262846 ], [ -8.320716864527883, 41.74152023262846 ], [ -8.320716864527883, 41.74109279507222 ], [ -8.321457080495392, 41.74109279507222 ], [ -8.321457080495392, 41.740665354670782 ], [ -8.322937512430409, 41.740665354670782 ], [ -8.322937512430409, 41.740237911424124 ], [ -8.323677728397918, 41.740237911424124 ], [ -8.323677728397918, 41.740665354670782 ], [ -8.325158160332935, 41.740665354670782 ], [ -8.325158160332935, 41.74109279507222 ], [ -8.325898376300444, 41.74109279507222 ], [ -8.325898376300444, 41.739810465332269 ], [ -8.325158160332935, 41.739810465332269 ], [ -8.325158160332935, 41.737673192195146 ], [ -8.3221972964629, 41.737673192195146 ], [ -8.3221972964629, 41.737245729032189 ], [ -8.321457080495392, 41.737245729032189 ], [ -8.321457080495392, 41.736390794170767 ], [ -8.320716864527883, 41.736390794170767 ], [ -8.320716864527883, 41.735963322472315 ], [ -8.319976648560376, 41.735963322472315 ], [ -8.319976648560376, 41.735108370539962 ], [ -8.319236432592868, 41.735108370539962 ], [ -8.319236432592868, 41.731688449005198 ], [ -8.319976648560376, 41.731688449005198 ], [ -8.319976648560376, 41.728695868294203 ], [ -8.320716864527883, 41.728695868294203 ], [ -8.320716864527883, 41.728268345383739 ], [ -8.322937512430409, 41.728268345383739 ], [ -8.322937512430409, 41.727840819628213 ], [ -8.325158160332935, 41.727840819628213 ], [ -8.325158160332935, 41.727413291027624 ], [ -8.326638592267953, 41.727413291027624 ], [ -8.326638592267953, 41.727840819628213 ], [ -8.32737880823546, 41.727840819628213 ], [ -8.32737880823546, 41.728268345383739 ], [ -8.328119024202968, 41.728268345383739 ], [ -8.328119024202968, 41.729123388359596 ], [ -8.328859240170477, 41.729123388359596 ], [ -8.328859240170477, 41.729978419955152 ], [ -8.329599456137984, 41.729978419955152 ], [ -8.329599456137984, 41.731688449005198 ], [ -8.330339672105493, 41.731688449005198 ], [ -8.330339672105493, 41.730833440170365 ], [ -8.331079888073001, 41.730833440170365 ], [ -8.331079888073001, 41.729978419955152 ], [ -8.331820104040508, 41.729978419955152 ], [ -8.331820104040508, 41.729550905579913 ], [ -8.332560320008017, 41.729550905579913 ], [ -8.332560320008017, 41.728695868294203 ], [ -8.333300535975527, 41.728695868294203 ], [ -8.333300535975527, 41.725275605348941 ], [ -8.332560320008017, 41.725275605348941 ], [ -8.332560320008017, 41.723137848544468 ], [ -8.333300535975527, 41.723137848544468 ], [ -8.333300535975527, 41.722282725907597 ], [ -8.334040751943034, 41.722282725907597 ], [ -8.334040751943034, 41.721427591890738 ], [ -8.334780967910543, 41.721427591890738 ], [ -8.334780967910543, 41.720572446493932 ], [ -8.335521183878051, 41.720572446493932 ], [ -8.335521183878051, 41.720144869528049 ], [ -8.337741831780576, 41.720144869528049 ], [ -8.337741831780576, 41.720572446493932 ], [ -8.343663559520643, 41.720572446493932 ], [ -8.343663559520643, 41.721427591890738 ], [ -8.344403775488152, 41.721427591890738 ], [ -8.344403775488152, 41.722710288648543 ], [ -8.345143991455661, 41.722710288648543 ], [ -8.345143991455661, 41.723565405595402 ], [ -8.345884207423168, 41.723565405595402 ], [ -8.345884207423168, 41.723992959801322 ], [ -8.346624423390676, 41.723992959801322 ], [ -8.346624423390676, 41.723565405595402 ], [ -8.347364639358185, 41.723565405595402 ], [ -8.347364639358185, 41.723137848544468 ], [ -8.348104855325694, 41.723137848544468 ], [ -8.348104855325694, 41.722710288648543 ], [ -8.348845071293201, 41.722710288648543 ], [ -8.348845071293201, 41.722282725907597 ], [ -8.349585287260711, 41.722282725907597 ], [ -8.349585287260711, 41.721855160321667 ], [ -8.350325503228218, 41.721855160321667 ], [ -8.350325503228218, 41.721000020614817 ], [ -8.351065719195725, 41.721000020614817 ], [ -8.351065719195725, 41.719717289717202 ], [ -8.351805935163235, 41.719717289717202 ], [ -8.351805935163235, 41.718862121560612 ], [ -8.352546151130742, 41.718862121560612 ], [ -8.352546151130742, 41.718006942024175 ], [ -8.357727662903301, 41.718006942024175 ], [ -8.357727662903301, 41.718862121560612 ], [ -8.35846787887081, 41.718862121560612 ], [ -8.35846787887081, 41.720144869528049 ], [ -8.359208094838319, 41.720144869528049 ], [ -8.359208094838319, 41.721427591890738 ], [ -8.359948310805827, 41.721427591890738 ], [ -8.359948310805827, 41.722710288648543 ], [ -8.360688526773336, 41.722710288648543 ], [ -8.360688526773336, 41.723565405595402 ], [ -8.362168958708351, 41.723565405595402 ], [ -8.362168958708351, 41.723992959801322 ], [ -8.363649390643369, 41.723992959801322 ], [ -8.363649390643369, 41.724420511162222 ], [ -8.365129822578384, 41.724420511162222 ], [ -8.365129822578384, 41.726985759581986 ], [ -8.365870038545893, 41.726985759581986 ], [ -8.365870038545893, 41.73126094601033 ], [ -8.365129822578384, 41.73126094601033 ], [ -8.365129822578384, 41.732115949154959 ], [ -8.364389606610876, 41.732115949154959 ], [ -8.364389606610876, 41.732543446459609 ], [ -8.363649390643369, 41.732543446459609 ], [ -8.363649390643369, 41.733398432533576 ], [ -8.359208094838319, 41.733398432533576 ], [ -8.359208094838319, 41.734253407227037 ], [ -8.35846787887081, 41.734253407227037 ], [ -8.35846787887081, 41.735108370539962 ], [ -8.357727662903301, 41.735108370539962 ], [ -8.357727662903301, 41.735963322472315 ], [ -8.356987446935792, 41.735963322472315 ], [ -8.356987446935792, 41.737245729032189 ], [ -8.356247230968284, 41.737245729032189 ], [ -8.356247230968284, 41.738100652512934 ], [ -8.355507015000775, 41.738100652512934 ], [ -8.355507015000775, 41.739383016395223 ], [ -8.354766799033268, 41.739383016395223 ], [ -8.354766799033268, 41.740237911424124 ], [ -8.354026583065759, 41.740237911424124 ], [ -8.354026583065759, 41.74152023262846 ], [ -8.353286367098251, 41.74152023262846 ], [ -8.353286367098251, 41.742375099205269 ], [ -8.352546151130742, 41.742375099205269 ], [ -8.352546151130742, 41.742802528225845 ], [ -8.351065719195725, 41.742802528225845 ], [ -8.351065719195725, 41.74322995440118 ], [ -8.350325503228218, 41.74322995440118 ], [ -8.350325503228218, 41.743657377731282 ], [ -8.348845071293201, 41.743657377731282 ], [ -8.348845071293201, 41.744084798216143 ], [ -8.347364639358185, 41.744084798216143 ], [ -8.347364639358185, 41.744512215855764 ], [ -8.346624423390676, 41.744512215855764 ], [ -8.346624423390676, 41.74493963065013 ], [ -8.345884207423168, 41.74493963065013 ], [ -8.345884207423168, 41.746221857961686 ], [ -8.345143991455661, 41.746221857961686 ], [ -8.345143991455661, 41.747076661943048 ], [ -8.344403775488152, 41.747076661943048 ], [ -8.344403775488152, 41.748358846575485 ], [ -8.343663559520643, 41.748358846575485 ], [ -8.343663559520643, 41.749641005600289 ], [ -8.342923343553135, 41.749641005600289 ], [ -8.342923343553135, 41.750068386251272 ], [ -8.330339672105493, 41.750068386251272 ], [ -8.330339672105493, 41.749641005600289 ], [ -8.329599456137984, 41.749641005600289 ], [ -8.329599456137984, 41.74921362210398 ], [ -8.328859240170477, 41.74921362210398 ], [ -8.328859240170477, 41.748786235762388 ], [ -8.32737880823546, 41.748786235762388 ], [ -8.32737880823546, 41.74921362210398 ], [ -8.326638592267953, 41.74921362210398 ], [ -8.326638592267953, 41.749641005600289 ], [ -8.325898376300444, 41.749641005600289 ], [ -8.325898376300444, 41.750068386251272 ], [ -8.325158160332935, 41.750068386251272 ], [ -8.325158160332935, 41.75049576405695 ], [ -8.324417944365427, 41.75049576405695 ], [ -8.324417944365427, 41.75092313901731 ], [ -8.3221972964629, 41.75092313901731 ], [ -8.3221972964629, 41.75049576405695 ], [ -8.320716864527883, 41.75049576405695 ], [ -8.320716864527883, 41.750068386251272 ], [ -8.319976648560376, 41.750068386251272 ], [ -8.319976648560376, 41.749641005600289 ] ] ], [ [ [ -3.840189613199936, 43.417224635670451 ], [ -3.839449397232428, 43.417224635670451 ], [ -3.839449397232428, 43.416808533587954 ], [ -3.838709181264919, 43.416808533587954 ], [ -3.838709181264919, 43.41639242864612 ], [ -3.837228749329902, 43.41639242864612 ], [ -3.837228749329902, 43.415976320844933 ], [ -3.836488533362394, 43.415976320844933 ], [ -3.836488533362394, 43.415560210184402 ], [ -3.835748317394887, 43.415560210184402 ], [ -3.835748317394887, 43.415144096664527 ], [ -3.835008101427377, 43.415144096664527 ], [ -3.835008101427377, 43.414727980285306 ], [ -3.83426788545987, 43.414727980285306 ], [ -3.83426788545987, 43.412647355499239 ], [ -3.833527669492361, 43.412647355499239 ], [ -3.833527669492361, 43.40806972934962 ], [ -3.83426788545987, 43.40806972934962 ], [ -3.83426788545987, 43.407653564361979 ], [ -3.835008101427377, 43.407653564361979 ], [ -3.835008101427377, 43.40723739651505 ], [ -3.835748317394887, 43.40723739651505 ], [ -3.835748317394887, 43.40682122580882 ], [ -3.836488533362394, 43.40682122580882 ], [ -3.836488533362394, 43.406405052243301 ], [ -3.837228749329902, 43.406405052243301 ], [ -3.837228749329902, 43.405988875818487 ], [ -3.837968965297411, 43.405988875818487 ], [ -3.837968965297411, 43.405572696534385 ], [ -3.838709181264919, 43.405572696534385 ], [ -3.838709181264919, 43.405156514391003 ], [ -3.839449397232428, 43.405156514391003 ], [ -3.839449397232428, 43.404740329388332 ], [ -3.840189613199936, 43.404740329388332 ], [ -3.840189613199936, 43.404324141526388 ], [ -3.845371124972494, 43.404324141526388 ], [ -3.845371124972494, 43.404740329388332 ], [ -3.846111340940003, 43.404740329388332 ], [ -3.846111340940003, 43.405156514391003 ], [ -3.846851556907511, 43.405156514391003 ], [ -3.846851556907511, 43.405988875818487 ], [ -3.84759177287502, 43.405988875818487 ], [ -3.84759177287502, 43.406405052243301 ], [ -3.848331988842528, 43.406405052243301 ], [ -3.848331988842528, 43.40682122580882 ], [ -3.849072204810036, 43.40682122580882 ], [ -3.849072204810036, 43.407653564361979 ], [ -3.849812420777544, 43.407653564361979 ], [ -3.849812420777544, 43.40806972934962 ], [ -3.850552636745053, 43.40806972934962 ], [ -3.850552636745053, 43.410150511398221 ], [ -3.85129285271256, 43.410150511398221 ], [ -3.85129285271256, 43.413895738948874 ], [ -3.850552636745053, 43.413895738948874 ], [ -3.850552636745053, 43.415560210184402 ], [ -3.849812420777544, 43.415560210184402 ], [ -3.849812420777544, 43.415976320844933 ], [ -3.848331988842528, 43.415976320844933 ], [ -3.848331988842528, 43.41639242864612 ], [ -3.84759177287502, 43.41639242864612 ], [ -3.84759177287502, 43.416808533587954 ], [ -3.846111340940003, 43.416808533587954 ], [ -3.846111340940003, 43.417224635670451 ], [ -3.844630909004986, 43.417224635670451 ], [ -3.844630909004986, 43.417640734893581 ], [ -3.843150477069969, 43.417640734893581 ], [ -3.843150477069969, 43.418056831257374 ], [ -3.840929829167444, 43.418056831257374 ], [ -3.840929829167444, 43.417640734893581 ], [ -3.840189613199936, 43.417640734893581 ], [ -3.840189613199936, 43.417224635670451 ] ] ], [ [ [ -5.724039250508648, 43.536527753207956 ], [ -5.72255881857363, 43.536527753207956 ], [ -5.72255881857363, 43.535697187634213 ], [ -5.721818602606122, 43.535697187634213 ], [ -5.721818602606122, 43.534866610620547 ], [ -5.721078386638613, 43.534866610620547 ], [ -5.721078386638613, 43.533620723650237 ], [ -5.720338170671106, 43.533620723650237 ], [ -5.720338170671106, 43.532790118036843 ], [ -5.719597954703597, 43.532790118036843 ], [ -5.719597954703597, 43.531959500983589 ], [ -5.718857738736089, 43.531959500983589 ], [ -5.718857738736089, 43.530713553953994 ], [ -5.718117522768581, 43.530713553953994 ], [ -5.718117522768581, 43.529882908301154 ], [ -5.717377306801072, 43.529882908301154 ], [ -5.717377306801072, 43.529052251208505 ], [ -5.716637090833564, 43.529052251208505 ], [ -5.716637090833564, 43.527806244119944 ], [ -5.715896874866057, 43.527806244119944 ], [ -5.715896874866057, 43.526975558427864 ], [ -5.715156658898548, 43.526975558427864 ], [ -5.715156658898548, 43.525314152724491 ], [ -5.715896874866057, 43.525314152724491 ], [ -5.715896874866057, 43.521575822586357 ], [ -5.716637090833564, 43.521575822586357 ], [ -5.716637090833564, 43.520329661061893 ], [ -5.718117522768581, 43.520329661061893 ], [ -5.718117522768581, 43.519914268167263 ], [ -5.718857738736089, 43.519914268167263 ], [ -5.718857738736089, 43.519498872412733 ], [ -5.719597954703597, 43.519498872412733 ], [ -5.719597954703597, 43.519083473798304 ], [ -5.720338170671106, 43.519083473798304 ], [ -5.720338170671106, 43.518668072323983 ], [ -5.721078386638613, 43.518668072323983 ], [ -5.721078386638613, 43.518252667989771 ], [ -5.721818602606122, 43.518252667989771 ], [ -5.721818602606122, 43.517837260795666 ], [ -5.72255881857363, 43.517837260795666 ], [ -5.72255881857363, 43.51742185074167 ], [ -5.723299034541139, 43.51742185074167 ], [ -5.723299034541139, 43.517006437827789 ], [ -5.724039250508648, 43.517006437827789 ], [ -5.724039250508648, 43.516591022054023 ], [ -5.724779466476156, 43.516591022054023 ], [ -5.724779466476156, 43.516175603420372 ], [ -5.727000114378681, 43.516175603420372 ], [ -5.727000114378681, 43.515760181926844 ], [ -5.728480546313697, 43.515760181926844 ], [ -5.728480546313697, 43.51534475757343 ], [ -5.730701194216222, 43.51534475757343 ], [ -5.730701194216222, 43.514929330360154 ], [ -5.733662058086256, 43.514929330360154 ], [ -5.733662058086256, 43.51534475757343 ], [ -5.734402274053765, 43.51534475757343 ], [ -5.734402274053765, 43.515760181926844 ], [ -5.735142490021273, 43.515760181926844 ], [ -5.735142490021273, 43.516175603420372 ], [ -5.73588270598878, 43.516175603420372 ], [ -5.73588270598878, 43.516591022054023 ], [ -5.73662292195629, 43.516591022054023 ], [ -5.73662292195629, 43.517006437827789 ], [ -5.737363137923798, 43.517006437827789 ], [ -5.737363137923798, 43.51742185074167 ], [ -5.738103353891305, 43.51742185074167 ], [ -5.738103353891305, 43.517837260795666 ], [ -5.739583785826321, 43.517837260795666 ], [ -5.739583785826321, 43.518252667989771 ], [ -5.74032400179383, 43.518252667989771 ], [ -5.74032400179383, 43.518668072323983 ], [ -5.741064217761339, 43.518668072323983 ], [ -5.741064217761339, 43.519083473798304 ], [ -5.741804433728848, 43.519083473798304 ], [ -5.741804433728848, 43.519498872412733 ], [ -5.742544649696356, 43.519498872412733 ], [ -5.742544649696356, 43.519914268167263 ], [ -5.743284865663864, 43.519914268167263 ], [ -5.743284865663864, 43.520329661061893 ], [ -5.744025081631372, 43.520329661061893 ], [ -5.744025081631372, 43.520745051096618 ], [ -5.744765297598882, 43.520745051096618 ], [ -5.744765297598882, 43.529052251208505 ], [ -5.744025081631372, 43.529052251208505 ], [ -5.744025081631372, 43.529882908301154 ], [ -5.743284865663864, 43.529882908301154 ], [ -5.743284865663864, 43.530713553953994 ], [ -5.742544649696356, 43.530713553953994 ], [ -5.742544649696356, 43.531544188167018 ], [ -5.741804433728848, 43.531544188167018 ], [ -5.741804433728848, 43.531959500983589 ], [ -5.741064217761339, 43.531959500983589 ], [ -5.741064217761339, 43.532790118036843 ], [ -5.74032400179383, 43.532790118036843 ], [ -5.74032400179383, 43.533620723650237 ], [ -5.739583785826321, 43.533620723650237 ], [ -5.739583785826321, 43.53403602216698 ], [ -5.738843569858814, 43.53403602216698 ], [ -5.738843569858814, 43.534451317823752 ], [ -5.738103353891305, 43.534451317823752 ], [ -5.738103353891305, 43.534866610620547 ], [ -5.737363137923798, 43.534866610620547 ], [ -5.737363137923798, 43.535281900557365 ], [ -5.73662292195629, 43.535281900557365 ], [ -5.73662292195629, 43.535697187634213 ], [ -5.73588270598878, 43.535697187634213 ], [ -5.73588270598878, 43.536112471851069 ], [ -5.735142490021273, 43.536112471851069 ], [ -5.735142490021273, 43.536527753207956 ], [ -5.734402274053765, 43.536527753207956 ], [ -5.734402274053765, 43.536943031704851 ], [ -5.733662058086256, 43.536943031704851 ], [ -5.733662058086256, 43.537358307341755 ], [ -5.732921842118747, 43.537358307341755 ], [ -5.732921842118747, 43.537773580118674 ], [ -5.729960978248714, 43.537773580118674 ], [ -5.729960978248714, 43.537358307341755 ], [ -5.727000114378681, 43.537358307341755 ], [ -5.727000114378681, 43.536943031704851 ], [ -5.724039250508648, 43.536943031704851 ], [ -5.724039250508648, 43.536527753207956 ] ] ], [ [ [ -5.821007542252239, 43.549400056708208 ], [ -5.82026732628473, 43.549400056708208 ], [ -5.82026732628473, 43.546908857629347 ], [ -5.819527110317222, 43.546908857629347 ], [ -5.819527110317222, 43.54192615058799 ], [ -5.818786894349714, 43.54192615058799 ], [ -5.818786894349714, 43.541510906411077 ], [ -5.818046678382206, 43.541510906411077 ], [ -5.818046678382206, 43.541095659374164 ], [ -5.817306462414698, 43.541095659374164 ], [ -5.817306462414698, 43.540680409477226 ], [ -5.816566246447189, 43.540680409477226 ], [ -5.816566246447189, 43.539434642626411 ], [ -5.815826030479681, 43.539434642626411 ], [ -5.815826030479681, 43.537773580118674 ], [ -5.815085814512173, 43.537773580118674 ], [ -5.815085814512173, 43.536527753207956 ], [ -5.815826030479681, 43.536527753207956 ], [ -5.815826030479681, 43.535281900557365 ], [ -5.816566246447189, 43.535281900557365 ], [ -5.816566246447189, 43.53403602216698 ], [ -5.817306462414698, 43.53403602216698 ], [ -5.817306462414698, 43.533205422273518 ], [ -5.818046678382206, 43.533205422273518 ], [ -5.818046678382206, 43.531959500983589 ], [ -5.821007542252239, 43.531959500983589 ], [ -5.821007542252239, 43.53237481094019 ], [ -5.823968406122273, 43.53237481094019 ], [ -5.823968406122273, 43.531959500983589 ], [ -5.824708622089781, 43.531959500983589 ], [ -5.824708622089781, 43.531544188167018 ], [ -5.82544883805729, 43.531544188167018 ], [ -5.82544883805729, 43.531128872490477 ], [ -5.826189054024797, 43.531128872490477 ], [ -5.826189054024797, 43.530713553953994 ], [ -5.827669485959815, 43.530713553953994 ], [ -5.827669485959815, 43.530298232557548 ], [ -5.828409701927322, 43.530298232557548 ], [ -5.828409701927322, 43.529882908301154 ], [ -5.829149917894831, 43.529882908301154 ], [ -5.829149917894831, 43.529467581184797 ], [ -5.829890133862339, 43.529467581184797 ], [ -5.829890133862339, 43.529052251208505 ], [ -5.830630349829847, 43.529052251208505 ], [ -5.830630349829847, 43.528636918372264 ], [ -5.832110781764865, 43.528636918372264 ], [ -5.832110781764865, 43.529052251208505 ], [ -5.832850997732372, 43.529052251208505 ], [ -5.832850997732372, 43.529467581184797 ], [ -5.833591213699881, 43.529467581184797 ], [ -5.833591213699881, 43.529882908301154 ], [ -5.834331429667389, 43.529882908301154 ], [ -5.834331429667389, 43.530298232557548 ], [ -5.835071645634897, 43.530298232557548 ], [ -5.835071645634897, 43.531128872490477 ], [ -5.835811861602406, 43.531128872490477 ], [ -5.835811861602406, 43.531544188167018 ], [ -5.836552077569914, 43.531544188167018 ], [ -5.836552077569914, 43.531959500983589 ], [ -5.837292293537423, 43.531959500983589 ], [ -5.837292293537423, 43.532790118036843 ], [ -5.838032509504931, 43.532790118036843 ], [ -5.838032509504931, 43.533205422273518 ], [ -5.841733589342473, 43.533205422273518 ], [ -5.841733589342473, 43.532790118036843 ], [ -5.842473805309981, 43.532790118036843 ], [ -5.842473805309981, 43.53237481094019 ], [ -5.843954237244998, 43.53237481094019 ], [ -5.843954237244998, 43.531959500983589 ], [ -5.846174885147523, 43.531959500983589 ], [ -5.846174885147523, 43.53237481094019 ], [ -5.846915101115031, 43.53237481094019 ], [ -5.846915101115031, 43.533205422273518 ], [ -5.847655317082539, 43.533205422273518 ], [ -5.847655317082539, 43.533620723650237 ], [ -5.848395533050048, 43.533620723650237 ], [ -5.848395533050048, 43.53403602216698 ], [ -5.849135749017555, 43.53403602216698 ], [ -5.849135749017555, 43.534451317823752 ], [ -5.849875964985064, 43.534451317823752 ], [ -5.849875964985064, 43.535281900557365 ], [ -5.850616180952573, 43.535281900557365 ], [ -5.850616180952573, 43.539019381289471 ], [ -5.85135639692008, 43.539019381289471 ], [ -5.85135639692008, 43.542756630361758 ], [ -5.852096612887589, 43.542756630361758 ], [ -5.852096612887589, 43.546493647772721 ], [ -5.85135639692008, 43.546493647772721 ], [ -5.85135639692008, 43.54815447003898 ], [ -5.850616180952573, 43.54815447003898 ], [ -5.850616180952573, 43.549815246544526 ], [ -5.849875964985064, 43.549815246544526 ], [ -5.849875964985064, 43.550230433520795 ], [ -5.849135749017555, 43.550230433520795 ], [ -5.849135749017555, 43.550645617637002 ], [ -5.847655317082539, 43.550645617637002 ], [ -5.847655317082539, 43.551060798893154 ], [ -5.846915101115031, 43.551060798893154 ], [ -5.846915101115031, 43.551475977289243 ], [ -5.844694453212505, 43.551475977289243 ], [ -5.844694453212505, 43.551060798893154 ], [ -5.842473805309981, 43.551060798893154 ], [ -5.842473805309981, 43.550645617637002 ], [ -5.840993373374964, 43.550645617637002 ], [ -5.840993373374964, 43.550230433520795 ], [ -5.83877272547244, 43.550230433520795 ], [ -5.83877272547244, 43.549815246544526 ], [ -5.837292293537423, 43.549815246544526 ], [ -5.837292293537423, 43.549400056708208 ], [ -5.835071645634897, 43.549400056708208 ], [ -5.835071645634897, 43.548984864011857 ], [ -5.833591213699881, 43.548984864011857 ], [ -5.833591213699881, 43.548569668455436 ], [ -5.831370565797356, 43.548569668455436 ], [ -5.831370565797356, 43.54815447003898 ], [ -5.830630349829847, 43.54815447003898 ], [ -5.830630349829847, 43.549400056708208 ], [ -5.829890133862339, 43.549400056708208 ], [ -5.829890133862339, 43.550230433520795 ], [ -5.829149917894831, 43.550230433520795 ], [ -5.829149917894831, 43.551060798893154 ], [ -5.828409701927322, 43.551060798893154 ], [ -5.828409701927322, 43.551891152825284 ], [ -5.822487974187256, 43.551891152825284 ], [ -5.822487974187256, 43.551060798893154 ], [ -5.821747758219748, 43.551060798893154 ], [ -5.821747758219748, 43.550230433520795 ], [ -5.821007542252239, 43.550230433520795 ], [ -5.821007542252239, 43.549400056708208 ] ] ], [ [ [ -0.270128001907239, 35.536941188629832 ], [ -0.270128001907239, 35.536008878650335 ], [ -0.269387785939731, 35.536008878650335 ], [ -0.269387785939731, 35.53507655783536 ], [ -0.268647569972222, 35.53507655783536 ], [ -0.268647569972222, 35.534610393364595 ], [ -0.267907354004714, 35.534610393364595 ], [ -0.267907354004714, 35.528083806354168 ], [ -0.268647569972222, 35.528083806354168 ], [ -0.268647569972222, 35.527617601252622 ], [ -0.269387785939731, 35.527617601252622 ], [ -0.269387785939731, 35.526685182923728 ], [ -0.270128001907239, 35.526685182923728 ], [ -0.270128001907239, 35.52621896969643 ], [ -0.270868217874747, 35.52621896969643 ], [ -0.270868217874747, 35.525752753760564 ], [ -0.271608433842256, 35.525752753760564 ], [ -0.271608433842256, 35.525286535116166 ], [ -0.272348649809764, 35.525286535116166 ], [ -0.272348649809764, 35.524820313763243 ], [ -0.273088865777272, 35.524820313763243 ], [ -0.273088865777272, 35.524354089701824 ], [ -0.273829081744781, 35.524354089701824 ], [ -0.273829081744781, 35.523887862931907 ], [ -0.274569297712289, 35.523887862931907 ], [ -0.274569297712289, 35.522955401266628 ], [ -0.275309513679797, 35.522955401266628 ], [ -0.275309513679797, 35.522489166371336 ], [ -0.276049729647306, 35.522489166371336 ], [ -0.276049729647306, 35.522022928767583 ], [ -0.276789945614814, 35.522022928767583 ], [ -0.276789945614814, 35.521556688455441 ], [ -0.277530161582322, 35.521556688455441 ], [ -0.277530161582322, 35.521090445434879 ], [ -0.279750809484847, 35.521090445434879 ], [ -0.279750809484847, 35.521556688455441 ], [ -0.280491025452356, 35.521556688455441 ], [ -0.280491025452356, 35.522022928767583 ], [ -0.281231241419864, 35.522022928767583 ], [ -0.281231241419864, 35.522489166371336 ], [ -0.281971457387372, 35.522489166371336 ], [ -0.281971457387372, 35.523421633453495 ], [ -0.282711673354881, 35.523421633453495 ], [ -0.282711673354881, 35.523887862931907 ], [ -0.283451889322389, 35.523887862931907 ], [ -0.283451889322389, 35.530414791232431 ], [ -0.282711673354881, 35.530414791232431 ], [ -0.282711673354881, 35.53507655783536 ], [ -0.281971457387372, 35.53507655783536 ], [ -0.281971457387372, 35.535542719597274 ], [ -0.281231241419864, 35.535542719597274 ], [ -0.281231241419864, 35.536008878650335 ], [ -0.280491025452356, 35.536008878650335 ], [ -0.280491025452356, 35.536475034994524 ], [ -0.279750809484847, 35.536475034994524 ], [ -0.279750809484847, 35.536941188629832 ], [ -0.279010593517339, 35.536941188629832 ], [ -0.279010593517339, 35.537407339556246 ], [ -0.278270377549831, 35.537407339556246 ], [ -0.278270377549831, 35.537873487773723 ], [ -0.275309513679797, 35.537873487773723 ], [ -0.275309513679797, 35.537407339556246 ], [ -0.272348649809764, 35.537407339556246 ], [ -0.272348649809764, 35.536941188629832 ], [ -0.270128001907239, 35.536941188629832 ] ] ], [ [ [ -0.276789945614814, 35.824969885320684 ], [ -0.276789945614814, 35.824505411354338 ], [ -0.276049729647306, 35.824505411354338 ], [ -0.276049729647306, 35.824040934669902 ], [ -0.274569297712289, 35.824040934669902 ], [ -0.274569297712289, 35.8235764552674 ], [ -0.271608433842256, 35.8235764552674 ], [ -0.271608433842256, 35.82311197314683 ], [ -0.269387785939731, 35.82311197314683 ], [ -0.269387785939731, 35.822647488308213 ], [ -0.266426922069697, 35.822647488308213 ], [ -0.266426922069697, 35.822183000751579 ], [ -0.264206274167172, 35.822183000751579 ], [ -0.264206274167172, 35.821718510476927 ], [ -0.261245410297139, 35.821718510476927 ], [ -0.261245410297139, 35.821254017484272 ], [ -0.260505194329631, 35.821254017484272 ], [ -0.260505194329631, 35.820325023345006 ], [ -0.259764978362122, 35.820325023345006 ], [ -0.259764978362122, 35.819860522198454 ], [ -0.259024762394614, 35.819860522198454 ], [ -0.259024762394614, 35.818931511751508 ], [ -0.258284546427106, 35.818931511751508 ], [ -0.258284546427106, 35.818467002451158 ], [ -0.257544330459597, 35.818467002451158 ], [ -0.257544330459597, 35.818002490432896 ], [ -0.256804114492089, 35.818002490432896 ], [ -0.256804114492089, 35.81753797569678 ], [ -0.253103034654547, 35.81753797569678 ], [ -0.253103034654547, 35.817073458242774 ], [ -0.248661738849497, 35.817073458242774 ], [ -0.248661738849497, 35.816608938070921 ], [ -0.246441090946972, 35.816608938070921 ], [ -0.246441090946972, 35.817073458242774 ], [ -0.245700874979464, 35.817073458242774 ], [ -0.245700874979464, 35.81753797569678 ], [ -0.244960659011956, 35.81753797569678 ], [ -0.244960659011956, 35.818002490432896 ], [ -0.244220443044447, 35.818002490432896 ], [ -0.244220443044447, 35.818467002451158 ], [ -0.243480227076939, 35.818467002451158 ], [ -0.243480227076939, 35.818931511751508 ], [ -0.242740011109431, 35.818931511751508 ], [ -0.242740011109431, 35.81939601833394 ], [ -0.239779147239397, 35.81939601833394 ], [ -0.239779147239397, 35.818931511751508 ], [ -0.237558499336872, 35.818931511751508 ], [ -0.237558499336872, 35.818467002451158 ], [ -0.236078067401856, 35.818467002451158 ], [ -0.236078067401856, 35.818002490432896 ], [ -0.234597635466839, 35.818002490432896 ], [ -0.234597635466839, 35.81753797569678 ], [ -0.232376987564314, 35.81753797569678 ], [ -0.232376987564314, 35.817073458242774 ], [ -0.231636771596806, 35.817073458242774 ], [ -0.231636771596806, 35.816144415181228 ], [ -0.230896555629297, 35.816144415181228 ], [ -0.230896555629297, 35.815215361248384 ], [ -0.230156339661789, 35.815215361248384 ], [ -0.230156339661789, 35.814286296444358 ], [ -0.229416123694281, 35.814286296444358 ], [ -0.229416123694281, 35.813821759965677 ], [ -0.228675907726772, 35.813821759965677 ], [ -0.228675907726772, 35.813357220769255 ], [ -0.227195475791756, 35.813357220769255 ], [ -0.227195475791756, 35.812892678855093 ], [ -0.225715043856739, 35.812892678855093 ], [ -0.225715043856739, 35.812428134223211 ], [ -0.224234611921722, 35.812428134223211 ], [ -0.224234611921722, 35.810569928518746 ], [ -0.223494395954214, 35.810569928518746 ], [ -0.223494395954214, 35.805924224024189 ], [ -0.224234611921722, 35.805924224024189 ], [ -0.224234611921722, 35.803601269869652 ], [ -0.224974827889231, 35.803601269869652 ], [ -0.224974827889231, 35.803136670886389 ], [ -0.225715043856739, 35.803136670886389 ], [ -0.225715043856739, 35.80220746476764 ], [ -0.226455259824247, 35.80220746476764 ], [ -0.226455259824247, 35.801742857632192 ], [ -0.227195475791756, 35.801742857632192 ], [ -0.227195475791756, 35.801278247779365 ], [ -0.228675907726772, 35.801278247779365 ], [ -0.228675907726772, 35.800813635209181 ], [ -0.233117203531822, 35.800813635209181 ], [ -0.233117203531822, 35.800349019921647 ], [ -0.233857419499331, 35.800349019921647 ], [ -0.233857419499331, 35.800813635209181 ], [ -0.234597635466839, 35.800813635209181 ], [ -0.234597635466839, 35.801278247779365 ], [ -0.236078067401856, 35.801278247779365 ], [ -0.236078067401856, 35.801742857632192 ], [ -0.236818283369364, 35.801742857632192 ], [ -0.236818283369364, 35.80220746476764 ], [ -0.237558499336872, 35.80220746476764 ], [ -0.237558499336872, 35.802672069185711 ], [ -0.239038931271889, 35.802672069185711 ], [ -0.239038931271889, 35.801278247779365 ], [ -0.239779147239397, 35.801278247779365 ], [ -0.239779147239397, 35.799884401916799 ], [ -0.240519363206906, 35.799884401916799 ], [ -0.240519363206906, 35.798955157755167 ], [ -0.241259579174414, 35.798955157755167 ], [ -0.241259579174414, 35.798490531598425 ], [ -0.241999795141922, 35.798490531598425 ], [ -0.241999795141922, 35.798025902724412 ], [ -0.243480227076939, 35.798025902724412 ], [ -0.243480227076939, 35.797561271133148 ], [ -0.245700874979464, 35.797561271133148 ], [ -0.245700874979464, 35.798025902724412 ], [ -0.247181306914481, 35.798025902724412 ], [ -0.247181306914481, 35.798490531598425 ], [ -0.247921522881989, 35.798490531598425 ], [ -0.247921522881989, 35.798955157755167 ], [ -0.248661738849497, 35.798955157755167 ], [ -0.248661738849497, 35.799419781194644 ], [ -0.250142170784514, 35.799419781194644 ], [ -0.250142170784514, 35.799884401916799 ], [ -0.250882386752022, 35.799884401916799 ], [ -0.250882386752022, 35.799419781194644 ], [ -0.253103034654547, 35.799419781194644 ], [ -0.253103034654547, 35.798955157755167 ], [ -0.254583466589564, 35.798955157755167 ], [ -0.254583466589564, 35.798490531598425 ], [ -0.256804114492089, 35.798490531598425 ], [ -0.256804114492089, 35.798025902724412 ], [ -0.258284546427106, 35.798025902724412 ], [ -0.258284546427106, 35.797561271133148 ], [ -0.261985626264647, 35.797561271133148 ], [ -0.261985626264647, 35.798025902724412 ], [ -0.264206274167172, 35.798025902724412 ], [ -0.264206274167172, 35.798490531598425 ], [ -0.266426922069697, 35.798490531598425 ], [ -0.266426922069697, 35.799419781194644 ], [ -0.267167138037206, 35.799419781194644 ], [ -0.267167138037206, 35.800349019921647 ], [ -0.267907354004714, 35.800349019921647 ], [ -0.267907354004714, 35.801278247779365 ], [ -0.268647569972222, 35.801278247779365 ], [ -0.268647569972222, 35.80220746476764 ], [ -0.269387785939731, 35.80220746476764 ], [ -0.269387785939731, 35.802672069185711 ], [ -0.270868217874747, 35.802672069185711 ], [ -0.270868217874747, 35.803136670886389 ], [ -0.271608433842256, 35.803136670886389 ], [ -0.271608433842256, 35.803601269869652 ], [ -0.273088865777272, 35.803601269869652 ], [ -0.273088865777272, 35.804065866135467 ], [ -0.275309513679797, 35.804065866135467 ], [ -0.275309513679797, 35.803136670886389 ], [ -0.276049729647306, 35.803136670886389 ], [ -0.276049729647306, 35.80220746476764 ], [ -0.276789945614814, 35.80220746476764 ], [ -0.276789945614814, 35.801278247779365 ], [ -0.277530161582322, 35.801278247779365 ], [ -0.277530161582322, 35.800813635209181 ], [ -0.282711673354881, 35.800813635209181 ], [ -0.282711673354881, 35.801742857632192 ], [ -0.283451889322389, 35.801742857632192 ], [ -0.283451889322389, 35.802672069185711 ], [ -0.284192105289897, 35.802672069185711 ], [ -0.284192105289897, 35.803136670886389 ], [ -0.284932321257406, 35.803136670886389 ], [ -0.284932321257406, 35.804995050514783 ], [ -0.285672537224914, 35.804995050514783 ], [ -0.285672537224914, 35.811499036806339 ], [ -0.286412753192422, 35.811499036806339 ], [ -0.286412753192422, 35.81753797569678 ], [ -0.287152969159931, 35.81753797569678 ], [ -0.287152969159931, 35.821254017484272 ], [ -0.286412753192422, 35.821254017484272 ], [ -0.286412753192422, 35.822183000751579 ], [ -0.285672537224914, 35.822183000751579 ], [ -0.285672537224914, 35.822647488308213 ], [ -0.284932321257406, 35.822647488308213 ], [ -0.284932321257406, 35.82311197314683 ], [ -0.284192105289897, 35.82311197314683 ], [ -0.284192105289897, 35.8235764552674 ], [ -0.283451889322389, 35.8235764552674 ], [ -0.283451889322389, 35.824040934669902 ], [ -0.282711673354881, 35.824040934669902 ], [ -0.282711673354881, 35.824505411354338 ], [ -0.281971457387372, 35.824505411354338 ], [ -0.281971457387372, 35.824969885320684 ], [ -0.281231241419864, 35.824969885320684 ], [ -0.281231241419864, 35.82543435656892 ], [ -0.280491025452356, 35.82543435656892 ], [ -0.280491025452356, 35.825898825099053 ], [ -0.278270377549831, 35.825898825099053 ], [ -0.278270377549831, 35.82543435656892 ], [ -0.277530161582322, 35.82543435656892 ], [ -0.277530161582322, 35.824969885320684 ], [ -0.276789945614814, 35.824969885320684 ] ] ], [ [ [ 4.448748790958392, 35.886720696110231 ], [ 4.449489006925901, 35.886720696110231 ], [ 4.449489006925901, 35.886256583779549 ], [ 4.450229222893409, 35.886256583779549 ], [ 4.450229222893409, 35.885792468728852 ], [ 4.450969438860917, 35.885792468728852 ], [ 4.450969438860917, 35.885328350958126 ], [ 4.451709654828425, 35.885328350958126 ], [ 4.451709654828425, 35.884400107256724 ], [ 4.452449870795934, 35.884400107256724 ], [ 4.452449870795934, 35.883007721304899 ], [ 4.453190086763442, 35.883007721304899 ], [ 4.453190086763442, 35.881151168623603 ], [ 4.45393030273095, 35.881151168623603 ], [ 4.45393030273095, 35.880687023653572 ], [ 4.453190086763442, 35.880687023653572 ], [ 4.453190086763442, 35.879294572424449 ], [ 4.452449870795934, 35.879294572424449 ], [ 4.452449870795934, 35.877437932708382 ], [ 4.451709654828425, 35.877437932708382 ], [ 4.451709654828425, 35.876509596531797 ], [ 4.450969438860917, 35.876509596531797 ], [ 4.450969438860917, 35.876045424363902 ], [ 4.450229222893409, 35.876045424363902 ], [ 4.450229222893409, 35.875581249476319 ], [ 4.449489006925901, 35.875581249476319 ], [ 4.449489006925901, 35.875117071869035 ], [ 4.448748790958392, 35.875117071869035 ], [ 4.448748790958392, 35.874652891542084 ], [ 4.448008574990883, 35.874652891542084 ], [ 4.448008574990883, 35.874188708495474 ], [ 4.447268359023375, 35.874188708495474 ], [ 4.447268359023375, 35.873724522729191 ], [ 4.445787927088358, 35.873724522729191 ], [ 4.445787927088358, 35.873260334243312 ], [ 4.44504771112085, 35.873260334243312 ], [ 4.44504771112085, 35.872796143037782 ], [ 4.442827063218325, 35.872796143037782 ], [ 4.442827063218325, 35.873260334243312 ], [ 4.4406064153158, 35.873260334243312 ], [ 4.4406064153158, 35.873724522729191 ], [ 4.438385767413275, 35.873724522729191 ], [ 4.438385767413275, 35.875117071869035 ], [ 4.437645551445767, 35.875117071869035 ], [ 4.437645551445767, 35.877437932708382 ], [ 4.436905335478258, 35.877437932708382 ], [ 4.436905335478258, 35.880687023653572 ], [ 4.437645551445767, 35.880687023653572 ], [ 4.437645551445767, 35.882543587214421 ], [ 4.438385767413275, 35.882543587214421 ], [ 4.438385767413275, 35.883471852675449 ], [ 4.439125983380783, 35.883471852675449 ], [ 4.439125983380783, 35.883935981326061 ], [ 4.439866199348292, 35.883935981326061 ], [ 4.439866199348292, 35.884400107256724 ], [ 4.4406064153158, 35.884400107256724 ], [ 4.4406064153158, 35.884864230467407 ], [ 4.441346631283309, 35.884864230467407 ], [ 4.441346631283309, 35.885328350958126 ], [ 4.442086847250817, 35.885328350958126 ], [ 4.442086847250817, 35.885792468728852 ], [ 4.442827063218325, 35.885792468728852 ], [ 4.442827063218325, 35.886256583779549 ], [ 4.443567279185833, 35.886256583779549 ], [ 4.443567279185833, 35.887184805720871 ], [ 4.444307495153342, 35.887184805720871 ], [ 4.444307495153342, 35.887648912611461 ], [ 4.44504771112085, 35.887648912611461 ], [ 4.44504771112085, 35.888113016781979 ], [ 4.447268359023375, 35.888113016781979 ], [ 4.447268359023375, 35.887648912611461 ], [ 4.448008574990883, 35.887648912611461 ], [ 4.448008574990883, 35.887184805720871 ], [ 4.448748790958392, 35.887184805720871 ], [ 4.448748790958392, 35.886720696110231 ] ] ], [ [ [ 2.933526705468831, 36.145270739546369 ], [ 2.933526705468831, 36.144345552185356 ], [ 2.93426692143634, 36.144345552185356 ], [ 2.93426692143634, 36.143882954412867 ], [ 2.935007137403848, 36.143882954412867 ], [ 2.935007137403848, 36.142032536043331 ], [ 2.935747353371357, 36.142032536043331 ], [ 2.935747353371357, 36.136943660476909 ], [ 2.935007137403848, 36.136943660476909 ], [ 2.935007137403848, 36.136481019058579 ], [ 2.93426692143634, 36.136481019058579 ], [ 2.93426692143634, 36.135555728038689 ], [ 2.933526705468831, 36.135555728038689 ], [ 2.933526705468831, 36.135093078437173 ], [ 2.932786489501323, 36.135093078437173 ], [ 2.932786489501323, 36.13463042610794 ], [ 2.932046273533815, 36.13463042610794 ], [ 2.932046273533815, 36.134167771051025 ], [ 2.931306057566307, 36.134167771051025 ], [ 2.931306057566307, 36.13370511326643 ], [ 2.930565841598798, 36.13370511326643 ], [ 2.930565841598798, 36.133242452754182 ], [ 2.928345193696273, 36.133242452754182 ], [ 2.928345193696273, 36.13370511326643 ], [ 2.926864761761257, 36.13370511326643 ], [ 2.926864761761257, 36.134167771051025 ], [ 2.926124545793748, 36.134167771051025 ], [ 2.926124545793748, 36.13463042610794 ], [ 2.92538432982624, 36.13463042610794 ], [ 2.92538432982624, 36.135555728038689 ], [ 2.924644113858732, 36.135555728038689 ], [ 2.924644113858732, 36.136018374912496 ], [ 2.923903897891223, 36.136018374912496 ], [ 2.923903897891223, 36.136943660476909 ], [ 2.923163681923715, 36.136943660476909 ], [ 2.923163681923715, 36.137868935130264 ], [ 2.922423465956207, 36.137868935130264 ], [ 2.922423465956207, 36.138794198872496 ], [ 2.921683249988698, 36.138794198872496 ], [ 2.921683249988698, 36.144345552185356 ], [ 2.922423465956207, 36.144345552185356 ], [ 2.922423465956207, 36.145270739546369 ], [ 2.923163681923715, 36.145270739546369 ], [ 2.923163681923715, 36.14573332913487 ], [ 2.923903897891223, 36.14573332913487 ], [ 2.923903897891223, 36.146658500127771 ], [ 2.928345193696273, 36.146658500127771 ], [ 2.928345193696273, 36.146195915995342 ], [ 2.932046273533815, 36.146195915995342 ], [ 2.932046273533815, 36.14573332913487 ], [ 2.932786489501323, 36.14573332913487 ], [ 2.932786489501323, 36.145270739546369 ], [ 2.933526705468831, 36.145270739546369 ] ] ], [ [ [ 2.888373531450823, 36.61017413493235 ], [ 2.889113747418332, 36.61017413493235 ], [ 2.889113747418332, 36.609714299456655 ], [ 2.88985396338584, 36.609714299456655 ], [ 2.88985396338584, 36.609254461239168 ], [ 2.890594179353348, 36.609254461239168 ], [ 2.890594179353348, 36.608794620279923 ], [ 2.891334395320857, 36.608794620279923 ], [ 2.891334395320857, 36.606035516948175 ], [ 2.890594179353348, 36.606035516948175 ], [ 2.890594179353348, 36.604655928269572 ], [ 2.891334395320857, 36.604655928269572 ], [ 2.891334395320857, 36.605115793904091 ], [ 2.892814827255873, 36.605115793904091 ], [ 2.892814827255873, 36.605575656796958 ], [ 2.893555043223381, 36.605575656796958 ], [ 2.893555043223381, 36.606035516948175 ], [ 2.895035475158398, 36.606035516948175 ], [ 2.895035475158398, 36.605575656796958 ], [ 2.895775691125907, 36.605575656796958 ], [ 2.895775691125907, 36.605115793904091 ], [ 2.896515907093415, 36.605115793904091 ], [ 2.896515907093415, 36.604655928269572 ], [ 2.897256123060923, 36.604655928269572 ], [ 2.897256123060923, 36.604196059893432 ], [ 2.897996339028431, 36.604196059893432 ], [ 2.897996339028431, 36.603736188775677 ], [ 2.89873655499594, 36.603736188775677 ], [ 2.89873655499594, 36.603276314916315 ], [ 2.899476770963448, 36.603276314916315 ], [ 2.899476770963448, 36.602816438315351 ], [ 2.900216986930956, 36.602816438315351 ], [ 2.900216986930956, 36.602356558972815 ], [ 2.901697418865973, 36.602356558972815 ], [ 2.901697418865973, 36.601896676888721 ], [ 2.902437634833482, 36.601896676888721 ], [ 2.902437634833482, 36.600057121136963 ], [ 2.90317785080099, 36.600057121136963 ], [ 2.90317785080099, 36.598217521521264 ], [ 2.903918066768498, 36.598217521521264 ], [ 2.903918066768498, 36.597757614763687 ], [ 2.90317785080099, 36.597757614763687 ], [ 2.90317785080099, 36.596377878042439 ], [ 2.902437634833482, 36.596377878042439 ], [ 2.902437634833482, 36.595458039854627 ], [ 2.901697418865973, 36.595458039854627 ], [ 2.901697418865973, 36.594078262012708 ], [ 2.900957202898465, 36.594078262012708 ], [ 2.900957202898465, 36.593158396411461 ], [ 2.900216986930956, 36.593158396411461 ], [ 2.900216986930956, 36.592698459498877 ], [ 2.899476770963448, 36.592698459498877 ], [ 2.899476770963448, 36.593158396411461 ], [ 2.896515907093415, 36.593158396411461 ], [ 2.896515907093415, 36.593618330582743 ], [ 2.89429525919089, 36.593618330582743 ], [ 2.89429525919089, 36.594078262012708 ], [ 2.891334395320857, 36.594078262012708 ], [ 2.891334395320857, 36.594538190701364 ], [ 2.889113747418332, 36.594538190701364 ], [ 2.889113747418332, 36.596377878042439 ], [ 2.888373531450823, 36.596377878042439 ], [ 2.888373531450823, 36.598217521521264 ], [ 2.887633315483315, 36.598217521521264 ], [ 2.887633315483315, 36.596837793024264 ], [ 2.886893099515807, 36.596837793024264 ], [ 2.886893099515807, 36.593158396411461 ], [ 2.886152883548299, 36.593158396411461 ], [ 2.886152883548299, 36.592238519845012 ], [ 2.88541266758079, 36.592238519845012 ], [ 2.88541266758079, 36.591778577449873 ], [ 2.884672451613281, 36.591778577449873 ], [ 2.884672451613281, 36.591318632313481 ], [ 2.883932235645773, 36.591318632313481 ], [ 2.883932235645773, 36.590398733816969 ], [ 2.883192019678265, 36.590398733816969 ], [ 2.883192019678265, 36.58993878045689 ], [ 2.882451803710757, 36.58993878045689 ], [ 2.882451803710757, 36.589478824355602 ], [ 2.881711587743248, 36.589478824355602 ], [ 2.881711587743248, 36.589018865513104 ], [ 2.88097137177574, 36.589018865513104 ], [ 2.88097137177574, 36.588558903929453 ], [ 2.879490939840723, 36.588558903929453 ], [ 2.879490939840723, 36.589018865513104 ], [ 2.87653007597069, 36.589018865513104 ], [ 2.87653007597069, 36.589478824355602 ], [ 2.874309428068165, 36.589478824355602 ], [ 2.874309428068165, 36.58993878045689 ], [ 2.87208878016564, 36.58993878045689 ], [ 2.87208878016564, 36.590858684435844 ], [ 2.871348564198132, 36.590858684435844 ], [ 2.871348564198132, 36.592238519845012 ], [ 2.870608348230624, 36.592238519845012 ], [ 2.870608348230624, 36.593158396411461 ], [ 2.869868132263115, 36.593158396411461 ], [ 2.869868132263115, 36.594078262012708 ], [ 2.869127916295606, 36.594078262012708 ], [ 2.869127916295606, 36.594998116648675 ], [ 2.868387700328098, 36.594998116648675 ], [ 2.868387700328098, 36.597297705264687 ], [ 2.86764748436059, 36.597297705264687 ], [ 2.86764748436059, 36.601896676888721 ], [ 2.868387700328098, 36.601896676888721 ], [ 2.868387700328098, 36.602816438315351 ], [ 2.869127916295606, 36.602816438315351 ], [ 2.869127916295606, 36.603736188775677 ], [ 2.869868132263115, 36.603736188775677 ], [ 2.869868132263115, 36.604655928269572 ], [ 2.870608348230624, 36.604655928269572 ], [ 2.870608348230624, 36.605575656796958 ], [ 2.871348564198132, 36.605575656796958 ], [ 2.871348564198132, 36.606035516948175 ], [ 2.87208878016564, 36.606035516948175 ], [ 2.87208878016564, 36.606495374357721 ], [ 2.87653007597069, 36.606495374357721 ], [ 2.87653007597069, 36.606035516948175 ], [ 2.878010507905707, 36.606035516948175 ], [ 2.878010507905707, 36.605575656796958 ], [ 2.878750723873215, 36.605575656796958 ], [ 2.878750723873215, 36.605115793904091 ], [ 2.880231155808231, 36.605115793904091 ], [ 2.880231155808231, 36.604655928269572 ], [ 2.88097137177574, 36.604655928269572 ], [ 2.88097137177574, 36.608794620279923 ], [ 2.881711587743248, 36.608794620279923 ], [ 2.881711587743248, 36.609254461239168 ], [ 2.882451803710757, 36.609254461239168 ], [ 2.882451803710757, 36.61017413493235 ], [ 2.883192019678265, 36.61017413493235 ], [ 2.883192019678265, 36.610633967666281 ], [ 2.883932235645773, 36.610633967666281 ], [ 2.883932235645773, 36.611093797658391 ], [ 2.884672451613281, 36.611093797658391 ], [ 2.884672451613281, 36.611553624908673 ], [ 2.88541266758079, 36.611553624908673 ], [ 2.88541266758079, 36.612013449417155 ], [ 2.886152883548299, 36.612013449417155 ], [ 2.886152883548299, 36.611553624908673 ], [ 2.886893099515807, 36.611553624908673 ], [ 2.886893099515807, 36.611093797658391 ], [ 2.887633315483315, 36.611093797658391 ], [ 2.887633315483315, 36.610633967666281 ], [ 2.888373531450823, 36.610633967666281 ], [ 2.888373531450823, 36.61017413493235 ] ], [ [ 2.889113747418332, 36.600976904495894 ], [ 2.889113747418332, 36.601896676888721 ], [ 2.887633315483315, 36.601896676888721 ], [ 2.887633315483315, 36.601436792063076 ], [ 2.886152883548299, 36.601436792063076 ], [ 2.886152883548299, 36.600517014187183 ], [ 2.886893099515807, 36.600517014187183 ], [ 2.886893099515807, 36.598677425537396 ], [ 2.888373531450823, 36.598677425537396 ], [ 2.888373531450823, 36.600976904495894 ], [ 2.889113747418332, 36.600976904495894 ] ] ], [ [ [ 3.127463288956015, 36.687387561947112 ], [ 3.128203504923524, 36.687387561947112 ], [ 3.128203504923524, 36.68692818727758 ], [ 3.128943720891032, 36.68692818727758 ], [ 3.128943720891032, 36.68600942970653 ], [ 3.12968393685854, 36.68600942970653 ], [ 3.12968393685854, 36.685090661159613 ], [ 3.130424152826048, 36.685090661159613 ], [ 3.130424152826048, 36.684171881636921 ], [ 3.131164368793557, 36.684171881636921 ], [ 3.131164368793557, 36.683253091138575 ], [ 3.131904584761065, 36.683253091138575 ], [ 3.131904584761065, 36.682334289664659 ], [ 3.132644800728573, 36.682334289664659 ], [ 3.132644800728573, 36.681415477215303 ], [ 3.133385016696082, 36.681415477215303 ], [ 3.133385016696082, 36.680956066874856 ], [ 3.13412523266359, 36.680956066874856 ], [ 3.13412523266359, 36.678199547212365 ], [ 3.133385016696082, 36.678199547212365 ], [ 3.133385016696082, 36.67452403401316 ], [ 3.132644800728573, 36.67452403401316 ], [ 3.132644800728573, 36.674064582516735 ], [ 3.131164368793557, 36.674064582516735 ], [ 3.131164368793557, 36.673605128276698 ], [ 3.130424152826048, 36.673605128276698 ], [ 3.130424152826048, 36.673145671293035 ], [ 3.128943720891032, 36.673145671293035 ], [ 3.128943720891032, 36.672686211565782 ], [ 3.128203504923524, 36.672686211565782 ], [ 3.128203504923524, 36.672226749094932 ], [ 3.126723072988507, 36.672226749094932 ], [ 3.126723072988507, 36.671767283880513 ], [ 3.120061129280932, 36.671767283880513 ], [ 3.120061129280932, 36.672226749094932 ], [ 3.119320913313424, 36.672226749094932 ], [ 3.119320913313424, 36.672686211565782 ], [ 3.118580697345915, 36.672686211565782 ], [ 3.118580697345915, 36.673145671293035 ], [ 3.117840481378407, 36.673145671293035 ], [ 3.117840481378407, 36.673605128276698 ], [ 3.117100265410898, 36.673605128276698 ], [ 3.117100265410898, 36.674064582516735 ], [ 3.11636004944339, 36.674064582516735 ], [ 3.11636004944339, 36.674983482765938 ], [ 3.115619833475882, 36.674983482765938 ], [ 3.115619833475882, 36.675442928775055 ], [ 3.114879617508374, 36.675442928775055 ], [ 3.114879617508374, 36.675902372040525 ], [ 3.114139401540865, 36.675902372040525 ], [ 3.114139401540865, 36.676361812562291 ], [ 3.113399185573357, 36.676361812562291 ], [ 3.113399185573357, 36.676821250340389 ], [ 3.112658969605848, 36.676821250340389 ], [ 3.112658969605848, 36.677280685374775 ], [ 3.11191875363834, 36.677280685374775 ], [ 3.11191875363834, 36.677740117665422 ], [ 3.111178537670832, 36.677740117665422 ], [ 3.111178537670832, 36.679577819390644 ], [ 3.110438321703324, 36.679577819390644 ], [ 3.110438321703324, 36.681415477215303 ], [ 3.109698105735816, 36.681415477215303 ], [ 3.109698105735816, 36.682334289664659 ], [ 3.110438321703324, 36.682334289664659 ], [ 3.110438321703324, 36.684171881636921 ], [ 3.111178537670832, 36.684171881636921 ], [ 3.111178537670832, 36.685550046805048 ], [ 3.11191875363834, 36.685550046805048 ], [ 3.11191875363834, 36.68600942970653 ], [ 3.112658969605848, 36.68600942970653 ], [ 3.112658969605848, 36.686468809864046 ], [ 3.113399185573357, 36.686468809864046 ], [ 3.113399185573357, 36.68692818727758 ], [ 3.114139401540865, 36.68692818727758 ], [ 3.114139401540865, 36.687387561947112 ], [ 3.114879617508374, 36.687387561947112 ], [ 3.114879617508374, 36.687846933872635 ], [ 3.115619833475882, 36.687846933872635 ], [ 3.115619833475882, 36.688306303054155 ], [ 3.11636004944339, 36.688306303054155 ], [ 3.11636004944339, 36.688765669491623 ], [ 3.117840481378407, 36.688765669491623 ], [ 3.117840481378407, 36.689225033185046 ], [ 3.118580697345915, 36.689225033185046 ], [ 3.118580697345915, 36.689684394134424 ], [ 3.119320913313424, 36.689684394134424 ], [ 3.119320913313424, 36.689225033185046 ], [ 3.126723072988507, 36.689225033185046 ], [ 3.126723072988507, 36.688306303054155 ], [ 3.127463288956015, 36.688306303054155 ], [ 3.127463288956015, 36.687387561947112 ] ] ], [ [ [ -1.481121324750874, 41.47982585373213 ], [ -1.481121324750874, 41.478967500787547 ], [ -1.480381108783366, 41.478967500787547 ], [ -1.480381108783366, 41.471671041760793 ], [ -1.481121324750874, 41.471671041760793 ], [ -1.481121324750874, 41.47081258081743 ], [ -1.481861540718382, 41.47081258081743 ], [ -1.481861540718382, 41.469954108505995 ], [ -1.48260175668589, 41.469954108505995 ], [ -1.48260175668589, 41.469095624826537 ], [ -1.483341972653399, 41.469095624826537 ], [ -1.483341972653399, 41.468666378723803 ], [ -1.488523484425957, 41.468666378723803 ], [ -1.488523484425957, 41.468237129779084 ], [ -1.489263700393465, 41.468237129779084 ], [ -1.489263700393465, 41.468666378723803 ], [ -1.490003916360974, 41.468666378723803 ], [ -1.490003916360974, 41.469095624826537 ], [ -1.491484348295991, 41.469095624826537 ], [ -1.491484348295991, 41.469524868087262 ], [ -1.492224564263499, 41.469524868087262 ], [ -1.492224564263499, 41.469954108505995 ], [ -1.492964780231007, 41.469954108505995 ], [ -1.492964780231007, 41.47038334608272 ], [ -1.493704996198516, 41.47038334608272 ], [ -1.493704996198516, 41.47081258081743 ], [ -1.494445212166024, 41.47081258081743 ], [ -1.494445212166024, 41.473387929543144 ], [ -1.495185428133532, 41.473387929543144 ], [ -1.495185428133532, 41.477250760793012 ], [ -1.494445212166024, 41.477250760793012 ], [ -1.494445212166024, 41.478109136474494 ], [ -1.493704996198516, 41.478109136474494 ], [ -1.493704996198516, 41.478967500787547 ], [ -1.492964780231007, 41.478967500787547 ], [ -1.492964780231007, 41.47982585373213 ], [ -1.492224564263499, 41.47982585373213 ], [ -1.492224564263499, 41.4806841953082 ], [ -1.491484348295991, 41.4806841953082 ], [ -1.491484348295991, 41.481113361833017 ], [ -1.487783268458449, 41.481113361833017 ], [ -1.487783268458449, 41.4815425255157 ], [ -1.48260175668589, 41.4815425255157 ], [ -1.48260175668589, 41.4806841953082 ], [ -1.481861540718382, 41.4806841953082 ], [ -1.481861540718382, 41.47982585373213 ], [ -1.481121324750874, 41.47982585373213 ] ] ], [ [ [ 0.185104818110386, 41.933152185371853 ], [ 0.185104818110386, 41.932726025795461 ], [ 0.185845034077895, 41.932726025795461 ], [ 0.185845034077895, 41.932299863371739 ], [ 0.186585250045403, 41.932299863371739 ], [ 0.186585250045403, 41.931021359016711 ], [ 0.187325466012912, 41.931021359016711 ], [ 0.187325466012912, 41.929742829035931 ], [ 0.18806568198042, 41.929742829035931 ], [ 0.18806568198042, 41.928464273429555 ], [ 0.188805897947928, 41.928464273429555 ], [ 0.188805897947928, 41.92761188878891 ], [ 0.189546113915437, 41.92761188878891 ], [ 0.189546113915437, 41.926333290473444 ], [ 0.190286329882945, 41.926333290473444 ], [ 0.190286329882945, 41.925480877360194 ], [ 0.189546113915437, 41.925480877360194 ], [ 0.189546113915437, 41.924202236335979 ], [ 0.188805897947928, 41.924202236335979 ], [ 0.188805897947928, 41.922923569686702 ], [ 0.18806568198042, 41.922923569686702 ], [ 0.18806568198042, 41.921644877412461 ], [ 0.187325466012912, 41.921644877412461 ], [ 0.187325466012912, 41.920366159513392 ], [ 0.186585250045403, 41.920366159513392 ], [ 0.186585250045403, 41.919087415989608 ], [ 0.185845034077895, 41.919087415989608 ], [ 0.185845034077895, 41.918661162453994 ], [ 0.185104818110386, 41.918661162453994 ], [ 0.185104818110386, 41.918234906071213 ], [ 0.184364602142878, 41.918234906071213 ], [ 0.184364602142878, 41.917808646841237 ], [ 0.182884170207862, 41.917808646841237 ], [ 0.182884170207862, 41.917382384764132 ], [ 0.182143954240353, 41.917382384764132 ], [ 0.182143954240353, 41.916956119839853 ], [ 0.181403738272845, 41.916956119839853 ], [ 0.181403738272845, 41.916529852068429 ], [ 0.179923306337828, 41.916529852068429 ], [ 0.179923306337828, 41.916956119839853 ], [ 0.17918309037032, 41.916956119839853 ], [ 0.17918309037032, 41.917382384764132 ], [ 0.177702658435303, 41.917382384764132 ], [ 0.177702658435303, 41.917808646841237 ], [ 0.176962442467795, 41.917808646841237 ], [ 0.176962442467795, 41.918234906071213 ], [ 0.175482010532778, 41.918234906071213 ], [ 0.175482010532778, 41.918661162453994 ], [ 0.17474179456527, 41.918661162453994 ], [ 0.17474179456527, 41.919087415989608 ], [ 0.174001578597761, 41.919087415989608 ], [ 0.174001578597761, 41.920366159513392 ], [ 0.173261362630253, 41.920366159513392 ], [ 0.173261362630253, 41.921644877412461 ], [ 0.172521146662745, 41.921644877412461 ], [ 0.172521146662745, 41.922497341775838 ], [ 0.171780930695237, 41.922497341775838 ], [ 0.171780930695237, 41.925907085340441 ], [ 0.172521146662745, 41.925907085340441 ], [ 0.172521146662745, 41.928464273429555 ], [ 0.173261362630253, 41.928464273429555 ], [ 0.173261362630253, 41.931021359016711 ], [ 0.174001578597761, 41.931021359016711 ], [ 0.174001578597761, 41.931873698100702 ], [ 0.17474179456527, 41.931873698100702 ], [ 0.17474179456527, 41.932299863371739 ], [ 0.176222226500287, 41.932299863371739 ], [ 0.176222226500287, 41.932726025795461 ], [ 0.177702658435303, 41.932726025795461 ], [ 0.177702658435303, 41.933152185371853 ], [ 0.17918309037032, 41.933152185371853 ], [ 0.17918309037032, 41.933578342100922 ], [ 0.180663522305336, 41.933578342100922 ], [ 0.180663522305336, 41.934004495982656 ], [ 0.182884170207862, 41.934004495982656 ], [ 0.182884170207862, 41.933578342100922 ], [ 0.18362438617537, 41.933578342100922 ], [ 0.18362438617537, 41.933152185371853 ], [ 0.185104818110386, 41.933152185371853 ] ] ], [ [ [ -0.403366876058739, 41.931873698100702 ], [ -0.402626660091231, 41.931873698100702 ], [ -0.402626660091231, 41.93059518520375 ], [ -0.401886444123722, 41.93059518520375 ], [ -0.401886444123722, 41.92931664668108 ], [ -0.401146228156214, 41.92931664668108 ], [ -0.401146228156214, 41.923776016966784 ], [ -0.401886444123722, 41.923776016966784 ], [ -0.401886444123722, 41.92207111101775 ], [ -0.402626660091231, 41.92207111101775 ], [ -0.402626660091231, 41.921644877412461 ], [ -0.403366876058739, 41.921644877412461 ], [ -0.403366876058739, 41.920792401660272 ], [ -0.404107092026248, 41.920792401660272 ], [ -0.404107092026248, 41.920366159513392 ], [ -0.404847307993756, 41.920366159513392 ], [ -0.404847307993756, 41.919939914519318 ], [ -0.405587523961264, 41.919939914519318 ], [ -0.405587523961264, 41.919513666678057 ], [ -0.406327739928773, 41.919513666678057 ], [ -0.406327739928773, 41.919087415989608 ], [ -0.407808171863789, 41.919087415989608 ], [ -0.407808171863789, 41.919513666678057 ], [ -0.409288603798806, 41.919513666678057 ], [ -0.409288603798806, 41.919939914519318 ], [ -0.410028819766314, 41.919939914519318 ], [ -0.410028819766314, 41.920366159513392 ], [ -0.411509251701331, 41.920366159513392 ], [ -0.411509251701331, 41.920792401660272 ], [ -0.412249467668839, 41.920792401660272 ], [ -0.412249467668839, 41.921218640959964 ], [ -0.413729899603856, 41.921218640959964 ], [ -0.413729899603856, 41.921644877412461 ], [ -0.414470115571364, 41.921644877412461 ], [ -0.414470115571364, 41.92207111101775 ], [ -0.415210331538873, 41.92207111101775 ], [ -0.415210331538873, 41.922497341775838 ], [ -0.416690763473889, 41.922497341775838 ], [ -0.416690763473889, 41.922923569686702 ], [ -0.417430979441398, 41.922923569686702 ], [ -0.417430979441398, 41.923349794750358 ], [ -0.418911411376414, 41.923349794750358 ], [ -0.418911411376414, 41.923776016966784 ], [ -0.419651627343923, 41.923776016966784 ], [ -0.419651627343923, 41.924202236335979 ], [ -0.421132059278939, 41.924202236335979 ], [ -0.421132059278939, 41.924628452857952 ], [ -0.421872275246448, 41.924628452857952 ], [ -0.421872275246448, 41.925054666532688 ], [ -0.422612491213956, 41.925054666532688 ], [ -0.422612491213956, 41.928890461478971 ], [ -0.423352707181464, 41.928890461478971 ], [ -0.423352707181464, 41.931021359016711 ], [ -0.422612491213956, 41.931021359016711 ], [ -0.422612491213956, 41.931447529982364 ], [ -0.421872275246448, 41.931447529982364 ], [ -0.421872275246448, 41.931873698100702 ], [ -0.421132059278939, 41.931873698100702 ], [ -0.421132059278939, 41.932299863371739 ], [ -0.420391843311431, 41.932299863371739 ], [ -0.420391843311431, 41.932726025795461 ], [ -0.419651627343923, 41.932726025795461 ], [ -0.419651627343923, 41.933152185371853 ], [ -0.418911411376414, 41.933152185371853 ], [ -0.418911411376414, 41.933578342100922 ], [ -0.418171195408906, 41.933578342100922 ], [ -0.418171195408906, 41.934004495982656 ], [ -0.417430979441398, 41.934004495982656 ], [ -0.417430979441398, 41.934430647017059 ], [ -0.416690763473889, 41.934430647017059 ], [ -0.416690763473889, 41.934856795204119 ], [ -0.404847307993756, 41.934856795204119 ], [ -0.404847307993756, 41.934430647017059 ], [ -0.404107092026248, 41.934430647017059 ], [ -0.404107092026248, 41.933152185371853 ], [ -0.403366876058739, 41.933152185371853 ], [ -0.403366876058739, 41.931873698100702 ] ] ], [ [ [ -1.276081501751065, 41.940396462525847 ], [ -1.275341285783557, 41.940396462525847 ], [ -1.275341285783557, 41.939970351354631 ], [ -1.27386085384854, 41.939970351354631 ], [ -1.27386085384854, 41.939544237336001 ], [ -1.273120637881032, 41.939544237336001 ], [ -1.273120637881032, 41.939118120469992 ], [ -1.272380421913524, 41.939118120469992 ], [ -1.272380421913524, 41.938692000756582 ], [ -1.270899989978507, 41.938692000756582 ], [ -1.270899989978507, 41.9382658781958 ], [ -1.270159774010998, 41.9382658781958 ], [ -1.270159774010998, 41.934856795204119 ], [ -1.26941955804349, 41.934856795204119 ], [ -1.26941955804349, 41.931873698100702 ], [ -1.270159774010998, 41.931873698100702 ], [ -1.270159774010998, 41.93059518520375 ], [ -1.270899989978507, 41.93059518520375 ], [ -1.270899989978507, 41.929742829035931 ], [ -1.271640205946016, 41.929742829035931 ], [ -1.271640205946016, 41.928890461478971 ], [ -1.272380421913524, 41.928890461478971 ], [ -1.272380421913524, 41.928038082532858 ], [ -1.273120637881032, 41.928038082532858 ], [ -1.273120637881032, 41.927185692197682 ], [ -1.274601069816049, 41.927185692197682 ], [ -1.274601069816049, 41.926759492759189 ], [ -1.27830214965359, 41.926759492759189 ], [ -1.27830214965359, 41.926333290473444 ], [ -1.281263013523624, 41.926333290473444 ], [ -1.281263013523624, 41.925907085340441 ], [ -1.284223877393657, 41.925907085340441 ], [ -1.284223877393657, 41.926333290473444 ], [ -1.284964093361165, 41.926333290473444 ], [ -1.284964093361165, 41.926759492759189 ], [ -1.285704309328674, 41.926759492759189 ], [ -1.285704309328674, 41.927185692197682 ], [ -1.286444525296182, 41.927185692197682 ], [ -1.286444525296182, 41.92761188878891 ], [ -1.28718474126369, 41.92761188878891 ], [ -1.28718474126369, 41.928464273429555 ], [ -1.287924957231199, 41.928464273429555 ], [ -1.287924957231199, 41.928890461478971 ], [ -1.288665173198707, 41.928890461478971 ], [ -1.288665173198707, 41.933152185371853 ], [ -1.287924957231199, 41.933152185371853 ], [ -1.287924957231199, 41.9382658781958 ], [ -1.28718474126369, 41.9382658781958 ], [ -1.28718474126369, 41.940396462525847 ], [ -1.286444525296182, 41.940396462525847 ], [ -1.286444525296182, 41.940822570849669 ], [ -1.284964093361165, 41.940822570849669 ], [ -1.284964093361165, 41.941248676326076 ], [ -1.284223877393657, 41.941248676326076 ], [ -1.284223877393657, 41.941674778955068 ], [ -1.280522797556115, 41.941674778955068 ], [ -1.280522797556115, 41.941248676326076 ], [ -1.277561933686082, 41.941248676326076 ], [ -1.277561933686082, 41.940822570849669 ], [ -1.276081501751065, 41.940822570849669 ], [ -1.276081501751065, 41.940396462525847 ] ] ] ] } }
]
}
