{
"type": "FeatureCollection",
"name": "spain_fires_nrt_ba",
"crs": { "type": "name", "properties": { "name": "urn:ogc:def:crs:OGC:1.3:CRS84" } },
"features": [
{ "type": "Feature", "properties": { }, "geometry": { "type": "MultiPolygon", "coordinates": [ [ [ [ -0.935582156697232, 35.573758764450957 ], [ -0.934841940729723, 35.573758764450957 ], [ -0.934841940729723, 35.573292824865341 ], [ -0.934101724762215, 35.573292824865341 ], [ -0.934101724762215, 35.57282688256965 ], [ -0.932621292827198, 35.57282688256965 ], [ -0.932621292827198, 35.572360937563893 ], [ -0.93188107685969, 35.572360937563893 ], [ -0.93188107685969, 35.571429039422256 ], [ -0.931140860892182, 35.571429039422256 ], [ -0.931140860892182, 35.56956521061889 ], [ -0.930400644924673, 35.56956521061889 ], [ -0.930400644924673, 35.56770133845621 ], [ -0.929660428957165, 35.56770133845621 ], [ -0.929660428957165, 35.565837422935175 ], [ -0.928920212989657, 35.565837422935175 ], [ -0.928920212989657, 35.563507467562687 ], [ -0.929660428957165, 35.563507467562687 ], [ -0.929660428957165, 35.56164345448888 ], [ -0.930400644924673, 35.56164345448888 ], [ -0.930400644924673, 35.560711431693733 ], [ -0.931140860892182, 35.560711431693733 ], [ -0.931140860892182, 35.560245416231631 ], [ -0.93188107685969, 35.560245416231631 ], [ -0.93188107685969, 35.559779398059881 ], [ -0.933361508794706, 35.559779398059881 ], [ -0.933361508794706, 35.559313377178498 ], [ -0.934101724762215, 35.559313377178498 ], [ -0.934101724762215, 35.558847353587474 ], [ -0.934841940729723, 35.558847353587474 ], [ -0.934841940729723, 35.558381327286853 ], [ -0.935582156697232, 35.558381327286853 ], [ -0.935582156697232, 35.557915298276626 ], [ -0.937062588632248, 35.557915298276626 ], [ -0.937062588632248, 35.557449266556823 ], [ -0.939283236534773, 35.557449266556823 ], [ -0.939283236534773, 35.557915298276626 ], [ -0.941503884437298, 35.557915298276626 ], [ -0.941503884437298, 35.558381327286853 ], [ -0.944464748307332, 35.558381327286853 ], [ -0.944464748307332, 35.558847353587474 ], [ -0.94520496427484, 35.558847353587474 ], [ -0.94520496427484, 35.560245416231631 ], [ -0.945945180242348, 35.560245416231631 ], [ -0.945945180242348, 35.561177444446159 ], [ -0.946685396209857, 35.561177444446159 ], [ -0.946685396209857, 35.562109461821933 ], [ -0.947425612177365, 35.562109461821933 ], [ -0.947425612177365, 35.563507467562687 ], [ -0.948165828144873, 35.563507467562687 ], [ -0.948165828144873, 35.564439457841075 ], [ -0.947425612177365, 35.564439457841075 ], [ -0.947425612177365, 35.56770133845621 ], [ -0.946685396209857, 35.56770133845621 ], [ -0.946685396209857, 35.570963086286405 ], [ -0.945945180242348, 35.570963086286405 ], [ -0.945945180242348, 35.573292824865341 ], [ -0.944464748307332, 35.573292824865341 ], [ -0.944464748307332, 35.573758764450957 ], [ -0.943724532339823, 35.573758764450957 ], [ -0.943724532339823, 35.574224701326465 ], [ -0.942244100404807, 35.574224701326465 ], [ -0.942244100404807, 35.574690635491883 ], [ -0.94076366846979, 35.574690635491883 ], [ -0.94076366846979, 35.575156566947186 ], [ -0.937802804599756, 35.575156566947186 ], [ -0.937802804599756, 35.574690635491883 ], [ -0.937062588632248, 35.574690635491883 ], [ -0.937062588632248, 35.574224701326465 ], [ -0.935582156697232, 35.574224701326465 ], [ -0.935582156697232, 35.573758764450957 ] ] ], [ [ [ -1.904524858165641, 36.973044087250884 ], [ -1.902304210263116, 36.973044087250884 ], [ -1.902304210263116, 36.972586424612288 ], [ -1.901563994295608, 36.972586424612288 ], [ -1.901563994295608, 36.971671091079031 ], [ -1.900823778328099, 36.971671091079031 ], [ -1.900823778328099, 36.970755746537762 ], [ -1.900083562360591, 36.970755746537762 ], [ -1.900083562360591, 36.96984039098858 ], [ -1.899343346393083, 36.96984039098858 ], [ -1.899343346393083, 36.968925024431591 ], [ -1.898603130425575, 36.968925024431591 ], [ -1.898603130425575, 36.968467337025196 ], [ -1.897862914458066, 36.968467337025196 ], [ -1.897862914458066, 36.962974873502759 ], [ -1.898603130425575, 36.962974873502759 ], [ -1.898603130425575, 36.962517150322469 ], [ -1.899343346393083, 36.962517150322469 ], [ -1.899343346393083, 36.961601695706641 ], [ -1.900083562360591, 36.961601695706641 ], [ -1.900083562360591, 36.961143964271145 ], [ -1.900823778328099, 36.961143964271145 ], [ -1.900823778328099, 36.960228493144996 ], [ -1.901563994295608, 36.960228493144996 ], [ -1.901563994295608, 36.959770753454407 ], [ -1.90526507413315, 36.959770753454407 ], [ -1.90526507413315, 36.960228493144996 ], [ -1.908225938003183, 36.960228493144996 ], [ -1.908225938003183, 36.96068623008393 ], [ -1.9097063699382, 36.96068623008393 ], [ -1.9097063699382, 36.961601695706641 ], [ -1.910446585905708, 36.961601695706641 ], [ -1.910446585905708, 36.962059424390425 ], [ -1.911186801873216, 36.962059424390425 ], [ -1.911186801873216, 36.962517150322469 ], [ -1.911927017840724, 36.962517150322469 ], [ -1.911927017840724, 36.963432593931294 ], [ -1.912667233808233, 36.963432593931294 ], [ -1.912667233808233, 36.971213420184398 ], [ -1.911927017840724, 36.971213420184398 ], [ -1.911927017840724, 36.972128759221675 ], [ -1.911186801873216, 36.972128759221675 ], [ -1.911186801873216, 36.972586424612288 ], [ -1.910446585905708, 36.972586424612288 ], [ -1.910446585905708, 36.973501747137441 ], [ -1.9097063699382, 36.973501747137441 ], [ -1.9097063699382, 36.97395940427193 ], [ -1.908225938003183, 36.97395940427193 ], [ -1.908225938003183, 36.973501747137441 ], [ -1.904524858165641, 36.973501747137441 ], [ -1.904524858165641, 36.973044087250884 ] ] ], [ [ [ -6.795871971460715, 38.781099521677547 ], [ -6.795871971460715, 38.778866672290263 ], [ -6.795131755493208, 38.778866672290263 ], [ -6.795131755493208, 38.777080342444052 ], [ -6.794391539525699, 38.777080342444052 ], [ -6.794391539525699, 38.774400763782211 ], [ -6.795131755493208, 38.774400763782211 ], [ -6.795131755493208, 38.773507548523902 ], [ -6.795871971460715, 38.773507548523902 ], [ -6.795871971460715, 38.772167704663858 ], [ -6.796612187428224, 38.772167704663858 ], [ -6.796612187428224, 38.771274461442225 ], [ -6.797352403395732, 38.771274461442225 ], [ -6.797352403395732, 38.770381207035399 ], [ -6.798832835330749, 38.770381207035399 ], [ -6.798832835330749, 38.770827835636958 ], [ -6.801053483233274, 38.770827835636958 ], [ -6.801053483233274, 38.771274461442225 ], [ -6.803274131135799, 38.771274461442225 ], [ -6.803274131135799, 38.771721084451201 ], [ -6.804014347103307, 38.771721084451201 ], [ -6.804014347103307, 38.772167704663858 ], [ -6.804754563070816, 38.772167704663858 ], [ -6.804754563070816, 38.773507548523902 ], [ -6.805494779038323, 38.773507548523902 ], [ -6.805494779038323, 38.774847367216822 ], [ -6.806234995005832, 38.774847367216822 ], [ -6.806234995005832, 38.775740565696907 ], [ -6.806975210973341, 38.775740565696907 ], [ -6.806975210973341, 38.77618716074236 ], [ -6.807715426940849, 38.77618716074236 ], [ -6.807715426940849, 38.776633752991408 ], [ -6.809936074843374, 38.776633752991408 ], [ -6.809936074843374, 38.777080342444052 ], [ -6.811416506778391, 38.777080342444052 ], [ -6.811416506778391, 38.778420094023375 ], [ -6.812156722745899, 38.778420094023375 ], [ -6.812156722745899, 38.780206390312095 ], [ -6.812896938713407, 38.780206390312095 ], [ -6.812896938713407, 38.781992641856959 ], [ -6.812896938713407, 38.783778848657349 ], [ -6.812156722745899, 38.783778848657349 ], [ -6.812156722745899, 38.785565010712652 ], [ -6.811416506778391, 38.785565010712652 ], [ -6.811416506778391, 38.786011544234981 ], [ -6.810676290810882, 38.786011544234981 ], [ -6.810676290810882, 38.786904602889791 ], [ -6.809936074843374, 38.786904602889791 ], [ -6.809936074843374, 38.787351128022252 ], [ -6.809195858875866, 38.787351128022252 ], [ -6.809195858875866, 38.787797650358058 ], [ -6.808455642908358, 38.787797650358058 ], [ -6.808455642908358, 38.788244169897219 ], [ -6.807715426940849, 38.788244169897219 ], [ -6.807715426940849, 38.788690686639718 ], [ -6.806975210973341, 38.788690686639718 ], [ -6.806975210973341, 38.789583711734672 ], [ -6.806234995005832, 38.789583711734672 ], [ -6.806234995005832, 38.790030220087118 ], [ -6.805494779038323, 38.790030220087118 ], [ -6.805494779038323, 38.790476725642847 ], [ -6.804754563070816, 38.790476725642847 ], [ -6.804754563070816, 38.79092322840188 ], [ -6.804014347103307, 38.79092322840188 ], [ -6.804014347103307, 38.791369728364181 ], [ -6.803274131135799, 38.791369728364181 ], [ -6.803274131135799, 38.792262719898602 ], [ -6.80253391516829, 38.792262719898602 ], [ -6.80253391516829, 38.79270921147068 ], [ -6.801793699200783, 38.79270921147068 ], [ -6.801793699200783, 38.793155700246011 ], [ -6.801053483233274, 38.793155700246011 ], [ -6.801053483233274, 38.793602186224561 ], [ -6.800313267265765, 38.793602186224561 ], [ -6.800313267265765, 38.794048669406337 ], [ -6.799573051298258, 38.794048669406337 ], [ -6.799573051298258, 38.794495149791324 ], [ -6.797352403395732, 38.794495149791324 ], [ -6.797352403395732, 38.794048669406337 ], [ -6.796612187428224, 38.794048669406337 ], [ -6.796612187428224, 38.793602186224561 ], [ -6.795131755493208, 38.793602186224561 ], [ -6.795131755493208, 38.793155700246011 ], [ -6.794391539525699, 38.793155700246011 ], [ -6.794391539525699, 38.79092322840188 ], [ -6.793651323558191, 38.79092322840188 ], [ -6.793651323558191, 38.788690686639718 ], [ -6.792911107590683, 38.788690686639718 ], [ -6.792911107590683, 38.786011544234981 ], [ -6.792170891623174, 38.786011544234981 ], [ -6.792170891623174, 38.785565010712652 ], [ -6.792911107590683, 38.785565010712652 ], [ -6.792911107590683, 38.783778848657349 ], [ -6.793651323558191, 38.783778848657349 ], [ -6.793651323558191, 38.781992641856959 ], [ -6.794391539525699, 38.781992641856959 ], [ -6.794391539525699, 38.781546083165502 ], [ -6.795131755493208, 38.781546083165502 ], [ -6.795131755493208, 38.781099521677547 ], [ -6.795871971460715, 38.781099521677547 ] ] ], [ [ [ -6.341379367410598, 39.501739250401528 ], [ -6.341379367410598, 39.501297234173627 ], [ -6.339898935475582, 39.501297234173627 ], [ -6.339898935475582, 39.499529141150845 ], [ -6.339158719508074, 39.499529141150845 ], [ -6.339158719508074, 39.4982030418672 ], [ -6.338418503540565, 39.4982030418672 ], [ -6.338418503540565, 39.496876917283906 ], [ -6.337678287573057, 39.496876917283906 ], [ -6.337678287573057, 39.494224592219304 ], [ -6.338418503540565, 39.494224592219304 ], [ -6.338418503540565, 39.492456319289531 ], [ -6.339158719508074, 39.492456319289531 ], [ -6.339158719508074, 39.491130085077074 ], [ -6.339898935475582, 39.491130085077074 ], [ -6.339898935475582, 39.489361733440724 ], [ -6.34063915144309, 39.489361733440724 ], [ -6.34063915144309, 39.487593336829931 ], [ -6.341379367410598, 39.487593336829931 ], [ -6.341379367410598, 39.486709121659274 ], [ -6.343600015313123, 39.486709121659274 ], [ -6.343600015313123, 39.486267009857677 ], [ -6.34508044724814, 39.486267009857677 ], [ -6.34508044724814, 39.485824895245223 ], [ -6.347301095150666, 39.485824895245223 ], [ -6.347301095150666, 39.48538277782194 ], [ -6.348781527085682, 39.48538277782194 ], [ -6.348781527085682, 39.484940657587821 ], [ -6.351002174988206, 39.484940657587821 ], [ -6.351002174988206, 39.484498534542894 ], [ -6.352482606923223, 39.484498534542894 ], [ -6.352482606923223, 39.484056408687145 ], [ -6.355443470793257, 39.484056408687145 ], [ -6.355443470793257, 39.484498534542894 ], [ -6.356183686760765, 39.484498534542894 ], [ -6.356183686760765, 39.484940657587821 ], [ -6.356923902728273, 39.484940657587821 ], [ -6.356923902728273, 39.48538277782194 ], [ -6.357664118695782, 39.48538277782194 ], [ -6.357664118695782, 39.486267009857677 ], [ -6.35840433466329, 39.486267009857677 ], [ -6.35840433466329, 39.486709121659274 ], [ -6.359144550630798, 39.486709121659274 ], [ -6.359144550630798, 39.487151230650035 ], [ -6.359884766598306, 39.487151230650035 ], [ -6.359884766598306, 39.488919638504356 ], [ -6.359144550630798, 39.488919638504356 ], [ -6.359144550630798, 39.492898391738443 ], [ -6.35840433466329, 39.492898391738443 ], [ -6.35840433466329, 39.493340461376377 ], [ -6.357664118695782, 39.493340461376377 ], [ -6.357664118695782, 39.493782528203333 ], [ -6.355443470793257, 39.493782528203333 ], [ -6.355443470793257, 39.494224592219304 ], [ -6.35396303885824, 39.494224592219304 ], [ -6.35396303885824, 39.494666653424275 ], [ -6.352482606923223, 39.494666653424275 ], [ -6.352482606923223, 39.499087110867379 ], [ -6.351742390955714, 39.499087110867379 ], [ -6.351742390955714, 39.499529141150845 ], [ -6.351002174988206, 39.499529141150845 ], [ -6.351002174988206, 39.500413193284459 ], [ -6.350261959020698, 39.500413193284459 ], [ -6.350261959020698, 39.501297234173627 ], [ -6.349521743053189, 39.501297234173627 ], [ -6.349521743053189, 39.501739250401528 ], [ -6.348041311118173, 39.501739250401528 ], [ -6.348041311118173, 39.502181263818272 ], [ -6.345820663215648, 39.502181263818272 ], [ -6.345820663215648, 39.502623274423883 ], [ -6.343600015313123, 39.502623274423883 ], [ -6.343600015313123, 39.502181263818272 ], [ -6.342119583378107, 39.502181263818272 ], [ -6.342119583378107, 39.501739250401528 ], [ -6.341379367410598, 39.501739250401528 ] ] ], [ [ [ -3.743221321456344, 39.944543091108599 ], [ -3.743221321456344, 39.944103904206173 ], [ -3.741740889521328, 39.944103904206173 ], [ -3.741740889521328, 39.943664714484513 ], [ -3.741000673553819, 39.943664714484513 ], [ -3.741000673553819, 39.943225521943617 ], [ -3.739520241618802, 39.943225521943617 ], [ -3.739520241618802, 39.942786326583487 ], [ -3.738780025651294, 39.942786326583487 ], [ -3.738780025651294, 39.942347128404151 ], [ -3.738039809683786, 39.942347128404151 ], [ -3.738039809683786, 39.940590307494809 ], [ -3.737299593716278, 39.940590307494809 ], [ -3.737299593716278, 39.938394217926707 ], [ -3.736559377748769, 39.938394217926707 ], [ -3.736559377748769, 39.93531957412776 ], [ -3.737299593716278, 39.93531957412776 ], [ -3.737299593716278, 39.933123315412963 ], [ -3.738039809683786, 39.933123315412963 ], [ -3.738039809683786, 39.931366257698258 ], [ -3.738780025651294, 39.931366257698258 ], [ -3.738780025651294, 39.93048771192678 ], [ -3.739520241618802, 39.93048771192678 ], [ -3.739520241618802, 39.930048434812555 ], [ -3.740260457586311, 39.930048434812555 ], [ -3.740260457586311, 39.929609154879309 ], [ -3.741000673553819, 39.929609154879309 ], [ -3.741000673553819, 39.929169872127098 ], [ -3.742481105488836, 39.929169872127098 ], [ -3.742481105488836, 39.928730586555908 ], [ -3.743221321456344, 39.928730586555908 ], [ -3.743221321456344, 39.928291298165753 ], [ -3.743961537423853, 39.928291298165753 ], [ -3.743961537423853, 39.928730586555908 ], [ -3.746182185326378, 39.928730586555908 ], [ -3.746182185326378, 39.929169872127098 ], [ -3.747662617261394, 39.929169872127098 ], [ -3.747662617261394, 39.929609154879309 ], [ -3.749143049196411, 39.929609154879309 ], [ -3.749143049196411, 39.930048434812555 ], [ -3.750623481131427, 39.930048434812555 ], [ -3.750623481131427, 39.93048771192678 ], [ -3.751363697098936, 39.93048771192678 ], [ -3.751363697098936, 39.931366257698258 ], [ -3.752103913066444, 39.931366257698258 ], [ -3.752103913066444, 39.934441079099038 ], [ -3.752844129033953, 39.934441079099038 ], [ -3.752844129033953, 39.937076530356116 ], [ -3.753584345001461, 39.937076530356116 ], [ -3.753584345001461, 39.938833441478643 ], [ -3.752844129033953, 39.938833441478643 ], [ -3.752844129033953, 39.940151095219512 ], [ -3.752103913066444, 39.940151095219512 ], [ -3.752103913066444, 39.941468723587867 ], [ -3.751363697098936, 39.941468723587867 ], [ -3.751363697098936, 39.942786326583487 ], [ -3.750623481131427, 39.942786326583487 ], [ -3.750623481131427, 39.943664714484513 ], [ -3.749883265163919, 39.943664714484513 ], [ -3.749883265163919, 39.944103904206173 ], [ -3.748402833228903, 39.944103904206173 ], [ -3.748402833228903, 39.944543091108599 ], [ -3.746922401293885, 39.944543091108599 ], [ -3.746922401293885, 39.944982275191784 ], [ -3.746182185326378, 39.944982275191784 ], [ -3.746182185326378, 39.945421456455712 ], [ -3.745441969358869, 39.945421456455712 ], [ -3.745441969358869, 39.944982275191784 ], [ -3.743961537423853, 39.944982275191784 ], [ -3.743961537423853, 39.944543091108599 ], [ -3.743221321456344, 39.944543091108599 ] ] ], [ [ [ -3.468601197510752, 40.253030605299436 ], [ -3.468601197510752, 40.252156201901066 ], [ -3.467860981543244, 40.252156201901066 ], [ -3.467860981543244, 40.250844575619915 ], [ -3.467120765575736, 40.250844575619915 ], [ -3.467120765575736, 40.249970143976832 ], [ -3.466380549608227, 40.249970143976832 ], [ -3.466380549608227, 40.249095701035969 ], [ -3.465640333640719, 40.249095701035969 ], [ -3.465640333640719, 40.247784015441454 ], [ -3.46490011767321, 40.247784015441454 ], [ -3.46490011767321, 40.247346781261115 ], [ -3.463419685738194, 40.247346781261115 ], [ -3.463419685738194, 40.247784015441454 ], [ -3.461939253803177, 40.247784015441454 ], [ -3.461939253803177, 40.248221246797378 ], [ -3.460458821868161, 40.248221246797378 ], [ -3.460458821868161, 40.248658475328888 ], [ -3.458978389933144, 40.248658475328888 ], [ -3.458978389933144, 40.248221246797378 ], [ -3.458238173965635, 40.248221246797378 ], [ -3.458238173965635, 40.246909544256376 ], [ -3.457497957998127, 40.246909544256376 ], [ -3.457497957998127, 40.246035061773718 ], [ -3.456757742030619, 40.246035061773718 ], [ -3.456757742030619, 40.244723316866896 ], [ -3.45601752606311, 40.244723316866896 ], [ -3.45601752606311, 40.242099750795745 ], [ -3.456757742030619, 40.242099750795745 ], [ -3.456757742030619, 40.241225206177418 ], [ -3.457497957998127, 40.241225206177418 ], [ -3.457497957998127, 40.23991336806769 ], [ -3.458238173965635, 40.23991336806769 ], [ -3.458238173965635, 40.239038795206454 ], [ -3.458978389933144, 40.239038795206454 ], [ -3.458978389933144, 40.238601504539439 ], [ -3.464159901705703, 40.238601504539439 ], [ -3.464159901705703, 40.239038795206454 ], [ -3.46490011767321, 40.239038795206454 ], [ -3.46490011767321, 40.23991336806769 ], [ -3.465640333640719, 40.23991336806769 ], [ -3.465640333640719, 40.239038795206454 ], [ -3.466380549608227, 40.239038795206454 ], [ -3.466380549608227, 40.238164211048165 ], [ -3.467120765575736, 40.238164211048165 ], [ -3.467120765575736, 40.237726914732633 ], [ -3.467860981543244, 40.237726914732633 ], [ -3.467860981543244, 40.237289615592864 ], [ -3.469341413478261, 40.237289615592864 ], [ -3.469341413478261, 40.236852313628852 ], [ -3.470081629445768, 40.236852313628852 ], [ -3.470081629445768, 40.236415008840616 ], [ -3.471562061380785, 40.236415008840616 ], [ -3.471562061380785, 40.235977701228158 ], [ -3.474522925250819, 40.235977701228158 ], [ -3.474522925250819, 40.236415008840616 ], [ -3.47822400508836, 40.236415008840616 ], [ -3.47822400508836, 40.236852313628852 ], [ -3.481184868958394, 40.236852313628852 ], [ -3.481184868958394, 40.237289615592864 ], [ -3.481925084925902, 40.237289615592864 ], [ -3.481925084925902, 40.238164211048165 ], [ -3.482665300893411, 40.238164211048165 ], [ -3.482665300893411, 40.239476083049205 ], [ -3.483405516860918, 40.239476083049205 ], [ -3.483405516860918, 40.240350650261888 ], [ -3.484145732828428, 40.240350650261888 ], [ -3.484145732828428, 40.241662479898736 ], [ -3.484885948795936, 40.241662479898736 ], [ -3.484885948795936, 40.242537018868425 ], [ -3.485626164763444, 40.242537018868425 ], [ -3.485626164763444, 40.243848806140534 ], [ -3.486366380730952, 40.243848806140534 ], [ -3.486366380730952, 40.246909544256376 ], [ -3.485626164763444, 40.246909544256376 ], [ -3.485626164763444, 40.248221246797378 ], [ -3.484885948795936, 40.248221246797378 ], [ -3.484885948795936, 40.249970143976832 ], [ -3.484145732828428, 40.249970143976832 ], [ -3.484145732828428, 40.251281787204768 ], [ -3.483405516860918, 40.251281787204768 ], [ -3.483405516860918, 40.251718995965156 ], [ -3.482665300893411, 40.251718995965156 ], [ -3.482665300893411, 40.252156201901066 ], [ -3.481184868958394, 40.252156201901066 ], [ -3.481184868958394, 40.252593405012497 ], [ -3.479704437023377, 40.252593405012497 ], [ -3.479704437023377, 40.253030605299436 ], [ -3.478964221055869, 40.253030605299436 ], [ -3.478964221055869, 40.253467802761868 ], [ -3.477483789120852, 40.253467802761868 ], [ -3.477483789120852, 40.253904997399822 ], [ -3.470821845413277, 40.253904997399822 ], [ -3.470821845413277, 40.253467802761868 ], [ -3.469341413478261, 40.253467802761868 ], [ -3.469341413478261, 40.253030605299436 ], [ -3.468601197510752, 40.253030605299436 ] ] ], [ [ [ -7.863263396607733, 41.264883883889077 ], [ -7.861782964672718, 41.264883883889077 ], [ -7.861782964672718, 41.264453288446283 ], [ -7.8603025327377, 41.264453288446283 ], [ -7.8603025327377, 41.264022690164083 ], [ -7.858822100802684, 41.264022690164083 ], [ -7.858822100802684, 41.263592089042476 ], [ -7.857341668867667, 41.263592089042476 ], [ -7.857341668867667, 41.263161485081476 ], [ -7.85660145290016, 41.263161485081476 ], [ -7.85660145290016, 41.259716551175792 ], [ -7.85586123693265, 41.259716551175792 ], [ -7.85586123693265, 41.255840783321936 ], [ -7.855121020965142, 41.255840783321936 ], [ -7.855121020965142, 41.254118146009361 ], [ -7.85586123693265, 41.254118146009361 ], [ -7.85586123693265, 41.252395463268385 ], [ -7.85660145290016, 41.252395463268385 ], [ -7.85660145290016, 41.250672735099371 ], [ -7.858081884835176, 41.250672735099371 ], [ -7.858081884835176, 41.250242045959034 ], [ -7.859562316770193, 41.250242045959034 ], [ -7.859562316770193, 41.249811353979467 ], [ -7.8603025327377, 41.249811353979467 ], [ -7.8603025327377, 41.248088557669064 ], [ -7.859562316770193, 41.248088557669064 ], [ -7.859562316770193, 41.246365715931525 ], [ -7.858822100802684, 41.246365715931525 ], [ -7.858822100802684, 41.2459349983992 ], [ -7.859562316770193, 41.2459349983992 ], [ -7.859562316770193, 41.24421209987824 ], [ -7.8603025327377, 41.24421209987824 ], [ -7.8603025327377, 41.242489155930954 ], [ -7.861042748705209, 41.242489155930954 ], [ -7.861042748705209, 41.242058412846305 ], [ -7.863263396607733, 41.242058412846305 ], [ -7.863263396607733, 41.241627666922547 ], [ -7.866224260477767, 41.241627666922547 ], [ -7.866224260477767, 41.241196918159673 ], [ -7.8691851243478, 41.241196918159673 ], [ -7.8691851243478, 41.240335412116615 ], [ -7.86992534031531, 41.240335412116615 ], [ -7.86992534031531, 41.239043131758827 ], [ -7.870665556282817, 41.239043131758827 ], [ -7.870665556282817, 41.238181597324896 ], [ -7.871405772250324, 41.238181597324896 ], [ -7.871405772250324, 41.237320051534709 ], [ -7.872145988217834, 41.237320051534709 ], [ -7.872145988217834, 41.236889274381035 ], [ -7.873626420152851, 41.236889274381035 ], [ -7.873626420152851, 41.237320051534709 ], [ -7.878807931925408, 41.237320051534709 ], [ -7.878807931925408, 41.237750825849339 ], [ -7.88250901176295, 41.237750825849339 ], [ -7.88250901176295, 41.238181597324896 ], [ -7.883249227730459, 41.238181597324896 ], [ -7.883249227730459, 41.238612365961401 ], [ -7.883989443697968, 41.238612365961401 ], [ -7.883989443697968, 41.239043131758827 ], [ -7.884729659665477, 41.239043131758827 ], [ -7.884729659665477, 41.239904654836437 ], [ -7.885469875632983, 41.239904654836437 ], [ -7.885469875632983, 41.240766166557698 ], [ -7.886210091600492, 41.240766166557698 ], [ -7.886210091600492, 41.243350633582864 ], [ -7.886950307568001, 41.243350633582864 ], [ -7.886950307568001, 41.243781368150117 ], [ -7.887690523535508, 41.243781368150117 ], [ -7.887690523535508, 41.24421209987824 ], [ -7.889170955470525, 41.24421209987824 ], [ -7.889170955470525, 41.244642828767212 ], [ -7.889911171438034, 41.244642828767212 ], [ -7.889911171438034, 41.245073554817033 ], [ -7.891391603373051, 41.245073554817033 ], [ -7.891391603373051, 41.244642828767212 ], [ -7.893612251275576, 41.244642828767212 ], [ -7.893612251275576, 41.24421209987824 ], [ -7.895832899178099, 41.24421209987824 ], [ -7.895832899178099, 41.244642828767212 ], [ -7.896573115145609, 41.244642828767212 ], [ -7.896573115145609, 41.245504278027688 ], [ -7.897313331113118, 41.245504278027688 ], [ -7.897313331113118, 41.246365715931525 ], [ -7.898053547080625, 41.246365715931525 ], [ -7.898053547080625, 41.246796430624691 ], [ -7.898793763048134, 41.246796430624691 ], [ -7.898793763048134, 41.251534104862358 ], [ -7.898053547080625, 41.251534104862358 ], [ -7.898053547080625, 41.251964785485001 ], [ -7.897313331113118, 41.251964785485001 ], [ -7.897313331113118, 41.252826138212527 ], [ -7.896573115145609, 41.252826138212527 ], [ -7.896573115145609, 41.25325681031741 ], [ -7.895832899178099, 41.25325681031741 ], [ -7.895832899178099, 41.254118146009361 ], [ -7.895092683210592, 41.254118146009361 ], [ -7.895092683210592, 41.254548809596436 ], [ -7.894352467243085, 41.254548809596436 ], [ -7.894352467243085, 41.255410128252734 ], [ -7.893612251275576, 41.255410128252734 ], [ -7.893612251275576, 41.255840783321936 ], [ -7.892872035308068, 41.255840783321936 ], [ -7.892872035308068, 41.258855289305778 ], [ -7.892131819340559, 41.258855289305778 ], [ -7.892131819340559, 41.261439040843598 ], [ -7.891391603373051, 41.261439040843598 ], [ -7.891391603373051, 41.261869656162141 ], [ -7.889911171438034, 41.261869656162141 ], [ -7.889911171438034, 41.262300268641297 ], [ -7.889170955470525, 41.262300268641297 ], [ -7.889170955470525, 41.262730878281083 ], [ -7.875106852087868, 41.262730878281083 ], [ -7.875106852087868, 41.263161485081476 ], [ -7.870665556282817, 41.263161485081476 ], [ -7.870665556282817, 41.263592089042476 ], [ -7.86992534031531, 41.263592089042476 ], [ -7.86992534031531, 41.264022690164083 ], [ -7.8691851243478, 41.264022690164083 ], [ -7.8691851243478, 41.264453288446283 ], [ -7.868444908380293, 41.264453288446283 ], [ -7.868444908380293, 41.264883883889077 ], [ -7.867704692412784, 41.264883883889077 ], [ -7.867704692412784, 41.265314476492442 ], [ -7.866964476445275, 41.265314476492442 ], [ -7.866964476445275, 41.2657450662564 ], [ -7.864003612575242, 41.2657450662564 ], [ -7.864003612575242, 41.265314476492442 ], [ -7.863263396607733, 41.265314476492442 ], [ -7.863263396607733, 41.264883883889077 ] ] ], [ [ [ 0.544109562351929, 35.788732754640378 ], [ 0.544849778319437, 35.788732754640378 ], [ 0.544849778319437, 35.787803380056921 ], [ 0.545589994286945, 35.787803380056921 ], [ 0.545589994286945, 35.787338688689786 ], [ 0.546330210254454, 35.787338688689786 ], [ 0.546330210254454, 35.786409297804781 ], [ 0.547070426221962, 35.786409297804781 ], [ 0.547070426221962, 35.779903257325017 ], [ 0.546330210254454, 35.779903257325017 ], [ 0.546330210254454, 35.778044290814222 ], [ 0.545589994286945, 35.778044290814222 ], [ 0.545589994286945, 35.777579542394932 ], [ 0.544849778319437, 35.777579542394932 ], [ 0.544849778319437, 35.777114791259052 ], [ 0.544109562351929, 35.777114791259052 ], [ 0.544109562351929, 35.776650037406554 ], [ 0.54336934638442, 35.776650037406554 ], [ 0.54336934638442, 35.776185280837481 ], [ 0.542629130416912, 35.776185280837481 ], [ 0.542629130416912, 35.775720521551847 ], [ 0.541888914449404, 35.775720521551847 ], [ 0.541888914449404, 35.775255759549673 ], [ 0.540408482514387, 35.775255759549673 ], [ 0.540408482514387, 35.775720521551847 ], [ 0.53892805057937, 35.775720521551847 ], [ 0.53892805057937, 35.776185280837481 ], [ 0.538187834611862, 35.776185280837481 ], [ 0.538187834611862, 35.776650037406554 ], [ 0.536707402676845, 35.776650037406554 ], [ 0.536707402676845, 35.777114791259052 ], [ 0.535226970741829, 35.777114791259052 ], [ 0.535226970741829, 35.778044290814222 ], [ 0.53448675477432, 35.778044290814222 ], [ 0.53448675477432, 35.77897377950292 ], [ 0.533746538806812, 35.77897377950292 ], [ 0.533746538806812, 35.779438519772313 ], [ 0.533006322839304, 35.779438519772313 ], [ 0.533006322839304, 35.780367992161054 ], [ 0.532266106871795, 35.780367992161054 ], [ 0.532266106871795, 35.78083272428038 ], [ 0.531525890904287, 35.78083272428038 ], [ 0.531525890904287, 35.785944598286946 ], [ 0.532266106871795, 35.785944598286946 ], [ 0.532266106871795, 35.786873994605742 ], [ 0.533006322839304, 35.786873994605742 ], [ 0.533006322839304, 35.787338688689786 ], [ 0.533746538806812, 35.787338688689786 ], [ 0.533746538806812, 35.788268068707133 ], [ 0.53448675477432, 35.788268068707133 ], [ 0.53448675477432, 35.788732754640378 ], [ 0.535226970741829, 35.788732754640378 ], [ 0.535226970741829, 35.789662118356006 ], [ 0.535967186709337, 35.789662118356006 ], [ 0.535967186709337, 35.790591471203676 ], [ 0.542629130416912, 35.790591471203676 ], [ 0.542629130416912, 35.790126796138338 ], [ 0.54336934638442, 35.790126796138338 ], [ 0.54336934638442, 35.789662118356006 ], [ 0.544109562351929, 35.789662118356006 ], [ 0.544109562351929, 35.788732754640378 ] ] ], [ [ [ -0.276789945614814, 35.824505411354338 ], [ -0.276049729647306, 35.824505411354338 ], [ -0.276049729647306, 35.824040934669902 ], [ -0.274569297712289, 35.824040934669902 ], [ -0.274569297712289, 35.8235764552674 ], [ -0.272348649809764, 35.8235764552674 ], [ -0.272348649809764, 35.82311197314683 ], [ -0.270128001907239, 35.82311197314683 ], [ -0.270128001907239, 35.822647488308213 ], [ -0.267167138037206, 35.822647488308213 ], [ -0.267167138037206, 35.822183000751579 ], [ -0.264946490134681, 35.822183000751579 ], [ -0.264946490134681, 35.821718510476927 ], [ -0.262725842232156, 35.821718510476927 ], [ -0.262725842232156, 35.821254017484272 ], [ -0.260505194329631, 35.821254017484272 ], [ -0.260505194329631, 35.820789521773627 ], [ -0.259764978362122, 35.820789521773627 ], [ -0.259764978362122, 35.819860522198454 ], [ -0.259024762394614, 35.819860522198454 ], [ -0.259024762394614, 35.81939601833394 ], [ -0.258284546427106, 35.81939601833394 ], [ -0.258284546427106, 35.818467002451158 ], [ -0.257544330459597, 35.818467002451158 ], [ -0.257544330459597, 35.818002490432896 ], [ -0.256804114492089, 35.818002490432896 ], [ -0.256804114492089, 35.81753797569678 ], [ -0.253843250622056, 35.81753797569678 ], [ -0.253843250622056, 35.817073458242774 ], [ -0.252362818687039, 35.817073458242774 ], [ -0.252362818687039, 35.816608938070921 ], [ -0.251622602719531, 35.816608938070921 ], [ -0.251622602719531, 35.816144415181228 ], [ -0.250882386752022, 35.816144415181228 ], [ -0.250882386752022, 35.815215361248384 ], [ -0.250142170784514, 35.815215361248384 ], [ -0.250142170784514, 35.814750830205249 ], [ -0.249401954817006, 35.814750830205249 ], [ -0.249401954817006, 35.814286296444358 ], [ -0.248661738849497, 35.814286296444358 ], [ -0.248661738849497, 35.813357220769255 ], [ -0.247921522881989, 35.813357220769255 ], [ -0.247921522881989, 35.812892678855093 ], [ -0.247181306914481, 35.812892678855093 ], [ -0.247181306914481, 35.812428134223211 ], [ -0.244220443044447, 35.812428134223211 ], [ -0.244220443044447, 35.811963586873631 ], [ -0.243480227076939, 35.811963586873631 ], [ -0.243480227076939, 35.812428134223211 ], [ -0.242740011109431, 35.812428134223211 ], [ -0.242740011109431, 35.813357220769255 ], [ -0.241999795141922, 35.813357220769255 ], [ -0.241999795141922, 35.814286296444358 ], [ -0.241259579174414, 35.814286296444358 ], [ -0.241259579174414, 35.814750830205249 ], [ -0.239779147239397, 35.814750830205249 ], [ -0.239779147239397, 35.815215361248384 ], [ -0.238298715304381, 35.815215361248384 ], [ -0.238298715304381, 35.815679889573708 ], [ -0.237558499336872, 35.815679889573708 ], [ -0.237558499336872, 35.816144415181228 ], [ -0.235337851434347, 35.816144415181228 ], [ -0.235337851434347, 35.815679889573708 ], [ -0.233117203531822, 35.815679889573708 ], [ -0.233117203531822, 35.815215361248384 ], [ -0.231636771596806, 35.815215361248384 ], [ -0.231636771596806, 35.814750830205249 ], [ -0.230896555629297, 35.814750830205249 ], [ -0.230896555629297, 35.813357220769255 ], [ -0.230156339661789, 35.813357220769255 ], [ -0.230156339661789, 35.812428134223211 ], [ -0.229416123694281, 35.812428134223211 ], [ -0.229416123694281, 35.811034484021377 ], [ -0.228675907726772, 35.811034484021377 ], [ -0.228675907726772, 35.810105370298473 ], [ -0.227935691759264, 35.810105370298473 ], [ -0.227935691759264, 35.809176245705025 ], [ -0.227195475791756, 35.809176245705025 ], [ -0.227195475791756, 35.80731796390701 ], [ -0.227935691759264, 35.80731796390701 ], [ -0.227935691759264, 35.805924224024189 ], [ -0.228675907726772, 35.805924224024189 ], [ -0.228675907726772, 35.804530459683846 ], [ -0.229416123694281, 35.804530459683846 ], [ -0.229416123694281, 35.803601269869652 ], [ -0.230156339661789, 35.803601269869652 ], [ -0.230156339661789, 35.803136670886389 ], [ -0.230896555629297, 35.803136670886389 ], [ -0.230896555629297, 35.802672069185711 ], [ -0.231636771596806, 35.802672069185711 ], [ -0.231636771596806, 35.80220746476764 ], [ -0.232376987564314, 35.80220746476764 ], [ -0.232376987564314, 35.801742857632192 ], [ -0.237558499336872, 35.801742857632192 ], [ -0.237558499336872, 35.80220746476764 ], [ -0.238298715304381, 35.80220746476764 ], [ -0.238298715304381, 35.802672069185711 ], [ -0.239038931271889, 35.802672069185711 ], [ -0.239038931271889, 35.800813635209181 ], [ -0.239779147239397, 35.800813635209181 ], [ -0.239779147239397, 35.799884401916799 ], [ -0.240519363206906, 35.799884401916799 ], [ -0.240519363206906, 35.799419781194644 ], [ -0.241259579174414, 35.799419781194644 ], [ -0.241259579174414, 35.798955157755167 ], [ -0.242740011109431, 35.798955157755167 ], [ -0.242740011109431, 35.798490531598425 ], [ -0.245700874979464, 35.798490531598425 ], [ -0.245700874979464, 35.798955157755167 ], [ -0.247921522881989, 35.798955157755167 ], [ -0.247921522881989, 35.799419781194644 ], [ -0.249401954817006, 35.799419781194644 ], [ -0.249401954817006, 35.799884401916799 ], [ -0.250882386752022, 35.799884401916799 ], [ -0.250882386752022, 35.799419781194644 ], [ -0.252362818687039, 35.799419781194644 ], [ -0.252362818687039, 35.798955157755167 ], [ -0.253843250622056, 35.798955157755167 ], [ -0.253843250622056, 35.798490531598425 ], [ -0.255323682557072, 35.798490531598425 ], [ -0.255323682557072, 35.798025902724412 ], [ -0.261245410297139, 35.798025902724412 ], [ -0.261245410297139, 35.798490531598425 ], [ -0.266426922069697, 35.798490531598425 ], [ -0.266426922069697, 35.799419781194644 ], [ -0.267167138037206, 35.799419781194644 ], [ -0.267167138037206, 35.799884401916799 ], [ -0.267907354004714, 35.799884401916799 ], [ -0.267907354004714, 35.800349019921647 ], [ -0.268647569972222, 35.800349019921647 ], [ -0.268647569972222, 35.801278247779365 ], [ -0.269387785939731, 35.801278247779365 ], [ -0.269387785939731, 35.801742857632192 ], [ -0.270128001907239, 35.801742857632192 ], [ -0.270128001907239, 35.80220746476764 ], [ -0.270868217874747, 35.80220746476764 ], [ -0.270868217874747, 35.803136670886389 ], [ -0.271608433842256, 35.803136670886389 ], [ -0.271608433842256, 35.803601269869652 ], [ -0.272348649809764, 35.803601269869652 ], [ -0.272348649809764, 35.804530459683846 ], [ -0.273088865777272, 35.804530459683846 ], [ -0.273088865777272, 35.804995050514783 ], [ -0.273829081744781, 35.804995050514783 ], [ -0.273829081744781, 35.804065866135467 ], [ -0.274569297712289, 35.804065866135467 ], [ -0.274569297712289, 35.803136670886389 ], [ -0.275309513679797, 35.803136670886389 ], [ -0.275309513679797, 35.80220746476764 ], [ -0.276049729647306, 35.80220746476764 ], [ -0.276049729647306, 35.801742857632192 ], [ -0.276789945614814, 35.801742857632192 ], [ -0.276789945614814, 35.801278247779365 ], [ -0.278270377549831, 35.801278247779365 ], [ -0.278270377549831, 35.800813635209181 ], [ -0.279010593517339, 35.800813635209181 ], [ -0.279010593517339, 35.800349019921647 ], [ -0.280491025452356, 35.800349019921647 ], [ -0.280491025452356, 35.800813635209181 ], [ -0.281231241419864, 35.800813635209181 ], [ -0.281231241419864, 35.801278247779365 ], [ -0.282711673354881, 35.801278247779365 ], [ -0.282711673354881, 35.801742857632192 ], [ -0.283451889322389, 35.801742857632192 ], [ -0.283451889322389, 35.80220746476764 ], [ -0.284192105289897, 35.80220746476764 ], [ -0.284192105289897, 35.805459638628236 ], [ -0.284932321257406, 35.805459638628236 ], [ -0.284932321257406, 35.809640809360559 ], [ -0.285672537224914, 35.809640809360559 ], [ -0.285672537224914, 35.813821759965677 ], [ -0.286412753192422, 35.813821759965677 ], [ -0.286412753192422, 35.818467002451158 ], [ -0.287152969159931, 35.818467002451158 ], [ -0.287152969159931, 35.821254017484272 ], [ -0.286412753192422, 35.821254017484272 ], [ -0.286412753192422, 35.822183000751579 ], [ -0.285672537224914, 35.822183000751579 ], [ -0.285672537224914, 35.822647488308213 ], [ -0.284932321257406, 35.822647488308213 ], [ -0.284932321257406, 35.82311197314683 ], [ -0.284192105289897, 35.82311197314683 ], [ -0.284192105289897, 35.8235764552674 ], [ -0.283451889322389, 35.8235764552674 ], [ -0.283451889322389, 35.824040934669902 ], [ -0.282711673354881, 35.824040934669902 ], [ -0.282711673354881, 35.824505411354338 ], [ -0.281971457387372, 35.824505411354338 ], [ -0.281971457387372, 35.824969885320684 ], [ -0.281231241419864, 35.824969885320684 ], [ -0.281231241419864, 35.82543435656892 ], [ -0.280491025452356, 35.82543435656892 ], [ -0.280491025452356, 35.825898825099053 ], [ -0.278270377549831, 35.825898825099053 ], [ -0.278270377549831, 35.82543435656892 ], [ -0.277530161582322, 35.82543435656892 ], [ -0.277530161582322, 35.824969885320684 ], [ -0.276789945614814, 35.824969885320684 ], [ -0.276789945614814, 35.824505411354338 ] ] ], [ [ [ 1.245094083582321, 36.136943660476909 ], [ 1.246574515517338, 36.136943660476909 ], [ 1.246574515517338, 36.135555728038689 ], [ 1.247314731484846, 36.135555728038689 ], [ 1.247314731484846, 36.13370511326643 ], [ 1.248054947452355, 36.13370511326643 ], [ 1.248054947452355, 36.132317123546741 ], [ 1.248795163419863, 36.132317123546741 ], [ 1.248795163419863, 36.130466432400581 ], [ 1.249535379387371, 36.130466432400581 ], [ 1.249535379387371, 36.129078385401499 ], [ 1.25027559535488, 36.129078385401499 ], [ 1.25027559535488, 36.123988669722088 ], [ 1.249535379387371, 36.123988669722088 ], [ 1.249535379387371, 36.123063231414996 ], [ 1.248795163419863, 36.123063231414996 ], [ 1.248795163419863, 36.122137782198543 ], [ 1.248054947452355, 36.122137782198543 ], [ 1.248054947452355, 36.121212322072857 ], [ 1.247314731484846, 36.121212322072857 ], [ 1.247314731484846, 36.120286851038067 ], [ 1.246574515517338, 36.120286851038067 ], [ 1.246574515517338, 36.119824111429786 ], [ 1.245834299549829, 36.119824111429786 ], [ 1.245834299549829, 36.119361369094264 ], [ 1.244353867614813, 36.119361369094264 ], [ 1.244353867614813, 36.118898624031523 ], [ 1.243613651647304, 36.118898624031523 ], [ 1.243613651647304, 36.11843587624157 ], [ 1.242133219712288, 36.11843587624157 ], [ 1.242133219712288, 36.118898624031523 ], [ 1.24139300374478, 36.118898624031523 ], [ 1.24139300374478, 36.119361369094264 ], [ 1.239912571809763, 36.119361369094264 ], [ 1.239912571809763, 36.119824111429786 ], [ 1.239172355842254, 36.119824111429786 ], [ 1.239172355842254, 36.120286851038067 ], [ 1.237691923907238, 36.120286851038067 ], [ 1.237691923907238, 36.120749587919107 ], [ 1.236951707939729, 36.120749587919107 ], [ 1.236951707939729, 36.117973125724419 ], [ 1.236211491972221, 36.117973125724419 ], [ 1.236211491972221, 36.116122096384153 ], [ 1.235471276004713, 36.116122096384153 ], [ 1.235471276004713, 36.115659332231232 ], [ 1.234731060037205, 36.115659332231232 ], [ 1.234731060037205, 36.115196565351212 ], [ 1.233250628102188, 36.115196565351212 ], [ 1.233250628102188, 36.114733795744087 ], [ 1.231029980199663, 36.114733795744087 ], [ 1.231029980199663, 36.115196565351212 ], [ 1.230289764232154, 36.115196565351212 ], [ 1.230289764232154, 36.115659332231232 ], [ 1.229549548264646, 36.115659332231232 ], [ 1.229549548264646, 36.116122096384153 ], [ 1.228809332297138, 36.116122096384153 ], [ 1.228809332297138, 36.11658485780994 ], [ 1.22806911632963, 36.11658485780994 ], [ 1.22806911632963, 36.117047616508593 ], [ 1.227328900362121, 36.117047616508593 ], [ 1.227328900362121, 36.117510372480098 ], [ 1.226588684394613, 36.117510372480098 ], [ 1.226588684394613, 36.119824111429786 ], [ 1.227328900362121, 36.119824111429786 ], [ 1.227328900362121, 36.123525951932208 ], [ 1.22806911632963, 36.123525951932208 ], [ 1.22806911632963, 36.123988669722088 ], [ 1.229549548264646, 36.123988669722088 ], [ 1.229549548264646, 36.124451384784592 ], [ 1.232510412134679, 36.124451384784592 ], [ 1.232510412134679, 36.124914097119721 ], [ 1.233250628102188, 36.124914097119721 ], [ 1.233250628102188, 36.125376806727459 ], [ 1.232510412134679, 36.125376806727459 ], [ 1.232510412134679, 36.126764919186158 ], [ 1.231770196167171, 36.126764919186158 ], [ 1.231770196167171, 36.128153007097822 ], [ 1.231029980199663, 36.128153007097822 ], [ 1.231029980199663, 36.129541070462068 ], [ 1.231770196167171, 36.129541070462068 ], [ 1.231770196167171, 36.130929109278505 ], [ 1.232510412134679, 36.130929109278505 ], [ 1.232510412134679, 36.132317123546741 ], [ 1.233250628102188, 36.132317123546741 ], [ 1.233250628102188, 36.13370511326643 ], [ 1.233990844069696, 36.13370511326643 ], [ 1.233990844069696, 36.135093078437173 ], [ 1.234731060037205, 36.135093078437173 ], [ 1.234731060037205, 36.136481019058579 ], [ 1.236211491972221, 36.136481019058579 ], [ 1.236211491972221, 36.136943660476909 ], [ 1.236951707939729, 36.136943660476909 ], [ 1.236951707939729, 36.13740629916748 ], [ 1.238432139874746, 36.13740629916748 ], [ 1.238432139874746, 36.137868935130264 ], [ 1.239172355842254, 36.137868935130264 ], [ 1.239172355842254, 36.138331568365288 ], [ 1.242873435679796, 36.138331568365288 ], [ 1.242873435679796, 36.137868935130264 ], [ 1.244353867614813, 36.137868935130264 ], [ 1.244353867614813, 36.13740629916748 ], [ 1.245094083582321, 36.13740629916748 ], [ 1.245094083582321, 36.136943660476909 ] ] ], [ [ [ 2.931306057566307, 36.147121081532141 ], [ 2.931306057566307, 36.146658500127771 ], [ 2.932786489501323, 36.146658500127771 ], [ 2.932786489501323, 36.146195915995342 ], [ 2.93426692143634, 36.146195915995342 ], [ 2.93426692143634, 36.145270739546369 ], [ 2.935007137403848, 36.145270739546369 ], [ 2.935007137403848, 36.143882954412867 ], [ 2.935747353371357, 36.143882954412867 ], [ 2.935747353371357, 36.142032536043331 ], [ 2.936487569338865, 36.142032536043331 ], [ 2.936487569338865, 36.140644693623038 ], [ 2.937227785306373, 36.140644693623038 ], [ 2.937227785306373, 36.139719451703449 ], [ 2.936487569338865, 36.139719451703449 ], [ 2.936487569338865, 36.137868935130264 ], [ 2.935747353371357, 36.137868935130264 ], [ 2.935747353371357, 36.136018374912496 ], [ 2.935007137403848, 36.136018374912496 ], [ 2.935007137403848, 36.134167771051025 ], [ 2.93426692143634, 36.134167771051025 ], [ 2.93426692143634, 36.133242452754182 ], [ 2.933526705468831, 36.133242452754182 ], [ 2.933526705468831, 36.132779789514281 ], [ 2.931306057566307, 36.132779789514281 ], [ 2.931306057566307, 36.132317123546741 ], [ 2.928345193696273, 36.132317123546741 ], [ 2.928345193696273, 36.131854454851599 ], [ 2.927604977728765, 36.131854454851599 ], [ 2.927604977728765, 36.130929109278505 ], [ 2.926864761761257, 36.130929109278505 ], [ 2.926864761761257, 36.130003752795091 ], [ 2.926124545793748, 36.130003752795091 ], [ 2.926124545793748, 36.129078385401499 ], [ 2.92538432982624, 36.129078385401499 ], [ 2.92538432982624, 36.128153007097822 ], [ 2.923903897891223, 36.128153007097822 ], [ 2.923903897891223, 36.128615697613419 ], [ 2.921683249988698, 36.128615697613419 ], [ 2.921683249988698, 36.129078385401499 ], [ 2.919462602086173, 36.129078385401499 ], [ 2.919462602086173, 36.129541070462068 ], [ 2.918722386118665, 36.129541070462068 ], [ 2.918722386118665, 36.130003752795091 ], [ 2.917982170151157, 36.130003752795091 ], [ 2.917982170151157, 36.13370511326643 ], [ 2.917241954183648, 36.13370511326643 ], [ 2.917241954183648, 36.135555728038689 ], [ 2.917982170151157, 36.135555728038689 ], [ 2.917982170151157, 36.136481019058579 ], [ 2.918722386118665, 36.136481019058579 ], [ 2.918722386118665, 36.13740629916748 ], [ 2.919462602086173, 36.13740629916748 ], [ 2.919462602086173, 36.138794198872496 ], [ 2.920202818053682, 36.138794198872496 ], [ 2.920202818053682, 36.141107310491023 ], [ 2.92094303402119, 36.141107310491023 ], [ 2.92094303402119, 36.143420353912397 ], [ 2.921683249988698, 36.143420353912397 ], [ 2.921683249988698, 36.14573332913487 ], [ 2.922423465956207, 36.14573332913487 ], [ 2.922423465956207, 36.146195915995342 ], [ 2.923163681923715, 36.146195915995342 ], [ 2.923163681923715, 36.146658500127771 ], [ 2.923903897891223, 36.146658500127771 ], [ 2.923903897891223, 36.147121081532141 ], [ 2.92538432982624, 36.147121081532141 ], [ 2.92538432982624, 36.147583660208454 ], [ 2.926124545793748, 36.147583660208454 ], [ 2.926124545793748, 36.148046236156667 ], [ 2.927604977728765, 36.148046236156667 ], [ 2.927604977728765, 36.147583660208454 ], [ 2.92982562563129, 36.147583660208454 ], [ 2.92982562563129, 36.147121081532141 ], [ 2.931306057566307, 36.147121081532141 ] ] ], [ [ [ 3.750725133598033, 36.187817560404099 ], [ 3.75220556553305, 36.187817560404099 ], [ 3.75220556553305, 36.187355219123539 ], [ 3.753685997468065, 36.187355219123539 ], [ 3.753685997468065, 36.186892875113685 ], [ 3.754426213435575, 36.186892875113685 ], [ 3.754426213435575, 36.185505826708528 ], [ 3.755166429403083, 36.185505826708528 ], [ 3.755166429403083, 36.183656390625785 ], [ 3.755906645370591, 36.183656390625785 ], [ 3.755906645370591, 36.182269284907314 ], [ 3.756646861338099, 36.182269284907314 ], [ 3.756646861338099, 36.180882154626616 ], [ 3.757387077305608, 36.180882154626616 ], [ 3.757387077305608, 36.17903260937846 ], [ 3.756646861338099, 36.17903260937846 ], [ 3.756646861338099, 36.177645421787389 ], [ 3.755906645370591, 36.177645421787389 ], [ 3.755906645370591, 36.176258209635364 ], [ 3.755166429403083, 36.176258209635364 ], [ 3.755166429403083, 36.174870972922768 ], [ 3.754426213435575, 36.174870972922768 ], [ 3.754426213435575, 36.173483711649958 ], [ 3.753685997468065, 36.173483711649958 ], [ 3.753685997468065, 36.172558857157064 ], [ 3.75220556553305, 36.172558857157064 ], [ 3.75220556553305, 36.17209642581733 ], [ 3.750725133598033, 36.17209642581733 ], [ 3.750725133598033, 36.171633991748799 ], [ 3.749984917630524, 36.171633991748799 ], [ 3.749984917630524, 36.171171554951435 ], [ 3.748504485695508, 36.171171554951435 ], [ 3.748504485695508, 36.170709115425268 ], [ 3.746283837792983, 36.170709115425268 ], [ 3.746283837792983, 36.171171554951435 ], [ 3.745543621825474, 36.171171554951435 ], [ 3.745543621825474, 36.171633991748799 ], [ 3.744063189890458, 36.171633991748799 ], [ 3.744063189890458, 36.17209642581733 ], [ 3.743322973922949, 36.17209642581733 ], [ 3.743322973922949, 36.172558857157064 ], [ 3.741842541987933, 36.172558857157064 ], [ 3.741842541987933, 36.173021285767938 ], [ 3.740362110052916, 36.173021285767938 ], [ 3.740362110052916, 36.173483711649958 ], [ 3.739621894085408, 36.173483711649958 ], [ 3.739621894085408, 36.173946134803117 ], [ 3.738141462150391, 36.173946134803117 ], [ 3.738141462150391, 36.175333387889239 ], [ 3.737401246182882, 36.175333387889239 ], [ 3.737401246182882, 36.177183020465691 ], [ 3.736661030215375, 36.177183020465691 ], [ 3.736661030215375, 36.17949499978409 ], [ 3.737401246182882, 36.17949499978409 ], [ 3.737401246182882, 36.182731656209292 ], [ 3.738141462150391, 36.182731656209292 ], [ 3.738141462150391, 36.185968178906165 ], [ 3.738881678117899, 36.185968178906165 ], [ 3.738881678117899, 36.186892875113685 ], [ 3.740362110052916, 36.186892875113685 ], [ 3.740362110052916, 36.187355219123539 ], [ 3.741102326020424, 36.187355219123539 ], [ 3.741102326020424, 36.187817560404099 ], [ 3.742582757955441, 36.187817560404099 ], [ 3.742582757955441, 36.188279898955365 ], [ 3.743322973922949, 36.188279898955365 ], [ 3.743322973922949, 36.188742234777301 ], [ 3.744803405857966, 36.188742234777301 ], [ 3.744803405857966, 36.189204567869922 ], [ 3.747764269728, 36.189204567869922 ], [ 3.747764269728, 36.188742234777301 ], [ 3.749244701663016, 36.188742234777301 ], [ 3.749244701663016, 36.188279898955365 ], [ 3.750725133598033, 36.188279898955365 ], [ 3.750725133598033, 36.187817560404099 ] ] ], [ [ [ 4.288121926009083, 36.494208918745805 ], [ 4.290342573911608, 36.494208918745805 ], [ 4.290342573911608, 36.493748392764296 ], [ 4.291082789879116, 36.493748392764296 ], [ 4.291082789879116, 36.492827332586046 ], [ 4.291823005846625, 36.492827332586046 ], [ 4.291823005846625, 36.492366798389348 ], [ 4.292563221814134, 36.492366798389348 ], [ 4.292563221814134, 36.491445721780856 ], [ 4.293303437781642, 36.491445721780856 ], [ 4.293303437781642, 36.483155539416302 ], [ 4.292563221814134, 36.483155539416302 ], [ 4.292563221814134, 36.482234353279082 ], [ 4.291823005846625, 36.482234353279082 ], [ 4.291823005846625, 36.481313156189586 ], [ 4.291082789879116, 36.481313156189586 ], [ 4.291082789879116, 36.480391948147911 ], [ 4.290342573911608, 36.480391948147911 ], [ 4.290342573911608, 36.47947072915418 ], [ 4.2896023579441, 36.47947072915418 ], [ 4.2896023579441, 36.478549499208498 ], [ 4.288121926009083, 36.478549499208498 ], [ 4.288121926009083, 36.478088880128702 ], [ 4.285901278106558, 36.478088880128702 ], [ 4.285901278106558, 36.477628258310958 ], [ 4.282200198269017, 36.477628258310958 ], [ 4.282200198269017, 36.478549499208498 ], [ 4.281459982301508, 36.478549499208498 ], [ 4.281459982301508, 36.47947072915418 ], [ 4.280719766333999, 36.47947072915418 ], [ 4.280719766333999, 36.480852553537773 ], [ 4.279979550366492, 36.480852553537773 ], [ 4.279979550366492, 36.481773756103365 ], [ 4.279239334398983, 36.481773756103365 ], [ 4.279239334398983, 36.482694947716737 ], [ 4.278499118431475, 36.482694947716737 ], [ 4.278499118431475, 36.483616128377768 ], [ 4.277758902463966, 36.483616128377768 ], [ 4.277758902463966, 36.484537298086359 ], [ 4.277018686496459, 36.484537298086359 ], [ 4.277018686496459, 36.485458456842416 ], [ 4.27627847052895, 36.485458456842416 ], [ 4.27627847052895, 36.491445721780856 ], [ 4.277018686496459, 36.491445721780856 ], [ 4.277018686496459, 36.493287864044369 ], [ 4.277758902463966, 36.493287864044369 ], [ 4.277758902463966, 36.494208918745805 ], [ 4.278499118431475, 36.494208918745805 ], [ 4.278499118431475, 36.495129962493579 ], [ 4.279239334398983, 36.495129962493579 ], [ 4.279239334398983, 36.495590480259793 ], [ 4.282940414236525, 36.495590480259793 ], [ 4.282940414236525, 36.495129962493579 ], [ 4.28516106213905, 36.495129962493579 ], [ 4.28516106213905, 36.494669441988904 ], [ 4.288121926009083, 36.494669441988904 ], [ 4.288121926009083, 36.494208918745805 ] ] ], [ [ [ 1.233990844069696, 41.186468750950077 ], [ 1.233990844069696, 41.185606523866817 ], [ 1.234731060037205, 41.185606523866817 ], [ 1.234731060037205, 41.185175406067621 ], [ 1.235471276004713, 41.185175406067621 ], [ 1.235471276004713, 41.184313161954123 ], [ 1.236211491972221, 41.184313161954123 ], [ 1.236211491972221, 41.18388203563984 ], [ 1.236951707939729, 41.18388203563984 ], [ 1.236951707939729, 41.183450906487195 ], [ 1.237691923907238, 41.183450906487195 ], [ 1.237691923907238, 41.182588639666911 ], [ 1.238432139874746, 41.182588639666911 ], [ 1.238432139874746, 41.182157501999257 ], [ 1.239172355842254, 41.182157501999257 ], [ 1.239172355842254, 41.181295218148961 ], [ 1.239912571809763, 41.181295218148961 ], [ 1.239912571809763, 41.18086407196634 ], [ 1.240652787777271, 41.18086407196634 ], [ 1.240652787777271, 41.180432922945414 ], [ 1.24139300374478, 41.180432922945414 ], [ 1.24139300374478, 41.179570616388638 ], [ 1.242133219712288, 41.179570616388638 ], [ 1.242133219712288, 41.179139458852809 ], [ 1.242873435679796, 41.179139458852809 ], [ 1.242873435679796, 41.173965347038035 ], [ 1.242133219712288, 41.173965347038035 ], [ 1.242133219712288, 41.173102955333569 ], [ 1.24139300374478, 41.173102955333569 ], [ 1.24139300374478, 41.172240552276278 ], [ 1.240652787777271, 41.172240552276278 ], [ 1.240652787777271, 41.171809346490335 ], [ 1.239912571809763, 41.171809346490335 ], [ 1.239912571809763, 41.171378137866199 ], [ 1.238432139874746, 41.171378137866199 ], [ 1.238432139874746, 41.171809346490335 ], [ 1.236211491972221, 41.171809346490335 ], [ 1.236211491972221, 41.172240552276278 ], [ 1.233990844069696, 41.172240552276278 ], [ 1.233990844069696, 41.17267175522403 ], [ 1.231029980199663, 41.17267175522403 ], [ 1.231029980199663, 41.173102955333569 ], [ 1.229549548264646, 41.173102955333569 ], [ 1.229549548264646, 41.17267175522403 ], [ 1.228809332297138, 41.17267175522403 ], [ 1.228809332297138, 41.171809346490335 ], [ 1.22806911632963, 41.171809346490335 ], [ 1.22806911632963, 41.170946926403879 ], [ 1.227328900362121, 41.170946926403879 ], [ 1.227328900362121, 41.170084494964705 ], [ 1.222147388589563, 41.170084494964705 ], [ 1.222147388589563, 41.170515712103381 ], [ 1.221407172622054, 41.170515712103381 ], [ 1.221407172622054, 41.171378137866199 ], [ 1.220666956654546, 41.171378137866199 ], [ 1.220666956654546, 41.17267175522403 ], [ 1.219926740687038, 41.17267175522403 ], [ 1.219926740687038, 41.173534152604915 ], [ 1.21918652471953, 41.173534152604915 ], [ 1.21918652471953, 41.176552454033988 ], [ 1.219926740687038, 41.176552454033988 ], [ 1.219926740687038, 41.178708298478696 ], [ 1.220666956654546, 41.178708298478696 ], [ 1.220666956654546, 41.179139458852809 ], [ 1.222147388589563, 41.179139458852809 ], [ 1.222147388589563, 41.179570616388638 ], [ 1.222887604557071, 41.179570616388638 ], [ 1.222887604557071, 41.180001771086182 ], [ 1.224368036492088, 41.180001771086182 ], [ 1.224368036492088, 41.18474428543005 ], [ 1.225108252459596, 41.18474428543005 ], [ 1.225108252459596, 41.185175406067621 ], [ 1.225848468427105, 41.185175406067621 ], [ 1.225848468427105, 41.186037638827635 ], [ 1.226588684394613, 41.186037638827635 ], [ 1.226588684394613, 41.186899860234142 ], [ 1.227328900362121, 41.186899860234142 ], [ 1.227328900362121, 41.187330966679809 ], [ 1.232510412134679, 41.187330966679809 ], [ 1.232510412134679, 41.186899860234142 ], [ 1.233250628102188, 41.186899860234142 ], [ 1.233250628102188, 41.186468750950077 ], [ 1.233990844069696, 41.186468750950077 ] ] ], [ [ [ 1.667017185062072, 41.319546424455204 ], [ 1.667017185062072, 41.318685952030009 ], [ 1.66775740102958, 41.318685952030009 ], [ 1.66775740102958, 41.318255711557249 ], [ 1.668497616997088, 41.318255711557249 ], [ 1.668497616997088, 41.317395222091427 ], [ 1.669237832964597, 41.317395222091427 ], [ 1.669237832964597, 41.316534721265214 ], [ 1.669978048932105, 41.316534721265214 ], [ 1.669978048932105, 41.315674209078693 ], [ 1.670718264899614, 41.315674209078693 ], [ 1.670718264899614, 41.314383419498391 ], [ 1.669978048932105, 41.314383419498391 ], [ 1.669978048932105, 41.308359396826262 ], [ 1.669237832964597, 41.308359396826262 ], [ 1.669237832964597, 41.307929088192537 ], [ 1.668497616997088, 41.307929088192537 ], [ 1.668497616997088, 41.307068462405169 ], [ 1.66775740102958, 41.307068462405169 ], [ 1.66775740102958, 41.306207825257957 ], [ 1.667017185062072, 41.306207825257957 ], [ 1.667017185062072, 41.305777502424441 ], [ 1.661835673289513, 41.305777502424441 ], [ 1.661835673289513, 41.306207825257957 ], [ 1.659615025386988, 41.306207825257957 ], [ 1.659615025386988, 41.306638145251547 ], [ 1.65887480941948, 41.306638145251547 ], [ 1.65887480941948, 41.30749877671883 ], [ 1.658134593451972, 41.30749877671883 ], [ 1.658134593451972, 41.307929088192537 ], [ 1.657394377484463, 41.307929088192537 ], [ 1.657394377484463, 41.308359396826262 ], [ 1.656654161516955, 41.308359396826262 ], [ 1.656654161516955, 41.308789702620011 ], [ 1.655913945549446, 41.308789702620011 ], [ 1.655913945549446, 41.309650305687569 ], [ 1.655173729581938, 41.309650305687569 ], [ 1.655173729581938, 41.312232046730209 ], [ 1.65443351361443, 41.312232046730209 ], [ 1.65443351361443, 41.316104466591995 ], [ 1.655173729581938, 41.316104466591995 ], [ 1.655173729581938, 41.316964973098372 ], [ 1.655913945549446, 41.316964973098372 ], [ 1.655913945549446, 41.317825468244379 ], [ 1.656654161516955, 41.317825468244379 ], [ 1.656654161516955, 41.318685952030009 ], [ 1.657394377484463, 41.318685952030009 ], [ 1.657394377484463, 41.319546424455204 ], [ 1.658134593451972, 41.319546424455204 ], [ 1.658134593451972, 41.319976656407619 ], [ 1.659615025386988, 41.319976656407619 ], [ 1.659615025386988, 41.320406885519908 ], [ 1.66331610522453, 41.320406885519908 ], [ 1.66331610522453, 41.320837111792073 ], [ 1.665536753127055, 41.320837111792073 ], [ 1.665536753127055, 41.320406885519908 ], [ 1.666276969094563, 41.320406885519908 ], [ 1.666276969094563, 41.319546424455204 ], [ 1.667017185062072, 41.319546424455204 ] ] ] ] } }
]
}
