{
"type": "FeatureCollection",
"name": "spain_fires_nrt_ba",
"crs": { "type": "name", "properties": { "name": "urn:ogc:def:crs:OGC:1.3:CRS84" } },
"features": [
{ "type": "Feature", "properties": { }, "geometry": { "type": "MultiPolygon", "coordinates": [ [ [ [ -0.277530161582322, 35.82543435656892 ], [ -0.277530161582322, 35.824969885320684 ], [ -0.276789945614814, 35.824969885320684 ], [ -0.276789945614814, 35.824505411354338 ], [ -0.276049729647306, 35.824505411354338 ], [ -0.276049729647306, 35.824040934669902 ], [ -0.273088865777272, 35.824040934669902 ], [ -0.273088865777272, 35.8235764552674 ], [ -0.268647569972222, 35.8235764552674 ], [ -0.268647569972222, 35.82311197314683 ], [ -0.264946490134681, 35.82311197314683 ], [ -0.264946490134681, 35.822647488308213 ], [ -0.264206274167172, 35.822647488308213 ], [ -0.264206274167172, 35.822183000751579 ], [ -0.263466058199664, 35.822183000751579 ], [ -0.263466058199664, 35.821718510476927 ], [ -0.262725842232156, 35.821718510476927 ], [ -0.262725842232156, 35.821254017484272 ], [ -0.261985626264647, 35.821254017484272 ], [ -0.261985626264647, 35.820789521773627 ], [ -0.260505194329631, 35.820789521773627 ], [ -0.260505194329631, 35.820325023345006 ], [ -0.259764978362122, 35.820325023345006 ], [ -0.259764978362122, 35.819860522198454 ], [ -0.259024762394614, 35.819860522198454 ], [ -0.259024762394614, 35.81939601833394 ], [ -0.258284546427106, 35.81939601833394 ], [ -0.258284546427106, 35.818931511751508 ], [ -0.256804114492089, 35.818931511751508 ], [ -0.256804114492089, 35.818467002451158 ], [ -0.255323682557072, 35.818467002451158 ], [ -0.255323682557072, 35.818002490432896 ], [ -0.253103034654547, 35.818002490432896 ], [ -0.253103034654547, 35.81753797569678 ], [ -0.251622602719531, 35.81753797569678 ], [ -0.251622602719531, 35.817073458242774 ], [ -0.250142170784514, 35.817073458242774 ], [ -0.250142170784514, 35.816608938070921 ], [ -0.247921522881989, 35.816608938070921 ], [ -0.247921522881989, 35.817073458242774 ], [ -0.247181306914481, 35.817073458242774 ], [ -0.247181306914481, 35.81753797569678 ], [ -0.245700874979464, 35.81753797569678 ], [ -0.245700874979464, 35.818002490432896 ], [ -0.244960659011956, 35.818002490432896 ], [ -0.244960659011956, 35.818467002451158 ], [ -0.244220443044447, 35.818467002451158 ], [ -0.244220443044447, 35.818931511751508 ], [ -0.242740011109431, 35.818931511751508 ], [ -0.242740011109431, 35.81939601833394 ], [ -0.239779147239397, 35.81939601833394 ], [ -0.239779147239397, 35.818931511751508 ], [ -0.237558499336872, 35.818931511751508 ], [ -0.237558499336872, 35.818467002451158 ], [ -0.236078067401856, 35.818467002451158 ], [ -0.236078067401856, 35.818002490432896 ], [ -0.234597635466839, 35.818002490432896 ], [ -0.234597635466839, 35.81753797569678 ], [ -0.232376987564314, 35.81753797569678 ], [ -0.232376987564314, 35.817073458242774 ], [ -0.231636771596806, 35.817073458242774 ], [ -0.231636771596806, 35.816144415181228 ], [ -0.230896555629297, 35.816144415181228 ], [ -0.230896555629297, 35.815215361248384 ], [ -0.230156339661789, 35.815215361248384 ], [ -0.230156339661789, 35.814286296444358 ], [ -0.229416123694281, 35.814286296444358 ], [ -0.229416123694281, 35.813821759965677 ], [ -0.228675907726772, 35.813821759965677 ], [ -0.228675907726772, 35.813357220769255 ], [ -0.227195475791756, 35.813357220769255 ], [ -0.227195475791756, 35.812892678855093 ], [ -0.225715043856739, 35.812892678855093 ], [ -0.225715043856739, 35.812428134223211 ], [ -0.224234611921722, 35.812428134223211 ], [ -0.224234611921722, 35.810569928518746 ], [ -0.223494395954214, 35.810569928518746 ], [ -0.223494395954214, 35.805924224024189 ], [ -0.224234611921722, 35.805924224024189 ], [ -0.224234611921722, 35.803601269869652 ], [ -0.224974827889231, 35.803601269869652 ], [ -0.224974827889231, 35.803136670886389 ], [ -0.225715043856739, 35.803136670886389 ], [ -0.225715043856739, 35.80220746476764 ], [ -0.226455259824247, 35.80220746476764 ], [ -0.226455259824247, 35.801742857632192 ], [ -0.227195475791756, 35.801742857632192 ], [ -0.227195475791756, 35.801278247779365 ], [ -0.227935691759264, 35.801278247779365 ], [ -0.227935691759264, 35.800813635209181 ], [ -0.230896555629297, 35.800813635209181 ], [ -0.230896555629297, 35.800349019921647 ], [ -0.233117203531822, 35.800349019921647 ], [ -0.233117203531822, 35.799884401916799 ], [ -0.234597635466839, 35.799884401916799 ], [ -0.234597635466839, 35.800349019921647 ], [ -0.235337851434347, 35.800349019921647 ], [ -0.235337851434347, 35.800813635209181 ], [ -0.236078067401856, 35.800813635209181 ], [ -0.236078067401856, 35.801278247779365 ], [ -0.236818283369364, 35.801278247779365 ], [ -0.236818283369364, 35.801742857632192 ], [ -0.237558499336872, 35.801742857632192 ], [ -0.237558499336872, 35.80220746476764 ], [ -0.238298715304381, 35.80220746476764 ], [ -0.238298715304381, 35.800813635209181 ], [ -0.239038931271889, 35.800813635209181 ], [ -0.239038931271889, 35.799884401916799 ], [ -0.239779147239397, 35.799884401916799 ], [ -0.239779147239397, 35.798955157755167 ], [ -0.240519363206906, 35.798955157755167 ], [ -0.240519363206906, 35.798025902724412 ], [ -0.241259579174414, 35.798025902724412 ], [ -0.241259579174414, 35.797561271133148 ], [ -0.244220443044447, 35.797561271133148 ], [ -0.244220443044447, 35.798025902724412 ], [ -0.246441090946972, 35.798025902724412 ], [ -0.246441090946972, 35.798490531598425 ], [ -0.248661738849497, 35.798490531598425 ], [ -0.248661738849497, 35.798955157755167 ], [ -0.252362818687039, 35.798955157755167 ], [ -0.252362818687039, 35.798490531598425 ], [ -0.253843250622056, 35.798490531598425 ], [ -0.253843250622056, 35.798025902724412 ], [ -0.255323682557072, 35.798025902724412 ], [ -0.255323682557072, 35.797561271133148 ], [ -0.256063898524581, 35.797561271133148 ], [ -0.256063898524581, 35.797096636824634 ], [ -0.257544330459597, 35.797096636824634 ], [ -0.257544330459597, 35.796631999798905 ], [ -0.259024762394614, 35.796631999798905 ], [ -0.259024762394614, 35.796167360055968 ], [ -0.261245410297139, 35.796167360055968 ], [ -0.261245410297139, 35.796631999798905 ], [ -0.261985626264647, 35.796631999798905 ], [ -0.261985626264647, 35.797096636824634 ], [ -0.262725842232156, 35.797096636824634 ], [ -0.262725842232156, 35.797561271133148 ], [ -0.263466058199664, 35.797561271133148 ], [ -0.263466058199664, 35.798025902724412 ], [ -0.264206274167172, 35.798025902724412 ], [ -0.264206274167172, 35.798490531598425 ], [ -0.264946490134681, 35.798490531598425 ], [ -0.264946490134681, 35.798955157755167 ], [ -0.265686706102189, 35.798955157755167 ], [ -0.265686706102189, 35.799419781194644 ], [ -0.266426922069697, 35.799419781194644 ], [ -0.266426922069697, 35.799884401916799 ], [ -0.267167138037206, 35.799884401916799 ], [ -0.267167138037206, 35.800349019921647 ], [ -0.267907354004714, 35.800349019921647 ], [ -0.267907354004714, 35.800813635209181 ], [ -0.268647569972222, 35.800813635209181 ], [ -0.268647569972222, 35.801278247779365 ], [ -0.269387785939731, 35.801278247779365 ], [ -0.269387785939731, 35.801742857632192 ], [ -0.270128001907239, 35.801742857632192 ], [ -0.270128001907239, 35.80220746476764 ], [ -0.270868217874747, 35.80220746476764 ], [ -0.270868217874747, 35.802672069185711 ], [ -0.271608433842256, 35.802672069185711 ], [ -0.271608433842256, 35.803601269869652 ], [ -0.272348649809764, 35.803601269869652 ], [ -0.272348649809764, 35.804065866135467 ], [ -0.273088865777272, 35.804065866135467 ], [ -0.273088865777272, 35.804530459683846 ], [ -0.274569297712289, 35.804530459683846 ], [ -0.274569297712289, 35.804065866135467 ], [ -0.275309513679797, 35.804065866135467 ], [ -0.275309513679797, 35.803136670886389 ], [ -0.276049729647306, 35.803136670886389 ], [ -0.276049729647306, 35.80220746476764 ], [ -0.276789945614814, 35.80220746476764 ], [ -0.276789945614814, 35.801278247779365 ], [ -0.277530161582322, 35.801278247779365 ], [ -0.277530161582322, 35.800813635209181 ], [ -0.282711673354881, 35.800813635209181 ], [ -0.282711673354881, 35.801742857632192 ], [ -0.283451889322389, 35.801742857632192 ], [ -0.283451889322389, 35.802672069185711 ], [ -0.284192105289897, 35.802672069185711 ], [ -0.284192105289897, 35.803136670886389 ], [ -0.284932321257406, 35.803136670886389 ], [ -0.284932321257406, 35.804995050514783 ], [ -0.285672537224914, 35.804995050514783 ], [ -0.285672537224914, 35.811499036806339 ], [ -0.286412753192422, 35.811499036806339 ], [ -0.286412753192422, 35.81753797569678 ], [ -0.287152969159931, 35.81753797569678 ], [ -0.287152969159931, 35.821254017484272 ], [ -0.286412753192422, 35.821254017484272 ], [ -0.286412753192422, 35.822183000751579 ], [ -0.285672537224914, 35.822183000751579 ], [ -0.285672537224914, 35.822647488308213 ], [ -0.284932321257406, 35.822647488308213 ], [ -0.284932321257406, 35.82311197314683 ], [ -0.284192105289897, 35.82311197314683 ], [ -0.284192105289897, 35.8235764552674 ], [ -0.283451889322389, 35.8235764552674 ], [ -0.283451889322389, 35.824040934669902 ], [ -0.282711673354881, 35.824040934669902 ], [ -0.282711673354881, 35.824505411354338 ], [ -0.281971457387372, 35.824505411354338 ], [ -0.281971457387372, 35.824969885320684 ], [ -0.281231241419864, 35.824969885320684 ], [ -0.281231241419864, 35.82543435656892 ], [ -0.280491025452356, 35.82543435656892 ], [ -0.280491025452356, 35.825898825099053 ], [ -0.278270377549831, 35.825898825099053 ], [ -0.278270377549831, 35.82543435656892 ], [ -0.277530161582322, 35.82543435656892 ] ] ], [ [ [ 1.239912571809763, 36.136018374912496 ], [ 1.242133219712288, 36.136018374912496 ], [ 1.242133219712288, 36.135555728038689 ], [ 1.243613651647304, 36.135555728038689 ], [ 1.243613651647304, 36.135093078437173 ], [ 1.245094083582321, 36.135093078437173 ], [ 1.245094083582321, 36.13463042610794 ], [ 1.245834299549829, 36.13463042610794 ], [ 1.245834299549829, 36.134167771051025 ], [ 1.246574515517338, 36.134167771051025 ], [ 1.246574515517338, 36.132779789514281 ], [ 1.247314731484846, 36.132779789514281 ], [ 1.247314731484846, 36.131854454851599 ], [ 1.248054947452355, 36.131854454851599 ], [ 1.248054947452355, 36.130466432400581 ], [ 1.248795163419863, 36.130466432400581 ], [ 1.248795163419863, 36.129078385401499 ], [ 1.249535379387371, 36.129078385401499 ], [ 1.249535379387371, 36.128153007097822 ], [ 1.25027559535488, 36.128153007097822 ], [ 1.25027559535488, 36.126764919186158 ], [ 1.249535379387371, 36.126764919186158 ], [ 1.249535379387371, 36.125376806727459 ], [ 1.248795163419863, 36.125376806727459 ], [ 1.248795163419863, 36.124451384784592 ], [ 1.248054947452355, 36.124451384784592 ], [ 1.248054947452355, 36.123063231414996 ], [ 1.247314731484846, 36.123063231414996 ], [ 1.247314731484846, 36.122137782198543 ], [ 1.246574515517338, 36.122137782198543 ], [ 1.246574515517338, 36.120749587919107 ], [ 1.245834299549829, 36.120749587919107 ], [ 1.245834299549829, 36.119824111429786 ], [ 1.242133219712288, 36.119824111429786 ], [ 1.242133219712288, 36.120286851038067 ], [ 1.239912571809763, 36.120286851038067 ], [ 1.239912571809763, 36.120749587919107 ], [ 1.237691923907238, 36.120749587919107 ], [ 1.237691923907238, 36.121212322072857 ], [ 1.236951707939729, 36.121212322072857 ], [ 1.236951707939729, 36.122137782198543 ], [ 1.236211491972221, 36.122137782198543 ], [ 1.236211491972221, 36.122600508170429 ], [ 1.235471276004713, 36.122600508170429 ], [ 1.235471276004713, 36.123525951932208 ], [ 1.233990844069696, 36.123525951932208 ], [ 1.233990844069696, 36.123988669722088 ], [ 1.232510412134679, 36.123988669722088 ], [ 1.232510412134679, 36.124451384784592 ], [ 1.230289764232154, 36.124451384784592 ], [ 1.230289764232154, 36.124914097119721 ], [ 1.229549548264646, 36.124914097119721 ], [ 1.229549548264646, 36.127227617884188 ], [ 1.228809332297138, 36.127227617884188 ], [ 1.228809332297138, 36.129078385401499 ], [ 1.22806911632963, 36.129078385401499 ], [ 1.22806911632963, 36.132317123546741 ], [ 1.228809332297138, 36.132317123546741 ], [ 1.228809332297138, 36.13370511326643 ], [ 1.229549548264646, 36.13370511326643 ], [ 1.229549548264646, 36.13463042610794 ], [ 1.230289764232154, 36.13463042610794 ], [ 1.230289764232154, 36.135093078437173 ], [ 1.231770196167171, 36.135093078437173 ], [ 1.231770196167171, 36.135555728038689 ], [ 1.232510412134679, 36.135555728038689 ], [ 1.232510412134679, 36.136018374912496 ], [ 1.233990844069696, 36.136018374912496 ], [ 1.233990844069696, 36.136481019058579 ], [ 1.235471276004713, 36.136481019058579 ], [ 1.235471276004713, 36.136943660476909 ], [ 1.238432139874746, 36.136943660476909 ], [ 1.238432139874746, 36.136481019058579 ], [ 1.239912571809763, 36.136481019058579 ], [ 1.239912571809763, 36.136018374912496 ] ] ], [ [ [ -9.006156850440602, 38.927421662286093 ], [ -9.006156850440602, 38.926530366450876 ], [ -9.005416634473093, 38.926530366450876 ], [ -9.005416634473093, 38.92608471433384 ], [ -9.004676418505586, 38.92608471433384 ], [ -9.004676418505586, 38.925193401701009 ], [ -9.003936202538076, 38.925193401701009 ], [ -9.003936202538076, 38.918062497505481 ], [ -9.004676418505586, 38.918062497505481 ], [ -9.004676418505586, 38.917171084090562 ], [ -9.005416634473093, 38.917171084090562 ], [ -9.005416634473093, 38.916279659478015 ], [ -9.006156850440602, 38.916279659478015 ], [ -9.006156850440602, 38.915833942972647 ], [ -9.006897066408111, 38.915833942972647 ], [ -9.006897066408111, 38.915388223667904 ], [ -9.007637282375619, 38.915388223667904 ], [ -9.007637282375619, 38.914942501563786 ], [ -9.009117714310635, 38.914942501563786 ], [ -9.009117714310635, 38.914496776660307 ], [ -9.009857930278143, 38.914496776660307 ], [ -9.009857930278143, 38.914051048957482 ], [ -9.010598146245652, 38.914051048957482 ], [ -9.010598146245652, 38.913605318455303 ], [ -9.012078578180668, 38.913605318455303 ], [ -9.012078578180668, 38.914051048957482 ], [ -9.013559010115685, 38.914051048957482 ], [ -9.013559010115685, 38.914496776660307 ], [ -9.015039442050702, 38.914496776660307 ], [ -9.015039442050702, 38.914942501563786 ], [ -9.016519873985718, 38.914942501563786 ], [ -9.016519873985718, 38.915388223667904 ], [ -9.018000305920735, 38.915388223667904 ], [ -9.018000305920735, 38.915833942972647 ], [ -9.018740521888244, 38.915833942972647 ], [ -9.018740521888244, 38.916279659478015 ], [ -9.020220953823259, 38.916279659478015 ], [ -9.020220953823259, 38.916725373183986 ], [ -9.021701385758277, 38.916725373183986 ], [ -9.021701385758277, 38.918062497505481 ], [ -9.022441601725784, 38.918062497505481 ], [ -9.022441601725784, 38.922073719299874 ], [ -9.023181817693294, 38.922073719299874 ], [ -9.023181817693294, 38.92296507112647 ], [ -9.022441601725784, 38.92296507112647 ], [ -9.022441601725784, 38.923410742840474 ], [ -9.021701385758277, 38.923410742840474 ], [ -9.021701385758277, 38.924302077869861 ], [ -9.020961169790768, 38.924302077869861 ], [ -9.020961169790768, 38.924747741185215 ], [ -9.020220953823259, 38.924747741185215 ], [ -9.020220953823259, 38.925193401701009 ], [ -9.019480737855751, 38.925193401701009 ], [ -9.019480737855751, 38.925639059417215 ], [ -9.018740521888244, 38.925639059417215 ], [ -9.018740521888244, 38.926530366450876 ], [ -9.018000305920735, 38.926530366450876 ], [ -9.018000305920735, 38.926976015768297 ], [ -9.017260089953226, 38.926976015768297 ], [ -9.017260089953226, 38.927421662286093 ], [ -9.016519873985718, 38.927421662286093 ], [ -9.016519873985718, 38.927867306004288 ], [ -9.015779658018211, 38.927867306004288 ], [ -9.015779658018211, 38.928312946922837 ], [ -9.006897066408111, 38.928312946922837 ], [ -9.006897066408111, 38.927421662286093 ], [ -9.006156850440602, 38.927421662286093 ] ] ], [ [ [ 0.54336934638442, 40.584485517843213 ], [ 0.544109562351929, 40.584485517843213 ], [ 0.544109562351929, 40.58405046620144 ], [ 0.544849778319437, 40.58405046620144 ], [ 0.544849778319437, 40.583180354428606 ], [ 0.545589994286945, 40.583180354428606 ], [ 0.545589994286945, 40.582310231336763 ], [ 0.546330210254454, 40.582310231336763 ], [ 0.546330210254454, 40.581440096925959 ], [ 0.547070426221962, 40.581440096925959 ], [ 0.547070426221962, 40.581005025475967 ], [ 0.54781064218947, 40.581005025475967 ], [ 0.54781064218947, 40.580134874086838 ], [ 0.548550858156979, 40.580134874086838 ], [ 0.548550858156979, 40.572738130287142 ], [ 0.54781064218947, 40.572738130287142 ], [ 0.54781064218947, 40.57186787137136 ], [ 0.547070426221962, 40.57186787137136 ], [ 0.547070426221962, 40.571432737669092 ], [ 0.546330210254454, 40.571432737669092 ], [ 0.546330210254454, 40.57056246177585 ], [ 0.545589994286945, 40.57056246177585 ], [ 0.545589994286945, 40.570127319584898 ], [ 0.544849778319437, 40.570127319584898 ], [ 0.544849778319437, 40.569692174564388 ], [ 0.544109562351929, 40.569692174564388 ], [ 0.544109562351929, 40.570127319584898 ], [ 0.541148698481895, 40.570127319584898 ], [ 0.541148698481895, 40.57056246177585 ], [ 0.53892805057937, 40.57056246177585 ], [ 0.53892805057937, 40.570997601137258 ], [ 0.538187834611862, 40.570997601137258 ], [ 0.538187834611862, 40.57186787137136 ], [ 0.537447618644354, 40.57186787137136 ], [ 0.537447618644354, 40.572738130287142 ], [ 0.536707402676845, 40.572738130287142 ], [ 0.536707402676845, 40.573608377884561 ], [ 0.535967186709337, 40.573608377884561 ], [ 0.535967186709337, 40.57447861416356 ], [ 0.535226970741829, 40.57447861416356 ], [ 0.535226970741829, 40.575348839124082 ], [ 0.53448675477432, 40.575348839124082 ], [ 0.53448675477432, 40.57708925508949 ], [ 0.533746538806812, 40.57708925508949 ], [ 0.533746538806812, 40.579264711378883 ], [ 0.533006322839304, 40.579264711378883 ], [ 0.533006322839304, 40.580134874086838 ], [ 0.533746538806812, 40.580134874086838 ], [ 0.533746538806812, 40.581440096925959 ], [ 0.53448675477432, 40.581440096925959 ], [ 0.53448675477432, 40.582310231336763 ], [ 0.535226970741829, 40.582310231336763 ], [ 0.535226970741829, 40.583615411729902 ], [ 0.535967186709337, 40.583615411729902 ], [ 0.535967186709337, 40.584485517843213 ], [ 0.536707402676845, 40.584485517843213 ], [ 0.536707402676845, 40.584920566655214 ], [ 0.54336934638442, 40.584920566655214 ], [ 0.54336934638442, 40.584485517843213 ] ] ], [ [ [ 1.667017185062072, 41.318685952030009 ], [ 1.667017185062072, 41.317825468244379 ], [ 1.66775740102958, 41.317825468244379 ], [ 1.66775740102958, 41.317395222091427 ], [ 1.668497616997088, 41.317395222091427 ], [ 1.668497616997088, 41.316534721265214 ], [ 1.669237832964597, 41.316534721265214 ], [ 1.669237832964597, 41.315674209078693 ], [ 1.669978048932105, 41.315674209078693 ], [ 1.669978048932105, 41.310080602961357 ], [ 1.669237832964597, 41.310080602961357 ], [ 1.669237832964597, 41.309220005573778 ], [ 1.668497616997088, 41.309220005573778 ], [ 1.668497616997088, 41.308359396826262 ], [ 1.66775740102958, 41.308359396826262 ], [ 1.66775740102958, 41.30749877671883 ], [ 1.667017185062072, 41.30749877671883 ], [ 1.667017185062072, 41.306638145251547 ], [ 1.666276969094563, 41.306638145251547 ], [ 1.666276969094563, 41.305777502424441 ], [ 1.665536753127055, 41.305777502424441 ], [ 1.665536753127055, 41.305347176750963 ], [ 1.664056321192039, 41.305347176750963 ], [ 1.664056321192039, 41.304916848237561 ], [ 1.662575889257022, 41.304916848237561 ], [ 1.662575889257022, 41.304486516884211 ], [ 1.661095457322005, 41.304486516884211 ], [ 1.661095457322005, 41.304056182690942 ], [ 1.659615025386988, 41.304056182690942 ], [ 1.659615025386988, 41.304486516884211 ], [ 1.65887480941948, 41.304486516884211 ], [ 1.65887480941948, 41.304916848237561 ], [ 1.658134593451972, 41.304916848237561 ], [ 1.658134593451972, 41.305347176750963 ], [ 1.657394377484463, 41.305347176750963 ], [ 1.657394377484463, 41.305777502424441 ], [ 1.656654161516955, 41.305777502424441 ], [ 1.656654161516955, 41.306638145251547 ], [ 1.655913945549446, 41.306638145251547 ], [ 1.655913945549446, 41.307068462405169 ], [ 1.655173729581938, 41.307068462405169 ], [ 1.655173729581938, 41.30749877671883 ], [ 1.65443351361443, 41.30749877671883 ], [ 1.65443351361443, 41.311801763656462 ], [ 1.653693297646922, 41.311801763656462 ], [ 1.653693297646922, 41.314813685531881 ], [ 1.65443351361443, 41.314813685531881 ], [ 1.65443351361443, 41.315243948725325 ], [ 1.655173729581938, 41.315243948725325 ], [ 1.655173729581938, 41.316104466591995 ], [ 1.655913945549446, 41.316104466591995 ], [ 1.655913945549446, 41.316534721265214 ], [ 1.656654161516955, 41.316534721265214 ], [ 1.656654161516955, 41.317395222091427 ], [ 1.657394377484463, 41.317395222091427 ], [ 1.657394377484463, 41.318255711557249 ], [ 1.658134593451972, 41.318255711557249 ], [ 1.658134593451972, 41.318685952030009 ], [ 1.65887480941948, 41.318685952030009 ], [ 1.65887480941948, 41.319116189662658 ], [ 1.66331610522453, 41.319116189662658 ], [ 1.66331610522453, 41.319546424455204 ], [ 1.666276969094563, 41.319546424455204 ], [ 1.666276969094563, 41.318685952030009 ], [ 1.667017185062072, 41.318685952030009 ] ] ], [ [ [ 2.009737178018431, 42.722559886256469 ], [ 2.009737178018431, 42.722139041293836 ], [ 2.010477393985939, 42.722139041293836 ], [ 2.010477393985939, 42.721718193476534 ], [ 2.011217609953447, 42.721718193476534 ], [ 2.011217609953447, 42.721297342804554 ], [ 2.011957825920955, 42.721297342804554 ], [ 2.011957825920955, 42.719193046624746 ], [ 2.012698041888464, 42.719193046624746 ], [ 2.012698041888464, 42.71582602429546 ], [ 2.013438257855972, 42.71582602429546 ], [ 2.013438257855972, 42.714563343820615 ], [ 2.012698041888464, 42.714563343820615 ], [ 2.012698041888464, 42.714142444619768 ], [ 2.011957825920955, 42.714142444619768 ], [ 2.011957825920955, 42.713721542564308 ], [ 2.011217609953447, 42.713721542564308 ], [ 2.011217609953447, 42.712879729889586 ], [ 2.010477393985939, 42.712879729889586 ], [ 2.010477393985939, 42.712458819270317 ], [ 2.009737178018431, 42.712458819270317 ], [ 2.009737178018431, 42.712037905796464 ], [ 2.008996962050922, 42.712037905796464 ], [ 2.008996962050922, 42.711616989468006 ], [ 2.008256746083414, 42.711616989468006 ], [ 2.008256746083414, 42.707828614055813 ], [ 2.007516530115905, 42.707828614055813 ], [ 2.007516530115905, 42.706986721452878 ], [ 2.006776314148397, 42.706986721452878 ], [ 2.006776314148397, 42.706144817431721 ], [ 2.006036098180889, 42.706144817431721 ], [ 2.006036098180889, 42.704881939990912 ], [ 2.005295882213381, 42.704881939990912 ], [ 2.005295882213381, 42.704040007424354 ], [ 2.004555666245873, 42.704040007424354 ], [ 2.004555666245873, 42.703198063439686 ], [ 2.003815450278363, 42.703198063439686 ], [ 2.003815450278363, 42.702356108036916 ], [ 2.003075234310855, 42.702356108036916 ], [ 2.003075234310855, 42.701514141216094 ], [ 2.002335018343347, 42.701514141216094 ], [ 2.002335018343347, 42.700672162977241 ], [ 2.001594802375839, 42.700672162977241 ], [ 2.001594802375839, 42.699830173320379 ], [ 1.997153506570789, 42.699830173320379 ], [ 1.997153506570789, 42.700251169576056 ], [ 1.993452426733247, 42.700251169576056 ], [ 1.993452426733247, 42.700672162977241 ], [ 1.989751346895706, 42.700672162977241 ], [ 1.989751346895706, 42.701514141216094 ], [ 1.989011130928197, 42.701514141216094 ], [ 1.989011130928197, 42.702356108036916 ], [ 1.988270914960689, 42.702356108036916 ], [ 1.988270914960689, 42.703198063439686 ], [ 1.98753069899318, 42.703198063439686 ], [ 1.98753069899318, 42.704040007424354 ], [ 1.986790483025672, 42.704040007424354 ], [ 1.986790483025672, 42.703198063439686 ], [ 1.986050267058164, 42.703198063439686 ], [ 1.986050267058164, 42.702356108036916 ], [ 1.985310051090655, 42.702356108036916 ], [ 1.985310051090655, 42.701935126053762 ], [ 1.980128539318097, 42.701935126053762 ], [ 1.980128539318097, 42.702356108036916 ], [ 1.979388323350589, 42.702356108036916 ], [ 1.979388323350589, 42.703198063439686 ], [ 1.978648107383081, 42.703198063439686 ], [ 1.978648107383081, 42.704040007424354 ], [ 1.977907891415572, 42.704040007424354 ], [ 1.977907891415572, 42.7044609751349 ], [ 1.977167675448064, 42.7044609751349 ], [ 1.977167675448064, 42.70909143155103 ], [ 1.977907891415572, 42.70909143155103 ], [ 1.977907891415572, 42.709512365006972 ], [ 1.978648107383081, 42.709512365006972 ], [ 1.978648107383081, 42.70993329560833 ], [ 1.979388323350589, 42.70993329560833 ], [ 1.979388323350589, 42.710775148247336 ], [ 1.980128539318097, 42.710775148247336 ], [ 1.980128539318097, 42.711196070284963 ], [ 1.980868755285605, 42.711196070284963 ], [ 1.980868755285605, 42.711616989468006 ], [ 1.981608971253114, 42.711616989468006 ], [ 1.981608971253114, 42.712037905796464 ], [ 1.983829619155639, 42.712037905796464 ], [ 1.983829619155639, 42.711616989468006 ], [ 1.984569835123147, 42.711616989468006 ], [ 1.984569835123147, 42.711196070284963 ], [ 1.986050267058164, 42.711196070284963 ], [ 1.986050267058164, 42.715405133658464 ], [ 1.986790483025672, 42.715405133658464 ], [ 1.986790483025672, 42.719613911570029 ], [ 1.98753069899318, 42.719613911570029 ], [ 1.98753069899318, 42.720455632896609 ], [ 1.988270914960689, 42.720455632896609 ], [ 1.988270914960689, 42.721297342804554 ], [ 1.989011130928197, 42.721297342804554 ], [ 1.989011130928197, 42.721718193476534 ], [ 1.989751346895706, 42.721718193476534 ], [ 1.989751346895706, 42.722559886256469 ], [ 2.000854586408331, 42.722559886256469 ], [ 2.000854586408331, 42.722980728364426 ], [ 2.008256746083414, 42.722980728364426 ], [ 2.008256746083414, 42.722559886256469 ], [ 2.009737178018431, 42.722559886256469 ] ] ] ] } }
]
}
