{
"type": "FeatureCollection",
"name": "spain_fires_modis_ba",
"crs": { "type": "name", "properties": { "name": "urn:ogc:def:crs:OGC:1.3:CRS84" } },
"features": [
{ "type": "Feature", "properties": { }, "geometry": { "type": "MultiPolygon", "coordinates": [ [ [ [ 2.568600233487223, 36.311626598403635 ], [ 2.568600233487223, 36.31024176221721 ], [ 2.567119801552206, 36.31024176221721 ], [ 2.567119801552206, 36.313011409992811 ], [ 2.567860017519715, 36.313011409992811 ], [ 2.567860017519715, 36.311626598403635 ], [ 2.568600233487223, 36.311626598403635 ] ] ], [ [ [ -8.194139934083958, 40.884429282799388 ], [ -8.194139934083958, 40.883996188083906 ], [ -8.196360581986484, 40.883996188083906 ], [ -8.196360581986484, 40.883563090534203 ], [ -8.199321445856517, 40.883563090534203 ], [ -8.199321445856517, 40.883129990150302 ], [ -8.200061661824025, 40.883129990150302 ], [ -8.200061661824025, 40.882696886932195 ], [ -8.200801877791534, 40.882696886932195 ], [ -8.200801877791534, 40.880964445717872 ], [ -8.201542093759043, 40.880964445717872 ], [ -8.201542093759043, 40.879665085048316 ], [ -8.202282309726552, 40.879665085048316 ], [ -8.202282309726552, 40.878798830431172 ], [ -8.20302252569406, 40.878798830431172 ], [ -8.20302252569406, 40.878365698871391 ], [ -8.203762741661567, 40.878365698871391 ], [ -8.203762741661567, 40.877499427249433 ], [ -8.204502957629076, 40.877499427249433 ], [ -8.204502957629076, 40.876633144290992 ], [ -8.205243173596585, 40.876633144290992 ], [ -8.205243173596585, 40.875766849996104 ], [ -8.206723605531602, 40.875766849996104 ], [ -8.206723605531602, 40.875333698597522 ], [ -8.207463821499109, 40.875333698597522 ], [ -8.207463821499109, 40.874900544364834 ], [ -8.208944253434126, 40.874900544364834 ], [ -8.208944253434126, 40.875333698597522 ], [ -8.210424685369142, 40.875333698597522 ], [ -8.210424685369142, 40.875766849996104 ], [ -8.21116490133665, 40.875766849996104 ], [ -8.21116490133665, 40.876199998560594 ], [ -8.211905117304159, 40.876199998560594 ], [ -8.211905117304159, 40.877932564477469 ], [ -8.21116490133665, 40.877932564477469 ], [ -8.21116490133665, 40.878798830431172 ], [ -8.210424685369142, 40.878798830431172 ], [ -8.210424685369142, 40.879665085048316 ], [ -8.209684469401635, 40.879665085048316 ], [ -8.209684469401635, 40.88053132832885 ], [ -8.208944253434126, 40.88053132832885 ], [ -8.208944253434126, 40.880964445717872 ], [ -8.208204037466617, 40.880964445717872 ], [ -8.208204037466617, 40.882263780879889 ], [ -8.207463821499109, 40.882263780879889 ], [ -8.207463821499109, 40.883996188083906 ], [ -8.206723605531602, 40.883996188083906 ], [ -8.206723605531602, 40.88529546372768 ], [ -8.205983389564093, 40.88529546372768 ], [ -8.205983389564093, 40.886594713863374 ], [ -8.205243173596585, 40.886594713863374 ], [ -8.205243173596585, 40.887460866449253 ], [ -8.204502957629076, 40.887460866449253 ], [ -8.204502957629076, 40.888327007698088 ], [ -8.203762741661567, 40.888327007698088 ], [ -8.203762741661567, 40.889193137609809 ], [ -8.192659502148942, 40.889193137609809 ], [ -8.192659502148942, 40.884862374680651 ], [ -8.193399718116451, 40.884862374680651 ], [ -8.193399718116451, 40.884429282799388 ], [ -8.194139934083958, 40.884429282799388 ] ] ], [ [ [ -7.873626420152851, 41.063055028029893 ], [ -7.873626420152851, 41.062191177866744 ], [ -7.872886204185342, 41.062191177866744 ], [ -7.872886204185342, 41.061327316356746 ], [ -7.872145988217834, 41.061327316356746 ], [ -7.872145988217834, 41.060031502816557 ], [ -7.872886204185342, 41.060031502816557 ], [ -7.872886204185342, 41.058735663746226 ], [ -7.873626420152851, 41.058735663746226 ], [ -7.873626420152851, 41.058303711716114 ], [ -7.876587284022884, 41.058303711716114 ], [ -7.876587284022884, 41.057871756849352 ], [ -7.878067715957901, 41.057871756849352 ], [ -7.878067715957901, 41.057439799145939 ], [ -7.878807931925408, 41.057439799145939 ], [ -7.878807931925408, 41.057007838605884 ], [ -7.879548147892917, 41.057007838605884 ], [ -7.879548147892917, 41.056575875229179 ], [ -7.880288363860426, 41.056575875229179 ], [ -7.880288363860426, 41.056143909015852 ], [ -7.881028579827934, 41.056143909015852 ], [ -7.881028579827934, 41.055279968079311 ], [ -7.881768795795442, 41.055279968079311 ], [ -7.881768795795442, 41.05484799335612 ], [ -7.883249227730459, 41.05484799335612 ], [ -7.883249227730459, 41.05441601579632 ], [ -7.884729659665477, 41.05441601579632 ], [ -7.884729659665477, 41.05484799335612 ], [ -7.885469875632983, 41.05484799335612 ], [ -7.885469875632983, 41.055279968079311 ], [ -7.884729659665477, 41.055279968079311 ], [ -7.884729659665477, 41.056143909015852 ], [ -7.883989443697968, 41.056143909015852 ], [ -7.883989443697968, 41.057007838605884 ], [ -7.883249227730459, 41.057007838605884 ], [ -7.883249227730459, 41.057439799145939 ], [ -7.88250901176295, 41.057439799145939 ], [ -7.88250901176295, 41.057871756849352 ], [ -7.881768795795442, 41.057871756849352 ], [ -7.881768795795442, 41.058735663746226 ], [ -7.881028579827934, 41.058735663746226 ], [ -7.881028579827934, 41.059599559296444 ], [ -7.880288363860426, 41.059599559296444 ], [ -7.880288363860426, 41.060895381346711 ], [ -7.879548147892917, 41.060895381346711 ], [ -7.879548147892917, 41.062191177866744 ], [ -7.878807931925408, 41.062191177866744 ], [ -7.878807931925408, 41.063055028029893 ], [ -7.878067715957901, 41.063055028029893 ], [ -7.878067715957901, 41.063918866846159 ], [ -7.875106852087868, 41.063918866846159 ], [ -7.875106852087868, 41.063486948856387 ], [ -7.874366636120359, 41.063486948856387 ], [ -7.874366636120359, 41.063055028029893 ], [ -7.873626420152851, 41.063055028029893 ] ] ], [ [ [ -8.462838330289484, 41.221379406085191 ], [ -8.462838330289484, 41.217070456390402 ], [ -8.463578546256993, 41.217070456390402 ], [ -8.463578546256993, 41.214484950311274 ], [ -8.464318762224501, 41.214484950311274 ], [ -8.464318762224501, 41.213623092241455 ], [ -8.46505897819201, 41.213623092241455 ], [ -8.46505897819201, 41.213192158948424 ], [ -8.465799194159519, 41.213192158948424 ], [ -8.465799194159519, 41.213623092241455 ], [ -8.466539410127027, 41.213623092241455 ], [ -8.466539410127027, 41.214054022695734 ], [ -8.467279626094536, 41.214054022695734 ], [ -8.467279626094536, 41.217932269039856 ], [ -8.468019842062043, 41.217932269039856 ], [ -8.468019842062043, 41.222241161958166 ], [ -8.467279626094536, 41.222241161958166 ], [ -8.467279626094536, 41.222672035636378 ], [ -8.46505897819201, 41.222672035636378 ], [ -8.46505897819201, 41.222241161958166 ], [ -8.463578546256993, 41.222241161958166 ], [ -8.463578546256993, 41.221379406085191 ], [ -8.462838330289484, 41.221379406085191 ] ] ], [ [ [ -7.176342978760001, 41.275647847134415 ], [ -7.176342978760001, 41.275217322678678 ], [ -7.175602762792492, 41.275217322678678 ], [ -7.175602762792492, 41.272634116313917 ], [ -7.176342978760001, 41.272634116313917 ], [ -7.176342978760001, 41.271773024809477 ], [ -7.177083194727508, 41.271773024809477 ], [ -7.177083194727508, 41.271342474797997 ], [ -7.177823410695016, 41.271342474797997 ], [ -7.177823410695016, 41.27048136625654 ], [ -7.178563626662525, 41.27048136625654 ], [ -7.178563626662525, 41.26962024635715 ], [ -7.180044058597542, 41.26962024635715 ], [ -7.180044058597542, 41.270050807726591 ], [ -7.180784274565049, 41.270050807726591 ], [ -7.180784274565049, 41.27048136625654 ], [ -7.181524490532558, 41.27048136625654 ], [ -7.181524490532558, 41.270911921947018 ], [ -7.182264706500066, 41.270911921947018 ], [ -7.182264706500066, 41.271342474797997 ], [ -7.183745138435084, 41.271342474797997 ], [ -7.183745138435084, 41.273495196460289 ], [ -7.182264706500066, 41.273495196460289 ], [ -7.182264706500066, 41.273925732274193 ], [ -7.181524490532558, 41.273925732274193 ], [ -7.181524490532558, 41.274786795383392 ], [ -7.180784274565049, 41.274786795383392 ], [ -7.180784274565049, 41.275217322678678 ], [ -7.180044058597542, 41.275217322678678 ], [ -7.180044058597542, 41.276078368750596 ], [ -7.177823410695016, 41.276078368750596 ], [ -7.177823410695016, 41.275647847134415 ], [ -7.176342978760001, 41.275647847134415 ] ] ], [ [ [ -8.412503644498917, 41.33890405051141 ], [ -8.412503644498917, 41.338473943529735 ], [ -8.411023212563901, 41.338473943529735 ], [ -8.411023212563901, 41.337613721045287 ], [ -8.410282996596392, 41.337613721045287 ], [ -8.410282996596392, 41.337183605542542 ], [ -8.409542780628884, 41.337183605542542 ], [ -8.409542780628884, 41.336753487199452 ], [ -8.408802564661375, 41.336753487199452 ], [ -8.408802564661375, 41.335032985423709 ], [ -8.409542780628884, 41.335032985423709 ], [ -8.409542780628884, 41.334602852878966 ], [ -8.410282996596392, 41.334602852878966 ], [ -8.410282996596392, 41.333742579268552 ], [ -8.41176342853141, 41.333742579268552 ], [ -8.41176342853141, 41.333312438202881 ], [ -8.413243860466427, 41.333312438202881 ], [ -8.413243860466427, 41.332882294296923 ], [ -8.415464508368952, 41.332882294296923 ], [ -8.415464508368952, 41.332452147550669 ], [ -8.417685156271476, 41.332452147550669 ], [ -8.417685156271476, 41.332021997964141 ], [ -8.419165588206493, 41.332021997964141 ], [ -8.419165588206493, 41.331591845537318 ], [ -8.420646020141509, 41.331591845537318 ], [ -8.420646020141509, 41.331161690270235 ], [ -8.422866668044033, 41.331161690270235 ], [ -8.422866668044033, 41.330731532162872 ], [ -8.425087315946559, 41.330731532162872 ], [ -8.425087315946559, 41.330301371215249 ], [ -8.427307963849083, 41.330301371215249 ], [ -8.427307963849083, 41.329871207427374 ], [ -8.428788395784101, 41.329871207427374 ], [ -8.428788395784101, 41.329441040799239 ], [ -8.430268827719118, 41.329441040799239 ], [ -8.430268827719118, 41.329010871330865 ], [ -8.431749259654135, 41.329010871330865 ], [ -8.431749259654135, 41.32858069902224 ], [ -8.43396990755666, 41.32858069902224 ], [ -8.43396990755666, 41.328150523873376 ], [ -8.435450339491677, 41.328150523873376 ], [ -8.435450339491677, 41.32858069902224 ], [ -8.436190555459184, 41.32858069902224 ], [ -8.436190555459184, 41.329010871330865 ], [ -8.436930771426693, 41.329010871330865 ], [ -8.436930771426693, 41.330301371215249 ], [ -8.436190555459184, 41.330301371215249 ], [ -8.436190555459184, 41.331161690270235 ], [ -8.435450339491677, 41.331161690270235 ], [ -8.435450339491677, 41.331591845537318 ], [ -8.434710123524168, 41.331591845537318 ], [ -8.434710123524168, 41.332021997964141 ], [ -8.43396990755666, 41.332021997964141 ], [ -8.43396990755666, 41.332452147550669 ], [ -8.433229691589151, 41.332452147550669 ], [ -8.433229691589151, 41.332882294296923 ], [ -8.431749259654135, 41.332882294296923 ], [ -8.431749259654135, 41.333312438202881 ], [ -8.431009043686625, 41.333312438202881 ], [ -8.431009043686625, 41.333742579268552 ], [ -8.429528611751611, 41.333742579268552 ], [ -8.429528611751611, 41.334172717493914 ], [ -8.428788395784101, 41.334172717493914 ], [ -8.428788395784101, 41.334602852878966 ], [ -8.428048179816592, 41.334602852878966 ], [ -8.428048179816592, 41.335032985423709 ], [ -8.427307963849083, 41.335032985423709 ], [ -8.427307963849083, 41.335463115128135 ], [ -8.426567747881576, 41.335463115128135 ], [ -8.426567747881576, 41.335893241992238 ], [ -8.425827531914068, 41.335893241992238 ], [ -8.425827531914068, 41.336753487199452 ], [ -8.425087315946559, 41.336753487199452 ], [ -8.425087315946559, 41.338043833707694 ], [ -8.42434709997905, 41.338043833707694 ], [ -8.42434709997905, 41.33890405051141 ], [ -8.422866668044033, 41.33890405051141 ], [ -8.422866668044033, 41.339334154652725 ], [ -8.419165588206493, 41.339334154652725 ], [ -8.419165588206493, 41.339764255953668 ], [ -8.415464508368952, 41.339764255953668 ], [ -8.415464508368952, 41.339334154652725 ], [ -8.413243860466427, 41.339334154652725 ], [ -8.413243860466427, 41.33890405051141 ], [ -8.412503644498917, 41.33890405051141 ] ] ], [ [ [ 1.517493559625388, 42.904517482567016 ], [ 1.516013127690371, 42.904517482567016 ], [ 1.516013127690371, 42.905776291182399 ], [ 1.51675334365788, 42.905776291182399 ], [ 1.51675334365788, 42.90619588834204 ], [ 1.517493559625388, 42.90619588834204 ], [ 1.517493559625388, 42.906615482645627 ], [ 1.518233775592897, 42.906615482645627 ], [ 1.518233775592897, 42.904097873983098 ], [ 1.517493559625388, 42.904097873983098 ], [ 1.517493559625388, 42.904517482567016 ] ] ], [ [ [ 1.518233775592897, 42.907035074093123 ], [ 1.518973991560405, 42.907035074093123 ], [ 1.518973991560405, 42.906615482645627 ], [ 1.518233775592897, 42.906615482645627 ], [ 1.518233775592897, 42.907035074093123 ] ] ] ] } }
]
}
