{
"type": "FeatureCollection",
"name": "spain_fires_modis_ba",
"crs": { "type": "name", "properties": { "name": "urn:ogc:def:crs:OGC:1.3:CRS84" } },
"features": [
{ "type": "Feature", "properties": { }, "geometry": { "type": "Polygon", "coordinates": [ [ [ -5.689989316003263, 40.225918846672968 ], [ -5.689249100035756, 40.225918846672968 ], [ -5.689249100035756, 40.225481471281356 ], [ -5.684807804230706, 40.225481471281356 ], [ -5.684807804230706, 40.225044093065705 ], [ -5.682587156328181, 40.225044093065705 ], [ -5.682587156328181, 40.224606712026002 ], [ -5.681106724393164, 40.224606712026002 ], [ -5.681106724393164, 40.22416932816229 ], [ -5.680366508425656, 40.22416932816229 ], [ -5.680366508425656, 40.223731941474547 ], [ -5.678886076490638, 40.223731941474547 ], [ -5.678886076490638, 40.223294551962809 ], [ -5.672964348750573, 40.223294551962809 ], [ -5.672964348750573, 40.222857159627054 ], [ -5.671483916815555, 40.222857159627054 ], [ -5.671483916815555, 40.222419764467297 ], [ -5.670743700848047, 40.222419764467297 ], [ -5.670743700848047, 40.221544965675839 ], [ -5.671483916815555, 40.221544965675839 ], [ -5.671483916815555, 40.221107562044146 ], [ -5.67814586052313, 40.221107562044146 ], [ -5.67814586052313, 40.221544965675839 ], [ -5.680366508425656, 40.221544965675839 ], [ -5.680366508425656, 40.221982366483566 ], [ -5.683327372295689, 40.221982366483566 ], [ -5.683327372295689, 40.222419764467297 ], [ -5.686288236165722, 40.222419764467297 ], [ -5.686288236165722, 40.222857159627054 ], [ -5.690729531970772, 40.222857159627054 ], [ -5.690729531970772, 40.223731941474547 ], [ -5.691469747938281, 40.223731941474547 ], [ -5.691469747938281, 40.225481471281356 ], [ -5.689989316003263, 40.225481471281356 ], [ -5.689989316003263, 40.225918846672968 ] ] ] } }
]
}
