{
"type": "FeatureCollection",
"name": "spain_fires_nrt_ba",
"crs": { "type": "name", "properties": { "name": "urn:ogc:def:crs:OGC:1.3:CRS84" } },
"features": [
{ "type": "Feature", "properties": { }, "geometry": { "type": "MultiPolygon", "coordinates": [ [ [ [ 1.469379521737347, 35.171114775843051 ], [ 1.470119737704855, 35.171114775843051 ], [ 1.470119737704855, 35.17064650584183 ], [ 1.470859953672363, 35.17064650584183 ], [ 1.470859953672363, 35.169709957749006 ], [ 1.471600169639871, 35.169709957749006 ], [ 1.471600169639871, 35.167836829202223 ], [ 1.47234038560738, 35.167836829202223 ], [ 1.47234038560738, 35.1654953578429 ], [ 1.473080601574888, 35.1654953578429 ], [ 1.473080601574888, 35.163153819067816 ], [ 1.47234038560738, 35.163153819067816 ], [ 1.47234038560738, 35.161748863444018 ], [ 1.471600169639871, 35.161748863444018 ], [ 1.471600169639871, 35.160343883551683 ], [ 1.470859953672363, 35.160343883551683 ], [ 1.470859953672363, 35.159407216807807 ], [ 1.468639305769838, 35.159407216807807 ], [ 1.468639305769838, 35.158938879391229 ], [ 1.466418657867313, 35.158938879391229 ], [ 1.466418657867313, 35.159407216807807 ], [ 1.465678441899805, 35.159407216807807 ], [ 1.465678441899805, 35.159875551527968 ], [ 1.464938225932296, 35.159875551527968 ], [ 1.464938225932296, 35.160343883551683 ], [ 1.464198009964788, 35.160343883551683 ], [ 1.464198009964788, 35.16081221287893 ], [ 1.46345779399728, 35.16081221287893 ], [ 1.46345779399728, 35.161280539509725 ], [ 1.462717578029771, 35.161280539509725 ], [ 1.462717578029771, 35.161748863444018 ], [ 1.461977362062263, 35.161748863444018 ], [ 1.461977362062263, 35.165963657508094 ], [ 1.462717578029771, 35.165963657508094 ], [ 1.462717578029771, 35.166900248748505 ], [ 1.46345779399728, 35.166900248748505 ], [ 1.46345779399728, 35.167836829202223 ], [ 1.464198009964788, 35.167836829202223 ], [ 1.464198009964788, 35.168305115384022 ], [ 1.464938225932296, 35.168305115384022 ], [ 1.464938225932296, 35.169241679657432 ], [ 1.465678441899805, 35.169241679657432 ], [ 1.465678441899805, 35.170178233143822 ], [ 1.466418657867313, 35.170178233143822 ], [ 1.466418657867313, 35.171114775843051 ], [ 1.467158873834822, 35.171114775843051 ], [ 1.467158873834822, 35.171583043147443 ], [ 1.469379521737347, 35.171583043147443 ], [ 1.469379521737347, 35.171114775843051 ] ] ], [ [ [ 1.357606910643588, 35.344656716191722 ], [ 1.357606910643588, 35.344189447784444 ], [ 1.359087342578605, 35.344189447784444 ], [ 1.359087342578605, 35.343722176674568 ], [ 1.360567774513621, 35.343722176674568 ], [ 1.360567774513621, 35.342320347129579 ], [ 1.36130799048113, 35.342320347129579 ], [ 1.36130799048113, 35.340451203234267 ], [ 1.362048206448638, 35.340451203234267 ], [ 1.362048206448638, 35.337180097373086 ], [ 1.36130799048113, 35.337180097373086 ], [ 1.36130799048113, 35.33577815432546 ], [ 1.360567774513621, 35.33577815432546 ], [ 1.360567774513621, 35.334843512115462 ], [ 1.359827558546113, 35.334843512115462 ], [ 1.359827558546113, 35.334376186957023 ], [ 1.358347126611096, 35.334376186957023 ], [ 1.358347126611096, 35.33390885909634 ], [ 1.353165614838538, 35.33390885909634 ], [ 1.353165614838538, 35.334376186957023 ], [ 1.35242539887103, 35.334376186957023 ], [ 1.35242539887103, 35.334843512115462 ], [ 1.351685182903521, 35.334843512115462 ], [ 1.351685182903521, 35.33577815432546 ], [ 1.350944966936013, 35.33577815432546 ], [ 1.350944966936013, 35.336245471377005 ], [ 1.350204750968505, 35.336245471377005 ], [ 1.350204750968505, 35.338114712559729 ], [ 1.349464535000996, 35.338114712559729 ], [ 1.349464535000996, 35.340451203234267 ], [ 1.350204750968505, 35.340451203234267 ], [ 1.350204750968505, 35.342320347129579 ], [ 1.350944966936013, 35.342320347129579 ], [ 1.350944966936013, 35.343722176674568 ], [ 1.35242539887103, 35.343722176674568 ], [ 1.35242539887103, 35.344189447784444 ], [ 1.353165614838538, 35.344189447784444 ], [ 1.353165614838538, 35.344656716191722 ], [ 1.354646046773555, 35.344656716191722 ], [ 1.354646046773555, 35.345123981896393 ], [ 1.356126478708571, 35.345123981896393 ], [ 1.356126478708571, 35.344656716191722 ], [ 1.357606910643588, 35.344656716191722 ] ] ], [ [ [ -0.93632237266474, 35.571894989848083 ], [ -0.93632237266474, 35.571429039422256 ], [ -0.935582156697232, 35.571429039422256 ], [ -0.935582156697232, 35.570963086286405 ], [ -0.934841940729723, 35.570963086286405 ], [ -0.934841940729723, 35.570497130440543 ], [ -0.934101724762215, 35.570497130440543 ], [ -0.934101724762215, 35.5700311718847 ], [ -0.933361508794706, 35.5700311718847 ], [ -0.933361508794706, 35.56956521061889 ], [ -0.932621292827198, 35.56956521061889 ], [ -0.932621292827198, 35.56909924664312 ], [ -0.93188107685969, 35.56909924664312 ], [ -0.93188107685969, 35.564439457841075 ], [ -0.931140860892182, 35.564439457841075 ], [ -0.931140860892182, 35.56304146835884 ], [ -0.93188107685969, 35.56304146835884 ], [ -0.93188107685969, 35.562109461821933 ], [ -0.932621292827198, 35.562109461821933 ], [ -0.932621292827198, 35.561177444446159 ], [ -0.933361508794706, 35.561177444446159 ], [ -0.933361508794706, 35.560711431693733 ], [ -0.934101724762215, 35.560711431693733 ], [ -0.934101724762215, 35.560245416231631 ], [ -0.935582156697232, 35.560245416231631 ], [ -0.935582156697232, 35.559779398059881 ], [ -0.93632237266474, 35.559779398059881 ], [ -0.93632237266474, 35.559313377178498 ], [ -0.937062588632248, 35.559313377178498 ], [ -0.937062588632248, 35.558847353587474 ], [ -0.938543020567265, 35.558847353587474 ], [ -0.938543020567265, 35.559313377178498 ], [ -0.940023452502281, 35.559313377178498 ], [ -0.940023452502281, 35.559779398059881 ], [ -0.941503884437298, 35.559779398059881 ], [ -0.941503884437298, 35.560245416231631 ], [ -0.943724532339823, 35.560245416231631 ], [ -0.943724532339823, 35.560711431693733 ], [ -0.944464748307332, 35.560711431693733 ], [ -0.944464748307332, 35.561177444446159 ], [ -0.94520496427484, 35.561177444446159 ], [ -0.94520496427484, 35.56304146835884 ], [ -0.945945180242348, 35.56304146835884 ], [ -0.945945180242348, 35.565371437280291 ], [ -0.94520496427484, 35.565371437280291 ], [ -0.94520496427484, 35.56909924664312 ], [ -0.944464748307332, 35.56909924664312 ], [ -0.944464748307332, 35.5700311718847 ], [ -0.943724532339823, 35.5700311718847 ], [ -0.943724532339823, 35.570963086286405 ], [ -0.942984316372315, 35.570963086286405 ], [ -0.942984316372315, 35.572360937563893 ], [ -0.942244100404807, 35.572360937563893 ], [ -0.942244100404807, 35.57282688256965 ], [ -0.937062588632248, 35.57282688256965 ], [ -0.937062588632248, 35.571894989848083 ], [ -0.93632237266474, 35.571894989848083 ] ] ], [ [ [ 0.542629130416912, 35.788732754640378 ], [ 0.54336934638442, 35.788732754640378 ], [ 0.54336934638442, 35.788268068707133 ], [ 0.544109562351929, 35.788268068707133 ], [ 0.544109562351929, 35.787803380056921 ], [ 0.544849778319437, 35.787803380056921 ], [ 0.544849778319437, 35.786409297804781 ], [ 0.545589994286945, 35.786409297804781 ], [ 0.545589994286945, 35.785015191100669 ], [ 0.546330210254454, 35.785015191100669 ], [ 0.546330210254454, 35.784085773047011 ], [ 0.545589994286945, 35.784085773047011 ], [ 0.545589994286945, 35.782226904338074 ], [ 0.544849778319437, 35.782226904338074 ], [ 0.544849778319437, 35.779903257325017 ], [ 0.544109562351929, 35.779903257325017 ], [ 0.544109562351929, 35.779438519772313 ], [ 0.54336934638442, 35.779438519772313 ], [ 0.54336934638442, 35.77897377950292 ], [ 0.541888914449404, 35.77897377950292 ], [ 0.541888914449404, 35.778509036516901 ], [ 0.541148698481895, 35.778509036516901 ], [ 0.541148698481895, 35.778044290814222 ], [ 0.539668266546879, 35.778044290814222 ], [ 0.539668266546879, 35.778509036516901 ], [ 0.53892805057937, 35.778509036516901 ], [ 0.53892805057937, 35.77897377950292 ], [ 0.538187834611862, 35.77897377950292 ], [ 0.538187834611862, 35.779438519772313 ], [ 0.537447618644354, 35.779438519772313 ], [ 0.537447618644354, 35.779903257325017 ], [ 0.536707402676845, 35.779903257325017 ], [ 0.536707402676845, 35.78083272428038 ], [ 0.535967186709337, 35.78083272428038 ], [ 0.535967186709337, 35.783156344126112 ], [ 0.535226970741829, 35.783156344126112 ], [ 0.535226970741829, 35.785944598286946 ], [ 0.535967186709337, 35.785944598286946 ], [ 0.535967186709337, 35.787803380056921 ], [ 0.537447618644354, 35.787803380056921 ], [ 0.537447618644354, 35.788268068707133 ], [ 0.538187834611862, 35.788268068707133 ], [ 0.538187834611862, 35.788732754640378 ], [ 0.539668266546879, 35.788732754640378 ], [ 0.539668266546879, 35.789197437856686 ], [ 0.542629130416912, 35.789197437856686 ], [ 0.542629130416912, 35.788732754640378 ] ] ], [ [ [ -0.277530161582322, 35.824040934669902 ], [ -0.277530161582322, 35.8235764552674 ], [ -0.276789945614814, 35.8235764552674 ], [ -0.276789945614814, 35.822183000751579 ], [ -0.276049729647306, 35.822183000751579 ], [ -0.276049729647306, 35.821254017484272 ], [ -0.271608433842256, 35.821254017484272 ], [ -0.271608433842256, 35.821718510476927 ], [ -0.269387785939731, 35.821718510476927 ], [ -0.269387785939731, 35.821254017484272 ], [ -0.268647569972222, 35.821254017484272 ], [ -0.268647569972222, 35.820789521773627 ], [ -0.267167138037206, 35.820789521773627 ], [ -0.267167138037206, 35.820325023345006 ], [ -0.265686706102189, 35.820325023345006 ], [ -0.265686706102189, 35.819860522198454 ], [ -0.264946490134681, 35.819860522198454 ], [ -0.264946490134681, 35.81939601833394 ], [ -0.264206274167172, 35.81939601833394 ], [ -0.264206274167172, 35.818931511751508 ], [ -0.263466058199664, 35.818931511751508 ], [ -0.263466058199664, 35.818467002451158 ], [ -0.262725842232156, 35.818467002451158 ], [ -0.262725842232156, 35.81753797569678 ], [ -0.261985626264647, 35.81753797569678 ], [ -0.261985626264647, 35.817073458242774 ], [ -0.261245410297139, 35.817073458242774 ], [ -0.261245410297139, 35.816608938070921 ], [ -0.259024762394614, 35.816608938070921 ], [ -0.259024762394614, 35.816144415181228 ], [ -0.253843250622056, 35.816144415181228 ], [ -0.253843250622056, 35.815215361248384 ], [ -0.253103034654547, 35.815215361248384 ], [ -0.253103034654547, 35.814750830205249 ], [ -0.252362818687039, 35.814750830205249 ], [ -0.252362818687039, 35.814286296444358 ], [ -0.251622602719531, 35.814286296444358 ], [ -0.251622602719531, 35.813357220769255 ], [ -0.250882386752022, 35.813357220769255 ], [ -0.250882386752022, 35.812892678855093 ], [ -0.250142170784514, 35.812892678855093 ], [ -0.250142170784514, 35.811963586873631 ], [ -0.249401954817006, 35.811963586873631 ], [ -0.249401954817006, 35.811499036806339 ], [ -0.248661738849497, 35.811499036806339 ], [ -0.248661738849497, 35.810569928518746 ], [ -0.247921522881989, 35.810569928518746 ], [ -0.247921522881989, 35.810105370298473 ], [ -0.247181306914481, 35.810105370298473 ], [ -0.247181306914481, 35.809640809360559 ], [ -0.245700874979464, 35.809640809360559 ], [ -0.245700874979464, 35.809176245705025 ], [ -0.243480227076939, 35.809176245705025 ], [ -0.243480227076939, 35.808711679331893 ], [ -0.241999795141922, 35.808711679331893 ], [ -0.241999795141922, 35.808247110241169 ], [ -0.240519363206906, 35.808247110241169 ], [ -0.240519363206906, 35.808711679331893 ], [ -0.239779147239397, 35.808711679331893 ], [ -0.239779147239397, 35.812892678855093 ], [ -0.239038931271889, 35.812892678855093 ], [ -0.239038931271889, 35.813357220769255 ], [ -0.238298715304381, 35.813357220769255 ], [ -0.238298715304381, 35.814286296444358 ], [ -0.234597635466839, 35.814286296444358 ], [ -0.234597635466839, 35.813821759965677 ], [ -0.233117203531822, 35.813821759965677 ], [ -0.233117203531822, 35.813357220769255 ], [ -0.232376987564314, 35.813357220769255 ], [ -0.232376987564314, 35.812428134223211 ], [ -0.231636771596806, 35.812428134223211 ], [ -0.231636771596806, 35.811034484021377 ], [ -0.230896555629297, 35.811034484021377 ], [ -0.230896555629297, 35.810105370298473 ], [ -0.230156339661789, 35.810105370298473 ], [ -0.230156339661789, 35.808711679331893 ], [ -0.229416123694281, 35.808711679331893 ], [ -0.229416123694281, 35.80731796390701 ], [ -0.230156339661789, 35.80731796390701 ], [ -0.230156339661789, 35.805459638628236 ], [ -0.230896555629297, 35.805459638628236 ], [ -0.230896555629297, 35.804995050514783 ], [ -0.231636771596806, 35.804995050514783 ], [ -0.231636771596806, 35.804065866135467 ], [ -0.232376987564314, 35.804065866135467 ], [ -0.232376987564314, 35.803601269869652 ], [ -0.233117203531822, 35.803601269869652 ], [ -0.233117203531822, 35.803136670886389 ], [ -0.233857419499331, 35.803136670886389 ], [ -0.233857419499331, 35.802672069185711 ], [ -0.236078067401856, 35.802672069185711 ], [ -0.236078067401856, 35.803136670886389 ], [ -0.236818283369364, 35.803136670886389 ], [ -0.236818283369364, 35.803601269869652 ], [ -0.237558499336872, 35.803601269869652 ], [ -0.237558499336872, 35.804530459683846 ], [ -0.238298715304381, 35.804530459683846 ], [ -0.238298715304381, 35.804995050514783 ], [ -0.239038931271889, 35.804995050514783 ], [ -0.239038931271889, 35.805459638628236 ], [ -0.240519363206906, 35.805459638628236 ], [ -0.240519363206906, 35.804995050514783 ], [ -0.241259579174414, 35.804995050514783 ], [ -0.241259579174414, 35.804065866135467 ], [ -0.241999795141922, 35.804065866135467 ], [ -0.241999795141922, 35.803136670886389 ], [ -0.242740011109431, 35.803136670886389 ], [ -0.242740011109431, 35.801742857632192 ], [ -0.243480227076939, 35.801742857632192 ], [ -0.243480227076939, 35.800813635209181 ], [ -0.246441090946972, 35.800813635209181 ], [ -0.246441090946972, 35.801278247779365 ], [ -0.247181306914481, 35.801278247779365 ], [ -0.247181306914481, 35.801742857632192 ], [ -0.247921522881989, 35.801742857632192 ], [ -0.247921522881989, 35.80220746476764 ], [ -0.248661738849497, 35.80220746476764 ], [ -0.248661738849497, 35.802672069185711 ], [ -0.249401954817006, 35.802672069185711 ], [ -0.249401954817006, 35.803136670886389 ], [ -0.250882386752022, 35.803136670886389 ], [ -0.250882386752022, 35.802672069185711 ], [ -0.251622602719531, 35.802672069185711 ], [ -0.251622602719531, 35.80220746476764 ], [ -0.252362818687039, 35.80220746476764 ], [ -0.252362818687039, 35.801742857632192 ], [ -0.253103034654547, 35.801742857632192 ], [ -0.253103034654547, 35.801278247779365 ], [ -0.253843250622056, 35.801278247779365 ], [ -0.253843250622056, 35.800813635209181 ], [ -0.254583466589564, 35.800813635209181 ], [ -0.254583466589564, 35.800349019921647 ], [ -0.255323682557072, 35.800349019921647 ], [ -0.255323682557072, 35.799884401916799 ], [ -0.256063898524581, 35.799884401916799 ], [ -0.256063898524581, 35.799419781194644 ], [ -0.258284546427106, 35.799419781194644 ], [ -0.258284546427106, 35.799884401916799 ], [ -0.261985626264647, 35.799884401916799 ], [ -0.261985626264647, 35.800349019921647 ], [ -0.264946490134681, 35.800349019921647 ], [ -0.264946490134681, 35.800813635209181 ], [ -0.266426922069697, 35.800813635209181 ], [ -0.266426922069697, 35.802672069185711 ], [ -0.267167138037206, 35.802672069185711 ], [ -0.267167138037206, 35.805924224024189 ], [ -0.266426922069697, 35.805924224024189 ], [ -0.266426922069697, 35.80731796390701 ], [ -0.267167138037206, 35.80731796390701 ], [ -0.267167138037206, 35.807782538432875 ], [ -0.271608433842256, 35.807782538432875 ], [ -0.271608433842256, 35.80731796390701 ], [ -0.276049729647306, 35.80731796390701 ], [ -0.276049729647306, 35.80685338666359 ], [ -0.281231241419864, 35.80685338666359 ], [ -0.281231241419864, 35.806388806702657 ], [ -0.281971457387372, 35.806388806702657 ], [ -0.281971457387372, 35.80685338666359 ], [ -0.282711673354881, 35.80685338666359 ], [ -0.282711673354881, 35.807782538432875 ], [ -0.283451889322389, 35.807782538432875 ], [ -0.283451889322389, 35.809176245705025 ], [ -0.284192105289897, 35.809176245705025 ], [ -0.284192105289897, 35.810105370298473 ], [ -0.284932321257406, 35.810105370298473 ], [ -0.284932321257406, 35.811034484021377 ], [ -0.284192105289897, 35.811034484021377 ], [ -0.284192105289897, 35.816144415181228 ], [ -0.283451889322389, 35.816144415181228 ], [ -0.283451889322389, 35.820789521773627 ], [ -0.282711673354881, 35.820789521773627 ], [ -0.282711673354881, 35.822647488308213 ], [ -0.281971457387372, 35.822647488308213 ], [ -0.281971457387372, 35.82311197314683 ], [ -0.281231241419864, 35.82311197314683 ], [ -0.281231241419864, 35.8235764552674 ], [ -0.280491025452356, 35.8235764552674 ], [ -0.280491025452356, 35.824040934669902 ], [ -0.279750809484847, 35.824040934669902 ], [ -0.279750809484847, 35.824505411354338 ], [ -0.279010593517339, 35.824505411354338 ], [ -0.279010593517339, 35.824040934669902 ], [ -0.277530161582322, 35.824040934669902 ] ] ], [ [ [ 0.128108188612245, 36.024904926423396 ], [ 0.128108188612245, 36.024441625303204 ], [ 0.128848404579753, 36.024441625303204 ], [ 0.128848404579753, 36.023978321458699 ], [ 0.13032883651477, 36.023978321458699 ], [ 0.13032883651477, 36.023515014889895 ], [ 0.131809268449787, 36.023515014889895 ], [ 0.131809268449787, 36.021661761371966 ], [ 0.132549484417295, 36.021661761371966 ], [ 0.132549484417295, 36.01934513317952 ], [ 0.133289700384803, 36.01934513317952 ], [ 0.133289700384803, 36.017491781590657 ], [ 0.134029916352311, 36.017491781590657 ], [ 0.134029916352311, 36.015638386416185 ], [ 0.13477013231982, 36.015638386416185 ], [ 0.13477013231982, 36.015175030812422 ], [ 0.134029916352311, 36.015175030812422 ], [ 0.134029916352311, 36.013321581157236 ], [ 0.133289700384803, 36.013321581157236 ], [ 0.133289700384803, 36.011931465314092 ], [ 0.131809268449787, 36.011931465314092 ], [ 0.131809268449787, 36.011468087918502 ], [ 0.128108188612245, 36.011468087918502 ], [ 0.128108188612245, 36.011931465314092 ], [ 0.12588754070972, 36.011931465314092 ], [ 0.12588754070972, 36.01239483998576 ], [ 0.123666892807195, 36.01239483998576 ], [ 0.123666892807195, 36.012858211933477 ], [ 0.122926676839686, 36.012858211933477 ], [ 0.122926676839686, 36.014248311432823 ], [ 0.122186460872178, 36.014248311432823 ], [ 0.122186460872178, 36.016565089451568 ], [ 0.12144624490467, 36.016565089451568 ], [ 0.12144624490467, 36.01934513317952 ], [ 0.122186460872178, 36.01934513317952 ], [ 0.122186460872178, 36.022125078837831 ], [ 0.122926676839686, 36.022125078837831 ], [ 0.122926676839686, 36.024441625303204 ], [ 0.123666892807195, 36.024441625303204 ], [ 0.123666892807195, 36.024904926423396 ], [ 0.124407108774703, 36.024904926423396 ], [ 0.124407108774703, 36.025368224819253 ], [ 0.126627756677228, 36.025368224819253 ], [ 0.126627756677228, 36.024904926423396 ], [ 0.128108188612245, 36.024904926423396 ] ] ] ] } }
]
}
