{
"type": "FeatureCollection",
"name": "spain_fires_modis_ba",
"crs": { "type": "name", "properties": { "name": "urn:ogc:def:crs:OGC:1.3:CRS84" } },
"features": [
{ "type": "Feature", "properties": { }, "geometry": { "type": "MultiPolygon", "coordinates": [ [ [ [ -7.912857866430793, 40.925127530405597 ], [ -7.912857866430793, 40.92469470213382 ], [ -7.913598082398302, 40.92469470213382 ], [ -7.913598082398302, 40.925127530405597 ], [ -7.912857866430793, 40.925127530405597 ] ] ], [ [ [ -7.912117650463284, 40.925560355842578 ], [ -7.912117650463284, 40.925127530405597 ], [ -7.912857866430793, 40.925127530405597 ], [ -7.912857866430793, 40.925560355842578 ], [ -7.912117650463284, 40.925560355842578 ] ] ] ] } }
]
}
