{
"type": "FeatureCollection",
"name": "spain_fires_nrt_ba",
"crs": { "type": "name", "properties": { "name": "urn:ogc:def:crs:OGC:1.3:CRS84" } },
"features": [
{ "type": "Feature", "properties": { }, "geometry": { "type": "MultiPolygon", "coordinates": [ [ [ [ -0.277530161582322, 35.824969885320684 ], [ -0.276789945614814, 35.824969885320684 ], [ -0.276789945614814, 35.824505411354338 ], [ -0.276049729647306, 35.824505411354338 ], [ -0.276049729647306, 35.824040934669902 ], [ -0.274569297712289, 35.824040934669902 ], [ -0.274569297712289, 35.8235764552674 ], [ -0.272348649809764, 35.8235764552674 ], [ -0.272348649809764, 35.82311197314683 ], [ -0.270128001907239, 35.82311197314683 ], [ -0.270128001907239, 35.822647488308213 ], [ -0.267167138037206, 35.822647488308213 ], [ -0.267167138037206, 35.822183000751579 ], [ -0.264946490134681, 35.822183000751579 ], [ -0.264946490134681, 35.821718510476927 ], [ -0.262725842232156, 35.821718510476927 ], [ -0.262725842232156, 35.821254017484272 ], [ -0.260505194329631, 35.821254017484272 ], [ -0.260505194329631, 35.820789521773627 ], [ -0.259764978362122, 35.820789521773627 ], [ -0.259764978362122, 35.819860522198454 ], [ -0.259024762394614, 35.819860522198454 ], [ -0.259024762394614, 35.81939601833394 ], [ -0.258284546427106, 35.81939601833394 ], [ -0.258284546427106, 35.818467002451158 ], [ -0.257544330459597, 35.818467002451158 ], [ -0.257544330459597, 35.818002490432896 ], [ -0.256804114492089, 35.818002490432896 ], [ -0.256804114492089, 35.81753797569678 ], [ -0.253843250622056, 35.81753797569678 ], [ -0.253843250622056, 35.817073458242774 ], [ -0.252362818687039, 35.817073458242774 ], [ -0.252362818687039, 35.816608938070921 ], [ -0.251622602719531, 35.816608938070921 ], [ -0.251622602719531, 35.816144415181228 ], [ -0.250882386752022, 35.816144415181228 ], [ -0.250882386752022, 35.815215361248384 ], [ -0.250142170784514, 35.815215361248384 ], [ -0.250142170784514, 35.814750830205249 ], [ -0.249401954817006, 35.814750830205249 ], [ -0.249401954817006, 35.814286296444358 ], [ -0.248661738849497, 35.814286296444358 ], [ -0.248661738849497, 35.813821759965677 ], [ -0.247921522881989, 35.813821759965677 ], [ -0.247921522881989, 35.814286296444358 ], [ -0.247181306914481, 35.814286296444358 ], [ -0.247181306914481, 35.815215361248384 ], [ -0.246441090946972, 35.815215361248384 ], [ -0.246441090946972, 35.816144415181228 ], [ -0.245700874979464, 35.816144415181228 ], [ -0.245700874979464, 35.817073458242774 ], [ -0.234597635466839, 35.817073458242774 ], [ -0.234597635466839, 35.816608938070921 ], [ -0.233857419499331, 35.816608938070921 ], [ -0.233857419499331, 35.816144415181228 ], [ -0.233117203531822, 35.816144415181228 ], [ -0.233117203531822, 35.815679889573708 ], [ -0.232376987564314, 35.815679889573708 ], [ -0.232376987564314, 35.815215361248384 ], [ -0.231636771596806, 35.815215361248384 ], [ -0.231636771596806, 35.814750830205249 ], [ -0.230896555629297, 35.814750830205249 ], [ -0.230896555629297, 35.814286296444358 ], [ -0.230156339661789, 35.814286296444358 ], [ -0.230156339661789, 35.813821759965677 ], [ -0.229416123694281, 35.813821759965677 ], [ -0.229416123694281, 35.812428134223211 ], [ -0.228675907726772, 35.812428134223211 ], [ -0.228675907726772, 35.810569928518746 ], [ -0.227935691759264, 35.810569928518746 ], [ -0.227935691759264, 35.809176245705025 ], [ -0.227195475791756, 35.809176245705025 ], [ -0.227195475791756, 35.80731796390701 ], [ -0.227935691759264, 35.80731796390701 ], [ -0.227935691759264, 35.805924224024189 ], [ -0.228675907726772, 35.805924224024189 ], [ -0.228675907726772, 35.804530459683846 ], [ -0.229416123694281, 35.804530459683846 ], [ -0.229416123694281, 35.803601269869652 ], [ -0.230156339661789, 35.803601269869652 ], [ -0.230156339661789, 35.803136670886389 ], [ -0.230896555629297, 35.803136670886389 ], [ -0.230896555629297, 35.802672069185711 ], [ -0.231636771596806, 35.802672069185711 ], [ -0.231636771596806, 35.80220746476764 ], [ -0.232376987564314, 35.80220746476764 ], [ -0.232376987564314, 35.801742857632192 ], [ -0.237558499336872, 35.801742857632192 ], [ -0.237558499336872, 35.80220746476764 ], [ -0.238298715304381, 35.80220746476764 ], [ -0.238298715304381, 35.802672069185711 ], [ -0.239038931271889, 35.802672069185711 ], [ -0.239038931271889, 35.800813635209181 ], [ -0.239779147239397, 35.800813635209181 ], [ -0.239779147239397, 35.799884401916799 ], [ -0.240519363206906, 35.799884401916799 ], [ -0.240519363206906, 35.799419781194644 ], [ -0.241259579174414, 35.799419781194644 ], [ -0.241259579174414, 35.798955157755167 ], [ -0.242740011109431, 35.798955157755167 ], [ -0.242740011109431, 35.798490531598425 ], [ -0.245700874979464, 35.798490531598425 ], [ -0.245700874979464, 35.798955157755167 ], [ -0.247921522881989, 35.798955157755167 ], [ -0.247921522881989, 35.799419781194644 ], [ -0.249401954817006, 35.799419781194644 ], [ -0.249401954817006, 35.799884401916799 ], [ -0.250882386752022, 35.799884401916799 ], [ -0.250882386752022, 35.799419781194644 ], [ -0.252362818687039, 35.799419781194644 ], [ -0.252362818687039, 35.798955157755167 ], [ -0.253843250622056, 35.798955157755167 ], [ -0.253843250622056, 35.798490531598425 ], [ -0.255323682557072, 35.798490531598425 ], [ -0.255323682557072, 35.798025902724412 ], [ -0.261245410297139, 35.798025902724412 ], [ -0.261245410297139, 35.798490531598425 ], [ -0.266426922069697, 35.798490531598425 ], [ -0.266426922069697, 35.799419781194644 ], [ -0.267167138037206, 35.799419781194644 ], [ -0.267167138037206, 35.799884401916799 ], [ -0.267907354004714, 35.799884401916799 ], [ -0.267907354004714, 35.800349019921647 ], [ -0.268647569972222, 35.800349019921647 ], [ -0.268647569972222, 35.801278247779365 ], [ -0.269387785939731, 35.801278247779365 ], [ -0.269387785939731, 35.801742857632192 ], [ -0.270128001907239, 35.801742857632192 ], [ -0.270128001907239, 35.80220746476764 ], [ -0.270868217874747, 35.80220746476764 ], [ -0.270868217874747, 35.803136670886389 ], [ -0.271608433842256, 35.803136670886389 ], [ -0.271608433842256, 35.803601269869652 ], [ -0.272348649809764, 35.803601269869652 ], [ -0.272348649809764, 35.804530459683846 ], [ -0.273088865777272, 35.804530459683846 ], [ -0.273088865777272, 35.804995050514783 ], [ -0.273829081744781, 35.804995050514783 ], [ -0.273829081744781, 35.804065866135467 ], [ -0.274569297712289, 35.804065866135467 ], [ -0.274569297712289, 35.803136670886389 ], [ -0.275309513679797, 35.803136670886389 ], [ -0.275309513679797, 35.80220746476764 ], [ -0.276049729647306, 35.80220746476764 ], [ -0.276049729647306, 35.801742857632192 ], [ -0.276789945614814, 35.801742857632192 ], [ -0.276789945614814, 35.801278247779365 ], [ -0.278270377549831, 35.801278247779365 ], [ -0.278270377549831, 35.800813635209181 ], [ -0.279010593517339, 35.800813635209181 ], [ -0.279010593517339, 35.800349019921647 ], [ -0.280491025452356, 35.800349019921647 ], [ -0.280491025452356, 35.800813635209181 ], [ -0.281231241419864, 35.800813635209181 ], [ -0.281231241419864, 35.801278247779365 ], [ -0.282711673354881, 35.801278247779365 ], [ -0.282711673354881, 35.801742857632192 ], [ -0.283451889322389, 35.801742857632192 ], [ -0.283451889322389, 35.80220746476764 ], [ -0.284192105289897, 35.80220746476764 ], [ -0.284192105289897, 35.804065866135467 ], [ -0.284932321257406, 35.804065866135467 ], [ -0.284932321257406, 35.806388806702657 ], [ -0.285672537224914, 35.806388806702657 ], [ -0.285672537224914, 35.808711679331893 ], [ -0.286412753192422, 35.808711679331893 ], [ -0.286412753192422, 35.811034484021377 ], [ -0.287152969159931, 35.811034484021377 ], [ -0.287152969159931, 35.821254017484272 ], [ -0.286412753192422, 35.821254017484272 ], [ -0.286412753192422, 35.822183000751579 ], [ -0.285672537224914, 35.822183000751579 ], [ -0.285672537224914, 35.822647488308213 ], [ -0.284932321257406, 35.822647488308213 ], [ -0.284932321257406, 35.82311197314683 ], [ -0.284192105289897, 35.82311197314683 ], [ -0.284192105289897, 35.8235764552674 ], [ -0.283451889322389, 35.8235764552674 ], [ -0.283451889322389, 35.824040934669902 ], [ -0.282711673354881, 35.824040934669902 ], [ -0.282711673354881, 35.824505411354338 ], [ -0.281971457387372, 35.824505411354338 ], [ -0.281971457387372, 35.824969885320684 ], [ -0.281231241419864, 35.824969885320684 ], [ -0.281231241419864, 35.82543435656892 ], [ -0.280491025452356, 35.82543435656892 ], [ -0.280491025452356, 35.825898825099053 ], [ -0.278270377549831, 35.825898825099053 ], [ -0.278270377549831, 35.82543435656892 ], [ -0.277530161582322, 35.82543435656892 ], [ -0.277530161582322, 35.824969885320684 ] ] ], [ [ [ 1.242873435679796, 36.13370511326643 ], [ 1.243613651647304, 36.13370511326643 ], [ 1.243613651647304, 36.133242452754182 ], [ 1.244353867614813, 36.133242452754182 ], [ 1.244353867614813, 36.132779789514281 ], [ 1.245094083582321, 36.132779789514281 ], [ 1.245094083582321, 36.132317123546741 ], [ 1.245834299549829, 36.132317123546741 ], [ 1.245834299549829, 36.131854454851599 ], [ 1.246574515517338, 36.131854454851599 ], [ 1.246574515517338, 36.131391783428839 ], [ 1.247314731484846, 36.131391783428839 ], [ 1.247314731484846, 36.130929109278505 ], [ 1.248054947452355, 36.130929109278505 ], [ 1.248054947452355, 36.130466432400581 ], [ 1.248795163419863, 36.130466432400581 ], [ 1.248795163419863, 36.129541070462068 ], [ 1.249535379387371, 36.129541070462068 ], [ 1.249535379387371, 36.127690313854742 ], [ 1.25027559535488, 36.127690313854742 ], [ 1.25027559535488, 36.125839513607794 ], [ 1.249535379387371, 36.125839513607794 ], [ 1.249535379387371, 36.124914097119721 ], [ 1.248795163419863, 36.124914097119721 ], [ 1.248795163419863, 36.123525951932208 ], [ 1.248054947452355, 36.123525951932208 ], [ 1.248054947452355, 36.122600508170429 ], [ 1.247314731484846, 36.122600508170429 ], [ 1.247314731484846, 36.121212322072857 ], [ 1.245834299549829, 36.121212322072857 ], [ 1.245834299549829, 36.120749587919107 ], [ 1.244353867614813, 36.120749587919107 ], [ 1.244353867614813, 36.120286851038067 ], [ 1.242873435679796, 36.120286851038067 ], [ 1.242873435679796, 36.119824111429786 ], [ 1.24139300374478, 36.119824111429786 ], [ 1.24139300374478, 36.119361369094264 ], [ 1.238432139874746, 36.119361369094264 ], [ 1.238432139874746, 36.119824111429786 ], [ 1.236951707939729, 36.119824111429786 ], [ 1.236951707939729, 36.120286851038067 ], [ 1.236211491972221, 36.120286851038067 ], [ 1.236211491972221, 36.120749587919107 ], [ 1.235471276004713, 36.120749587919107 ], [ 1.235471276004713, 36.122137782198543 ], [ 1.234731060037205, 36.122137782198543 ], [ 1.234731060037205, 36.123525951932208 ], [ 1.233990844069696, 36.123525951932208 ], [ 1.233990844069696, 36.125376806727459 ], [ 1.234731060037205, 36.125376806727459 ], [ 1.234731060037205, 36.127690313854742 ], [ 1.235471276004713, 36.127690313854742 ], [ 1.235471276004713, 36.129541070462068 ], [ 1.236211491972221, 36.129541070462068 ], [ 1.236211491972221, 36.131391783428839 ], [ 1.236951707939729, 36.131391783428839 ], [ 1.236951707939729, 36.132779789514281 ], [ 1.237691923907238, 36.132779789514281 ], [ 1.237691923907238, 36.133242452754182 ], [ 1.238432139874746, 36.133242452754182 ], [ 1.238432139874746, 36.13370511326643 ], [ 1.239912571809763, 36.13370511326643 ], [ 1.239912571809763, 36.134167771051025 ], [ 1.240652787777271, 36.134167771051025 ], [ 1.240652787777271, 36.13463042610794 ], [ 1.24139300374478, 36.13463042610794 ], [ 1.24139300374478, 36.134167771051025 ], [ 1.242873435679796, 36.134167771051025 ], [ 1.242873435679796, 36.13370511326643 ] ] ], [ [ [ -0.142810855495806, 38.641188402062745 ], [ -0.142810855495806, 38.640293521037407 ], [ -0.142070639528297, 38.640293521037407 ], [ -0.142070639528297, 38.638951178548595 ], [ -0.141330423560789, 38.638951178548595 ], [ -0.141330423560789, 38.638056269588944 ], [ -0.140590207593281, 38.638056269588944 ], [ -0.140590207593281, 38.636713885199043 ], [ -0.139849991625772, 38.636713885199043 ], [ -0.139849991625772, 38.635371475668855 ], [ -0.139109775658264, 38.635371475668855 ], [ -0.139109775658264, 38.6291065654585 ], [ -0.139849991625772, 38.6291065654585 ], [ -0.139849991625772, 38.628659050922742 ], [ -0.140590207593281, 38.628659050922742 ], [ -0.140590207593281, 38.628211533593785 ], [ -0.141330423560789, 38.628211533593785 ], [ -0.141330423560789, 38.627764013471655 ], [ -0.142070639528297, 38.627764013471655 ], [ -0.142070639528297, 38.627316490556346 ], [ -0.142810855495806, 38.627316490556346 ], [ -0.142810855495806, 38.626421436346277 ], [ -0.143551071463314, 38.626421436346277 ], [ -0.143551071463314, 38.625973905051538 ], [ -0.144291287430822, 38.625973905051538 ], [ -0.144291287430822, 38.625526370963662 ], [ -0.145031503398331, 38.625526370963662 ], [ -0.145031503398331, 38.625078834082657 ], [ -0.145771719365839, 38.625078834082657 ], [ -0.145771719365839, 38.624631294408552 ], [ -0.146511935333347, 38.624631294408552 ], [ -0.146511935333347, 38.624183751941345 ], [ -0.148732583235872, 38.624183751941345 ], [ -0.148732583235872, 38.624631294408552 ], [ -0.151693447105906, 38.624631294408552 ], [ -0.151693447105906, 38.625078834082657 ], [ -0.153173879040922, 38.625078834082657 ], [ -0.153173879040922, 38.625973905051538 ], [ -0.153914095008431, 38.625973905051538 ], [ -0.153914095008431, 38.626868964847894 ], [ -0.154654310975939, 38.626868964847894 ], [ -0.154654310975939, 38.627764013471655 ], [ -0.155394526943447, 38.627764013471655 ], [ -0.155394526943447, 38.628659050922742 ], [ -0.156134742910956, 38.628659050922742 ], [ -0.156134742910956, 38.629554077201064 ], [ -0.156874958878464, 38.629554077201064 ], [ -0.156874958878464, 38.636266418149006 ], [ -0.157615174845972, 38.636266418149006 ], [ -0.157615174845972, 38.639398628838293 ], [ -0.156874958878464, 38.639398628838293 ], [ -0.156874958878464, 38.640293521037407 ], [ -0.156134742910956, 38.640293521037407 ], [ -0.156134742910956, 38.640740962946808 ], [ -0.155394526943447, 38.640740962946808 ], [ -0.155394526943447, 38.64163583838522 ], [ -0.154654310975939, 38.64163583838522 ], [ -0.154654310975939, 38.642083271914217 ], [ -0.143551071463314, 38.642083271914217 ], [ -0.143551071463314, 38.641188402062745 ], [ -0.142810855495806, 38.641188402062745 ] ] ], [ [ [ 0.462685805926012, 42.914167691717637 ], [ 0.46342602189352, 42.914167691717637 ], [ 0.46342602189352, 42.913328603074113 ], [ 0.464166237861029, 42.913328603074113 ], [ 0.464166237861029, 42.912909054468159 ], [ 0.464906453828537, 42.912909054468159 ], [ 0.464906453828537, 42.912489503006078 ], [ 0.465646669796045, 42.912489503006078 ], [ 0.465646669796045, 42.911650391513561 ], [ 0.466386885763553, 42.911650391513561 ], [ 0.466386885763553, 42.911230831483131 ], [ 0.467127101731062, 42.911230831483131 ], [ 0.467127101731062, 42.910811268596582 ], [ 0.46786731769857, 42.910811268596582 ], [ 0.46786731769857, 42.909972134255163 ], [ 0.468607533666079, 42.909972134255163 ], [ 0.468607533666079, 42.896124768240604 ], [ 0.469347749633587, 42.896124768240604 ], [ 0.469347749633587, 42.892767362636476 ], [ 0.470087965601095, 42.892767362636476 ], [ 0.470087965601095, 42.889409774249799 ], [ 0.470828181568604, 42.889409774249799 ], [ 0.470828181568604, 42.888570348593547 ], [ 0.470087965601095, 42.888570348593547 ], [ 0.470087965601095, 42.887730911513515 ], [ 0.469347749633587, 42.887730911513515 ], [ 0.469347749633587, 42.886891463009704 ], [ 0.468607533666079, 42.886891463009704 ], [ 0.468607533666079, 42.886471734473915 ], [ 0.46786731769857, 42.886471734473915 ], [ 0.46786731769857, 42.885632268834527 ], [ 0.466386885763553, 42.885632268834527 ], [ 0.466386885763553, 42.885212531730936 ], [ 0.464166237861029, 42.885212531730936 ], [ 0.464166237861029, 42.884792791771424 ], [ 0.461945589958504, 42.884792791771424 ], [ 0.461945589958504, 42.884373048956007 ], [ 0.460465158023487, 42.884373048956007 ], [ 0.460465158023487, 42.883953303284663 ], [ 0.45898472608847, 42.883953303284663 ], [ 0.45898472608847, 42.884373048956007 ], [ 0.457504294153454, 42.884373048956007 ], [ 0.457504294153454, 42.884792791771424 ], [ 0.456023862218437, 42.884792791771424 ], [ 0.456023862218437, 42.885212531730936 ], [ 0.455283646250928, 42.885212531730936 ], [ 0.455283646250928, 42.885632268834527 ], [ 0.45454343028342, 42.885632268834527 ], [ 0.45454343028342, 42.886052003082177 ], [ 0.453803214315912, 42.886052003082177 ], [ 0.453803214315912, 42.886471734473915 ], [ 0.453062998348404, 42.886471734473915 ], [ 0.453062998348404, 42.88731118868958 ], [ 0.452322782380895, 42.88731118868958 ], [ 0.452322782380895, 42.887730911513515 ], [ 0.451582566413387, 42.887730911513515 ], [ 0.451582566413387, 42.888150631481501 ], [ 0.450842350445879, 42.888150631481501 ], [ 0.450842350445879, 42.888990062849651 ], [ 0.45010213447837, 42.888990062849651 ], [ 0.45010213447837, 42.889409774249799 ], [ 0.449361918510862, 42.889409774249799 ], [ 0.449361918510862, 42.889829482793999 ], [ 0.448621702543353, 42.889829482793999 ], [ 0.448621702543353, 42.890249188482244 ], [ 0.447881486575845, 42.890249188482244 ], [ 0.447881486575845, 42.891088591290853 ], [ 0.447141270608337, 42.891088591290853 ], [ 0.447141270608337, 42.891508288411217 ], [ 0.446401054640829, 42.891508288411217 ], [ 0.446401054640829, 42.893606731173428 ], [ 0.44566083867332, 42.893606731173428 ], [ 0.44566083867332, 42.894865762558986 ], [ 0.444920622705812, 42.894865762558986 ], [ 0.444920622705812, 42.895285433975523 ], [ 0.441959758835779, 42.895285433975523 ], [ 0.441959758835779, 42.89570510253607 ], [ 0.439739110933254, 42.89570510253607 ], [ 0.439739110933254, 42.896544431089147 ], [ 0.438998894965745, 42.896544431089147 ], [ 0.438998894965745, 42.900321268205431 ], [ 0.438258678998237, 42.900321268205431 ], [ 0.438258678998237, 42.904097873983098 ], [ 0.437518463030728, 42.904097873983098 ], [ 0.437518463030728, 42.907035074093123 ], [ 0.438258678998237, 42.907035074093123 ], [ 0.438258678998237, 42.907874248419873 ], [ 0.438998894965745, 42.907874248419873 ], [ 0.438998894965745, 42.908293831299119 ], [ 0.439739110933254, 42.908293831299119 ], [ 0.439739110933254, 42.909132988489333 ], [ 0.440479326900762, 42.909132988489333 ], [ 0.440479326900762, 42.9095525628003 ], [ 0.444180406738303, 42.9095525628003 ], [ 0.444180406738303, 42.909972134255163 ], [ 0.444920622705812, 42.909972134255163 ], [ 0.444920622705812, 42.910811268596582 ], [ 0.44566083867332, 42.910811268596582 ], [ 0.44566083867332, 42.911650391513561 ], [ 0.446401054640829, 42.911650391513561 ], [ 0.446401054640829, 42.912489503006078 ], [ 0.447141270608337, 42.912489503006078 ], [ 0.447141270608337, 42.913748148823942 ], [ 0.447881486575845, 42.913748148823942 ], [ 0.447881486575845, 42.914587231755199 ], [ 0.448621702543353, 42.914587231755199 ], [ 0.448621702543353, 42.915006768936635 ], [ 0.461945589958504, 42.915006768936635 ], [ 0.461945589958504, 42.914587231755199 ], [ 0.462685805926012, 42.914587231755199 ], [ 0.462685805926012, 42.914167691717637 ] ] ], [ [ [ -2.521864975067592, 42.976647663917568 ], [ -2.521124759100084, 42.976647663917568 ], [ -2.521124759100084, 42.975809426467968 ], [ -2.520384543132576, 42.975809426467968 ], [ -2.520384543132576, 42.974971177592067 ], [ -2.519644327165067, 42.974971177592067 ], [ -2.519644327165067, 42.969103115526337 ], [ -2.520384543132576, 42.969103115526337 ], [ -2.520384543132576, 42.967845600813369 ], [ -2.521124759100084, 42.967845600813369 ], [ -2.521124759100084, 42.966168874538184 ], [ -2.521864975067592, 42.966168874538184 ], [ -2.521864975067592, 42.964492102558864 ], [ -2.522605191035101, 42.964492102558864 ], [ -2.522605191035101, 42.964072902422792 ], [ -2.523345407002609, 42.964072902422792 ], [ -2.523345407002609, 42.963653699430232 ], [ -2.524085622970117, 42.963653699430232 ], [ -2.524085622970117, 42.963234493581176 ], [ -2.524825838937625, 42.963234493581176 ], [ -2.524825838937625, 42.962815284875639 ], [ -2.525566054905134, 42.962815284875639 ], [ -2.525566054905134, 42.96239607331362 ], [ -2.52704648684015, 42.96239607331362 ], [ -2.52704648684015, 42.961976858895113 ], [ -2.527786702807659, 42.961976858895113 ], [ -2.527786702807659, 42.96239607331362 ], [ -2.530007350710184, 42.96239607331362 ], [ -2.530007350710184, 42.962815284875639 ], [ -2.532227998612709, 42.962815284875639 ], [ -2.532227998612709, 42.963234493581176 ], [ -2.533708430547726, 42.963234493581176 ], [ -2.533708430547726, 42.964492102558864 ], [ -2.534448646515234, 42.964492102558864 ], [ -2.534448646515234, 42.965749685828101 ], [ -2.535188862482742, 42.965749685828101 ], [ -2.535188862482742, 42.9670072433888 ], [ -2.535929078450251, 42.9670072433888 ], [ -2.535929078450251, 42.96826477524089 ], [ -2.536669294417759, 42.96826477524089 ], [ -2.536669294417759, 42.973713782853956 ], [ -2.535929078450251, 42.973713782853956 ], [ -2.535929078450251, 42.974132917289893 ], [ -2.535188862482742, 42.974132917289893 ], [ -2.535188862482742, 42.974971177592067 ], [ -2.534448646515234, 42.974971177592067 ], [ -2.534448646515234, 42.975809426467968 ], [ -2.528526918775167, 42.975809426467968 ], [ -2.528526918775167, 42.976647663917568 ], [ -2.527786702807659, 42.976647663917568 ], [ -2.527786702807659, 42.977485889940844 ], [ -2.522605191035101, 42.977485889940844 ], [ -2.522605191035101, 42.977066778357489 ], [ -2.521864975067592, 42.977066778357489 ], [ -2.521864975067592, 42.976647663917568 ] ] ], [ [ [ -5.334685651599263, 43.148245041030705 ], [ -5.334685651599263, 43.147409146457775 ], [ -5.333945435631755, 43.147409146457775 ], [ -5.333945435631755, 43.146573240453911 ], [ -5.333205219664247, 43.146573240453911 ], [ -5.333205219664247, 43.145737323019119 ], [ -5.332465003696738, 43.145737323019119 ], [ -5.332465003696738, 43.144901394153443 ], [ -5.33172478772923, 43.144901394153443 ], [ -5.33172478772923, 43.144065453856889 ], [ -5.330984571761722, 43.144065453856889 ], [ -5.330984571761722, 43.143229502129465 ], [ -5.330244355794213, 43.143229502129465 ], [ -5.330244355794213, 43.142393538971227 ], [ -5.329504139826704, 43.142393538971227 ], [ -5.329504139826704, 43.141557564382175 ], [ -5.328763923859197, 43.141557564382175 ], [ -5.328763923859197, 43.140721578362331 ], [ -5.328023707891688, 43.140721578362331 ], [ -5.328023707891688, 43.137795537275743 ], [ -5.327283491924181, 43.137795537275743 ], [ -5.327283491924181, 43.132361089475339 ], [ -5.328023707891688, 43.132361089475339 ], [ -5.328023707891688, 43.131943035025614 ], [ -5.328763923859197, 43.131943035025614 ], [ -5.328763923859197, 43.131106917553268 ], [ -5.329504139826704, 43.131106917553268 ], [ -5.329504139826704, 43.130688854530653 ], [ -5.330244355794213, 43.130688854530653 ], [ -5.330244355794213, 43.130270788650407 ], [ -5.330984571761722, 43.130270788650407 ], [ -5.330984571761722, 43.129852719912542 ], [ -5.33172478772923, 43.129852719912542 ], [ -5.33172478772923, 43.129434648317059 ], [ -5.332465003696738, 43.129434648317059 ], [ -5.332465003696738, 43.129016573863943 ], [ -5.335425867566772, 43.129016573863943 ], [ -5.335425867566772, 43.128598496553224 ], [ -5.338386731436805, 43.128598496553224 ], [ -5.338386731436805, 43.129016573863943 ], [ -5.339126947404313, 43.129016573863943 ], [ -5.339126947404313, 43.129434648317059 ], [ -5.339867163371822, 43.129434648317059 ], [ -5.339867163371822, 43.129852719912542 ], [ -5.341347595306839, 43.129852719912542 ], [ -5.341347595306839, 43.130270788650407 ], [ -5.342087811274347, 43.130270788650407 ], [ -5.342087811274347, 43.130688854530653 ], [ -5.342828027241855, 43.130688854530653 ], [ -5.342828027241855, 43.131106917553268 ], [ -5.343568243209364, 43.131106917553268 ], [ -5.343568243209364, 43.131524977718264 ], [ -5.344308459176871, 43.131524977718264 ], [ -5.344308459176871, 43.131943035025614 ], [ -5.345788891111889, 43.131943035025614 ], [ -5.345788891111889, 43.132361089475339 ], [ -5.347269323046905, 43.132361089475339 ], [ -5.347269323046905, 43.131943035025614 ], [ -5.350230186916939, 43.131943035025614 ], [ -5.350230186916939, 43.132361089475339 ], [ -5.350970402884446, 43.132361089475339 ], [ -5.350970402884446, 43.132779141067431 ], [ -5.352450834819463, 43.132779141067431 ], [ -5.352450834819463, 43.133197189801876 ], [ -5.353191050786971, 43.133197189801876 ], [ -5.353191050786971, 43.135287390609392 ], [ -5.35393126675448, 43.135287390609392 ], [ -5.35393126675448, 43.139885580911724 ], [ -5.353191050786971, 43.139885580911724 ], [ -5.353191050786971, 43.140721578362331 ], [ -5.352450834819463, 43.140721578362331 ], [ -5.352450834819463, 43.141557564382175 ], [ -5.351710618851955, 43.141557564382175 ], [ -5.351710618851955, 43.141975553105553 ], [ -5.350970402884446, 43.141975553105553 ], [ -5.350970402884446, 43.142393538971227 ], [ -5.348749754981922, 43.142393538971227 ], [ -5.348749754981922, 43.142811521979205 ], [ -5.346529107079396, 43.142811521979205 ], [ -5.346529107079396, 43.143229502129465 ], [ -5.345788891111889, 43.143229502129465 ], [ -5.345788891111889, 43.143647479422029 ], [ -5.34504867514438, 43.143647479422029 ], [ -5.34504867514438, 43.144065453856889 ], [ -5.344308459176871, 43.144065453856889 ], [ -5.344308459176871, 43.144901394153443 ], [ -5.343568243209364, 43.144901394153443 ], [ -5.343568243209364, 43.145737323019119 ], [ -5.342828027241855, 43.145737323019119 ], [ -5.342828027241855, 43.146573240453911 ], [ -5.342087811274347, 43.146573240453911 ], [ -5.342087811274347, 43.146991194884706 ], [ -5.341347595306839, 43.146991194884706 ], [ -5.341347595306839, 43.147827095173113 ], [ -5.34060737933933, 43.147827095173113 ], [ -5.34060737933933, 43.148662984030565 ], [ -5.335425867566772, 43.148662984030565 ], [ -5.335425867566772, 43.148245041030705 ], [ -5.334685651599263, 43.148245041030705 ] ] ], [ [ [ 3.743322973922949, 36.186892875113685 ], [ 3.744063189890458, 36.186892875113685 ], [ 3.744063189890458, 36.186430528374551 ], [ 3.744803405857966, 36.186430528374551 ], [ 3.744803405857966, 36.185968178906165 ], [ 3.745543621825474, 36.185968178906165 ], [ 3.745543621825474, 36.186430528374551 ], [ 3.747024053760491, 36.186430528374551 ], [ 3.747024053760491, 36.186892875113685 ], [ 3.749244701663016, 36.186892875113685 ], [ 3.749244701663016, 36.187355219123539 ], [ 3.751465349565541, 36.187355219123539 ], [ 3.751465349565541, 36.187817560404099 ], [ 3.752945781500558, 36.187817560404099 ], [ 3.752945781500558, 36.187355219123539 ], [ 3.753685997468065, 36.187355219123539 ], [ 3.753685997468065, 36.186892875113685 ], [ 3.754426213435575, 36.186892875113685 ], [ 3.754426213435575, 36.185968178906165 ], [ 3.755166429403083, 36.185968178906165 ], [ 3.755166429403083, 36.185043471781654 ], [ 3.755906645370591, 36.185043471781654 ], [ 3.755906645370591, 36.184118753740272 ], [ 3.756646861338099, 36.184118753740272 ], [ 3.756646861338099, 36.183656390625785 ], [ 3.757387077305608, 36.183656390625785 ], [ 3.757387077305608, 36.181344534115965 ], [ 3.756646861338099, 36.181344534115965 ], [ 3.756646861338099, 36.175795800126778 ], [ 3.755906645370591, 36.175795800126778 ], [ 3.755906645370591, 36.173483711649958 ], [ 3.755166429403083, 36.173483711649958 ], [ 3.755166429403083, 36.173021285767938 ], [ 3.754426213435575, 36.173021285767938 ], [ 3.754426213435575, 36.17209642581733 ], [ 3.753685997468065, 36.17209642581733 ], [ 3.753685997468065, 36.171171554951435 ], [ 3.751465349565541, 36.171171554951435 ], [ 3.751465349565541, 36.170709115425268 ], [ 3.747764269728, 36.170709115425268 ], [ 3.747764269728, 36.171171554951435 ], [ 3.747024053760491, 36.171171554951435 ], [ 3.747024053760491, 36.171633991748799 ], [ 3.745543621825474, 36.171633991748799 ], [ 3.745543621825474, 36.17209642581733 ], [ 3.744803405857966, 36.17209642581733 ], [ 3.744803405857966, 36.172558857157064 ], [ 3.743322973922949, 36.172558857157064 ], [ 3.743322973922949, 36.173021285767938 ], [ 3.742582757955441, 36.173021285767938 ], [ 3.742582757955441, 36.173483711649958 ], [ 3.741102326020424, 36.173483711649958 ], [ 3.741102326020424, 36.174408555227394 ], [ 3.740362110052916, 36.174408555227394 ], [ 3.740362110052916, 36.176258209635364 ], [ 3.739621894085408, 36.176258209635364 ], [ 3.739621894085408, 36.177645421787389 ], [ 3.738881678117899, 36.177645421787389 ], [ 3.738881678117899, 36.178107820380092 ], [ 3.738141462150391, 36.178107820380092 ], [ 3.738141462150391, 36.178570216243784 ], [ 3.737401246182882, 36.178570216243784 ], [ 3.737401246182882, 36.17903260937846 ], [ 3.735920814247866, 36.17903260937846 ], [ 3.735920814247866, 36.182269284907314 ], [ 3.735180598280357, 36.182269284907314 ], [ 3.735180598280357, 36.185505826708528 ], [ 3.735920814247866, 36.185505826708528 ], [ 3.735920814247866, 36.185968178906165 ], [ 3.736661030215375, 36.185968178906165 ], [ 3.736661030215375, 36.186430528374551 ], [ 3.737401246182882, 36.186430528374551 ], [ 3.737401246182882, 36.186892875113685 ], [ 3.738141462150391, 36.186892875113685 ], [ 3.738141462150391, 36.187355219123539 ], [ 3.738881678117899, 36.187355219123539 ], [ 3.738881678117899, 36.187817560404099 ], [ 3.739621894085408, 36.187817560404099 ], [ 3.739621894085408, 36.188279898955365 ], [ 3.741842541987933, 36.188279898955365 ], [ 3.741842541987933, 36.187817560404099 ], [ 3.742582757955441, 36.187817560404099 ], [ 3.742582757955441, 36.187355219123539 ], [ 3.743322973922949, 36.187355219123539 ], [ 3.743322973922949, 36.186892875113685 ] ] ], [ [ [ 3.141527392338674, 36.604196059893432 ], [ 3.142267608306182, 36.604196059893432 ], [ 3.142267608306182, 36.603736188775677 ], [ 3.14300782427369, 36.603736188775677 ], [ 3.14300782427369, 36.602816438315351 ], [ 3.143748040241198, 36.602816438315351 ], [ 3.143748040241198, 36.601896676888721 ], [ 3.144488256208707, 36.601896676888721 ], [ 3.144488256208707, 36.598677425537396 ], [ 3.145228472176215, 36.598677425537396 ], [ 3.145228472176215, 36.595458039854627 ], [ 3.144488256208707, 36.595458039854627 ], [ 3.144488256208707, 36.594538190701364 ], [ 3.143748040241198, 36.594538190701364 ], [ 3.143748040241198, 36.593618330582743 ], [ 3.14300782427369, 36.593618330582743 ], [ 3.14300782427369, 36.593158396411461 ], [ 3.142267608306182, 36.593158396411461 ], [ 3.142267608306182, 36.592238519845012 ], [ 3.141527392338674, 36.592238519845012 ], [ 3.141527392338674, 36.591778577449873 ], [ 3.13412523266359, 36.591778577449873 ], [ 3.13412523266359, 36.592238519845012 ], [ 3.133385016696082, 36.592238519845012 ], [ 3.133385016696082, 36.592698459498877 ], [ 3.132644800728573, 36.592698459498877 ], [ 3.132644800728573, 36.593158396411461 ], [ 3.131164368793557, 36.593158396411461 ], [ 3.131164368793557, 36.593618330582743 ], [ 3.130424152826048, 36.593618330582743 ], [ 3.130424152826048, 36.594538190701364 ], [ 3.12968393685854, 36.594538190701364 ], [ 3.12968393685854, 36.596837793024264 ], [ 3.128943720891032, 36.596837793024264 ], [ 3.128943720891032, 36.600976904495894 ], [ 3.12968393685854, 36.600976904495894 ], [ 3.12968393685854, 36.601896676888721 ], [ 3.130424152826048, 36.601896676888721 ], [ 3.130424152826048, 36.603276314916315 ], [ 3.131164368793557, 36.603276314916315 ], [ 3.131164368793557, 36.604196059893432 ], [ 3.131904584761065, 36.604196059893432 ], [ 3.131904584761065, 36.604655928269572 ], [ 3.133385016696082, 36.604655928269572 ], [ 3.133385016696082, 36.605115793904091 ], [ 3.135605664598607, 36.605115793904091 ], [ 3.135605664598607, 36.605575656796958 ], [ 3.13856652846864, 36.605575656796958 ], [ 3.13856652846864, 36.606035516948175 ], [ 3.140046960403657, 36.606035516948175 ], [ 3.140046960403657, 36.605575656796958 ], [ 3.140787176371165, 36.605575656796958 ], [ 3.140787176371165, 36.605115793904091 ], [ 3.141527392338674, 36.605115793904091 ], [ 3.141527392338674, 36.604196059893432 ] ] ], [ [ [ 2.889113747418332, 36.610633967666281 ], [ 2.88985396338584, 36.610633967666281 ], [ 2.88985396338584, 36.61017413493235 ], [ 2.890594179353348, 36.61017413493235 ], [ 2.890594179353348, 36.606495374357721 ], [ 2.891334395320857, 36.606495374357721 ], [ 2.891334395320857, 36.605115793904091 ], [ 2.892814827255873, 36.605115793904091 ], [ 2.892814827255873, 36.605575656796958 ], [ 2.893555043223381, 36.605575656796958 ], [ 2.893555043223381, 36.606035516948175 ], [ 2.895035475158398, 36.606035516948175 ], [ 2.895035475158398, 36.605575656796958 ], [ 2.895775691125907, 36.605575656796958 ], [ 2.895775691125907, 36.605115793904091 ], [ 2.896515907093415, 36.605115793904091 ], [ 2.896515907093415, 36.604655928269572 ], [ 2.897256123060923, 36.604655928269572 ], [ 2.897256123060923, 36.604196059893432 ], [ 2.897996339028431, 36.604196059893432 ], [ 2.897996339028431, 36.603736188775677 ], [ 2.89873655499594, 36.603736188775677 ], [ 2.89873655499594, 36.603276314916315 ], [ 2.899476770963448, 36.603276314916315 ], [ 2.899476770963448, 36.602816438315351 ], [ 2.900216986930956, 36.602816438315351 ], [ 2.900216986930956, 36.602356558972815 ], [ 2.901697418865973, 36.602356558972815 ], [ 2.901697418865973, 36.601896676888721 ], [ 2.902437634833482, 36.601896676888721 ], [ 2.902437634833482, 36.600057121136963 ], [ 2.90317785080099, 36.600057121136963 ], [ 2.90317785080099, 36.598217521521264 ], [ 2.903918066768498, 36.598217521521264 ], [ 2.903918066768498, 36.597757614763687 ], [ 2.90317785080099, 36.597757614763687 ], [ 2.90317785080099, 36.596377878042439 ], [ 2.902437634833482, 36.596377878042439 ], [ 2.902437634833482, 36.595458039854627 ], [ 2.901697418865973, 36.595458039854627 ], [ 2.901697418865973, 36.594078262012708 ], [ 2.900957202898465, 36.594078262012708 ], [ 2.900957202898465, 36.593158396411461 ], [ 2.900216986930956, 36.593158396411461 ], [ 2.900216986930956, 36.592698459498877 ], [ 2.899476770963448, 36.592698459498877 ], [ 2.899476770963448, 36.593158396411461 ], [ 2.896515907093415, 36.593158396411461 ], [ 2.896515907093415, 36.593618330582743 ], [ 2.89429525919089, 36.593618330582743 ], [ 2.89429525919089, 36.594078262012708 ], [ 2.891334395320857, 36.594078262012708 ], [ 2.891334395320857, 36.594538190701364 ], [ 2.889113747418332, 36.594538190701364 ], [ 2.889113747418332, 36.596377878042439 ], [ 2.888373531450823, 36.596377878042439 ], [ 2.888373531450823, 36.598217521521264 ], [ 2.887633315483315, 36.598217521521264 ], [ 2.887633315483315, 36.596377878042439 ], [ 2.886893099515807, 36.596377878042439 ], [ 2.886893099515807, 36.594078262012708 ], [ 2.886152883548299, 36.594078262012708 ], [ 2.886152883548299, 36.592238519845012 ], [ 2.88541266758079, 36.592238519845012 ], [ 2.88541266758079, 36.591318632313481 ], [ 2.884672451613281, 36.591318632313481 ], [ 2.884672451613281, 36.590858684435844 ], [ 2.883932235645773, 36.590858684435844 ], [ 2.883932235645773, 36.590398733816969 ], [ 2.883192019678265, 36.590398733816969 ], [ 2.883192019678265, 36.58993878045689 ], [ 2.882451803710757, 36.58993878045689 ], [ 2.882451803710757, 36.589478824355602 ], [ 2.88097137177574, 36.589478824355602 ], [ 2.88097137177574, 36.589018865513104 ], [ 2.880231155808231, 36.589018865513104 ], [ 2.880231155808231, 36.588558903929453 ], [ 2.879490939840723, 36.588558903929453 ], [ 2.879490939840723, 36.588098939604613 ], [ 2.878010507905707, 36.588098939604613 ], [ 2.878010507905707, 36.588558903929453 ], [ 2.875049644035673, 36.588558903929453 ], [ 2.875049644035673, 36.589018865513104 ], [ 2.874309428068165, 36.589018865513104 ], [ 2.874309428068165, 36.589478824355602 ], [ 2.873569212100656, 36.589478824355602 ], [ 2.873569212100656, 36.58993878045689 ], [ 2.872828996133148, 36.58993878045689 ], [ 2.872828996133148, 36.590398733816969 ], [ 2.87208878016564, 36.590398733816969 ], [ 2.87208878016564, 36.590858684435844 ], [ 2.871348564198132, 36.590858684435844 ], [ 2.871348564198132, 36.591318632313481 ], [ 2.870608348230624, 36.591318632313481 ], [ 2.870608348230624, 36.591778577449873 ], [ 2.869868132263115, 36.591778577449873 ], [ 2.869868132263115, 36.592698459498877 ], [ 2.869127916295606, 36.592698459498877 ], [ 2.869127916295606, 36.594998116648675 ], [ 2.868387700328098, 36.594998116648675 ], [ 2.868387700328098, 36.597297705264687 ], [ 2.86764748436059, 36.597297705264687 ], [ 2.86764748436059, 36.600976904495894 ], [ 2.868387700328098, 36.600976904495894 ], [ 2.868387700328098, 36.602816438315351 ], [ 2.869127916295606, 36.602816438315351 ], [ 2.869127916295606, 36.604655928269572 ], [ 2.869868132263115, 36.604655928269572 ], [ 2.869868132263115, 36.605115793904091 ], [ 2.870608348230624, 36.605115793904091 ], [ 2.870608348230624, 36.605575656796958 ], [ 2.87208878016564, 36.605575656796958 ], [ 2.87208878016564, 36.606035516948175 ], [ 2.873569212100656, 36.606035516948175 ], [ 2.873569212100656, 36.606495374357721 ], [ 2.87653007597069, 36.606495374357721 ], [ 2.87653007597069, 36.606035516948175 ], [ 2.878010507905707, 36.606035516948175 ], [ 2.878010507905707, 36.605575656796958 ], [ 2.878750723873215, 36.605575656796958 ], [ 2.878750723873215, 36.605115793904091 ], [ 2.880231155808231, 36.605115793904091 ], [ 2.880231155808231, 36.604655928269572 ], [ 2.88097137177574, 36.604655928269572 ], [ 2.88097137177574, 36.605575656796958 ], [ 2.880231155808231, 36.605575656796958 ], [ 2.880231155808231, 36.607415080951746 ], [ 2.88097137177574, 36.607415080951746 ], [ 2.88097137177574, 36.608794620279923 ], [ 2.881711587743248, 36.608794620279923 ], [ 2.881711587743248, 36.61017413493235 ], [ 2.882451803710757, 36.61017413493235 ], [ 2.882451803710757, 36.610633967666281 ], [ 2.883192019678265, 36.610633967666281 ], [ 2.883192019678265, 36.611093797658391 ], [ 2.884672451613281, 36.611093797658391 ], [ 2.884672451613281, 36.611553624908673 ], [ 2.88541266758079, 36.611553624908673 ], [ 2.88541266758079, 36.612013449417155 ], [ 2.886893099515807, 36.612013449417155 ], [ 2.886893099515807, 36.611553624908673 ], [ 2.887633315483315, 36.611553624908673 ], [ 2.887633315483315, 36.611093797658391 ], [ 2.889113747418332, 36.611093797658391 ], [ 2.889113747418332, 36.610633967666281 ] ], [ [ 2.887633315483315, 36.598677425537396 ], [ 2.888373531450823, 36.598677425537396 ], [ 2.888373531450823, 36.600976904495894 ], [ 2.889113747418332, 36.600976904495894 ], [ 2.889113747418332, 36.601896676888721 ], [ 2.888373531450823, 36.601896676888721 ], [ 2.888373531450823, 36.601436792063076 ], [ 2.886152883548299, 36.601436792063076 ], [ 2.886152883548299, 36.600517014187183 ], [ 2.886893099515807, 36.600517014187183 ], [ 2.886893099515807, 36.598217521521264 ], [ 2.887633315483315, 36.598217521521264 ], [ 2.887633315483315, 36.598677425537396 ] ] ], [ [ [ 3.128203504923524, 36.68692818727758 ], [ 3.128943720891032, 36.68692818727758 ], [ 3.128943720891032, 36.68600942970653 ], [ 3.12968393685854, 36.68600942970653 ], [ 3.12968393685854, 36.685090661159613 ], [ 3.130424152826048, 36.685090661159613 ], [ 3.130424152826048, 36.684171881636921 ], [ 3.131164368793557, 36.684171881636921 ], [ 3.131164368793557, 36.683253091138575 ], [ 3.131904584761065, 36.683253091138575 ], [ 3.131904584761065, 36.682334289664659 ], [ 3.132644800728573, 36.682334289664659 ], [ 3.132644800728573, 36.681874884811897 ], [ 3.133385016696082, 36.681874884811897 ], [ 3.133385016696082, 36.680956066874856 ], [ 3.13412523266359, 36.680956066874856 ], [ 3.13412523266359, 36.675902372040525 ], [ 3.133385016696082, 36.675902372040525 ], [ 3.133385016696082, 36.675442928775055 ], [ 3.132644800728573, 36.675442928775055 ], [ 3.132644800728573, 36.674983482765938 ], [ 3.131904584761065, 36.674983482765938 ], [ 3.131904584761065, 36.67452403401316 ], [ 3.131164368793557, 36.67452403401316 ], [ 3.131164368793557, 36.674064582516735 ], [ 3.130424152826048, 36.674064582516735 ], [ 3.130424152826048, 36.673605128276698 ], [ 3.12968393685854, 36.673605128276698 ], [ 3.12968393685854, 36.673145671293035 ], [ 3.128203504923524, 36.673145671293035 ], [ 3.128203504923524, 36.672686211565782 ], [ 3.127463288956015, 36.672686211565782 ], [ 3.127463288956015, 36.672226749094932 ], [ 3.123762209118474, 36.672226749094932 ], [ 3.123762209118474, 36.672686211565782 ], [ 3.121541561215949, 36.672686211565782 ], [ 3.121541561215949, 36.673145671293035 ], [ 3.119320913313424, 36.673145671293035 ], [ 3.119320913313424, 36.673605128276698 ], [ 3.118580697345915, 36.673605128276698 ], [ 3.118580697345915, 36.674064582516735 ], [ 3.117840481378407, 36.674064582516735 ], [ 3.117840481378407, 36.67452403401316 ], [ 3.117100265410898, 36.67452403401316 ], [ 3.117100265410898, 36.674983482765938 ], [ 3.11636004944339, 36.674983482765938 ], [ 3.11636004944339, 36.675442928775055 ], [ 3.115619833475882, 36.675442928775055 ], [ 3.115619833475882, 36.675902372040525 ], [ 3.114879617508374, 36.675902372040525 ], [ 3.114879617508374, 36.676361812562291 ], [ 3.114139401540865, 36.676361812562291 ], [ 3.114139401540865, 36.676821250340389 ], [ 3.113399185573357, 36.676821250340389 ], [ 3.113399185573357, 36.677280685374775 ], [ 3.11191875363834, 36.677280685374775 ], [ 3.11191875363834, 36.677740117665422 ], [ 3.111178537670832, 36.677740117665422 ], [ 3.111178537670832, 36.681415477215303 ], [ 3.110438321703324, 36.681415477215303 ], [ 3.110438321703324, 36.684171881636921 ], [ 3.111178537670832, 36.684171881636921 ], [ 3.111178537670832, 36.684631272770233 ], [ 3.11191875363834, 36.684631272770233 ], [ 3.11191875363834, 36.685090661159613 ], [ 3.112658969605848, 36.685090661159613 ], [ 3.112658969605848, 36.68600942970653 ], [ 3.113399185573357, 36.68600942970653 ], [ 3.113399185573357, 36.686468809864046 ], [ 3.114139401540865, 36.686468809864046 ], [ 3.114139401540865, 36.68692818727758 ], [ 3.114879617508374, 36.68692818727758 ], [ 3.114879617508374, 36.687387561947112 ], [ 3.115619833475882, 36.687387561947112 ], [ 3.115619833475882, 36.687846933872635 ], [ 3.11636004944339, 36.687846933872635 ], [ 3.11636004944339, 36.688306303054155 ], [ 3.117100265410898, 36.688306303054155 ], [ 3.117100265410898, 36.688765669491623 ], [ 3.117840481378407, 36.688765669491623 ], [ 3.117840481378407, 36.689225033185046 ], [ 3.124502425085982, 36.689225033185046 ], [ 3.124502425085982, 36.688765669491623 ], [ 3.127463288956015, 36.688765669491623 ], [ 3.127463288956015, 36.687846933872635 ], [ 3.128203504923524, 36.687846933872635 ], [ 3.128203504923524, 36.68692818727758 ] ] ], [ [ [ 2.865426836458065, 43.840985848991437 ], [ 2.866167052425573, 43.840985848991437 ], [ 2.866167052425573, 43.840159488656624 ], [ 2.866907268393082, 43.840159488656624 ], [ 2.866907268393082, 43.839333116876304 ], [ 2.86764748436059, 43.839333116876304 ], [ 2.86764748436059, 43.838506733650519 ], [ 2.868387700328098, 43.838506733650519 ], [ 2.868387700328098, 43.837267137351574 ], [ 2.869127916295606, 43.837267137351574 ], [ 2.869127916295606, 43.832721730597569 ], [ 2.868387700328098, 43.832721730597569 ], [ 2.868387700328098, 43.831895255808398 ], [ 2.86764748436059, 43.831895255808398 ], [ 2.86764748436059, 43.831068769573854 ], [ 2.866907268393082, 43.831068769573854 ], [ 2.866907268393082, 43.830242271893965 ], [ 2.866167052425573, 43.830242271893965 ], [ 2.866167052425573, 43.829415762768754 ], [ 2.864686620490557, 43.829415762768754 ], [ 2.864686620490557, 43.829002503914154 ], [ 2.86320618855554, 43.829002503914154 ], [ 2.86320618855554, 43.82858924219822 ], [ 2.860985540653015, 43.82858924219822 ], [ 2.860985540653015, 43.828175977620944 ], [ 2.858024676782982, 43.828175977620944 ], [ 2.858024676782982, 43.82858924219822 ], [ 2.855804028880456, 43.82858924219822 ], [ 2.855804028880456, 43.829002503914154 ], [ 2.853583380977931, 43.829002503914154 ], [ 2.853583380977931, 43.829415762768754 ], [ 2.852843165010423, 43.829415762768754 ], [ 2.852843165010423, 43.831068769573854 ], [ 2.852102949042915, 43.831068769573854 ], [ 2.852102949042915, 43.832308494633651 ], [ 2.851362733075407, 43.832308494633651 ], [ 2.851362733075407, 43.833548193941361 ], [ 2.850622517107898, 43.833548193941361 ], [ 2.850622517107898, 43.839333116876304 ], [ 2.851362733075407, 43.839333116876304 ], [ 2.851362733075407, 43.840159488656624 ], [ 2.852102949042915, 43.840159488656624 ], [ 2.852102949042915, 43.840572670254716 ], [ 2.852843165010423, 43.840572670254716 ], [ 2.852843165010423, 43.841399024866782 ], [ 2.853583380977931, 43.841399024866782 ], [ 2.853583380977931, 43.841812197880742 ], [ 2.856544244847965, 43.841812197880742 ], [ 2.856544244847965, 43.842225368033318 ], [ 2.860245324685506, 43.842225368033318 ], [ 2.860245324685506, 43.842638535324525 ], [ 2.864686620490557, 43.842638535324525 ], [ 2.864686620490557, 43.841812197880742 ], [ 2.865426836458065, 43.841812197880742 ], [ 2.865426836458065, 43.840985848991437 ] ] ] ] } }
]
}
