{
"type": "FeatureCollection",
"name": "spain_fires_modis_ba",
"crs": { "type": "name", "properties": { "name": "urn:ogc:def:crs:OGC:1.3:CRS84" } },
"features": [
{ "type": "Feature", "properties": { }, "geometry": { "type": "MultiPolygon", "coordinates": [ [ [ [ -2.86976647979651, 38.253560633292047 ], [ -2.86976647979651, 38.253110784382258 ], [ -2.869026263829001, 38.253110784382258 ], [ -2.869026263829001, 38.25086149806355 ], [ -2.86976647979651, 38.25086149806355 ], [ -2.86976647979651, 38.249961764043675 ], [ -2.870506695764018, 38.249961764043675 ], [ -2.870506695764018, 38.249511892856852 ], [ -2.871246911731526, 38.249511892856852 ], [ -2.871246911731526, 38.249062018885425 ], [ -2.87420777560156, 38.249062018885425 ], [ -2.87420777560156, 38.248612142129438 ], [ -2.875688207536576, 38.248612142129438 ], [ -2.875688207536576, 38.249062018885425 ], [ -2.876428423504084, 38.249062018885425 ], [ -2.876428423504084, 38.251761220944957 ], [ -2.875688207536576, 38.251761220944957 ], [ -2.875688207536576, 38.25221107820871 ], [ -2.873467559634051, 38.25221107820871 ], [ -2.873467559634051, 38.253110784382258 ], [ -2.872727343666543, 38.253110784382258 ], [ -2.872727343666543, 38.253560633292047 ], [ -2.86976647979651, 38.253560633292047 ] ] ], [ [ [ -4.743253093560103, 42.063423252469661 ], [ -4.743993309527612, 42.063423252469661 ], [ -4.743993309527612, 42.060446176051435 ], [ -4.744733525495121, 42.060446176051435 ], [ -4.744733525495121, 42.060020868025589 ], [ -4.747694389365154, 42.060020868025589 ], [ -4.747694389365154, 42.061722083036997 ], [ -4.746954173397646, 42.061722083036997 ], [ -4.746954173397646, 42.062572673450681 ], [ -4.746213957430138, 42.062572673450681 ], [ -4.746213957430138, 42.062997964384515 ], [ -4.74547374146263, 42.062997964384515 ], [ -4.74547374146263, 42.063423252469661 ], [ -4.744733525495121, 42.063423252469661 ], [ -4.744733525495121, 42.064273820093881 ], [ -4.743993309527612, 42.064273820093881 ], [ -4.743993309527612, 42.065549650164968 ], [ -4.743253093560103, 42.065549650164968 ], [ -4.743253093560103, 42.063423252469661 ] ] ], [ [ [ -3.461939253803177, 42.46531434727688 ], [ -3.461199037835669, 42.46531434727688 ], [ -3.461199037835669, 42.463623987488582 ], [ -3.460458821868161, 42.463623987488582 ], [ -3.460458821868161, 42.462356187696031 ], [ -3.461199037835669, 42.462356187696031 ], [ -3.461199037835669, 42.462778790479376 ], [ -3.461939253803177, 42.462778790479376 ], [ -3.461939253803177, 42.463201390410227 ], [ -3.462679469770686, 42.463201390410227 ], [ -3.462679469770686, 42.463623987488582 ], [ -3.463419685738194, 42.463623987488582 ], [ -3.463419685738194, 42.46404658171442 ], [ -3.464159901705703, 42.46404658171442 ], [ -3.464159901705703, 42.464891761608577 ], [ -3.463419685738194, 42.464891761608577 ], [ -3.463419685738194, 42.46531434727688 ], [ -3.462679469770686, 42.46531434727688 ], [ -3.462679469770686, 42.465736930092682 ], [ -3.461939253803177, 42.465736930092682 ], [ -3.461939253803177, 42.46531434727688 ] ] ] ] } }
]
}
