{
"type": "FeatureCollection",
"name": "spain_fires_modis_ba",
"crs": { "type": "name", "properties": { "name": "urn:ogc:def:crs:OGC:1.3:CRS84" } },
"features": [
{ "type": "Feature", "properties": { }, "geometry": { "type": "MultiPolygon", "coordinates": [ [ [ [ 4.325872940352008, 36.555434466952832 ], [ 4.326613156319517, 36.555434466952832 ], [ 4.326613156319517, 36.554974305299154 ], [ 4.327353372287026, 36.554974305299154 ], [ 4.327353372287026, 36.553133631282648 ], [ 4.328093588254534, 36.553133631282648 ], [ 4.328093588254534, 36.552673455928158 ], [ 4.327353372287026, 36.552673455928158 ], [ 4.327353372287026, 36.550372538054035 ], [ 4.326613156319517, 36.550372538054035 ], [ 4.326613156319517, 36.549452151723884 ], [ 4.325872940352008, 36.549452151723884 ], [ 4.325872940352008, 36.548071551678461 ], [ 4.323652292449483, 36.548071551678461 ], [ 4.323652292449483, 36.548531754433611 ], [ 4.322912076481975, 36.548531754433611 ], [ 4.322912076481975, 36.548991954448759 ], [ 4.318470780676925, 36.548991954448759 ], [ 4.318470780676925, 36.550372538054035 ], [ 4.319210996644434, 36.550372538054035 ], [ 4.319210996644434, 36.551292913423943 ], [ 4.319951212611942, 36.551292913423943 ], [ 4.319951212611942, 36.552213277833523 ], [ 4.32069142857945, 36.552213277833523 ], [ 4.32069142857945, 36.552673455928158 ], [ 4.321431644546958, 36.552673455928158 ], [ 4.321431644546958, 36.553133631282648 ], [ 4.322171860514467, 36.553133631282648 ], [ 4.322171860514467, 36.554053973771239 ], [ 4.322912076481975, 36.554053973771239 ], [ 4.322912076481975, 36.554514140905283 ], [ 4.323652292449483, 36.554514140905283 ], [ 4.323652292449483, 36.554974305299154 ], [ 4.324392508416992, 36.554974305299154 ], [ 4.324392508416992, 36.555434466952832 ], [ 4.325132724384499, 36.555434466952832 ], [ 4.325132724384499, 36.555894625866316 ], [ 4.325872940352008, 36.555894625866316 ], [ 4.325872940352008, 36.555434466952832 ] ] ], [ [ [ -4.044489220232236, 39.573750315798272 ], [ -4.043749004264727, 39.573750315798272 ], [ -4.043749004264727, 39.573308757896839 ], [ -4.04300878829722, 39.573308757896839 ], [ -4.04300878829722, 39.572425633656515 ], [ -4.042268572329712, 39.572425633656515 ], [ -4.042268572329712, 39.571542498166266 ], [ -4.041528356362202, 39.571542498166266 ], [ -4.041528356362202, 39.57065935142618 ], [ -4.040788140394695, 39.57065935142618 ], [ -4.040788140394695, 39.567568249244253 ], [ -4.041528356362202, 39.567568249244253 ], [ -4.041528356362202, 39.566685051880661 ], [ -4.042268572329712, 39.566685051880661 ], [ -4.042268572329712, 39.566243448980316 ], [ -4.04300878829722, 39.566243448980316 ], [ -4.04300878829722, 39.565360234742528 ], [ -4.044489220232236, 39.565360234742528 ], [ -4.044489220232236, 39.56491862340512 ], [ -4.045229436199745, 39.56491862340512 ], [ -4.045229436199745, 39.564477009255363 ], [ -4.045969652167253, 39.564477009255363 ], [ -4.045969652167253, 39.564035392293285 ], [ -4.04745008410227, 39.564035392293285 ], [ -4.04745008410227, 39.563593772518878 ], [ -4.049670732004794, 39.563593772518878 ], [ -4.049670732004794, 39.563152149932186 ], [ -4.051891379907319, 39.563152149932186 ], [ -4.051891379907319, 39.562710524533166 ], [ -4.05633267571237, 39.562710524533166 ], [ -4.05633267571237, 39.563152149932186 ], [ -4.061514187484928, 39.563152149932186 ], [ -4.061514187484928, 39.562710524533166 ], [ -4.064475051354962, 39.562710524533166 ], [ -4.064475051354962, 39.562268896321839 ], [ -4.065955483289978, 39.562268896321839 ], [ -4.065955483289978, 39.561827265298248 ], [ -4.067435915224994, 39.561827265298248 ], [ -4.067435915224994, 39.561385631462372 ], [ -4.068916347160012, 39.561385631462372 ], [ -4.068916347160012, 39.560943994814224 ], [ -4.069656563127519, 39.560943994814224 ], [ -4.069656563127519, 39.560502355353812 ], [ -4.071136995062536, 39.560502355353812 ], [ -4.071136995062536, 39.560060713081143 ], [ -4.072617426997553, 39.560060713081143 ], [ -4.072617426997553, 39.559619067996238 ], [ -4.07409785893257, 39.559619067996238 ], [ -4.07409785893257, 39.55917742009909 ], [ -4.074838074900078, 39.55917742009909 ], [ -4.074838074900078, 39.55873576938972 ], [ -4.076318506835094, 39.55873576938972 ], [ -4.076318506835094, 39.558294115868115 ], [ -4.077798938770111, 39.558294115868115 ], [ -4.077798938770111, 39.55785245953431 ], [ -4.078539154737619, 39.55785245953431 ], [ -4.078539154737619, 39.557410800388297 ], [ -4.080019586672636, 39.557410800388297 ], [ -4.080019586672636, 39.556969138430091 ], [ -4.080759802640145, 39.556969138430091 ], [ -4.080759802640145, 39.556527473659692 ], [ -4.082240234575162, 39.556527473659692 ], [ -4.082240234575162, 39.556085806077114 ], [ -4.08298045054267, 39.556085806077114 ], [ -4.08298045054267, 39.555644135682371 ], [ -4.083720666510178, 39.555644135682371 ], [ -4.083720666510178, 39.555202462475464 ], [ -4.084460882477686, 39.555202462475464 ], [ -4.084460882477686, 39.554760786456406 ], [ -4.085201098445195, 39.554760786456406 ], [ -4.085201098445195, 39.55387742598186 ], [ -4.085941314412703, 39.55387742598186 ], [ -4.085941314412703, 39.5534357415264 ], [ -4.086681530380211, 39.5534357415264 ], [ -4.086681530380211, 39.552994054258797 ], [ -4.095564121990312, 39.552994054258797 ], [ -4.095564121990312, 39.5534357415264 ], [ -4.098524985860345, 39.5534357415264 ], [ -4.098524985860345, 39.552994054258797 ], [ -4.10074563376287, 39.552994054258797 ], [ -4.10074563376287, 39.552552364179085 ], [ -4.101485849730378, 39.552552364179085 ], [ -4.101485849730378, 39.552110671287288 ], [ -4.102226065697886, 39.552110671287288 ], [ -4.102226065697886, 39.551668975583382 ], [ -4.103706497632903, 39.551668975583382 ], [ -4.103706497632903, 39.550785575739319 ], [ -4.104446713600411, 39.550785575739319 ], [ -4.104446713600411, 39.550343871599182 ], [ -4.105186929567919, 39.550343871599182 ], [ -4.105186929567919, 39.54990216464698 ], [ -4.106667361502937, 39.54990216464698 ], [ -4.106667361502937, 39.549460454882727 ], [ -4.108147793437953, 39.549460454882727 ], [ -4.108147793437953, 39.54901874230643 ], [ -4.110368441340478, 39.54901874230643 ], [ -4.110368441340478, 39.55122727706739 ], [ -4.10962822537297, 39.55122727706739 ], [ -4.10962822537297, 39.552552364179085 ], [ -4.108888009405462, 39.552552364179085 ], [ -4.108888009405462, 39.55387742598186 ], [ -4.108147793437953, 39.55387742598186 ], [ -4.108147793437953, 39.554760786456406 ], [ -4.107407577470445, 39.554760786456406 ], [ -4.107407577470445, 39.555644135682371 ], [ -4.106667361502937, 39.555644135682371 ], [ -4.106667361502937, 39.556527473659692 ], [ -4.105927145535428, 39.556527473659692 ], [ -4.105927145535428, 39.556969138430091 ], [ -4.102966281665395, 39.556969138430091 ], [ -4.102966281665395, 39.557410800388297 ], [ -4.097044553925327, 39.557410800388297 ], [ -4.097044553925327, 39.55785245953431 ], [ -4.094823906022802, 39.55785245953431 ], [ -4.094823906022802, 39.558294115868115 ], [ -4.093343474087786, 39.558294115868115 ], [ -4.093343474087786, 39.55873576938972 ], [ -4.09186304215277, 39.55873576938972 ], [ -4.09186304215277, 39.55917742009909 ], [ -4.091122826185262, 39.55917742009909 ], [ -4.091122826185262, 39.559619067996238 ], [ -4.089642394250245, 39.559619067996238 ], [ -4.089642394250245, 39.560060713081143 ], [ -4.088902178282736, 39.560060713081143 ], [ -4.088902178282736, 39.560502355353812 ], [ -4.08742174634772, 39.560502355353812 ], [ -4.08742174634772, 39.560943994814224 ], [ -4.086681530380211, 39.560943994814224 ], [ -4.086681530380211, 39.561385631462372 ], [ -4.085201098445195, 39.561385631462372 ], [ -4.085201098445195, 39.561827265298248 ], [ -4.084460882477686, 39.561827265298248 ], [ -4.084460882477686, 39.562268896321839 ], [ -4.08298045054267, 39.562268896321839 ], [ -4.08298045054267, 39.562710524533166 ], [ -4.082240234575162, 39.562710524533166 ], [ -4.082240234575162, 39.563152149932186 ], [ -4.081500018607653, 39.563152149932186 ], [ -4.081500018607653, 39.563593772518878 ], [ -4.080759802640145, 39.563593772518878 ], [ -4.080759802640145, 39.564035392293285 ], [ -4.080019586672636, 39.564035392293285 ], [ -4.080019586672636, 39.56491862340512 ], [ -4.079279370705128, 39.56491862340512 ], [ -4.079279370705128, 39.5658018432676 ], [ -4.078539154737619, 39.5658018432676 ], [ -4.078539154737619, 39.566685051880661 ], [ -4.077798938770111, 39.566685051880661 ], [ -4.077798938770111, 39.567568249244253 ], [ -4.077058722802603, 39.567568249244253 ], [ -4.077058722802603, 39.568451435358291 ], [ -4.076318506835094, 39.568451435358291 ], [ -4.076318506835094, 39.569334610222711 ], [ -4.075578290867587, 39.569334610222711 ], [ -4.075578290867587, 39.56977619343629 ], [ -4.060033755549911, 39.56977619343629 ], [ -4.060033755549911, 39.570217773837449 ], [ -4.058553323614895, 39.570217773837449 ], [ -4.058553323614895, 39.57065935142618 ], [ -4.057072891679878, 39.57065935142618 ], [ -4.057072891679878, 39.571100926202448 ], [ -4.055592459744862, 39.571100926202448 ], [ -4.055592459744862, 39.571542498166266 ], [ -4.054112027809845, 39.571542498166266 ], [ -4.054112027809845, 39.571984067317615 ], [ -4.053371811842336, 39.571984067317615 ], [ -4.053371811842336, 39.572425633656515 ], [ -4.051891379907319, 39.572425633656515 ], [ -4.051891379907319, 39.572867197182916 ], [ -4.050410947972303, 39.572867197182916 ], [ -4.050410947972303, 39.573308757896839 ], [ -4.049670732004794, 39.573308757896839 ], [ -4.049670732004794, 39.573750315798272 ], [ -4.048190300069779, 39.573750315798272 ], [ -4.048190300069779, 39.574191870887191 ], [ -4.044489220232236, 39.574191870887191 ], [ -4.044489220232236, 39.573750315798272 ] ] ], [ [ [ -4.734370501950004, 39.928291298165753 ], [ -4.734370501950004, 39.927852006956627 ], [ -4.733630285982496, 39.927852006956627 ], [ -4.733630285982496, 39.92697341608153 ], [ -4.732890070014987, 39.92697341608153 ], [ -4.732890070014987, 39.925655508626882 ], [ -4.732149854047479, 39.925655508626882 ], [ -4.732149854047479, 39.924337575801992 ], [ -4.731409638079971, 39.924337575801992 ], [ -4.731409638079971, 39.923019617607096 ], [ -4.730669422112462, 39.923019617607096 ], [ -4.730669422112462, 39.921701634042378 ], [ -4.729929206144955, 39.921701634042378 ], [ -4.729929206144955, 39.920383625108059 ], [ -4.729188990177446, 39.920383625108059 ], [ -4.729188990177446, 39.918626240398844 ], [ -4.728448774209937, 39.918626240398844 ], [ -4.728448774209937, 39.918186887174549 ], [ -4.729188990177446, 39.918186887174549 ], [ -4.729188990177446, 39.9173081722696 ], [ -4.729929206144955, 39.9173081722696 ], [ -4.729929206144955, 39.916868810588973 ], [ -4.730669422112462, 39.916868810588973 ], [ -4.730669422112462, 39.916429446089595 ], [ -4.731409638079971, 39.916429446089595 ], [ -4.731409638079971, 39.915990078771458 ], [ -4.732890070014987, 39.915990078771458 ], [ -4.732890070014987, 39.916429446089595 ], [ -4.733630285982496, 39.916429446089595 ], [ -4.733630285982496, 39.9173081722696 ], [ -4.734370501950004, 39.9173081722696 ], [ -4.734370501950004, 39.917747531131454 ], [ -4.735110717917512, 39.917747531131454 ], [ -4.735110717917512, 39.918626240398844 ], [ -4.735850933885021, 39.918626240398844 ], [ -4.735850933885021, 39.919065590804358 ], [ -4.736591149852529, 39.919065590804358 ], [ -4.736591149852529, 39.919944283158969 ], [ -4.737331365820038, 39.919944283158969 ], [ -4.737331365820038, 39.920383625108059 ], [ -4.738071581787547, 39.920383625108059 ], [ -4.738071581787547, 39.920822964238326 ], [ -4.738811797755053, 39.920822964238326 ], [ -4.738811797755053, 39.921701634042378 ], [ -4.739552013722562, 39.921701634042378 ], [ -4.739552013722562, 39.922580292571048 ], [ -4.740292229690072, 39.922580292571048 ], [ -4.740292229690072, 39.92697341608153 ], [ -4.739552013722562, 39.92697341608153 ], [ -4.739552013722562, 39.927852006956627 ], [ -4.738811797755053, 39.927852006956627 ], [ -4.738811797755053, 39.928291298165753 ], [ -4.738071581787547, 39.928291298165753 ], [ -4.738071581787547, 39.928730586555908 ], [ -4.735110717917512, 39.928730586555908 ], [ -4.735110717917512, 39.928291298165753 ], [ -4.734370501950004, 39.928291298165753 ] ] ], [ [ [ -4.319109344177829, 40.326876874125034 ], [ -4.319109344177829, 40.32644015127979 ], [ -4.317628912242812, 40.32644015127979 ], [ -4.317628912242812, 40.326003425608825 ], [ -4.316148480307795, 40.326003425608825 ], [ -4.316148480307795, 40.325566697112187 ], [ -4.315408264340286, 40.325566697112187 ], [ -4.315408264340286, 40.325129965789849 ], [ -4.314668048372778, 40.325129965789849 ], [ -4.314668048372778, 40.324693231641845 ], [ -4.313187616437761, 40.324693231641845 ], [ -4.313187616437761, 40.324256494668163 ], [ -4.312447400470253, 40.324256494668163 ], [ -4.312447400470253, 40.323819754868829 ], [ -4.311707184502746, 40.323819754868829 ], [ -4.311707184502746, 40.323383012243838 ], [ -4.310966968535237, 40.323383012243838 ], [ -4.310966968535237, 40.322946266793195 ], [ -4.30948653660022, 40.322946266793195 ], [ -4.30948653660022, 40.32250951851691 ], [ -4.308746320632713, 40.32250951851691 ], [ -4.308746320632713, 40.322072767414994 ], [ -4.308006104665203, 40.322072767414994 ], [ -4.308006104665203, 40.321636013487449 ], [ -4.307265888697695, 40.321636013487449 ], [ -4.307265888697695, 40.321199256734289 ], [ -4.306525672730187, 40.321199256734289 ], [ -4.306525672730187, 40.320762497155513 ], [ -4.305785456762678, 40.320762497155513 ], [ -4.305785456762678, 40.320325734751137 ], [ -4.30504524079517, 40.320325734751137 ], [ -4.30504524079517, 40.319888969521159 ], [ -4.304305024827662, 40.319888969521159 ], [ -4.304305024827662, 40.31945220146558 ], [ -4.303564808860154, 40.31945220146558 ], [ -4.303564808860154, 40.319015430584436 ], [ -4.302824592892645, 40.319015430584436 ], [ -4.302824592892645, 40.318578656877698 ], [ -4.302084376925136, 40.318578656877698 ], [ -4.302084376925136, 40.318141880345401 ], [ -4.301344160957629, 40.318141880345401 ], [ -4.301344160957629, 40.317268318804118 ], [ -4.300603944990121, 40.317268318804118 ], [ -4.300603944990121, 40.316831533795167 ], [ -4.299863729022612, 40.316831533795167 ], [ -4.299863729022612, 40.316394745960643 ], [ -4.299123513055104, 40.316394745960643 ], [ -4.299123513055104, 40.315957955300604 ], [ -4.298383297087595, 40.315957955300604 ], [ -4.298383297087595, 40.315521161815035 ], [ -4.297643081120087, 40.315521161815035 ], [ -4.297643081120087, 40.315084365503942 ], [ -4.296902865152578, 40.315084365503942 ], [ -4.296902865152578, 40.314210764405232 ], [ -4.295422433217562, 40.314210764405232 ], [ -4.295422433217562, 40.31377395961762 ], [ -4.29172135338002, 40.31377395961762 ], [ -4.29172135338002, 40.313337152004522 ], [ -4.289500705477495, 40.313337152004522 ], [ -4.289500705477495, 40.31377395961762 ], [ -4.286539841607461, 40.31377395961762 ], [ -4.286539841607461, 40.314210764405232 ], [ -4.284319193704937, 40.314210764405232 ], [ -4.284319193704937, 40.314647566367341 ], [ -4.282838761769921, 40.314647566367341 ], [ -4.282838761769921, 40.315084365503942 ], [ -4.281358329834903, 40.315084365503942 ], [ -4.281358329834903, 40.315521161815035 ], [ -4.279877897899886, 40.315521161815035 ], [ -4.279877897899886, 40.315957955300604 ], [ -4.278397465964869, 40.315957955300604 ], [ -4.278397465964869, 40.316394745960643 ], [ -4.276176818062345, 40.316394745960643 ], [ -4.276176818062345, 40.316831533795167 ], [ -4.270995306289787, 40.316831533795167 ], [ -4.270995306289787, 40.316394745960643 ], [ -4.270255090322278, 40.316394745960643 ], [ -4.270255090322278, 40.315957955300604 ], [ -4.26951487435477, 40.315957955300604 ], [ -4.26951487435477, 40.315521161815035 ], [ -4.268774658387262, 40.315521161815035 ], [ -4.268774658387262, 40.314647566367341 ], [ -4.268034442419753, 40.314647566367341 ], [ -4.268034442419753, 40.312463528301883 ], [ -4.268774658387262, 40.312463528301883 ], [ -4.268774658387262, 40.310279419599652 ], [ -4.26951487435477, 40.310279419599652 ], [ -4.26951487435477, 40.308968920473042 ], [ -4.270255090322278, 40.308968920473042 ], [ -4.270255090322278, 40.308095240261558 ], [ -4.270995306289787, 40.308095240261558 ], [ -4.270995306289787, 40.306784698753852 ], [ -4.271735522257295, 40.306784698753852 ], [ -4.271735522257295, 40.305910990288488 ], [ -4.272475738224803, 40.305910990288488 ], [ -4.272475738224803, 40.305037270521666 ], [ -4.273215954192312, 40.305037270521666 ], [ -4.273215954192312, 40.304163539453441 ], [ -4.273956170159821, 40.304163539453441 ], [ -4.273956170159821, 40.302852921661113 ], [ -4.274696386127329, 40.302852921661113 ], [ -4.274696386127329, 40.301979162339656 ], [ -4.275436602094837, 40.301979162339656 ], [ -4.275436602094837, 40.301105391716987 ], [ -4.276176818062345, 40.301105391716987 ], [ -4.276176818062345, 40.30023160979318 ], [ -4.276917034029854, 40.30023160979318 ], [ -4.276917034029854, 40.299357816568296 ], [ -4.277657249997362, 40.299357816568296 ], [ -4.277657249997362, 40.29848401204238 ], [ -4.278397465964869, 40.29848401204238 ], [ -4.278397465964869, 40.298047105541556 ], [ -4.279137681932379, 40.298047105541556 ], [ -4.279137681932379, 40.297173284064201 ], [ -4.279877897899886, 40.297173284064201 ], [ -4.279877897899886, 40.296299451285975 ], [ -4.280618113867395, 40.296299451285975 ], [ -4.280618113867395, 40.295425607206923 ], [ -4.281358329834903, 40.295425607206923 ], [ -4.281358329834903, 40.294988680929592 ], [ -4.282098545802412, 40.294988680929592 ], [ -4.282098545802412, 40.294114819899406 ], [ -4.282838761769921, 40.294114819899406 ], [ -4.282838761769921, 40.29367788514655 ], [ -4.283578977737428, 40.29367788514655 ], [ -4.283578977737428, 40.292804007165358 ], [ -4.284319193704937, 40.292804007165358 ], [ -4.284319193704937, 40.292367063937036 ], [ -4.285059409672445, 40.292367063937036 ], [ -4.285059409672445, 40.291493169004966 ], [ -4.285799625639953, 40.291493169004966 ], [ -4.285799625639953, 40.291056217301232 ], [ -4.286539841607461, 40.291056217301232 ], [ -4.286539841607461, 40.290619262772367 ], [ -4.288760489509986, 40.290619262772367 ], [ -4.288760489509986, 40.290182305418405 ], [ -4.295422433217562, 40.290182305418405 ], [ -4.295422433217562, 40.289745345239332 ], [ -4.296902865152578, 40.289745345239332 ], [ -4.296902865152578, 40.289308382235163 ], [ -4.298383297087595, 40.289308382235163 ], [ -4.298383297087595, 40.28887141640589 ], [ -4.299123513055104, 40.28887141640589 ], [ -4.299123513055104, 40.288434447751548 ], [ -4.300603944990121, 40.288434447751548 ], [ -4.300603944990121, 40.287997476272118 ], [ -4.301344160957629, 40.287997476272118 ], [ -4.301344160957629, 40.287123524838051 ], [ -4.302084376925136, 40.287123524838051 ], [ -4.302084376925136, 40.28668654488343 ], [ -4.302824592892645, 40.28668654488343 ], [ -4.302824592892645, 40.286249562103755 ], [ -4.303564808860154, 40.286249562103755 ], [ -4.303564808860154, 40.2853755880693 ], [ -4.304305024827662, 40.2853755880693 ], [ -4.304305024827662, 40.284938596814541 ], [ -4.30504524079517, 40.284938596814541 ], [ -4.30504524079517, 40.284501602734736 ], [ -4.305785456762678, 40.284501602734736 ], [ -4.305785456762678, 40.283627606100119 ], [ -4.306525672730187, 40.283627606100119 ], [ -4.306525672730187, 40.2831906035453 ], [ -4.307265888697695, 40.2831906035453 ], [ -4.307265888697695, 40.282316589960701 ], [ -4.308006104665203, 40.282316589960701 ], [ -4.308006104665203, 40.281879578930933 ], [ -4.308746320632713, 40.281879578930933 ], [ -4.308746320632713, 40.28056852889182 ], [ -4.30948653660022, 40.28056852889182 ], [ -4.30948653660022, 40.279694481407653 ], [ -4.310226752567729, 40.279694481407653 ], [ -4.310226752567729, 40.278820422623753 ], [ -4.310966968535237, 40.278820422623753 ], [ -4.310966968535237, 40.27838338899442 ], [ -4.311707184502746, 40.27838338899442 ], [ -4.311707184502746, 40.277946352540162 ], [ -4.312447400470253, 40.277946352540162 ], [ -4.312447400470253, 40.277509313261014 ], [ -4.313187616437761, 40.277509313261014 ], [ -4.313187616437761, 40.277072271156953 ], [ -4.31392783240527, 40.277072271156953 ], [ -4.31392783240527, 40.277509313261014 ], [ -4.315408264340286, 40.277509313261014 ], [ -4.315408264340286, 40.277946352540162 ], [ -4.316148480307795, 40.277946352540162 ], [ -4.316148480307795, 40.27838338899442 ], [ -4.316888696275304, 40.27838338899442 ], [ -4.316888696275304, 40.278820422623753 ], [ -4.317628912242812, 40.278820422623753 ], [ -4.317628912242812, 40.279257453428173 ], [ -4.31836912821032, 40.279257453428173 ], [ -4.31836912821032, 40.279694481407653 ], [ -4.319109344177829, 40.279694481407653 ], [ -4.319109344177829, 40.28056852889182 ], [ -4.319849560145337, 40.28056852889182 ], [ -4.319849560145337, 40.281879578930933 ], [ -4.320589776112845, 40.281879578930933 ], [ -4.320589776112845, 40.284064605829919 ], [ -4.321329992080353, 40.284064605829919 ], [ -4.321329992080353, 40.288434447751548 ], [ -4.322070208047862, 40.288434447751548 ], [ -4.322070208047862, 40.291493169004966 ], [ -4.32281042401537, 40.291493169004966 ], [ -4.32281042401537, 40.29367788514655 ], [ -4.323550639982878, 40.29367788514655 ], [ -4.323550639982878, 40.295425607206923 ], [ -4.324290855950387, 40.295425607206923 ], [ -4.324290855950387, 40.297173284064201 ], [ -4.325031071917895, 40.297173284064201 ], [ -4.325031071917895, 40.29848401204238 ], [ -4.325771287885404, 40.29848401204238 ], [ -4.325771287885404, 40.298920915717964 ], [ -4.326511503852912, 40.298920915717964 ], [ -4.326511503852912, 40.299357816568296 ], [ -4.327251719820421, 40.299357816568296 ], [ -4.327251719820421, 40.299794714593375 ], [ -4.328732151755437, 40.299794714593375 ], [ -4.328732151755437, 40.30023160979318 ], [ -4.330212583690454, 40.30023160979318 ], [ -4.330212583690454, 40.301105391716987 ], [ -4.330952799657962, 40.301105391716987 ], [ -4.330952799657962, 40.301542278440969 ], [ -4.33169301562547, 40.301542278440969 ], [ -4.33169301562547, 40.302416043413039 ], [ -4.332433231592979, 40.302416043413039 ], [ -4.332433231592979, 40.302852921661113 ], [ -4.333173447560486, 40.302852921661113 ], [ -4.333173447560486, 40.303726669681325 ], [ -4.333913663527995, 40.303726669681325 ], [ -4.333913663527995, 40.304163539453441 ], [ -4.334653879495503, 40.304163539453441 ], [ -4.334653879495503, 40.305037270521666 ], [ -4.335394095463012, 40.305037270521666 ], [ -4.335394095463012, 40.305910990288488 ], [ -4.336134311430521, 40.305910990288488 ], [ -4.336134311430521, 40.306347845933864 ], [ -4.336874527398028, 40.306347845933864 ], [ -4.336874527398028, 40.306784698753852 ], [ -4.337614743365537, 40.306784698753852 ], [ -4.337614743365537, 40.317705100987546 ], [ -4.336874527398028, 40.317705100987546 ], [ -4.336874527398028, 40.321199256734289 ], [ -4.336134311430521, 40.321199256734289 ], [ -4.336134311430521, 40.32250951851691 ], [ -4.335394095463012, 40.32250951851691 ], [ -4.335394095463012, 40.323819754868829 ], [ -4.334653879495503, 40.323819754868829 ], [ -4.334653879495503, 40.325566697112187 ], [ -4.333913663527995, 40.325566697112187 ], [ -4.333913663527995, 40.32644015127979 ], [ -4.333173447560486, 40.32644015127979 ], [ -4.333173447560486, 40.326876874125034 ], [ -4.332433231592979, 40.326876874125034 ], [ -4.332433231592979, 40.327750311338427 ], [ -4.321329992080353, 40.327750311338427 ], [ -4.321329992080353, 40.327313594144591 ], [ -4.319849560145337, 40.327313594144591 ], [ -4.319849560145337, 40.326876874125034 ], [ -4.319109344177829, 40.326876874125034 ] ] ], [ [ [ -4.352419062715704, 40.382754066830046 ], [ -4.352419062715704, 40.382317705732369 ], [ -4.351678846748196, 40.382317705732369 ], [ -4.351678846748196, 40.381881341808104 ], [ -4.350198414813178, 40.381881341808104 ], [ -4.350198414813178, 40.381444975057235 ], [ -4.34945819884567, 40.381444975057235 ], [ -4.34945819884567, 40.381008605479778 ], [ -4.348717982878162, 40.381008605479778 ], [ -4.348717982878162, 40.380572233075753 ], [ -4.347237550943145, 40.380572233075753 ], [ -4.347237550943145, 40.380135857845154 ], [ -4.346497334975637, 40.380135857845154 ], [ -4.346497334975637, 40.379699479787988 ], [ -4.345757119008129, 40.379699479787988 ], [ -4.345757119008129, 40.379263098904268 ], [ -4.344276687073112, 40.379263098904268 ], [ -4.344276687073112, 40.378826715193988 ], [ -4.342056039170586, 40.378826715193988 ], [ -4.342056039170586, 40.378390328657176 ], [ -4.339835391268061, 40.378390328657176 ], [ -4.339835391268061, 40.377953939293825 ], [ -4.337614743365537, 40.377953939293825 ], [ -4.337614743365537, 40.377517547103949 ], [ -4.334653879495503, 40.377517547103949 ], [ -4.334653879495503, 40.377081152087541 ], [ -4.332433231592979, 40.377081152087541 ], [ -4.332433231592979, 40.376644754244623 ], [ -4.329472367722945, 40.376644754244623 ], [ -4.329472367722945, 40.376208353575194 ], [ -4.327251719820421, 40.376208353575194 ], [ -4.327251719820421, 40.375771950079262 ], [ -4.325031071917895, 40.375771950079262 ], [ -4.325031071917895, 40.375335543756833 ], [ -4.32281042401537, 40.375335543756833 ], [ -4.32281042401537, 40.374899134607922 ], [ -4.320589776112845, 40.374899134607922 ], [ -4.320589776112845, 40.374462722632536 ], [ -4.317628912242812, 40.374462722632536 ], [ -4.317628912242812, 40.374899134607922 ], [ -4.315408264340286, 40.374899134607922 ], [ -4.315408264340286, 40.375335543756833 ], [ -4.314668048372778, 40.375335543756833 ], [ -4.314668048372778, 40.376208353575194 ], [ -4.31392783240527, 40.376208353575194 ], [ -4.31392783240527, 40.377953939293825 ], [ -4.313187616437761, 40.377953939293825 ], [ -4.313187616437761, 40.379263098904268 ], [ -4.312447400470253, 40.379263098904268 ], [ -4.312447400470253, 40.380135857845154 ], [ -4.311707184502746, 40.380135857845154 ], [ -4.311707184502746, 40.381008605479778 ], [ -4.310966968535237, 40.381008605479778 ], [ -4.310966968535237, 40.381881341808104 ], [ -4.310226752567729, 40.381881341808104 ], [ -4.310226752567729, 40.382317705732369 ], [ -4.30948653660022, 40.382317705732369 ], [ -4.30948653660022, 40.382754066830046 ], [ -4.308746320632713, 40.382754066830046 ], [ -4.308746320632713, 40.382317705732369 ], [ -4.308006104665203, 40.382317705732369 ], [ -4.308006104665203, 40.381444975057235 ], [ -4.307265888697695, 40.381444975057235 ], [ -4.307265888697695, 40.380572233075753 ], [ -4.306525672730187, 40.380572233075753 ], [ -4.306525672730187, 40.379263098904268 ], [ -4.305785456762678, 40.379263098904268 ], [ -4.305785456762678, 40.377081152087541 ], [ -4.30504524079517, 40.377081152087541 ], [ -4.30504524079517, 40.374026307830668 ], [ -4.304305024827662, 40.374026307830668 ], [ -4.304305024827662, 40.37315346974755 ], [ -4.30504524079517, 40.37315346974755 ], [ -4.30504524079517, 40.370971325076951 ], [ -4.305785456762678, 40.370971325076951 ], [ -4.305785456762678, 40.369662004357529 ], [ -4.306525672730187, 40.369662004357529 ], [ -4.306525672730187, 40.368789109745933 ], [ -4.307265888697695, 40.368789109745933 ], [ -4.307265888697695, 40.367916203828798 ], [ -4.308006104665203, 40.367916203828798 ], [ -4.308006104665203, 40.36704328660619 ], [ -4.308746320632713, 40.36704328660619 ], [ -4.308746320632713, 40.366606823755355 ], [ -4.30948653660022, 40.366606823755355 ], [ -4.30948653660022, 40.366170358078165 ], [ -4.310226752567729, 40.366170358078165 ], [ -4.310226752567729, 40.365733889574642 ], [ -4.311707184502746, 40.365733889574642 ], [ -4.311707184502746, 40.365297418244779 ], [ -4.312447400470253, 40.365297418244779 ], [ -4.312447400470253, 40.364860944088605 ], [ -4.313187616437761, 40.364860944088605 ], [ -4.313187616437761, 40.360496047080389 ], [ -4.31392783240527, 40.360496047080389 ], [ -4.31392783240527, 40.357876973215085 ], [ -4.313187616437761, 40.357876973215085 ], [ -4.313187616437761, 40.357440451012444 ], [ -4.312447400470253, 40.357440451012444 ], [ -4.312447400470253, 40.357003925983598 ], [ -4.311707184502746, 40.357003925983598 ], [ -4.311707184502746, 40.356130867447327 ], [ -4.310966968535237, 40.356130867447327 ], [ -4.310966968535237, 40.355694333939923 ], [ -4.310226752567729, 40.355694333939923 ], [ -4.310226752567729, 40.354821258446613 ], [ -4.30948653660022, 40.354821258446613 ], [ -4.30948653660022, 40.353948171648675 ], [ -4.308746320632713, 40.353948171648675 ], [ -4.308746320632713, 40.351765405196446 ], [ -4.30948653660022, 40.351765405196446 ], [ -4.30948653660022, 40.350019141164694 ], [ -4.310226752567729, 40.350019141164694 ], [ -4.310226752567729, 40.349145992192305 ], [ -4.310966968535237, 40.349145992192305 ], [ -4.310966968535237, 40.348709413467006 ], [ -4.311707184502746, 40.348709413467006 ], [ -4.311707184502746, 40.347836247538254 ], [ -4.312447400470253, 40.347836247538254 ], [ -4.312447400470253, 40.347399660334808 ], [ -4.313187616437761, 40.347399660334808 ], [ -4.313187616437761, 40.346963070305314 ], [ -4.31392783240527, 40.346963070305314 ], [ -4.31392783240527, 40.346089881768265 ], [ -4.314668048372778, 40.346089881768265 ], [ -4.314668048372778, 40.345653283260717 ], [ -4.315408264340286, 40.345653283260717 ], [ -4.315408264340286, 40.345216681927148 ], [ -4.316148480307795, 40.345216681927148 ], [ -4.316148480307795, 40.344343470782029 ], [ -4.316888696275304, 40.344343470782029 ], [ -4.316888696275304, 40.343906860970478 ], [ -4.31836912821032, 40.343906860970478 ], [ -4.31836912821032, 40.343470248332949 ], [ -4.319109344177829, 40.343470248332949 ], [ -4.319109344177829, 40.343033632869449 ], [ -4.319849560145337, 40.343033632869449 ], [ -4.319849560145337, 40.342597014579979 ], [ -4.321329992080353, 40.342597014579979 ], [ -4.321329992080353, 40.342160393464553 ], [ -4.322070208047862, 40.342160393464553 ], [ -4.322070208047862, 40.341723769523171 ], [ -4.323550639982878, 40.341723769523171 ], [ -4.323550639982878, 40.341287142755839 ], [ -4.325031071917895, 40.341287142755839 ], [ -4.325031071917895, 40.340850513162572 ], [ -4.327991935787929, 40.340850513162572 ], [ -4.327991935787929, 40.340413880743384 ], [ -4.330952799657962, 40.340413880743384 ], [ -4.330952799657962, 40.339977245498261 ], [ -4.333913663527995, 40.339977245498261 ], [ -4.333913663527995, 40.339540607427224 ], [ -4.336874527398028, 40.339540607427224 ], [ -4.336874527398028, 40.339103966530281 ], [ -4.342056039170586, 40.339103966530281 ], [ -4.342056039170586, 40.339540607427224 ], [ -4.343536471105604, 40.339540607427224 ], [ -4.343536471105604, 40.339103966530281 ], [ -4.356120142553245, 40.339103966530281 ], [ -4.356120142553245, 40.338667322807424 ], [ -4.357600574488262, 40.338667322807424 ], [ -4.357600574488262, 40.338230676258689 ], [ -4.359081006423278, 40.338230676258689 ], [ -4.359081006423278, 40.337794026884048 ], [ -4.364262518195837, 40.337794026884048 ], [ -4.364262518195837, 40.337357374683528 ], [ -4.365742950130853, 40.337357374683528 ], [ -4.365742950130853, 40.337794026884048 ], [ -4.369444029968395, 40.337794026884048 ], [ -4.369444029968395, 40.338230676258689 ], [ -4.37166467787092, 40.338230676258689 ], [ -4.37166467787092, 40.338667322807424 ], [ -4.373145109805937, 40.338667322807424 ], [ -4.373145109805937, 40.339103966530281 ], [ -4.373885325773445, 40.339103966530281 ], [ -4.373885325773445, 40.339540607427224 ], [ -4.375365757708462, 40.339540607427224 ], [ -4.375365757708462, 40.339977245498261 ], [ -4.37610597367597, 40.339977245498261 ], [ -4.37610597367597, 40.340413880743384 ], [ -4.376846189643478, 40.340413880743384 ], [ -4.376846189643478, 40.340850513162572 ], [ -4.377586405610987, 40.340850513162572 ], [ -4.377586405610987, 40.341287142755839 ], [ -4.378326621578496, 40.341287142755839 ], [ -4.378326621578496, 40.341723769523171 ], [ -4.379066837546004, 40.341723769523171 ], [ -4.379066837546004, 40.342160393464553 ], [ -4.379807053513512, 40.342160393464553 ], [ -4.379807053513512, 40.342597014579979 ], [ -4.380547269481021, 40.342597014579979 ], [ -4.380547269481021, 40.343470248332949 ], [ -4.382027701416037, 40.343470248332949 ], [ -4.382027701416037, 40.343906860970478 ], [ -4.383508133351054, 40.343906860970478 ], [ -4.383508133351054, 40.344343470782029 ], [ -4.38498856528607, 40.344343470782029 ], [ -4.38498856528607, 40.344780077767581 ], [ -4.385728781253579, 40.344780077767581 ], [ -4.385728781253579, 40.345216681927148 ], [ -4.387209213188596, 40.345216681927148 ], [ -4.387209213188596, 40.345653283260717 ], [ -4.387949429156103, 40.345653283260717 ], [ -4.387949429156103, 40.346089881768265 ], [ -4.388689645123613, 40.346089881768265 ], [ -4.388689645123613, 40.346526477449807 ], [ -4.38942986109112, 40.346526477449807 ], [ -4.38942986109112, 40.347399660334808 ], [ -4.390170077058628, 40.347399660334808 ], [ -4.390170077058628, 40.347836247538254 ], [ -4.390910293026137, 40.347836247538254 ], [ -4.390910293026137, 40.348709413467006 ], [ -4.391650508993645, 40.348709413467006 ], [ -4.391650508993645, 40.350019141164694 ], [ -4.390910293026137, 40.350019141164694 ], [ -4.390910293026137, 40.35089227883276 ], [ -4.390170077058628, 40.35089227883276 ], [ -4.390170077058628, 40.351765405196446 ], [ -4.38942986109112, 40.351765405196446 ], [ -4.38942986109112, 40.352638520255709 ], [ -4.388689645123613, 40.352638520255709 ], [ -4.388689645123613, 40.353075073546165 ], [ -4.387949429156103, 40.353075073546165 ], [ -4.387949429156103, 40.35351162401048 ], [ -4.387209213188596, 40.35351162401048 ], [ -4.387209213188596, 40.353948171648675 ], [ -4.386468997221087, 40.353948171648675 ], [ -4.386468997221087, 40.354384716460721 ], [ -4.385728781253579, 40.354384716460721 ], [ -4.385728781253579, 40.355257797606349 ], [ -4.38498856528607, 40.355257797606349 ], [ -4.38498856528607, 40.355694333939923 ], [ -4.384248349318561, 40.355694333939923 ], [ -4.384248349318561, 40.356130867447327 ], [ -4.383508133351054, 40.356130867447327 ], [ -4.383508133351054, 40.356567398128547 ], [ -4.382767917383545, 40.356567398128547 ], [ -4.382767917383545, 40.357440451012444 ], [ -4.382027701416037, 40.357440451012444 ], [ -4.382027701416037, 40.357876973215085 ], [ -4.381287485448529, 40.357876973215085 ], [ -4.381287485448529, 40.358313492591527 ], [ -4.380547269481021, 40.358313492591527 ], [ -4.380547269481021, 40.358750009141751 ], [ -4.379807053513512, 40.358750009141751 ], [ -4.379807053513512, 40.359623033763548 ], [ -4.379066837546004, 40.359623033763548 ], [ -4.379066837546004, 40.360059541835085 ], [ -4.378326621578496, 40.360059541835085 ], [ -4.378326621578496, 40.360496047080389 ], [ -4.377586405610987, 40.360496047080389 ], [ -4.377586405610987, 40.361369049092247 ], [ -4.376846189643478, 40.361369049092247 ], [ -4.376846189643478, 40.361805545858779 ], [ -4.37610597367597, 40.361805545858779 ], [ -4.37610597367597, 40.362678530913037 ], [ -4.375365757708462, 40.362678530913037 ], [ -4.375365757708462, 40.363115019200748 ], [ -4.374625541740953, 40.363115019200748 ], [ -4.374625541740953, 40.363551504662162 ], [ -4.373885325773445, 40.363551504662162 ], [ -4.373885325773445, 40.364424467106097 ], [ -4.373145109805937, 40.364424467106097 ], [ -4.373145109805937, 40.364860944088605 ], [ -4.372404893838429, 40.364860944088605 ], [ -4.372404893838429, 40.365733889574642 ], [ -4.37166467787092, 40.365733889574642 ], [ -4.37166467787092, 40.366170358078165 ], [ -4.370924461903412, 40.366170358078165 ], [ -4.370924461903412, 40.366606823755355 ], [ -4.370184245935904, 40.366606823755355 ], [ -4.370184245935904, 40.367479746630671 ], [ -4.369444029968395, 40.367479746630671 ], [ -4.369444029968395, 40.367916203828798 ], [ -4.368703814000887, 40.367916203828798 ], [ -4.368703814000887, 40.368789109745933 ], [ -4.367963598033378, 40.368789109745933 ], [ -4.367963598033378, 40.369225558464919 ], [ -4.36722338206587, 40.369225558464919 ], [ -4.36722338206587, 40.369662004357529 ], [ -4.366483166098361, 40.369662004357529 ], [ -4.366483166098361, 40.370098447423743 ], [ -4.365742950130853, 40.370098447423743 ], [ -4.365742950130853, 40.370971325076951 ], [ -4.365002734163346, 40.370971325076951 ], [ -4.365002734163346, 40.371407759663931 ], [ -4.364262518195837, 40.371407759663931 ], [ -4.364262518195837, 40.371844191424493 ], [ -4.363522302228329, 40.371844191424493 ], [ -4.363522302228329, 40.372280620358616 ], [ -4.36278208626082, 40.372280620358616 ], [ -4.36278208626082, 40.372717046466299 ], [ -4.362041870293312, 40.372717046466299 ], [ -4.362041870293312, 40.37315346974755 ], [ -4.361301654325804, 40.37315346974755 ], [ -4.361301654325804, 40.373589890202332 ], [ -4.360561438358295, 40.373589890202332 ], [ -4.360561438358295, 40.374026307830668 ], [ -4.359081006423278, 40.374026307830668 ], [ -4.359081006423278, 40.374462722632536 ], [ -4.35834079045577, 40.374462722632536 ], [ -4.35834079045577, 40.374899134607922 ], [ -4.357600574488262, 40.374899134607922 ], [ -4.357600574488262, 40.377081152087541 ], [ -4.35834079045577, 40.377081152087541 ], [ -4.35834079045577, 40.381008605479778 ], [ -4.357600574488262, 40.381008605479778 ], [ -4.357600574488262, 40.382754066830046 ], [ -4.356860358520753, 40.382754066830046 ], [ -4.356860358520753, 40.383626780545562 ], [ -4.355379926585737, 40.383626780545562 ], [ -4.355379926585737, 40.383190425101112 ], [ -4.353899494650721, 40.383190425101112 ], [ -4.353899494650721, 40.382754066830046 ], [ -4.352419062715704, 40.382754066830046 ] ] ] ] } }
]
}
