{
"type": "FeatureCollection",
"name": "spain_fires_modis_ba",
"crs": { "type": "name", "properties": { "name": "urn:ogc:def:crs:OGC:1.3:CRS84" } },
"features": [
{ "type": "Feature", "properties": { }, "geometry": { "type": "MultiPolygon", "coordinates": [ [ [ [ -0.495153656029773, 39.780090612121249 ], [ -0.495153656029773, 39.779650371367353 ], [ -0.493673224094756, 39.779650371367353 ], [ -0.493673224094756, 39.779210127797171 ], [ -0.492192792159739, 39.779210127797171 ], [ -0.492192792159739, 39.778769881410675 ], [ -0.491452576192231, 39.778769881410675 ], [ -0.491452576192231, 39.777889380188824 ], [ -0.490712360224723, 39.777889380188824 ], [ -0.490712360224723, 39.776568607234019 ], [ -0.489972144257214, 39.776568607234019 ], [ -0.489972144257214, 39.775688077849544 ], [ -0.489231928289706, 39.775688077849544 ], [ -0.489231928289706, 39.775247808932953 ], [ -0.488491712322198, 39.775247808932953 ], [ -0.488491712322198, 39.774367262651104 ], [ -0.487751496354689, 39.774367262651104 ], [ -0.487751496354689, 39.773926985285861 ], [ -0.487011280387181, 39.773926985285861 ], [ -0.487011280387181, 39.769964362270507 ], [ -0.487751496354689, 39.769964362270507 ], [ -0.487751496354689, 39.769083748400568 ], [ -0.488491712322198, 39.769083748400568 ], [ -0.488491712322198, 39.768643437241423 ], [ -0.489231928289706, 39.768643437241423 ], [ -0.489231928289706, 39.769083748400568 ], [ -0.490712360224723, 39.769083748400568 ], [ -0.490712360224723, 39.769524056743599 ], [ -0.491452576192231, 39.769524056743599 ], [ -0.491452576192231, 39.771285261954425 ], [ -0.490712360224723, 39.771285261954425 ], [ -0.490712360224723, 39.773926985285861 ], [ -0.491452576192231, 39.773926985285861 ], [ -0.491452576192231, 39.77480753720014 ], [ -0.492192792159739, 39.77480753720014 ], [ -0.492192792159739, 39.775247808932953 ], [ -0.496634087964789, 39.775247808932953 ], [ -0.496634087964789, 39.777449125353485 ], [ -0.495893871997281, 39.777449125353485 ], [ -0.495893871997281, 39.780090612121249 ], [ -0.495153656029773, 39.780090612121249 ] ] ], [ [ [ -7.588643272662142, 41.759897355907803 ], [ -7.588643272662142, 41.760324668269959 ], [ -7.587903056694633, 41.760324668269959 ], [ -7.587903056694633, 41.759897355907803 ], [ -7.588643272662142, 41.759897355907803 ] ] ], [ [ [ -7.587903056694633, 41.760324668269959 ], [ -7.587903056694633, 41.760751977786661 ], [ -7.587162840727125, 41.760751977786661 ], [ -7.587162840727125, 41.760324668269959 ], [ -7.587903056694633, 41.760324668269959 ] ] ] ] } }
]
}
