{
"type": "FeatureCollection",
"name": "spain_fires_nrt_ba",
"crs": { "type": "name", "properties": { "name": "urn:ogc:def:crs:OGC:1.3:CRS84" } },
"features": [
{ "type": "Feature", "properties": { }, "geometry": { "type": "MultiPolygon", "coordinates": [ [ [ [ -0.271608433842256, 35.536475034994524 ], [ -0.270128001907239, 35.536475034994524 ], [ -0.270128001907239, 35.536008878650335 ], [ -0.269387785939731, 35.536008878650335 ], [ -0.269387785939731, 35.535542719597274 ], [ -0.268647569972222, 35.535542719597274 ], [ -0.268647569972222, 35.534144226185013 ], [ -0.267907354004714, 35.534144226185013 ], [ -0.267907354004714, 35.532279530378716 ], [ -0.267167138037206, 35.532279530378716 ], [ -0.267167138037206, 35.530880980082081 ], [ -0.267907354004714, 35.530880980082081 ], [ -0.267907354004714, 35.529016208431422 ], [ -0.268647569972222, 35.529016208431422 ], [ -0.268647569972222, 35.527617601252622 ], [ -0.269387785939731, 35.527617601252622 ], [ -0.269387785939731, 35.527151393442459 ], [ -0.270128001907239, 35.527151393442459 ], [ -0.270128001907239, 35.526685182923728 ], [ -0.270868217874747, 35.526685182923728 ], [ -0.270868217874747, 35.52621896969643 ], [ -0.271608433842256, 35.52621896969643 ], [ -0.271608433842256, 35.525286535116166 ], [ -0.272348649809764, 35.525286535116166 ], [ -0.272348649809764, 35.524820313763243 ], [ -0.273088865777272, 35.524820313763243 ], [ -0.273088865777272, 35.524354089701824 ], [ -0.273829081744781, 35.524354089701824 ], [ -0.273829081744781, 35.523887862931907 ], [ -0.275309513679797, 35.523887862931907 ], [ -0.275309513679797, 35.523421633453495 ], [ -0.277530161582322, 35.523421633453495 ], [ -0.277530161582322, 35.522955401266628 ], [ -0.279010593517339, 35.522955401266628 ], [ -0.279010593517339, 35.523421633453495 ], [ -0.279750809484847, 35.523421633453495 ], [ -0.279750809484847, 35.523887862931907 ], [ -0.280491025452356, 35.523887862931907 ], [ -0.280491025452356, 35.524354089701824 ], [ -0.281231241419864, 35.524354089701824 ], [ -0.281231241419864, 35.524820313763243 ], [ -0.281971457387372, 35.524820313763243 ], [ -0.281971457387372, 35.525286535116166 ], [ -0.282711673354881, 35.525286535116166 ], [ -0.282711673354881, 35.52621896969643 ], [ -0.283451889322389, 35.52621896969643 ], [ -0.283451889322389, 35.526685182923728 ], [ -0.284192105289897, 35.526685182923728 ], [ -0.284192105289897, 35.530414791232431 ], [ -0.283451889322389, 35.530414791232431 ], [ -0.283451889322389, 35.53321188369943 ], [ -0.282711673354881, 35.53321188369943 ], [ -0.282711673354881, 35.533678056296615 ], [ -0.281971457387372, 35.533678056296615 ], [ -0.281971457387372, 35.534610393364595 ], [ -0.281231241419864, 35.534610393364595 ], [ -0.281231241419864, 35.53507655783536 ], [ -0.280491025452356, 35.53507655783536 ], [ -0.280491025452356, 35.536008878650335 ], [ -0.279750809484847, 35.536008878650335 ], [ -0.279750809484847, 35.536475034994524 ], [ -0.279010593517339, 35.536475034994524 ], [ -0.279010593517339, 35.536941188629832 ], [ -0.278270377549831, 35.536941188629832 ], [ -0.278270377549831, 35.537407339556246 ], [ -0.276789945614814, 35.537407339556246 ], [ -0.276789945614814, 35.537873487773723 ], [ -0.273829081744781, 35.537873487773723 ], [ -0.273829081744781, 35.537407339556246 ], [ -0.273088865777272, 35.537407339556246 ], [ -0.273088865777272, 35.536941188629832 ], [ -0.271608433842256, 35.536941188629832 ], [ -0.271608433842256, 35.536475034994524 ] ] ], [ [ [ -0.336007223015481, 35.813357220769255 ], [ -0.335267007047972, 35.813357220769255 ], [ -0.335267007047972, 35.812892678855093 ], [ -0.334526791080464, 35.812892678855093 ], [ -0.334526791080464, 35.811963586873631 ], [ -0.333786575112956, 35.811963586873631 ], [ -0.333786575112956, 35.811499036806339 ], [ -0.333046359145447, 35.811499036806339 ], [ -0.333046359145447, 35.809640809360559 ], [ -0.333786575112956, 35.809640809360559 ], [ -0.333786575112956, 35.805924224024189 ], [ -0.334526791080464, 35.805924224024189 ], [ -0.334526791080464, 35.80220746476764 ], [ -0.335267007047972, 35.80220746476764 ], [ -0.335267007047972, 35.801742857632192 ], [ -0.336007223015481, 35.801742857632192 ], [ -0.336007223015481, 35.801278247779365 ], [ -0.336747438982989, 35.801278247779365 ], [ -0.336747438982989, 35.800813635209181 ], [ -0.337487654950497, 35.800813635209181 ], [ -0.337487654950497, 35.800349019921647 ], [ -0.338227870918006, 35.800349019921647 ], [ -0.338227870918006, 35.799884401916799 ], [ -0.338968086885514, 35.799884401916799 ], [ -0.338968086885514, 35.799419781194644 ], [ -0.341928950755547, 35.799419781194644 ], [ -0.341928950755547, 35.799884401916799 ], [ -0.342669166723056, 35.799884401916799 ], [ -0.342669166723056, 35.800349019921647 ], [ -0.344149598658072, 35.800349019921647 ], [ -0.344149598658072, 35.800813635209181 ], [ -0.344889814625581, 35.800813635209181 ], [ -0.344889814625581, 35.801278247779365 ], [ -0.346370246560597, 35.801278247779365 ], [ -0.346370246560597, 35.801742857632192 ], [ -0.347110462528106, 35.801742857632192 ], [ -0.347110462528106, 35.80220746476764 ], [ -0.348590894463122, 35.80220746476764 ], [ -0.348590894463122, 35.802672069185711 ], [ -0.350811542365647, 35.802672069185711 ], [ -0.350811542365647, 35.80220746476764 ], [ -0.353032190268173, 35.80220746476764 ], [ -0.353032190268173, 35.801742857632192 ], [ -0.355252838170697, 35.801742857632192 ], [ -0.355252838170697, 35.802672069185711 ], [ -0.355993054138206, 35.802672069185711 ], [ -0.355993054138206, 35.803601269869652 ], [ -0.356733270105714, 35.803601269869652 ], [ -0.356733270105714, 35.804065866135467 ], [ -0.357473486073222, 35.804065866135467 ], [ -0.357473486073222, 35.809640809360559 ], [ -0.356733270105714, 35.809640809360559 ], [ -0.356733270105714, 35.810105370298473 ], [ -0.355993054138206, 35.810105370298473 ], [ -0.355993054138206, 35.811034484021377 ], [ -0.355252838170697, 35.811034484021377 ], [ -0.355252838170697, 35.811499036806339 ], [ -0.354512622203189, 35.811499036806339 ], [ -0.354512622203189, 35.811963586873631 ], [ -0.350811542365647, 35.811963586873631 ], [ -0.350811542365647, 35.812892678855093 ], [ -0.350071326398139, 35.812892678855093 ], [ -0.350071326398139, 35.813821759965677 ], [ -0.349331110430631, 35.813821759965677 ], [ -0.349331110430631, 35.814750830205249 ], [ -0.348590894463122, 35.814750830205249 ], [ -0.348590894463122, 35.815679889573708 ], [ -0.337487654950497, 35.815679889573708 ], [ -0.337487654950497, 35.814750830205249 ], [ -0.336747438982989, 35.814750830205249 ], [ -0.336747438982989, 35.814286296444358 ], [ -0.336007223015481, 35.814286296444358 ], [ -0.336007223015481, 35.813357220769255 ] ] ], [ [ [ -0.276789945614814, 35.824505411354338 ], [ -0.276049729647306, 35.824505411354338 ], [ -0.276049729647306, 35.824040934669902 ], [ -0.274569297712289, 35.824040934669902 ], [ -0.274569297712289, 35.8235764552674 ], [ -0.272348649809764, 35.8235764552674 ], [ -0.272348649809764, 35.82311197314683 ], [ -0.270128001907239, 35.82311197314683 ], [ -0.270128001907239, 35.822647488308213 ], [ -0.267167138037206, 35.822647488308213 ], [ -0.267167138037206, 35.822183000751579 ], [ -0.264946490134681, 35.822183000751579 ], [ -0.264946490134681, 35.821718510476927 ], [ -0.262725842232156, 35.821718510476927 ], [ -0.262725842232156, 35.821254017484272 ], [ -0.260505194329631, 35.821254017484272 ], [ -0.260505194329631, 35.820789521773627 ], [ -0.259764978362122, 35.820789521773627 ], [ -0.259764978362122, 35.819860522198454 ], [ -0.259024762394614, 35.819860522198454 ], [ -0.259024762394614, 35.81939601833394 ], [ -0.258284546427106, 35.81939601833394 ], [ -0.258284546427106, 35.818467002451158 ], [ -0.257544330459597, 35.818467002451158 ], [ -0.257544330459597, 35.818002490432896 ], [ -0.256804114492089, 35.818002490432896 ], [ -0.256804114492089, 35.81753797569678 ], [ -0.253843250622056, 35.81753797569678 ], [ -0.253843250622056, 35.817073458242774 ], [ -0.252362818687039, 35.817073458242774 ], [ -0.252362818687039, 35.816608938070921 ], [ -0.251622602719531, 35.816608938070921 ], [ -0.251622602719531, 35.816144415181228 ], [ -0.250882386752022, 35.816144415181228 ], [ -0.250882386752022, 35.815215361248384 ], [ -0.250142170784514, 35.815215361248384 ], [ -0.250142170784514, 35.814750830205249 ], [ -0.249401954817006, 35.814750830205249 ], [ -0.249401954817006, 35.814286296444358 ], [ -0.248661738849497, 35.814286296444358 ], [ -0.248661738849497, 35.813357220769255 ], [ -0.247921522881989, 35.813357220769255 ], [ -0.247921522881989, 35.812892678855093 ], [ -0.247181306914481, 35.812892678855093 ], [ -0.247181306914481, 35.812428134223211 ], [ -0.244220443044447, 35.812428134223211 ], [ -0.244220443044447, 35.811963586873631 ], [ -0.243480227076939, 35.811963586873631 ], [ -0.243480227076939, 35.812428134223211 ], [ -0.242740011109431, 35.812428134223211 ], [ -0.242740011109431, 35.813357220769255 ], [ -0.241999795141922, 35.813357220769255 ], [ -0.241999795141922, 35.814286296444358 ], [ -0.241259579174414, 35.814286296444358 ], [ -0.241259579174414, 35.814750830205249 ], [ -0.239779147239397, 35.814750830205249 ], [ -0.239779147239397, 35.815215361248384 ], [ -0.238298715304381, 35.815215361248384 ], [ -0.238298715304381, 35.815679889573708 ], [ -0.237558499336872, 35.815679889573708 ], [ -0.237558499336872, 35.816144415181228 ], [ -0.235337851434347, 35.816144415181228 ], [ -0.235337851434347, 35.815679889573708 ], [ -0.233117203531822, 35.815679889573708 ], [ -0.233117203531822, 35.815215361248384 ], [ -0.231636771596806, 35.815215361248384 ], [ -0.231636771596806, 35.814750830205249 ], [ -0.230896555629297, 35.814750830205249 ], [ -0.230896555629297, 35.813357220769255 ], [ -0.230156339661789, 35.813357220769255 ], [ -0.230156339661789, 35.812428134223211 ], [ -0.229416123694281, 35.812428134223211 ], [ -0.229416123694281, 35.811034484021377 ], [ -0.228675907726772, 35.811034484021377 ], [ -0.228675907726772, 35.810105370298473 ], [ -0.227935691759264, 35.810105370298473 ], [ -0.227935691759264, 35.809176245705025 ], [ -0.227195475791756, 35.809176245705025 ], [ -0.227195475791756, 35.80731796390701 ], [ -0.227935691759264, 35.80731796390701 ], [ -0.227935691759264, 35.805924224024189 ], [ -0.228675907726772, 35.805924224024189 ], [ -0.228675907726772, 35.804530459683846 ], [ -0.229416123694281, 35.804530459683846 ], [ -0.229416123694281, 35.803601269869652 ], [ -0.230156339661789, 35.803601269869652 ], [ -0.230156339661789, 35.803136670886389 ], [ -0.230896555629297, 35.803136670886389 ], [ -0.230896555629297, 35.802672069185711 ], [ -0.231636771596806, 35.802672069185711 ], [ -0.231636771596806, 35.80220746476764 ], [ -0.232376987564314, 35.80220746476764 ], [ -0.232376987564314, 35.801742857632192 ], [ -0.237558499336872, 35.801742857632192 ], [ -0.237558499336872, 35.80220746476764 ], [ -0.238298715304381, 35.80220746476764 ], [ -0.238298715304381, 35.802672069185711 ], [ -0.239038931271889, 35.802672069185711 ], [ -0.239038931271889, 35.800813635209181 ], [ -0.239779147239397, 35.800813635209181 ], [ -0.239779147239397, 35.799884401916799 ], [ -0.240519363206906, 35.799884401916799 ], [ -0.240519363206906, 35.799419781194644 ], [ -0.241259579174414, 35.799419781194644 ], [ -0.241259579174414, 35.798955157755167 ], [ -0.242740011109431, 35.798955157755167 ], [ -0.242740011109431, 35.798490531598425 ], [ -0.245700874979464, 35.798490531598425 ], [ -0.245700874979464, 35.798955157755167 ], [ -0.247921522881989, 35.798955157755167 ], [ -0.247921522881989, 35.799419781194644 ], [ -0.249401954817006, 35.799419781194644 ], [ -0.249401954817006, 35.799884401916799 ], [ -0.250882386752022, 35.799884401916799 ], [ -0.250882386752022, 35.799419781194644 ], [ -0.252362818687039, 35.799419781194644 ], [ -0.252362818687039, 35.798955157755167 ], [ -0.253843250622056, 35.798955157755167 ], [ -0.253843250622056, 35.798490531598425 ], [ -0.255323682557072, 35.798490531598425 ], [ -0.255323682557072, 35.798025902724412 ], [ -0.261245410297139, 35.798025902724412 ], [ -0.261245410297139, 35.798490531598425 ], [ -0.266426922069697, 35.798490531598425 ], [ -0.266426922069697, 35.799419781194644 ], [ -0.267167138037206, 35.799419781194644 ], [ -0.267167138037206, 35.799884401916799 ], [ -0.267907354004714, 35.799884401916799 ], [ -0.267907354004714, 35.800349019921647 ], [ -0.268647569972222, 35.800349019921647 ], [ -0.268647569972222, 35.801278247779365 ], [ -0.269387785939731, 35.801278247779365 ], [ -0.269387785939731, 35.801742857632192 ], [ -0.270128001907239, 35.801742857632192 ], [ -0.270128001907239, 35.80220746476764 ], [ -0.270868217874747, 35.80220746476764 ], [ -0.270868217874747, 35.803136670886389 ], [ -0.271608433842256, 35.803136670886389 ], [ -0.271608433842256, 35.803601269869652 ], [ -0.272348649809764, 35.803601269869652 ], [ -0.272348649809764, 35.804530459683846 ], [ -0.273088865777272, 35.804530459683846 ], [ -0.273088865777272, 35.804995050514783 ], [ -0.273829081744781, 35.804995050514783 ], [ -0.273829081744781, 35.804065866135467 ], [ -0.274569297712289, 35.804065866135467 ], [ -0.274569297712289, 35.803136670886389 ], [ -0.275309513679797, 35.803136670886389 ], [ -0.275309513679797, 35.80220746476764 ], [ -0.276049729647306, 35.80220746476764 ], [ -0.276049729647306, 35.801742857632192 ], [ -0.276789945614814, 35.801742857632192 ], [ -0.276789945614814, 35.801278247779365 ], [ -0.278270377549831, 35.801278247779365 ], [ -0.278270377549831, 35.800813635209181 ], [ -0.279010593517339, 35.800813635209181 ], [ -0.279010593517339, 35.800349019921647 ], [ -0.280491025452356, 35.800349019921647 ], [ -0.280491025452356, 35.800813635209181 ], [ -0.281231241419864, 35.800813635209181 ], [ -0.281231241419864, 35.801278247779365 ], [ -0.282711673354881, 35.801278247779365 ], [ -0.282711673354881, 35.801742857632192 ], [ -0.283451889322389, 35.801742857632192 ], [ -0.283451889322389, 35.80220746476764 ], [ -0.284192105289897, 35.80220746476764 ], [ -0.284192105289897, 35.805459638628236 ], [ -0.284932321257406, 35.805459638628236 ], [ -0.284932321257406, 35.809640809360559 ], [ -0.285672537224914, 35.809640809360559 ], [ -0.285672537224914, 35.813821759965677 ], [ -0.286412753192422, 35.813821759965677 ], [ -0.286412753192422, 35.818467002451158 ], [ -0.287152969159931, 35.818467002451158 ], [ -0.287152969159931, 35.821254017484272 ], [ -0.286412753192422, 35.821254017484272 ], [ -0.286412753192422, 35.822183000751579 ], [ -0.285672537224914, 35.822183000751579 ], [ -0.285672537224914, 35.822647488308213 ], [ -0.284932321257406, 35.822647488308213 ], [ -0.284932321257406, 35.82311197314683 ], [ -0.284192105289897, 35.82311197314683 ], [ -0.284192105289897, 35.8235764552674 ], [ -0.283451889322389, 35.8235764552674 ], [ -0.283451889322389, 35.824040934669902 ], [ -0.282711673354881, 35.824040934669902 ], [ -0.282711673354881, 35.824505411354338 ], [ -0.281971457387372, 35.824505411354338 ], [ -0.281971457387372, 35.824969885320684 ], [ -0.281231241419864, 35.824969885320684 ], [ -0.281231241419864, 35.82543435656892 ], [ -0.280491025452356, 35.82543435656892 ], [ -0.280491025452356, 35.825898825099053 ], [ -0.278270377549831, 35.825898825099053 ], [ -0.278270377549831, 35.82543435656892 ], [ -0.277530161582322, 35.82543435656892 ], [ -0.277530161582322, 35.824969885320684 ], [ -0.276789945614814, 35.824969885320684 ], [ -0.276789945614814, 35.824505411354338 ] ] ], [ [ [ -2.537409510385267, 36.98356956834958 ], [ -2.532227998612709, 36.98356956834958 ], [ -2.532227998612709, 36.98265436692035 ], [ -2.531487782645201, 36.98265436692035 ], [ -2.531487782645201, 36.981281544134276 ], [ -2.530747566677692, 36.981281544134276 ], [ -2.530747566677692, 36.980366315182174 ], [ -2.530007350710184, 36.980366315182174 ], [ -2.530007350710184, 36.978993451112245 ], [ -2.529267134742675, 36.978993451112245 ], [ -2.529267134742675, 36.978535824251175 ], [ -2.528526918775167, 36.978535824251175 ], [ -2.528526918775167, 36.978078194637902 ], [ -2.527786702807659, 36.978078194637902 ], [ -2.527786702807659, 36.977620562272463 ], [ -2.52704648684015, 36.977620562272463 ], [ -2.52704648684015, 36.977162927154851 ], [ -2.526306270872642, 36.977162927154851 ], [ -2.526306270872642, 36.976705289285078 ], [ -2.525566054905134, 36.976705289285078 ], [ -2.525566054905134, 36.975790005289142 ], [ -2.524825838937625, 36.975790005289142 ], [ -2.524825838937625, 36.975332359162977 ], [ -2.524085622970117, 36.975332359162977 ], [ -2.524085622970117, 36.971213420184398 ], [ -2.524825838937625, 36.971213420184398 ], [ -2.524825838937625, 36.970298070139158 ], [ -2.525566054905134, 36.970298070139158 ], [ -2.525566054905134, 36.96984039098858 ], [ -2.526306270872642, 36.96984039098858 ], [ -2.526306270872642, 36.968925024431591 ], [ -2.52704648684015, 36.968925024431591 ], [ -2.52704648684015, 36.968467337025196 ], [ -2.535929078450251, 36.968467337025196 ], [ -2.535929078450251, 36.968009646866889 ], [ -2.536669294417759, 36.968009646866889 ], [ -2.536669294417759, 36.966636559880605 ], [ -2.538889942320284, 36.966636559880605 ], [ -2.538889942320284, 36.96617885871477 ], [ -2.541110590222809, 36.96617885871477 ], [ -2.541110590222809, 36.96572115479708 ], [ -2.544071454092842, 36.96572115479708 ], [ -2.544071454092842, 36.966636559880605 ], [ -2.54481167006035, 36.966636559880605 ], [ -2.54481167006035, 36.96709425829458 ], [ -2.545551886027859, 36.96709425829458 ], [ -2.545551886027859, 36.968009646866889 ], [ -2.546292101995367, 36.968009646866889 ], [ -2.546292101995367, 36.973501747137441 ], [ -2.545551886027859, 36.973501747137441 ], [ -2.545551886027859, 36.974874710284716 ], [ -2.546292101995367, 36.974874710284716 ], [ -2.546292101995367, 36.975332359162977 ], [ -2.547032317962876, 36.975332359162977 ], [ -2.547032317962876, 36.975790005289142 ], [ -2.547772533930384, 36.975790005289142 ], [ -2.547772533930384, 36.977162927154851 ], [ -2.548512749897892, 36.977162927154851 ], [ -2.548512749897892, 36.980366315182174 ], [ -2.547772533930384, 36.980366315182174 ], [ -2.547772533930384, 36.981739154481922 ], [ -2.547032317962876, 36.981739154481922 ], [ -2.547032317962876, 36.98265436692035 ], [ -2.546292101995367, 36.98265436692035 ], [ -2.546292101995367, 36.984027164935689 ], [ -2.545551886027859, 36.984027164935689 ], [ -2.545551886027859, 36.984484758769455 ], [ -2.543331238125334, 36.984484758769455 ], [ -2.543331238125334, 36.984027164935689 ], [ -2.537409510385267, 36.984027164935689 ], [ -2.537409510385267, 36.98356956834958 ] ] ], [ [ [ -5.271027078393547, 37.643733352854674 ], [ -5.270286862426038, 37.643733352854674 ], [ -5.270286862426038, 37.642826153387979 ], [ -5.26954664645853, 37.642826153387979 ], [ -5.26954664645853, 37.641918942842075 ], [ -5.268806430491021, 37.641918942842075 ], [ -5.268806430491021, 37.641465333414438 ], [ -5.268066214523513, 37.641465333414438 ], [ -5.268066214523513, 37.640558106249891 ], [ -5.267325998556005, 37.640558106249891 ], [ -5.267325998556005, 37.635114510607224 ], [ -5.268066214523513, 37.635114510607224 ], [ -5.268066214523513, 37.634207205891755 ], [ -5.268806430491021, 37.634207205891755 ], [ -5.268806430491021, 37.633299890097938 ], [ -5.26954664645853, 37.633299890097938 ], [ -5.26954664645853, 37.632846228046695 ], [ -5.270286862426038, 37.632846228046695 ], [ -5.270286862426038, 37.632392563225885 ], [ -5.272507510328563, 37.632392563225885 ], [ -5.272507510328563, 37.631031552146304 ], [ -5.273247726296072, 37.631031552146304 ], [ -5.273247726296072, 37.628763144957091 ], [ -5.27398794226358, 37.628763144957091 ], [ -5.27398794226358, 37.628309455210868 ], [ -5.274728158231087, 37.628309455210868 ], [ -5.274728158231087, 37.627855762695212 ], [ -5.276208590166105, 37.627855762695212 ], [ -5.276208590166105, 37.627402067410131 ], [ -5.278429238068631, 37.627402067410131 ], [ -5.278429238068631, 37.626948369355638 ], [ -5.279169454036139, 37.626948369355638 ], [ -5.279169454036139, 37.625133549443802 ], [ -5.279909670003646, 37.625133549443802 ], [ -5.279909670003646, 37.624679837542431 ], [ -5.280649885971155, 37.624679837542431 ], [ -5.280649885971155, 37.624226122871733 ], [ -5.281390101938664, 37.624226122871733 ], [ -5.281390101938664, 37.62377240543168 ], [ -5.282870533873679, 37.62377240543168 ], [ -5.282870533873679, 37.623318685222316 ], [ -5.285091181776204, 37.623318685222316 ], [ -5.285091181776204, 37.62377240543168 ], [ -5.286571613711222, 37.62377240543168 ], [ -5.286571613711222, 37.624226122871733 ], [ -5.28731182967873, 37.624226122871733 ], [ -5.28731182967873, 37.624679837542431 ], [ -5.288052045646239, 37.624679837542431 ], [ -5.288052045646239, 37.625133549443802 ], [ -5.288792261613747, 37.625133549443802 ], [ -5.288792261613747, 37.626040964938475 ], [ -5.289532477581255, 37.626040964938475 ], [ -5.289532477581255, 37.626948369355638 ], [ -5.290272693548763, 37.626948369355638 ], [ -5.290272693548763, 37.627855762695212 ], [ -5.291012909516271, 37.627855762695212 ], [ -5.291012909516271, 37.632392563225885 ], [ -5.29175312548378, 37.632392563225885 ], [ -5.29175312548378, 37.640104488512996 ], [ -5.291012909516271, 37.640104488512996 ], [ -5.291012909516271, 37.641011721217041 ], [ -5.290272693548763, 37.641011721217041 ], [ -5.290272693548763, 37.641465333414438 ], [ -5.289532477581255, 37.641465333414438 ], [ -5.289532477581255, 37.642372549499918 ], [ -5.288792261613747, 37.642372549499918 ], [ -5.288792261613747, 37.642826153387979 ], [ -5.286571613711222, 37.642826153387979 ], [ -5.286571613711222, 37.643279754506224 ], [ -5.284350965808697, 37.643279754506224 ], [ -5.284350965808697, 37.643733352854674 ], [ -5.282130317906171, 37.643733352854674 ], [ -5.282130317906171, 37.644186948433287 ], [ -5.279909670003646, 37.644186948433287 ], [ -5.279909670003646, 37.644640541242069 ], [ -5.277689022101121, 37.644640541242069 ], [ -5.277689022101121, 37.645094131281006 ], [ -5.275468374198597, 37.645094131281006 ], [ -5.275468374198597, 37.64554771855007 ], [ -5.271767294361055, 37.64554771855007 ], [ -5.271767294361055, 37.644640541242069 ], [ -5.271027078393547, 37.644640541242069 ], [ -5.271027078393547, 37.643733352854674 ] ] ], [ [ [ -4.422739579628995, 41.991934896219995 ], [ -4.421999363661487, 41.991934896219995 ], [ -4.421999363661487, 41.991509129617434 ], [ -4.421259147693979, 41.991509129617434 ], [ -4.421259147693979, 41.990657587868476 ], [ -4.42051893172647, 41.990657587868476 ], [ -4.42051893172647, 41.990231812722101 ], [ -4.419778715758961, 41.990231812722101 ], [ -4.419778715758961, 41.989806034727778 ], [ -4.419038499791453, 41.989806034727778 ], [ -4.419038499791453, 41.988954470195374 ], [ -4.418298283823946, 41.988954470195374 ], [ -4.418298283823946, 41.9885286836573 ], [ -4.417558067856437, 41.9885286836573 ], [ -4.417558067856437, 41.988102894271307 ], [ -4.416817851888928, 41.988102894271307 ], [ -4.416817851888928, 41.987251306955599 ], [ -4.41607763592142, 41.987251306955599 ], [ -4.41607763592142, 41.986825509025898 ], [ -4.415337419953912, 41.986825509025898 ], [ -4.415337419953912, 41.982567373095364 ], [ -4.41607763592142, 41.982567373095364 ], [ -4.41607763592142, 41.981715711734914 ], [ -4.416817851888928, 41.981715711734914 ], [ -4.416817851888928, 41.980438198335428 ], [ -4.417558067856437, 41.980438198335428 ], [ -4.417558067856437, 41.979586508496631 ], [ -4.418298283823946, 41.979586508496631 ], [ -4.418298283823946, 41.978734807266555 ], [ -4.419038499791453, 41.978734807266555 ], [ -4.419038499791453, 41.977457234062875 ], [ -4.419778715758961, 41.977457234062875 ], [ -4.419778715758961, 41.976605504354772 ], [ -4.42051893172647, 41.976605504354772 ], [ -4.42051893172647, 41.975753763255511 ], [ -4.421259147693979, 41.975753763255511 ], [ -4.421259147693979, 41.975327888434215 ], [ -4.423479795596504, 41.975327888434215 ], [ -4.423479795596504, 41.974902010765142 ], [ -4.433102603174112, 41.974902010765142 ], [ -4.433102603174112, 41.975327888434215 ], [ -4.43384281914162, 41.975327888434215 ], [ -4.43384281914162, 41.976179635229038 ], [ -4.434583035109129, 41.976179635229038 ], [ -4.434583035109129, 41.977031370632723 ], [ -4.435323251076637, 41.977031370632723 ], [ -4.435323251076637, 41.977883094645236 ], [ -4.436063467044145, 41.977883094645236 ], [ -4.436063467044145, 41.977457234062875 ], [ -4.436803683011654, 41.977457234062875 ], [ -4.436803683011654, 41.977031370632723 ], [ -4.437543898979161, 41.977031370632723 ], [ -4.437543898979161, 41.976605504354772 ], [ -4.43828411494667, 41.976605504354772 ], [ -4.43828411494667, 41.976179635229038 ], [ -4.439024330914179, 41.976179635229038 ], [ -4.439024330914179, 41.975753763255511 ], [ -4.439764546881687, 41.975753763255511 ], [ -4.439764546881687, 41.975327888434215 ], [ -4.440504762849196, 41.975327888434215 ], [ -4.440504762849196, 41.974902010765142 ], [ -4.441244978816703, 41.974902010765142 ], [ -4.441244978816703, 41.974476130248298 ], [ -4.441985194784213, 41.974476130248298 ], [ -4.441985194784213, 41.974050246883685 ], [ -4.44272541075172, 41.974050246883685 ], [ -4.44272541075172, 41.973624360671323 ], [ -4.443465626719228, 41.973624360671323 ], [ -4.443465626719228, 41.973198471611191 ], [ -4.444946058654245, 41.973198471611191 ], [ -4.444946058654245, 41.973624360671323 ], [ -4.446426490589261, 41.973624360671323 ], [ -4.446426490589261, 41.974050246883685 ], [ -4.44716670655677, 41.974050246883685 ], [ -4.44716670655677, 41.974476130248298 ], [ -4.447906922524279, 41.974476130248298 ], [ -4.447906922524279, 41.974902010765142 ], [ -4.448647138491787, 41.974902010765142 ], [ -4.448647138491787, 41.977457234062875 ], [ -4.449387354459295, 41.977457234062875 ], [ -4.449387354459295, 41.981289876782917 ], [ -4.448647138491787, 41.981289876782917 ], [ -4.448647138491787, 41.981715711734914 ], [ -4.447906922524279, 41.981715711734914 ], [ -4.447906922524279, 41.982141543839049 ], [ -4.44716670655677, 41.982141543839049 ], [ -4.44716670655677, 41.982993199503817 ], [ -4.446426490589261, 41.982993199503817 ], [ -4.446426490589261, 41.983419023064414 ], [ -4.445686274621754, 41.983419023064414 ], [ -4.445686274621754, 41.983844843777156 ], [ -4.444946058654245, 41.983844843777156 ], [ -4.444946058654245, 41.984270661642022 ], [ -4.444205842686737, 41.984270661642022 ], [ -4.444205842686737, 41.985122288828173 ], [ -4.443465626719228, 41.985122288828173 ], [ -4.443465626719228, 41.98554809814943 ], [ -4.44272541075172, 41.98554809814943 ], [ -4.44272541075172, 41.98597390462281 ], [ -4.440504762849196, 41.98597390462281 ], [ -4.440504762849196, 41.98554809814943 ], [ -4.437543898979161, 41.98554809814943 ], [ -4.437543898979161, 41.987677102037409 ], [ -4.436803683011654, 41.987677102037409 ], [ -4.436803683011654, 41.988954470195374 ], [ -4.436063467044145, 41.988954470195374 ], [ -4.436063467044145, 41.989806034727778 ], [ -4.435323251076637, 41.989806034727778 ], [ -4.435323251076637, 41.990657587868476 ], [ -4.434583035109129, 41.990657587868476 ], [ -4.434583035109129, 41.991509129617434 ], [ -4.43384281914162, 41.991509129617434 ], [ -4.43384281914162, 41.992360659974615 ], [ -4.430141739304079, 41.992360659974615 ], [ -4.430141739304079, 41.992786420881281 ], [ -4.423479795596504, 41.992786420881281 ], [ -4.423479795596504, 41.992360659974615 ], [ -4.422739579628995, 41.992360659974615 ], [ -4.422739579628995, 41.991934896219995 ] ] ], [ [ [ -3.978609999123995, 42.201490946274554 ], [ -3.977869783156486, 42.201490946274554 ], [ -3.977869783156486, 42.201066584238532 ], [ -3.977129567188978, 42.201066584238532 ], [ -3.977129567188978, 42.200642219352446 ], [ -3.976389351221469, 42.200642219352446 ], [ -3.976389351221469, 42.200217851616301 ], [ -3.975649135253961, 42.200217851616301 ], [ -3.975649135253961, 42.199793481030106 ], [ -3.973428487351436, 42.199793481030106 ], [ -3.973428487351436, 42.19936910759386 ], [ -3.971207839448912, 42.19936910759386 ], [ -3.971207839448912, 42.198944731307563 ], [ -3.970467623481403, 42.198944731307563 ], [ -3.970467623481403, 42.19936910759386 ], [ -3.968987191546386, 42.19936910759386 ], [ -3.968987191546386, 42.199793481030106 ], [ -3.968246975578877, 42.199793481030106 ], [ -3.968246975578877, 42.200217851616301 ], [ -3.965286111708844, 42.200217851616301 ], [ -3.965286111708844, 42.199793481030106 ], [ -3.964545895741336, 42.199793481030106 ], [ -3.964545895741336, 42.19936910759386 ], [ -3.963065463806319, 42.19936910759386 ], [ -3.963065463806319, 42.198944731307563 ], [ -3.962325247838812, 42.198944731307563 ], [ -3.962325247838812, 42.197247197661987 ], [ -3.961585031871303, 42.197247197661987 ], [ -3.961585031871303, 42.195549618415988 ], [ -3.960844815903795, 42.195549618415988 ], [ -3.960844815903795, 42.194700811692918 ], [ -3.961585031871303, 42.194700811692918 ], [ -3.961585031871303, 42.193003164046779 ], [ -3.962325247838812, 42.193003164046779 ], [ -3.962325247838812, 42.191305470800884 ], [ -3.963065463806319, 42.191305470800884 ], [ -3.963065463806319, 42.190881040364488 ], [ -3.965286111708844, 42.190881040364488 ], [ -3.965286111708844, 42.190456607078112 ], [ -3.96750675961137, 42.190456607078112 ], [ -3.96750675961137, 42.190032170941791 ], [ -3.968246975578877, 42.190032170941791 ], [ -3.968246975578877, 42.18918329011926 ], [ -3.968987191546386, 42.18918329011926 ], [ -3.968987191546386, 42.188334397896945 ], [ -3.969727407513894, 42.188334397896945 ], [ -3.969727407513894, 42.187485494274874 ], [ -3.970467623481403, 42.187485494274874 ], [ -3.970467623481403, 42.186636579253083 ], [ -3.971207839448912, 42.186636579253083 ], [ -3.971207839448912, 42.1857876528316 ], [ -3.971948055416419, 42.1857876528316 ], [ -3.971948055416419, 42.185363185345985 ], [ -3.973428487351436, 42.185363185345985 ], [ -3.973428487351436, 42.1857876528316 ], [ -3.976389351221469, 42.1857876528316 ], [ -3.976389351221469, 42.186212117467306 ], [ -3.977869783156486, 42.186212117467306 ], [ -3.977869783156486, 42.186636579253083 ], [ -3.978609999123995, 42.186636579253083 ], [ -3.978609999123995, 42.187909947510882 ], [ -3.979350215091503, 42.187909947510882 ], [ -3.979350215091503, 42.18918329011926 ], [ -3.980090431059011, 42.18918329011926 ], [ -3.980090431059011, 42.190456607078112 ], [ -3.98083064702652, 42.190456607078112 ], [ -3.98083064702652, 42.191729898387329 ], [ -3.981570862994028, 42.191729898387329 ], [ -3.981570862994028, 42.192578745010273 ], [ -3.982311078961537, 42.192578745010273 ], [ -3.982311078961537, 42.193003164046779 ], [ -3.983051294929045, 42.193003164046779 ], [ -3.983051294929045, 42.193851993569837 ], [ -3.983791510896553, 42.193851993569837 ], [ -3.983791510896553, 42.194276404056374 ], [ -3.984531726864061, 42.194276404056374 ], [ -3.984531726864061, 42.194700811692918 ], [ -3.98527194283157, 42.194700811692918 ], [ -3.98527194283157, 42.195125216479454 ], [ -3.986012158799078, 42.195125216479454 ], [ -3.986012158799078, 42.196398413739026 ], [ -3.98527194283157, 42.196398413739026 ], [ -3.98527194283157, 42.200217851616301 ], [ -3.984531726864061, 42.200217851616301 ], [ -3.984531726864061, 42.201490946274554 ], [ -3.983791510896553, 42.201490946274554 ], [ -3.983791510896553, 42.201915305460496 ], [ -3.982311078961537, 42.201915305460496 ], [ -3.982311078961537, 42.202339661796387 ], [ -3.981570862994028, 42.202339661796387 ], [ -3.981570862994028, 42.20276401528217 ], [ -3.979350215091503, 42.20276401528217 ], [ -3.979350215091503, 42.202339661796387 ], [ -3.978609999123995, 42.202339661796387 ], [ -3.978609999123995, 42.201490946274554 ] ] ], [ [ [ -5.723299034541139, 43.536112471851069 ], [ -5.72255881857363, 43.536112471851069 ], [ -5.72255881857363, 43.535281900557365 ], [ -5.721818602606122, 43.535281900557365 ], [ -5.721818602606122, 43.533205422273518 ], [ -5.721078386638613, 43.533205422273518 ], [ -5.721078386638613, 43.527390902703871 ], [ -5.720338170671106, 43.527390902703871 ], [ -5.720338170671106, 43.521991204041377 ], [ -5.719597954703597, 43.521991204041377 ], [ -5.719597954703597, 43.520745051096618 ], [ -5.720338170671106, 43.520745051096618 ], [ -5.720338170671106, 43.520329661061893 ], [ -5.721078386638613, 43.520329661061893 ], [ -5.721078386638613, 43.519914268167263 ], [ -5.721818602606122, 43.519914268167263 ], [ -5.721818602606122, 43.519498872412733 ], [ -5.72255881857363, 43.519498872412733 ], [ -5.72255881857363, 43.518668072323983 ], [ -5.723299034541139, 43.518668072323983 ], [ -5.723299034541139, 43.518252667989771 ], [ -5.724039250508648, 43.518252667989771 ], [ -5.724039250508648, 43.517837260795666 ], [ -5.724779466476156, 43.517837260795666 ], [ -5.724779466476156, 43.51742185074167 ], [ -5.725519682443664, 43.51742185074167 ], [ -5.725519682443664, 43.517006437827789 ], [ -5.726259898411173, 43.517006437827789 ], [ -5.726259898411173, 43.516175603420372 ], [ -5.727000114378681, 43.516175603420372 ], [ -5.727000114378681, 43.515760181926844 ], [ -5.727740330346189, 43.515760181926844 ], [ -5.727740330346189, 43.51534475757343 ], [ -5.728480546313697, 43.51534475757343 ], [ -5.728480546313697, 43.514929330360154 ], [ -5.729960978248714, 43.514929330360154 ], [ -5.729960978248714, 43.51534475757343 ], [ -5.732181626151239, 43.51534475757343 ], [ -5.732181626151239, 43.515760181926844 ], [ -5.735142490021273, 43.515760181926844 ], [ -5.735142490021273, 43.516175603420372 ], [ -5.73662292195629, 43.516175603420372 ], [ -5.73662292195629, 43.516591022054023 ], [ -5.737363137923798, 43.516591022054023 ], [ -5.737363137923798, 43.517837260795666 ], [ -5.738103353891305, 43.517837260795666 ], [ -5.738103353891305, 43.518668072323983 ], [ -5.739583785826321, 43.518668072323983 ], [ -5.739583785826321, 43.519083473798304 ], [ -5.74032400179383, 43.519083473798304 ], [ -5.74032400179383, 43.519498872412733 ], [ -5.741804433728848, 43.519498872412733 ], [ -5.741804433728848, 43.519914268167263 ], [ -5.742544649696356, 43.519914268167263 ], [ -5.742544649696356, 43.520329661061893 ], [ -5.743284865663864, 43.520329661061893 ], [ -5.743284865663864, 43.522821958371658 ], [ -5.744025081631372, 43.522821958371658 ], [ -5.744025081631372, 43.526975558427864 ], [ -5.743284865663864, 43.526975558427864 ], [ -5.743284865663864, 43.527806244119944 ], [ -5.742544649696356, 43.527806244119944 ], [ -5.742544649696356, 43.528636918372264 ], [ -5.741804433728848, 43.528636918372264 ], [ -5.741804433728848, 43.529467581184797 ], [ -5.741064217761339, 43.529467581184797 ], [ -5.741064217761339, 43.530298232557548 ], [ -5.74032400179383, 43.530298232557548 ], [ -5.74032400179383, 43.531128872490477 ], [ -5.739583785826321, 43.531128872490477 ], [ -5.739583785826321, 43.53237481094019 ], [ -5.738843569858814, 43.53237481094019 ], [ -5.738843569858814, 43.533205422273518 ], [ -5.738103353891305, 43.533205422273518 ], [ -5.738103353891305, 43.53403602216698 ], [ -5.737363137923798, 43.53403602216698 ], [ -5.737363137923798, 43.534866610620547 ], [ -5.735142490021273, 43.534866610620547 ], [ -5.735142490021273, 43.535281900557365 ], [ -5.733662058086256, 43.535281900557365 ], [ -5.733662058086256, 43.535697187634213 ], [ -5.732181626151239, 43.535697187634213 ], [ -5.732181626151239, 43.536112471851069 ], [ -5.730701194216222, 43.536112471851069 ], [ -5.730701194216222, 43.536527753207956 ], [ -5.729220762281205, 43.536527753207956 ], [ -5.729220762281205, 43.536943031704851 ], [ -5.727740330346189, 43.536943031704851 ], [ -5.727740330346189, 43.537358307341755 ], [ -5.725519682443664, 43.537358307341755 ], [ -5.725519682443664, 43.537773580118674 ], [ -5.724779466476156, 43.537773580118674 ], [ -5.724779466476156, 43.537358307341755 ], [ -5.724039250508648, 43.537358307341755 ], [ -5.724039250508648, 43.536943031704851 ], [ -5.723299034541139, 43.536943031704851 ], [ -5.723299034541139, 43.536112471851069 ] ] ], [ [ [ -5.840993373374964, 43.550230433520795 ], [ -5.840253157407456, 43.550230433520795 ], [ -5.840253157407456, 43.549815246544526 ], [ -5.839512941439948, 43.549815246544526 ], [ -5.839512941439948, 43.549400056708208 ], [ -5.838032509504931, 43.549400056708208 ], [ -5.838032509504931, 43.548984864011857 ], [ -5.837292293537423, 43.548984864011857 ], [ -5.837292293537423, 43.548569668455436 ], [ -5.834331429667389, 43.548569668455436 ], [ -5.834331429667389, 43.54815447003898 ], [ -5.831370565797356, 43.54815447003898 ], [ -5.831370565797356, 43.54773926876247 ], [ -5.827669485959815, 43.54773926876247 ], [ -5.827669485959815, 43.547324064625933 ], [ -5.826929269992306, 43.547324064625933 ], [ -5.826929269992306, 43.546493647772721 ], [ -5.826189054024797, 43.546493647772721 ], [ -5.826189054024797, 43.545663219479366 ], [ -5.82544883805729, 43.545663219479366 ], [ -5.82544883805729, 43.544832779745889 ], [ -5.824708622089781, 43.544832779745889 ], [ -5.824708622089781, 43.544002328572311 ], [ -5.823968406122273, 43.544002328572311 ], [ -5.823968406122273, 43.543587098695482 ], [ -5.823228190154764, 43.543587098695482 ], [ -5.823228190154764, 43.542756630361758 ], [ -5.822487974187256, 43.542756630361758 ], [ -5.822487974187256, 43.54192615058799 ], [ -5.821007542252239, 43.54192615058799 ], [ -5.821007542252239, 43.541510906411077 ], [ -5.819527110317222, 43.541510906411077 ], [ -5.819527110317222, 43.541095659374164 ], [ -5.817306462414698, 43.541095659374164 ], [ -5.817306462414698, 43.540680409477226 ], [ -5.816566246447189, 43.540680409477226 ], [ -5.816566246447189, 43.539434642626411 ], [ -5.815826030479681, 43.539434642626411 ], [ -5.815826030479681, 43.537773580118674 ], [ -5.815085814512173, 43.537773580118674 ], [ -5.815085814512173, 43.536527753207956 ], [ -5.815826030479681, 43.536527753207956 ], [ -5.815826030479681, 43.535281900557365 ], [ -5.816566246447189, 43.535281900557365 ], [ -5.816566246447189, 43.53403602216698 ], [ -5.817306462414698, 43.53403602216698 ], [ -5.817306462414698, 43.533205422273518 ], [ -5.818046678382206, 43.533205422273518 ], [ -5.818046678382206, 43.531959500983589 ], [ -5.823968406122273, 43.531959500983589 ], [ -5.823968406122273, 43.53237481094019 ], [ -5.828409701927322, 43.53237481094019 ], [ -5.828409701927322, 43.531959500983589 ], [ -5.829149917894831, 43.531959500983589 ], [ -5.829149917894831, 43.531544188167018 ], [ -5.830630349829847, 43.531544188167018 ], [ -5.830630349829847, 43.531128872490477 ], [ -5.832110781764865, 43.531128872490477 ], [ -5.832110781764865, 43.531544188167018 ], [ -5.832850997732372, 43.531544188167018 ], [ -5.832850997732372, 43.531959500983589 ], [ -5.833591213699881, 43.531959500983589 ], [ -5.833591213699881, 43.53237481094019 ], [ -5.834331429667389, 43.53237481094019 ], [ -5.834331429667389, 43.532790118036843 ], [ -5.835071645634897, 43.532790118036843 ], [ -5.835071645634897, 43.533205422273518 ], [ -5.841733589342473, 43.533205422273518 ], [ -5.841733589342473, 43.534451317823752 ], [ -5.842473805309981, 43.534451317823752 ], [ -5.842473805309981, 43.535697187634213 ], [ -5.843214021277489, 43.535697187634213 ], [ -5.843214021277489, 43.536527753207956 ], [ -5.843954237244998, 43.536527753207956 ], [ -5.843954237244998, 43.537773580118674 ], [ -5.844694453212505, 43.537773580118674 ], [ -5.844694453212505, 43.538188850035603 ], [ -5.846174885147523, 43.538188850035603 ], [ -5.846174885147523, 43.53860411709254 ], [ -5.847655317082539, 43.53860411709254 ], [ -5.847655317082539, 43.539019381289471 ], [ -5.849875964985064, 43.539019381289471 ], [ -5.849875964985064, 43.540265156720295 ], [ -5.850616180952573, 43.540265156720295 ], [ -5.850616180952573, 43.54192615058799 ], [ -5.85135639692008, 43.54192615058799 ], [ -5.85135639692008, 43.544832779745889 ], [ -5.850616180952573, 43.544832779745889 ], [ -5.850616180952573, 43.54773926876247 ], [ -5.849875964985064, 43.54773926876247 ], [ -5.849875964985064, 43.549400056708208 ], [ -5.849135749017555, 43.549400056708208 ], [ -5.849135749017555, 43.549815246544526 ], [ -5.848395533050048, 43.549815246544526 ], [ -5.848395533050048, 43.550230433520795 ], [ -5.847655317082539, 43.550230433520795 ], [ -5.847655317082539, 43.550645617637002 ], [ -5.846174885147523, 43.550645617637002 ], [ -5.846174885147523, 43.551060798893154 ], [ -5.845434669180014, 43.551060798893154 ], [ -5.845434669180014, 43.551475977289243 ], [ -5.843214021277489, 43.551475977289243 ], [ -5.843214021277489, 43.551060798893154 ], [ -5.842473805309981, 43.551060798893154 ], [ -5.842473805309981, 43.550645617637002 ], [ -5.840993373374964, 43.550645617637002 ], [ -5.840993373374964, 43.550230433520795 ] ] ], [ [ [ 3.655237273789457, 35.101312819228376 ], [ 3.655977489756966, 35.101312819228376 ], [ 3.655977489756966, 35.100375473232141 ], [ 3.656717705724474, 35.100375473232141 ], [ 3.656717705724474, 35.09943811645816 ], [ 3.657457921691982, 35.09943811645816 ], [ 3.657457921691982, 35.098500748906595 ], [ 3.658198137659491, 35.098500748906595 ], [ 3.658198137659491, 35.097563370577554 ], [ 3.658938353626999, 35.097563370577554 ], [ 3.658938353626999, 35.09615728287649 ], [ 3.659678569594507, 35.09615728287649 ], [ 3.659678569594507, 35.095219877604315 ], [ 3.660418785562016, 35.095219877604315 ], [ 3.660418785562016, 35.094282461555089 ], [ 3.661159001529524, 35.094282461555089 ], [ 3.661159001529524, 35.093345034728976 ], [ 3.661899217497032, 35.093345034728976 ], [ 3.661899217497032, 35.09100142051556 ], [ 3.661159001529524, 35.09100142051556 ], [ 3.661159001529524, 35.089595219658008 ], [ 3.660418785562016, 35.089595219658008 ], [ 3.660418785562016, 35.087720247464397 ], [ 3.659678569594507, 35.087720247464397 ], [ 3.659678569594507, 35.086313990032096 ], [ 3.658938353626999, 35.086313990032096 ], [ 3.658938353626999, 35.08490770835418 ], [ 3.658198137659491, 35.08490770835418 ], [ 3.658198137659491, 35.083032628402336 ], [ 3.657457921691982, 35.083032628402336 ], [ 3.657457921691982, 35.082563851679723 ], [ 3.656717705724474, 35.082563851679723 ], [ 3.656717705724474, 35.082095072263279 ], [ 3.655977489756966, 35.082095072263279 ], [ 3.655977489756966, 35.081157505348969 ], [ 3.655237273789457, 35.081157505348969 ], [ 3.655237273789457, 35.080688717851132 ], [ 3.654497057821949, 35.080688717851132 ], [ 3.654497057821949, 35.080219927659535 ], [ 3.653756841854441, 35.080219927659535 ], [ 3.653756841854441, 35.079751134774185 ], [ 3.653016625886933, 35.079751134774185 ], [ 3.653016625886933, 35.079282339195103 ], [ 3.652276409919424, 35.079282339195103 ], [ 3.652276409919424, 35.078813540922297 ], [ 3.651536193951916, 35.078813540922297 ], [ 3.651536193951916, 35.07834473995581 ], [ 3.650795977984408, 35.07834473995581 ], [ 3.650795977984408, 35.077875936295619 ], [ 3.650055762016899, 35.077875936295619 ], [ 3.650055762016899, 35.077407129941768 ], [ 3.64931554604939, 35.077407129941768 ], [ 3.64931554604939, 35.07693832089425 ], [ 3.647094898146866, 35.07693832089425 ], [ 3.647094898146866, 35.077407129941768 ], [ 3.645614466211849, 35.077407129941768 ], [ 3.645614466211849, 35.077875936295619 ], [ 3.644874250244341, 35.077875936295619 ], [ 3.644874250244341, 35.07834473995581 ], [ 3.644134034276833, 35.07834473995581 ], [ 3.644134034276833, 35.079282339195103 ], [ 3.643393818309324, 35.079282339195103 ], [ 3.643393818309324, 35.080219927659535 ], [ 3.642653602341816, 35.080219927659535 ], [ 3.642653602341816, 35.081157505348969 ], [ 3.641913386374307, 35.081157505348969 ], [ 3.641913386374307, 35.083032628402336 ], [ 3.641173170406799, 35.083032628402336 ], [ 3.641173170406799, 35.085845232166726 ], [ 3.640432954439291, 35.085845232166726 ], [ 3.640432954439291, 35.089595219658008 ], [ 3.641173170406799, 35.089595219658008 ], [ 3.641173170406799, 35.091470148746538 ], [ 3.641913386374307, 35.091470148746538 ], [ 3.641913386374307, 35.093345034728976 ], [ 3.642653602341816, 35.093345034728976 ], [ 3.642653602341816, 35.093813749489144 ], [ 3.643393818309324, 35.093813749489144 ], [ 3.643393818309324, 35.094282461555089 ], [ 3.644134034276833, 35.094282461555089 ], [ 3.644134034276833, 35.09475117092682 ], [ 3.645614466211849, 35.09475117092682 ], [ 3.645614466211849, 35.09615728287649 ], [ 3.646354682179358, 35.09615728287649 ], [ 3.646354682179358, 35.098500748906595 ], [ 3.647094898146866, 35.098500748906595 ], [ 3.647094898146866, 35.100375473232141 ], [ 3.647835114114375, 35.100375473232141 ], [ 3.647835114114375, 35.101312819228376 ], [ 3.648575330081883, 35.101312819228376 ], [ 3.648575330081883, 35.101781488184805 ], [ 3.650055762016899, 35.101781488184805 ], [ 3.650055762016899, 35.102250154446757 ], [ 3.650795977984408, 35.102250154446757 ], [ 3.650795977984408, 35.10271881801421 ], [ 3.653016625886933, 35.10271881801421 ], [ 3.653016625886933, 35.102250154446757 ], [ 3.653756841854441, 35.102250154446757 ], [ 3.653756841854441, 35.101781488184805 ], [ 3.655237273789457, 35.101781488184805 ], [ 3.655237273789457, 35.101312819228376 ] ] ], [ [ [ 1.245834299549829, 36.134167771051025 ], [ 1.246574515517338, 36.134167771051025 ], [ 1.246574515517338, 36.13370511326643 ], [ 1.247314731484846, 36.13370511326643 ], [ 1.247314731484846, 36.132779789514281 ], [ 1.248054947452355, 36.132779789514281 ], [ 1.248054947452355, 36.132317123546741 ], [ 1.248795163419863, 36.132317123546741 ], [ 1.248795163419863, 36.131391783428839 ], [ 1.249535379387371, 36.131391783428839 ], [ 1.249535379387371, 36.126764919186158 ], [ 1.248795163419863, 36.126764919186158 ], [ 1.248795163419863, 36.126302217760696 ], [ 1.248054947452355, 36.126302217760696 ], [ 1.248054947452355, 36.125839513607794 ], [ 1.247314731484846, 36.125839513607794 ], [ 1.247314731484846, 36.125376806727459 ], [ 1.246574515517338, 36.125376806727459 ], [ 1.246574515517338, 36.124451384784592 ], [ 1.245834299549829, 36.124451384784592 ], [ 1.245834299549829, 36.123988669722088 ], [ 1.245094083582321, 36.123988669722088 ], [ 1.245094083582321, 36.123525951932208 ], [ 1.244353867614813, 36.123525951932208 ], [ 1.244353867614813, 36.122600508170429 ], [ 1.243613651647304, 36.122600508170429 ], [ 1.243613651647304, 36.122137782198543 ], [ 1.240652787777271, 36.122137782198543 ], [ 1.240652787777271, 36.121675053499345 ], [ 1.239912571809763, 36.121675053499345 ], [ 1.239912571809763, 36.122137782198543 ], [ 1.238432139874746, 36.122137782198543 ], [ 1.238432139874746, 36.123063231414996 ], [ 1.237691923907238, 36.123063231414996 ], [ 1.237691923907238, 36.123525951932208 ], [ 1.236951707939729, 36.123525951932208 ], [ 1.236951707939729, 36.123988669722088 ], [ 1.236211491972221, 36.123988669722088 ], [ 1.236211491972221, 36.124451384784592 ], [ 1.235471276004713, 36.124451384784592 ], [ 1.235471276004713, 36.124914097119721 ], [ 1.234731060037205, 36.124914097119721 ], [ 1.234731060037205, 36.125839513607794 ], [ 1.233990844069696, 36.125839513607794 ], [ 1.233990844069696, 36.133242452754182 ], [ 1.234731060037205, 36.133242452754182 ], [ 1.234731060037205, 36.13370511326643 ], [ 1.235471276004713, 36.13370511326643 ], [ 1.235471276004713, 36.13463042610794 ], [ 1.236211491972221, 36.13463042610794 ], [ 1.236211491972221, 36.135555728038689 ], [ 1.24139300374478, 36.135555728038689 ], [ 1.24139300374478, 36.136018374912496 ], [ 1.244353867614813, 36.136018374912496 ], [ 1.244353867614813, 36.135555728038689 ], [ 1.245094083582321, 36.135555728038689 ], [ 1.245094083582321, 36.135093078437173 ], [ 1.245834299549829, 36.135093078437173 ], [ 1.245834299549829, 36.134167771051025 ] ] ], [ [ [ 2.933526705468831, 36.143882954412867 ], [ 2.933526705468831, 36.142957750683983 ], [ 2.93426692143634, 36.142957750683983 ], [ 2.93426692143634, 36.142032536043331 ], [ 2.935007137403848, 36.142032536043331 ], [ 2.935007137403848, 36.13740629916748 ], [ 2.93426692143634, 36.13740629916748 ], [ 2.93426692143634, 36.13463042610794 ], [ 2.933526705468831, 36.13463042610794 ], [ 2.933526705468831, 36.134167771051025 ], [ 2.932786489501323, 36.134167771051025 ], [ 2.932786489501323, 36.13370511326643 ], [ 2.931306057566307, 36.13370511326643 ], [ 2.931306057566307, 36.133242452754182 ], [ 2.930565841598798, 36.133242452754182 ], [ 2.930565841598798, 36.132779789514281 ], [ 2.929085409663781, 36.132779789514281 ], [ 2.929085409663781, 36.133242452754182 ], [ 2.926864761761257, 36.133242452754182 ], [ 2.926864761761257, 36.13370511326643 ], [ 2.924644113858732, 36.13370511326643 ], [ 2.924644113858732, 36.134167771051025 ], [ 2.923163681923715, 36.134167771051025 ], [ 2.923163681923715, 36.13463042610794 ], [ 2.922423465956207, 36.13463042610794 ], [ 2.922423465956207, 36.135093078437173 ], [ 2.921683249988698, 36.135093078437173 ], [ 2.921683249988698, 36.136018374912496 ], [ 2.92094303402119, 36.136018374912496 ], [ 2.92094303402119, 36.136481019058579 ], [ 2.920202818053682, 36.136481019058579 ], [ 2.920202818053682, 36.142032536043331 ], [ 2.92094303402119, 36.142032536043331 ], [ 2.92094303402119, 36.142957750683983 ], [ 2.921683249988698, 36.142957750683983 ], [ 2.921683249988698, 36.143420353912397 ], [ 2.922423465956207, 36.143420353912397 ], [ 2.922423465956207, 36.144345552185356 ], [ 2.923163681923715, 36.144345552185356 ], [ 2.923163681923715, 36.14480814722986 ], [ 2.923903897891223, 36.14480814722986 ], [ 2.923903897891223, 36.14573332913487 ], [ 2.924644113858732, 36.14573332913487 ], [ 2.924644113858732, 36.146195915995342 ], [ 2.929085409663781, 36.146195915995342 ], [ 2.929085409663781, 36.14573332913487 ], [ 2.932046273533815, 36.14573332913487 ], [ 2.932046273533815, 36.145270739546369 ], [ 2.932786489501323, 36.145270739546369 ], [ 2.932786489501323, 36.143882954412867 ], [ 2.933526705468831, 36.143882954412867 ] ] ], [ [ [ 3.141527392338674, 36.603736188775677 ], [ 3.141527392338674, 36.603276314916315 ], [ 3.142267608306182, 36.603276314916315 ], [ 3.142267608306182, 36.602356558972815 ], [ 3.14300782427369, 36.602356558972815 ], [ 3.14300782427369, 36.601896676888721 ], [ 3.143748040241198, 36.601896676888721 ], [ 3.143748040241198, 36.600976904495894 ], [ 3.144488256208707, 36.600976904495894 ], [ 3.144488256208707, 36.595917960319227 ], [ 3.143748040241198, 36.595917960319227 ], [ 3.143748040241198, 36.594998116648675 ], [ 3.14300782427369, 36.594998116648675 ], [ 3.14300782427369, 36.594538190701364 ], [ 3.142267608306182, 36.594538190701364 ], [ 3.142267608306182, 36.593618330582743 ], [ 3.141527392338674, 36.593618330582743 ], [ 3.141527392338674, 36.592698459498877 ], [ 3.140787176371165, 36.592698459498877 ], [ 3.140787176371165, 36.591778577449873 ], [ 3.134865448631099, 36.591778577449873 ], [ 3.134865448631099, 36.592238519845012 ], [ 3.13412523266359, 36.592238519845012 ], [ 3.13412523266359, 36.592698459498877 ], [ 3.133385016696082, 36.592698459498877 ], [ 3.133385016696082, 36.593158396411461 ], [ 3.132644800728573, 36.593158396411461 ], [ 3.132644800728573, 36.593618330582743 ], [ 3.131904584761065, 36.593618330582743 ], [ 3.131904584761065, 36.594078262012708 ], [ 3.131164368793557, 36.594078262012708 ], [ 3.131164368793557, 36.594538190701364 ], [ 3.130424152826048, 36.594538190701364 ], [ 3.130424152826048, 36.595458039854627 ], [ 3.12968393685854, 36.595458039854627 ], [ 3.12968393685854, 36.595917960319227 ], [ 3.128943720891032, 36.595917960319227 ], [ 3.128943720891032, 36.601896676888721 ], [ 3.12968393685854, 36.601896676888721 ], [ 3.12968393685854, 36.602816438315351 ], [ 3.130424152826048, 36.602816438315351 ], [ 3.130424152826048, 36.603736188775677 ], [ 3.131164368793557, 36.603736188775677 ], [ 3.131164368793557, 36.604196059893432 ], [ 3.131904584761065, 36.604196059893432 ], [ 3.131904584761065, 36.604655928269572 ], [ 3.13412523266359, 36.604655928269572 ], [ 3.13412523266359, 36.605115793904091 ], [ 3.137826312501132, 36.605115793904091 ], [ 3.137826312501132, 36.605575656796958 ], [ 3.139306744436149, 36.605575656796958 ], [ 3.139306744436149, 36.605115793904091 ], [ 3.140046960403657, 36.605115793904091 ], [ 3.140046960403657, 36.604655928269572 ], [ 3.140787176371165, 36.604655928269572 ], [ 3.140787176371165, 36.603736188775677 ], [ 3.141527392338674, 36.603736188775677 ] ] ], [ [ [ 2.88985396338584, 36.610633967666281 ], [ 2.88985396338584, 36.61017413493235 ], [ 2.890594179353348, 36.61017413493235 ], [ 2.890594179353348, 36.606495374357721 ], [ 2.891334395320857, 36.606495374357721 ], [ 2.891334395320857, 36.605115793904091 ], [ 2.892814827255873, 36.605115793904091 ], [ 2.892814827255873, 36.605575656796958 ], [ 2.893555043223381, 36.605575656796958 ], [ 2.893555043223381, 36.606035516948175 ], [ 2.895035475158398, 36.606035516948175 ], [ 2.895035475158398, 36.605575656796958 ], [ 2.895775691125907, 36.605575656796958 ], [ 2.895775691125907, 36.605115793904091 ], [ 2.896515907093415, 36.605115793904091 ], [ 2.896515907093415, 36.604655928269572 ], [ 2.897256123060923, 36.604655928269572 ], [ 2.897256123060923, 36.604196059893432 ], [ 2.897996339028431, 36.604196059893432 ], [ 2.897996339028431, 36.603736188775677 ], [ 2.89873655499594, 36.603736188775677 ], [ 2.89873655499594, 36.603276314916315 ], [ 2.899476770963448, 36.603276314916315 ], [ 2.899476770963448, 36.602816438315351 ], [ 2.900216986930956, 36.602816438315351 ], [ 2.900216986930956, 36.602356558972815 ], [ 2.901697418865973, 36.602356558972815 ], [ 2.901697418865973, 36.601896676888721 ], [ 2.902437634833482, 36.601896676888721 ], [ 2.902437634833482, 36.600057121136963 ], [ 2.90317785080099, 36.600057121136963 ], [ 2.90317785080099, 36.598217521521264 ], [ 2.903918066768498, 36.598217521521264 ], [ 2.903918066768498, 36.597757614763687 ], [ 2.90317785080099, 36.597757614763687 ], [ 2.90317785080099, 36.596377878042439 ], [ 2.902437634833482, 36.596377878042439 ], [ 2.902437634833482, 36.595458039854627 ], [ 2.901697418865973, 36.595458039854627 ], [ 2.901697418865973, 36.594078262012708 ], [ 2.900957202898465, 36.594078262012708 ], [ 2.900957202898465, 36.593158396411461 ], [ 2.900216986930956, 36.593158396411461 ], [ 2.900216986930956, 36.592698459498877 ], [ 2.899476770963448, 36.592698459498877 ], [ 2.899476770963448, 36.593158396411461 ], [ 2.896515907093415, 36.593158396411461 ], [ 2.896515907093415, 36.593618330582743 ], [ 2.89429525919089, 36.593618330582743 ], [ 2.89429525919089, 36.594078262012708 ], [ 2.891334395320857, 36.594078262012708 ], [ 2.891334395320857, 36.594538190701364 ], [ 2.889113747418332, 36.594538190701364 ], [ 2.889113747418332, 36.596377878042439 ], [ 2.888373531450823, 36.596377878042439 ], [ 2.888373531450823, 36.598217521521264 ], [ 2.887633315483315, 36.598217521521264 ], [ 2.887633315483315, 36.598677425537396 ], [ 2.888373531450823, 36.598677425537396 ], [ 2.888373531450823, 36.600976904495894 ], [ 2.889113747418332, 36.600976904495894 ], [ 2.889113747418332, 36.601896676888721 ], [ 2.888373531450823, 36.601896676888721 ], [ 2.888373531450823, 36.601436792063076 ], [ 2.88541266758079, 36.601436792063076 ], [ 2.88541266758079, 36.600517014187183 ], [ 2.886152883548299, 36.600517014187183 ], [ 2.886152883548299, 36.599137326812055 ], [ 2.886893099515807, 36.599137326812055 ], [ 2.886893099515807, 36.597757614763687 ], [ 2.887633315483315, 36.597757614763687 ], [ 2.887633315483315, 36.596377878042439 ], [ 2.886893099515807, 36.596377878042439 ], [ 2.886893099515807, 36.594078262012708 ], [ 2.886152883548299, 36.594078262012708 ], [ 2.886152883548299, 36.592238519845012 ], [ 2.88541266758079, 36.592238519845012 ], [ 2.88541266758079, 36.591318632313481 ], [ 2.884672451613281, 36.591318632313481 ], [ 2.884672451613281, 36.590858684435844 ], [ 2.883932235645773, 36.590858684435844 ], [ 2.883932235645773, 36.590398733816969 ], [ 2.883192019678265, 36.590398733816969 ], [ 2.883192019678265, 36.58993878045689 ], [ 2.882451803710757, 36.58993878045689 ], [ 2.882451803710757, 36.589478824355602 ], [ 2.88097137177574, 36.589478824355602 ], [ 2.88097137177574, 36.589018865513104 ], [ 2.880231155808231, 36.589018865513104 ], [ 2.880231155808231, 36.588558903929453 ], [ 2.879490939840723, 36.588558903929453 ], [ 2.879490939840723, 36.588098939604613 ], [ 2.878010507905707, 36.588098939604613 ], [ 2.878010507905707, 36.588558903929453 ], [ 2.875049644035673, 36.588558903929453 ], [ 2.875049644035673, 36.589018865513104 ], [ 2.874309428068165, 36.589018865513104 ], [ 2.874309428068165, 36.589478824355602 ], [ 2.873569212100656, 36.589478824355602 ], [ 2.873569212100656, 36.58993878045689 ], [ 2.872828996133148, 36.58993878045689 ], [ 2.872828996133148, 36.590398733816969 ], [ 2.87208878016564, 36.590398733816969 ], [ 2.87208878016564, 36.590858684435844 ], [ 2.871348564198132, 36.590858684435844 ], [ 2.871348564198132, 36.591318632313481 ], [ 2.870608348230624, 36.591318632313481 ], [ 2.870608348230624, 36.591778577449873 ], [ 2.869868132263115, 36.591778577449873 ], [ 2.869868132263115, 36.592698459498877 ], [ 2.869127916295606, 36.592698459498877 ], [ 2.869127916295606, 36.594998116648675 ], [ 2.868387700328098, 36.594998116648675 ], [ 2.868387700328098, 36.597297705264687 ], [ 2.86764748436059, 36.597297705264687 ], [ 2.86764748436059, 36.600976904495894 ], [ 2.868387700328098, 36.600976904495894 ], [ 2.868387700328098, 36.602816438315351 ], [ 2.869127916295606, 36.602816438315351 ], [ 2.869127916295606, 36.604655928269572 ], [ 2.869868132263115, 36.604655928269572 ], [ 2.869868132263115, 36.605115793904091 ], [ 2.870608348230624, 36.605115793904091 ], [ 2.870608348230624, 36.605575656796958 ], [ 2.87208878016564, 36.605575656796958 ], [ 2.87208878016564, 36.606035516948175 ], [ 2.873569212100656, 36.606035516948175 ], [ 2.873569212100656, 36.606495374357721 ], [ 2.87653007597069, 36.606495374357721 ], [ 2.87653007597069, 36.606035516948175 ], [ 2.877270291938198, 36.606035516948175 ], [ 2.877270291938198, 36.605575656796958 ], [ 2.878010507905707, 36.605575656796958 ], [ 2.878010507905707, 36.605115793904091 ], [ 2.879490939840723, 36.605115793904091 ], [ 2.879490939840723, 36.604655928269572 ], [ 2.880231155808231, 36.604655928269572 ], [ 2.880231155808231, 36.604196059893432 ], [ 2.88097137177574, 36.604196059893432 ], [ 2.88097137177574, 36.605575656796958 ], [ 2.880231155808231, 36.605575656796958 ], [ 2.880231155808231, 36.607415080951746 ], [ 2.88097137177574, 36.607415080951746 ], [ 2.88097137177574, 36.608794620279923 ], [ 2.881711587743248, 36.608794620279923 ], [ 2.881711587743248, 36.61017413493235 ], [ 2.882451803710757, 36.61017413493235 ], [ 2.882451803710757, 36.610633967666281 ], [ 2.883192019678265, 36.610633967666281 ], [ 2.883192019678265, 36.611093797658391 ], [ 2.884672451613281, 36.611093797658391 ], [ 2.884672451613281, 36.611553624908673 ], [ 2.88541266758079, 36.611553624908673 ], [ 2.88541266758079, 36.612013449417155 ], [ 2.886893099515807, 36.612013449417155 ], [ 2.886893099515807, 36.611553624908673 ], [ 2.887633315483315, 36.611553624908673 ], [ 2.887633315483315, 36.611093797658391 ], [ 2.889113747418332, 36.611093797658391 ], [ 2.889113747418332, 36.610633967666281 ], [ 2.88985396338584, 36.610633967666281 ] ] ], [ [ [ 3.237015252147248, 36.635001178715243 ], [ 3.237015252147248, 36.634081801172542 ], [ 3.237755468114757, 36.634081801172542 ], [ 3.237755468114757, 36.633622108287483 ], [ 3.238495684082265, 36.633622108287483 ], [ 3.238495684082265, 36.632702714289934 ], [ 3.239235900049774, 36.632702714289934 ], [ 3.239235900049774, 36.627186119943595 ], [ 3.238495684082265, 36.627186119943595 ], [ 3.238495684082265, 36.626726385922929 ], [ 3.237755468114757, 36.626726385922929 ], [ 3.237755468114757, 36.625806909654813 ], [ 3.237015252147248, 36.625806909654813 ], [ 3.237015252147248, 36.624887422417736 ], [ 3.236275036179741, 36.624887422417736 ], [ 3.236275036179741, 36.624427674685869 ], [ 3.235534820212232, 36.624427674685869 ], [ 3.235534820212232, 36.623508170995557 ], [ 3.234054388277215, 36.623508170995557 ], [ 3.234054388277215, 36.623048415037132 ], [ 3.23183374037469, 36.623048415037132 ], [ 3.23183374037469, 36.622588656336532 ], [ 3.228132660537149, 36.622588656336532 ], [ 3.228132660537149, 36.623508170995557 ], [ 3.22739244456964, 36.623508170995557 ], [ 3.22739244456964, 36.623967924211811 ], [ 3.226652228602132, 36.623967924211811 ], [ 3.226652228602132, 36.624887422417736 ], [ 3.225912012634624, 36.624887422417736 ], [ 3.225912012634624, 36.625347167407384 ], [ 3.225171796667116, 36.625347167407384 ], [ 3.225171796667116, 36.626266649159994 ], [ 3.224431580699607, 36.626266649159994 ], [ 3.224431580699607, 36.627186119943595 ], [ 3.223691364732099, 36.627186119943595 ], [ 3.223691364732099, 36.63178330932265 ], [ 3.224431580699607, 36.63178330932265 ], [ 3.224431580699607, 36.632702714289934 ], [ 3.225171796667116, 36.632702714289934 ], [ 3.225171796667116, 36.633622108287483 ], [ 3.225912012634624, 36.633622108287483 ], [ 3.225912012634624, 36.634541491315147 ], [ 3.226652228602132, 36.634541491315147 ], [ 3.226652228602132, 36.635460863372849 ], [ 3.22739244456964, 36.635460863372849 ], [ 3.22739244456964, 36.636380224460474 ], [ 3.231093524407182, 36.636380224460474 ], [ 3.231093524407182, 36.635920545287931 ], [ 3.233314172309707, 36.635920545287931 ], [ 3.233314172309707, 36.635460863372849 ], [ 3.235534820212232, 36.635460863372849 ], [ 3.235534820212232, 36.635001178715243 ], [ 3.237015252147248, 36.635001178715243 ] ] ], [ [ [ 3.128943720891032, 36.687846933872635 ], [ 3.128943720891032, 36.686468809864046 ], [ 3.12968393685854, 36.686468809864046 ], [ 3.12968393685854, 36.685090661159613 ], [ 3.130424152826048, 36.685090661159613 ], [ 3.130424152826048, 36.683253091138575 ], [ 3.131164368793557, 36.683253091138575 ], [ 3.131164368793557, 36.679118398074984 ], [ 3.130424152826048, 36.679118398074984 ], [ 3.130424152826048, 36.676361812562291 ], [ 3.128943720891032, 36.676361812562291 ], [ 3.128943720891032, 36.675902372040525 ], [ 3.128203504923524, 36.675902372040525 ], [ 3.128203504923524, 36.675442928775055 ], [ 3.127463288956015, 36.675442928775055 ], [ 3.127463288956015, 36.674983482765938 ], [ 3.126723072988507, 36.674983482765938 ], [ 3.126723072988507, 36.67452403401316 ], [ 3.125982857020999, 36.67452403401316 ], [ 3.125982857020999, 36.674064582516735 ], [ 3.12524264105349, 36.674064582516735 ], [ 3.12524264105349, 36.673605128276698 ], [ 3.122281777183456, 36.673605128276698 ], [ 3.122281777183456, 36.674064582516735 ], [ 3.120801345248441, 36.674064582516735 ], [ 3.120801345248441, 36.67452403401316 ], [ 3.119320913313424, 36.67452403401316 ], [ 3.119320913313424, 36.674983482765938 ], [ 3.117840481378407, 36.674983482765938 ], [ 3.117840481378407, 36.675442928775055 ], [ 3.117100265410898, 36.675442928775055 ], [ 3.117100265410898, 36.676361812562291 ], [ 3.11636004944339, 36.676361812562291 ], [ 3.11636004944339, 36.677280685374775 ], [ 3.115619833475882, 36.677280685374775 ], [ 3.115619833475882, 36.677740117665422 ], [ 3.114879617508374, 36.677740117665422 ], [ 3.114879617508374, 36.678658974015555 ], [ 3.114139401540865, 36.678658974015555 ], [ 3.114139401540865, 36.679577819390644 ], [ 3.113399185573357, 36.679577819390644 ], [ 3.113399185573357, 36.683253091138575 ], [ 3.114139401540865, 36.683253091138575 ], [ 3.114139401540865, 36.68600942970653 ], [ 3.114879617508374, 36.68600942970653 ], [ 3.114879617508374, 36.686468809864046 ], [ 3.11636004944339, 36.686468809864046 ], [ 3.11636004944339, 36.68692818727758 ], [ 3.117840481378407, 36.68692818727758 ], [ 3.117840481378407, 36.687387561947112 ], [ 3.119320913313424, 36.687387561947112 ], [ 3.119320913313424, 36.687846933872635 ], [ 3.120801345248441, 36.687846933872635 ], [ 3.120801345248441, 36.688306303054155 ], [ 3.122281777183456, 36.688306303054155 ], [ 3.122281777183456, 36.688765669491623 ], [ 3.123762209118474, 36.688765669491623 ], [ 3.123762209118474, 36.689225033185046 ], [ 3.12524264105349, 36.689225033185046 ], [ 3.12524264105349, 36.688765669491623 ], [ 3.126723072988507, 36.688765669491623 ], [ 3.126723072988507, 36.688306303054155 ], [ 3.127463288956015, 36.688306303054155 ], [ 3.127463288956015, 36.687846933872635 ], [ 3.128943720891032, 36.687846933872635 ] ] ], [ [ [ 3.461300690302274, 36.729638290976787 ], [ 3.462040906269782, 36.729638290976787 ], [ 3.462040906269782, 36.729179168810866 ], [ 3.462781122237291, 36.729179168810866 ], [ 3.462781122237291, 36.728260916243428 ], [ 3.463521338204799, 36.728260916243428 ], [ 3.463521338204799, 36.727801785841926 ], [ 3.464261554172307, 36.727801785841926 ], [ 3.464261554172307, 36.722751170247825 ], [ 3.463521338204799, 36.722751170247825 ], [ 3.463521338204799, 36.720914500407638 ], [ 3.462781122237291, 36.720914500407638 ], [ 3.462781122237291, 36.720455326085137 ], [ 3.462040906269782, 36.720455326085137 ], [ 3.462040906269782, 36.719996149017682 ], [ 3.460560474334766, 36.719996149017682 ], [ 3.460560474334766, 36.719536969205315 ], [ 3.459820258367257, 36.719536969205315 ], [ 3.459820258367257, 36.719077786647993 ], [ 3.459080042399749, 36.719077786647993 ], [ 3.459080042399749, 36.718618601345781 ], [ 3.457599610464733, 36.718618601345781 ], [ 3.457599610464733, 36.718159413298658 ], [ 3.456859394497224, 36.718159413298658 ], [ 3.456859394497224, 36.717700222506643 ], [ 3.455378962562207, 36.717700222506643 ], [ 3.455378962562207, 36.717241028969774 ], [ 3.454638746594699, 36.717241028969774 ], [ 3.454638746594699, 36.716781832688035 ], [ 3.45389853062719, 36.716781832688035 ], [ 3.45389853062719, 36.716322633661434 ], [ 3.452418098692174, 36.716322633661434 ], [ 3.452418098692174, 36.715863431890021 ], [ 3.451677882724665, 36.715863431890021 ], [ 3.451677882724665, 36.715404227373774 ], [ 3.448717018854632, 36.715404227373774 ], [ 3.448717018854632, 36.715863431890021 ], [ 3.447976802887124, 36.715863431890021 ], [ 3.447976802887124, 36.716322633661434 ], [ 3.447236586919616, 36.716322633661434 ], [ 3.447236586919616, 36.716781832688035 ], [ 3.446496370952107, 36.716781832688035 ], [ 3.446496370952107, 36.717241028969774 ], [ 3.445756154984599, 36.717241028969774 ], [ 3.445756154984599, 36.717700222506643 ], [ 3.44501593901709, 36.717700222506643 ], [ 3.44501593901709, 36.718618601345781 ], [ 3.444275723049583, 36.718618601345781 ], [ 3.444275723049583, 36.719077786647993 ], [ 3.443535507082073, 36.719077786647993 ], [ 3.443535507082073, 36.719536969205315 ], [ 3.442795291114566, 36.719536969205315 ], [ 3.442795291114566, 36.719996149017682 ], [ 3.442055075147058, 36.719996149017682 ], [ 3.442055075147058, 36.720455326085137 ], [ 3.441314859179549, 36.720455326085137 ], [ 3.441314859179549, 36.720914500407638 ], [ 3.44057464321204, 36.720914500407638 ], [ 3.44057464321204, 36.721373671985155 ], [ 3.439834427244532, 36.721373671985155 ], [ 3.439834427244532, 36.725965236784504 ], [ 3.44057464321204, 36.725965236784504 ], [ 3.44057464321204, 36.726424378166556 ], [ 3.441314859179549, 36.726424378166556 ], [ 3.441314859179549, 36.726883516803483 ], [ 3.442055075147058, 36.726883516803483 ], [ 3.442055075147058, 36.727342652695285 ], [ 3.442795291114566, 36.727342652695285 ], [ 3.442795291114566, 36.727801785841926 ], [ 3.443535507082073, 36.727801785841926 ], [ 3.443535507082073, 36.728260916243428 ], [ 3.444275723049583, 36.728260916243428 ], [ 3.444275723049583, 36.728720043899735 ], [ 3.44501593901709, 36.728720043899735 ], [ 3.44501593901709, 36.729179168810866 ], [ 3.445756154984599, 36.729179168810866 ], [ 3.445756154984599, 36.729638290976787 ], [ 3.446496370952107, 36.729638290976787 ], [ 3.446496370952107, 36.730097410397498 ], [ 3.447236586919616, 36.730097410397498 ], [ 3.447236586919616, 36.730556527072991 ], [ 3.447976802887124, 36.730556527072991 ], [ 3.447976802887124, 36.731015641003239 ], [ 3.448717018854632, 36.731015641003239 ], [ 3.448717018854632, 36.731474752188234 ], [ 3.451677882724665, 36.731474752188234 ], [ 3.451677882724665, 36.731015641003239 ], [ 3.455378962562207, 36.731015641003239 ], [ 3.455378962562207, 36.730556527072991 ], [ 3.45833982643224, 36.730556527072991 ], [ 3.45833982643224, 36.730097410397498 ], [ 3.461300690302274, 36.730097410397498 ], [ 3.461300690302274, 36.729638290976787 ] ] ], [ [ [ 1.667017185062072, 41.319546424455204 ], [ 1.667017185062072, 41.318685952030009 ], [ 1.66775740102958, 41.318685952030009 ], [ 1.66775740102958, 41.318255711557249 ], [ 1.668497616997088, 41.318255711557249 ], [ 1.668497616997088, 41.317395222091427 ], [ 1.669237832964597, 41.317395222091427 ], [ 1.669237832964597, 41.316534721265214 ], [ 1.669978048932105, 41.316534721265214 ], [ 1.669978048932105, 41.315674209078693 ], [ 1.670718264899614, 41.315674209078693 ], [ 1.670718264899614, 41.31395315062484 ], [ 1.669978048932105, 41.31395315062484 ], [ 1.669978048932105, 41.308359396826262 ], [ 1.669237832964597, 41.308359396826262 ], [ 1.669237832964597, 41.307929088192537 ], [ 1.668497616997088, 41.307929088192537 ], [ 1.668497616997088, 41.30749877671883 ], [ 1.66775740102958, 41.30749877671883 ], [ 1.66775740102958, 41.307068462405169 ], [ 1.667017185062072, 41.307068462405169 ], [ 1.667017185062072, 41.306207825257957 ], [ 1.666276969094563, 41.306207825257957 ], [ 1.666276969094563, 41.305777502424441 ], [ 1.665536753127055, 41.305777502424441 ], [ 1.665536753127055, 41.305347176750963 ], [ 1.662575889257022, 41.305347176750963 ], [ 1.662575889257022, 41.305777502424441 ], [ 1.661095457322005, 41.305777502424441 ], [ 1.661095457322005, 41.306207825257957 ], [ 1.65887480941948, 41.306207825257957 ], [ 1.65887480941948, 41.306638145251547 ], [ 1.658134593451972, 41.306638145251547 ], [ 1.658134593451972, 41.307068462405169 ], [ 1.657394377484463, 41.307068462405169 ], [ 1.657394377484463, 41.307929088192537 ], [ 1.656654161516955, 41.307929088192537 ], [ 1.656654161516955, 41.308789702620011 ], [ 1.655913945549446, 41.308789702620011 ], [ 1.655913945549446, 41.310080602961357 ], [ 1.655173729581938, 41.310080602961357 ], [ 1.655173729581938, 41.310941188988927 ], [ 1.65443351361443, 41.310941188988927 ], [ 1.65443351361443, 41.318255711557249 ], [ 1.655173729581938, 41.318255711557249 ], [ 1.655173729581938, 41.319116189662658 ], [ 1.655913945549446, 41.319116189662658 ], [ 1.655913945549446, 41.319546424455204 ], [ 1.656654161516955, 41.319546424455204 ], [ 1.656654161516955, 41.320406885519908 ], [ 1.657394377484463, 41.320406885519908 ], [ 1.657394377484463, 41.320837111792073 ], [ 1.665536753127055, 41.320837111792073 ], [ 1.665536753127055, 41.320406885519908 ], [ 1.666276969094563, 41.320406885519908 ], [ 1.666276969094563, 41.319546424455204 ], [ 1.667017185062072, 41.319546424455204 ] ] ] ] } }
]
}
