{
"type": "FeatureCollection",
"name": "spain_fires_nrt_ba",
"crs": { "type": "name", "properties": { "name": "urn:ogc:def:crs:OGC:1.3:CRS84" } },
"features": [
{ "type": "Feature", "properties": { }, "geometry": { "type": "MultiPolygon", "coordinates": [ [ [ [ -5.653718733595356, 35.726440634648782 ], [ -5.653718733595356, 35.725975584775966 ], [ -5.652978517627846, 35.725975584775966 ], [ -5.652978517627846, 35.725045476885427 ], [ -5.652238301660338, 35.725045476885427 ], [ -5.652238301660338, 35.724115358135123 ], [ -5.651498085692831, 35.724115358135123 ], [ -5.651498085692831, 35.723185228525175 ], [ -5.650757869725322, 35.723185228525175 ], [ -5.650757869725322, 35.722720159647871 ], [ -5.650017653757813, 35.722720159647871 ], [ -5.650017653757813, 35.721790013748659 ], [ -5.649277437790306, 35.721790013748659 ], [ -5.649277437790306, 35.712487957511797 ], [ -5.650017653757813, 35.712487957511797 ], [ -5.650017653757813, 35.711557692166224 ], [ -5.650757869725322, 35.711557692166224 ], [ -5.650757869725322, 35.711092555421672 ], [ -5.651498085692831, 35.711092555421672 ], [ -5.651498085692831, 35.710627415962612 ], [ -5.652238301660338, 35.710627415962612 ], [ -5.652238301660338, 35.710162273789081 ], [ -5.652978517627846, 35.710162273789081 ], [ -5.652978517627846, 35.709697128901077 ], [ -5.653718733595356, 35.709697128901077 ], [ -5.653718733595356, 35.709231981298608 ], [ -5.654458949562865, 35.709231981298608 ], [ -5.654458949562865, 35.708766830981716 ], [ -5.655199165530372, 35.708766830981716 ], [ -5.655199165530372, 35.708301677950395 ], [ -5.655939381497881, 35.708301677950395 ], [ -5.655939381497881, 35.70783652220468 ], [ -5.657419813432897, 35.70783652220468 ], [ -5.657419813432897, 35.707371363744535 ], [ -5.659640461335422, 35.707371363744535 ], [ -5.659640461335422, 35.706906202570032 ], [ -5.661861109237947, 35.706906202570032 ], [ -5.661861109237947, 35.706441038681177 ], [ -5.664821973107981, 35.706441038681177 ], [ -5.664821973107981, 35.706906202570032 ], [ -5.665562189075489, 35.706906202570032 ], [ -5.665562189075489, 35.707371363744535 ], [ -5.666302405042998, 35.707371363744535 ], [ -5.666302405042998, 35.70783652220468 ], [ -5.667042621010506, 35.70783652220468 ], [ -5.667042621010506, 35.708301677950395 ], [ -5.667782836978014, 35.708301677950395 ], [ -5.667782836978014, 35.708766830981716 ], [ -5.668523052945521, 35.708766830981716 ], [ -5.668523052945521, 35.709231981298608 ], [ -5.66926326891303, 35.709231981298608 ], [ -5.66926326891303, 35.709697128901077 ], [ -5.670003484880539, 35.709697128901077 ], [ -5.670003484880539, 35.710162273789081 ], [ -5.670743700848047, 35.710162273789081 ], [ -5.670743700848047, 35.711092555421672 ], [ -5.671483916815555, 35.711092555421672 ], [ -5.671483916815555, 35.712487957511797 ], [ -5.672224132783064, 35.712487957511797 ], [ -5.672224132783064, 35.713883335171033 ], [ -5.672964348750573, 35.713883335171033 ], [ -5.672964348750573, 35.71853441758482 ], [ -5.672224132783064, 35.71853441758482 ], [ -5.672224132783064, 35.722720159647871 ], [ -5.671483916815555, 35.722720159647871 ], [ -5.671483916815555, 35.723650294687594 ], [ -5.670743700848047, 35.723650294687594 ], [ -5.670743700848047, 35.724115358135123 ], [ -5.670003484880539, 35.724115358135123 ], [ -5.670003484880539, 35.725045476885427 ], [ -5.661861109237947, 35.725045476885427 ], [ -5.661861109237947, 35.724580418867738 ], [ -5.661120893270438, 35.724580418867738 ], [ -5.661120893270438, 35.725045476885427 ], [ -5.66038067730293, 35.725045476885427 ], [ -5.66038067730293, 35.725975584775966 ], [ -5.659640461335422, 35.725975584775966 ], [ -5.659640461335422, 35.726440634648782 ], [ -5.658900245367914, 35.726440634648782 ], [ -5.658900245367914, 35.726905681806628 ], [ -5.654458949562865, 35.726905681806628 ], [ -5.654458949562865, 35.726440634648782 ], [ -5.653718733595356, 35.726440634648782 ] ] ], [ [ [ -3.477483789120852, 40.253904997399822 ], [ -3.477483789120852, 40.253467802761868 ], [ -3.476003357185836, 40.253467802761868 ], [ -3.476003357185836, 40.253030605299436 ], [ -3.474522925250819, 40.253030605299436 ], [ -3.474522925250819, 40.252593405012497 ], [ -3.473042493315802, 40.252593405012497 ], [ -3.473042493315802, 40.252156201901066 ], [ -3.471562061380785, 40.252156201901066 ], [ -3.471562061380785, 40.251718995965156 ], [ -3.470081629445768, 40.251718995965156 ], [ -3.470081629445768, 40.251281787204768 ], [ -3.468601197510752, 40.251281787204768 ], [ -3.468601197510752, 40.250844575619915 ], [ -3.467860981543244, 40.250844575619915 ], [ -3.467860981543244, 40.250407361210598 ], [ -3.467120765575736, 40.250407361210598 ], [ -3.467120765575736, 40.248658475328888 ], [ -3.466380549608227, 40.248658475328888 ], [ -3.466380549608227, 40.247346781261115 ], [ -3.465640333640719, 40.247346781261115 ], [ -3.465640333640719, 40.246035061773718 ], [ -3.46490011767321, 40.246035061773718 ], [ -3.46490011767321, 40.243411546540848 ], [ -3.465640333640719, 40.243411546540848 ], [ -3.465640333640719, 40.241662479898736 ], [ -3.466380549608227, 40.241662479898736 ], [ -3.466380549608227, 40.2407879296318 ], [ -3.467120765575736, 40.2407879296318 ], [ -3.467120765575736, 40.240350650261888 ], [ -3.467860981543244, 40.240350650261888 ], [ -3.467860981543244, 40.23991336806769 ], [ -3.468601197510752, 40.23991336806769 ], [ -3.468601197510752, 40.239476083049205 ], [ -3.469341413478261, 40.239476083049205 ], [ -3.469341413478261, 40.238601504539439 ], [ -3.470081629445768, 40.238601504539439 ], [ -3.470081629445768, 40.238164211048165 ], [ -3.470821845413277, 40.238164211048165 ], [ -3.470821845413277, 40.237726914732633 ], [ -3.471562061380785, 40.237726914732633 ], [ -3.471562061380785, 40.237289615592864 ], [ -3.472302277348294, 40.237289615592864 ], [ -3.472302277348294, 40.236852313628852 ], [ -3.475263141218327, 40.236852313628852 ], [ -3.475263141218327, 40.237289615592864 ], [ -3.477483789120852, 40.237289615592864 ], [ -3.477483789120852, 40.237726914732633 ], [ -3.478964221055869, 40.237726914732633 ], [ -3.478964221055869, 40.238164211048165 ], [ -3.481184868958394, 40.238164211048165 ], [ -3.481184868958394, 40.238601504539439 ], [ -3.482665300893411, 40.238601504539439 ], [ -3.482665300893411, 40.239038795206454 ], [ -3.483405516860918, 40.239038795206454 ], [ -3.483405516860918, 40.23991336806769 ], [ -3.484145732828428, 40.23991336806769 ], [ -3.484145732828428, 40.240350650261888 ], [ -3.484885948795936, 40.240350650261888 ], [ -3.484885948795936, 40.241225206177418 ], [ -3.485626164763444, 40.241225206177418 ], [ -3.485626164763444, 40.24428606291589 ], [ -3.484885948795936, 40.24428606291589 ], [ -3.484885948795936, 40.247784015441454 ], [ -3.484145732828428, 40.247784015441454 ], [ -3.484145732828428, 40.251281787204768 ], [ -3.483405516860918, 40.251281787204768 ], [ -3.483405516860918, 40.253030605299436 ], [ -3.481925084925902, 40.253030605299436 ], [ -3.481925084925902, 40.253467802761868 ], [ -3.481184868958394, 40.253467802761868 ], [ -3.481184868958394, 40.253904997399822 ], [ -3.479704437023377, 40.253904997399822 ], [ -3.479704437023377, 40.25434218921324 ], [ -3.47822400508836, 40.25434218921324 ], [ -3.47822400508836, 40.253904997399822 ], [ -3.477483789120852, 40.253904997399822 ] ] ], [ [ [ -7.673768108925601, 41.034109870899961 ], [ -7.673768108925601, 41.033677757189906 ], [ -7.671547461023076, 41.033677757189906 ], [ -7.671547461023076, 41.031949273986577 ], [ -7.670807245055567, 41.031949273986577 ], [ -7.670807245055567, 41.029788606165845 ], [ -7.670067029088058, 41.029788606165845 ], [ -7.670067029088058, 41.028924319183666 ], [ -7.66932681312055, 41.028924319183666 ], [ -7.66932681312055, 41.028492171438195 ], [ -7.668586597153041, 41.028492171438195 ], [ -7.668586597153041, 41.028060020856479 ], [ -7.667846381185534, 41.028060020856479 ], [ -7.667846381185534, 41.027627867438518 ], [ -7.667106165218026, 41.027627867438518 ], [ -7.667106165218026, 41.027195711184326 ], [ -7.664885517315501, 41.027195711184326 ], [ -7.664885517315501, 41.027627867438518 ], [ -7.659704005542943, 41.027627867438518 ], [ -7.659704005542943, 41.027195711184326 ], [ -7.658963789575433, 41.027195711184326 ], [ -7.658963789575433, 41.026763552093904 ], [ -7.658223573607924, 41.026763552093904 ], [ -7.658223573607924, 41.025899225404402 ], [ -7.657483357640417, 41.025899225404402 ], [ -7.657483357640417, 41.025034887370055 ], [ -7.656743141672909, 41.025034887370055 ], [ -7.656743141672909, 41.02287399265083 ], [ -7.657483357640417, 41.02287399265083 ], [ -7.657483357640417, 41.019416413619609 ], [ -7.658223573607924, 41.019416413619609 ], [ -7.658223573607924, 41.018119774686745 ], [ -7.658963789575433, 41.018119774686745 ], [ -7.658963789575433, 41.017687556036918 ], [ -7.659704005542943, 41.017687556036918 ], [ -7.659704005542943, 41.01682311022897 ], [ -7.66044422151045, 41.01682311022897 ], [ -7.66044422151045, 41.015958653076673 ], [ -7.661184437477959, 41.015958653076673 ], [ -7.661184437477959, 41.015094184580086 ], [ -7.661924653445467, 41.015094184580086 ], [ -7.661924653445467, 41.014661946077709 ], [ -7.662664869412974, 41.014661946077709 ], [ -7.662664869412974, 41.013797460564774 ], [ -7.663405085380483, 41.013797460564774 ], [ -7.663405085380483, 41.012932963707669 ], [ -7.664145301347991, 41.012932963707669 ], [ -7.664145301347991, 41.012068455506451 ], [ -7.664885517315501, 41.012068455506451 ], [ -7.664885517315501, 41.011636197151809 ], [ -7.66562573328301, 41.011636197151809 ], [ -7.66562573328301, 41.010771671934485 ], [ -7.666365949250517, 41.010771671934485 ], [ -7.666365949250517, 41.009907135373169 ], [ -7.667846381185534, 41.009907135373169 ], [ -7.667846381185534, 41.009474862838523 ], [ -7.670067029088058, 41.009474862838523 ], [ -7.670067029088058, 41.009042587467896 ], [ -7.672287676990583, 41.009042587467896 ], [ -7.672287676990583, 41.008610309261279 ], [ -7.674508324893108, 41.008610309261279 ], [ -7.674508324893108, 41.009042587467896 ], [ -7.675988756828125, 41.009042587467896 ], [ -7.675988756828125, 41.009474862838523 ], [ -7.676728972795632, 41.009474862838523 ], [ -7.676728972795632, 41.009907135373169 ], [ -7.678209404730651, 41.009907135373169 ], [ -7.678209404730651, 41.010339405071825 ], [ -7.678949620698158, 41.010339405071825 ], [ -7.678949620698158, 41.010771671934485 ], [ -7.680430052633175, 41.010771671934485 ], [ -7.680430052633175, 41.011203935961149 ], [ -7.681170268600684, 41.011203935961149 ], [ -7.681170268600684, 41.011636197151809 ], [ -7.681910484568193, 41.011636197151809 ], [ -7.681910484568193, 41.012068455506451 ], [ -7.682650700535701, 41.012068455506451 ], [ -7.682650700535701, 41.012932963707669 ], [ -7.683390916503209, 41.012932963707669 ], [ -7.683390916503209, 41.013797460564774 ], [ -7.684131132470718, 41.013797460564774 ], [ -7.684131132470718, 41.014229704739265 ], [ -7.684871348438225, 41.014229704739265 ], [ -7.684871348438225, 41.01682311022897 ], [ -7.685611564405734, 41.01682311022897 ], [ -7.685611564405734, 41.019848620924996 ], [ -7.686351780373242, 41.019848620924996 ], [ -7.686351780373242, 41.022441805198447 ], [ -7.687091996340749, 41.022441805198447 ], [ -7.687091996340749, 41.025467057805329 ], [ -7.687832212308258, 41.025467057805329 ], [ -7.687832212308258, 41.027195711184326 ], [ -7.687091996340749, 41.027195711184326 ], [ -7.687091996340749, 41.028924319183666 ], [ -7.686351780373242, 41.028924319183666 ], [ -7.686351780373242, 41.030220745402552 ], [ -7.685611564405734, 41.030220745402552 ], [ -7.685611564405734, 41.030652881802979 ], [ -7.683390916503209, 41.030652881802979 ], [ -7.683390916503209, 41.031085015367125 ], [ -7.681910484568193, 41.031085015367125 ], [ -7.681910484568193, 41.031517146094991 ], [ -7.681170268600684, 41.031517146094991 ], [ -7.681170268600684, 41.031949273986577 ], [ -7.680430052633175, 41.031949273986577 ], [ -7.680430052633175, 41.032813521260856 ], [ -7.679689836665667, 41.032813521260856 ], [ -7.679689836665667, 41.033677757189906 ], [ -7.678949620698158, 41.033677757189906 ], [ -7.678949620698158, 41.034541981773685 ], [ -7.675988756828125, 41.034541981773685 ], [ -7.675988756828125, 41.034109870899961 ], [ -7.673768108925601, 41.034109870899961 ] ] ], [ [ [ -6.764782900825367, 42.558635798175914 ], [ -6.764782900825367, 42.557791884978592 ], [ -6.764042684857857, 42.557791884978592 ], [ -6.764042684857857, 42.556947960367992 ], [ -6.763302468890348, 42.556947960367992 ], [ -6.763302468890348, 42.556104024344137 ], [ -6.76256225292284, 42.556104024344137 ], [ -6.76256225292284, 42.548930107335231 ], [ -6.763302468890348, 42.548930107335231 ], [ -6.763302468890348, 42.548086062886881 ], [ -6.764042684857857, 42.548086062886881 ], [ -6.764042684857857, 42.547664036382848 ], [ -6.764782900825367, 42.547664036382848 ], [ -6.764782900825367, 42.546819974815079 ], [ -6.765523116792874, 42.546819974815079 ], [ -6.765523116792874, 42.545975901834403 ], [ -6.766263332760382, 42.545975901834403 ], [ -6.766263332760382, 42.545553861064228 ], [ -6.767003548727891, 42.545553861064228 ], [ -6.767003548727891, 42.54513181744084 ], [ -6.769224196630416, 42.54513181744084 ], [ -6.769224196630416, 42.545553861064228 ], [ -6.772185060500449, 42.545553861064228 ], [ -6.772185060500449, 42.545975901834403 ], [ -6.775145924370483, 42.545975901834403 ], [ -6.775145924370483, 42.546397939751351 ], [ -6.778106788240516, 42.546397939751351 ], [ -6.778106788240516, 42.547242007025581 ], [ -6.778847004208023, 42.547242007025581 ], [ -6.778847004208023, 42.547664036382848 ], [ -6.779587220175531, 42.547664036382848 ], [ -6.779587220175531, 42.54850808653768 ], [ -6.780327436143041, 42.54850808653768 ], [ -6.780327436143041, 42.54935212527954 ], [ -6.781067652110549, 42.54935212527954 ], [ -6.781067652110549, 42.553572147793325 ], [ -6.780327436143041, 42.553572147793325 ], [ -6.780327436143041, 42.554416118056778 ], [ -6.779587220175531, 42.554416118056778 ], [ -6.779587220175531, 42.555260076907061 ], [ -6.778847004208023, 42.555260076907061 ], [ -6.778847004208023, 42.555682052052248 ], [ -6.778106788240516, 42.555682052052248 ], [ -6.778106788240516, 42.556525993782721 ], [ -6.777366572273007, 42.556525993782721 ], [ -6.777366572273007, 42.557369924099952 ], [ -6.776626356305498, 42.557369924099952 ], [ -6.776626356305498, 42.558213843003912 ], [ -6.775886140337991, 42.558213843003912 ], [ -6.775886140337991, 42.558635798175914 ], [ -6.775145924370483, 42.558635798175914 ], [ -6.775145924370483, 42.559057750494581 ], [ -6.774405708402975, 42.559057750494581 ], [ -6.774405708402975, 42.559479699959915 ], [ -6.77144484453294, 42.559479699959915 ], [ -6.77144484453294, 42.559057750494581 ], [ -6.765523116792874, 42.559057750494581 ], [ -6.765523116792874, 42.558635798175914 ], [ -6.764782900825367, 42.558635798175914 ] ] ], [ [ [ -5.724039250508648, 43.536527753207956 ], [ -5.72255881857363, 43.536527753207956 ], [ -5.72255881857363, 43.535697187634213 ], [ -5.721818602606122, 43.535697187634213 ], [ -5.721818602606122, 43.534866610620547 ], [ -5.721078386638613, 43.534866610620547 ], [ -5.721078386638613, 43.533620723650237 ], [ -5.720338170671106, 43.533620723650237 ], [ -5.720338170671106, 43.532790118036843 ], [ -5.719597954703597, 43.532790118036843 ], [ -5.719597954703597, 43.531959500983589 ], [ -5.718857738736089, 43.531959500983589 ], [ -5.718857738736089, 43.530713553953994 ], [ -5.718117522768581, 43.530713553953994 ], [ -5.718117522768581, 43.529882908301154 ], [ -5.717377306801072, 43.529882908301154 ], [ -5.717377306801072, 43.529052251208505 ], [ -5.716637090833564, 43.529052251208505 ], [ -5.716637090833564, 43.527806244119944 ], [ -5.715896874866057, 43.527806244119944 ], [ -5.715896874866057, 43.526975558427864 ], [ -5.715156658898548, 43.526975558427864 ], [ -5.715156658898548, 43.525314152724491 ], [ -5.715896874866057, 43.525314152724491 ], [ -5.715896874866057, 43.521575822586357 ], [ -5.716637090833564, 43.521575822586357 ], [ -5.716637090833564, 43.520329661061893 ], [ -5.718117522768581, 43.520329661061893 ], [ -5.718117522768581, 43.519914268167263 ], [ -5.718857738736089, 43.519914268167263 ], [ -5.718857738736089, 43.519498872412733 ], [ -5.719597954703597, 43.519498872412733 ], [ -5.719597954703597, 43.519083473798304 ], [ -5.720338170671106, 43.519083473798304 ], [ -5.720338170671106, 43.518668072323983 ], [ -5.721078386638613, 43.518668072323983 ], [ -5.721078386638613, 43.518252667989771 ], [ -5.721818602606122, 43.518252667989771 ], [ -5.721818602606122, 43.517837260795666 ], [ -5.72255881857363, 43.517837260795666 ], [ -5.72255881857363, 43.51742185074167 ], [ -5.723299034541139, 43.51742185074167 ], [ -5.723299034541139, 43.517006437827789 ], [ -5.724039250508648, 43.517006437827789 ], [ -5.724039250508648, 43.516591022054023 ], [ -5.724779466476156, 43.516591022054023 ], [ -5.724779466476156, 43.516175603420372 ], [ -5.727000114378681, 43.516175603420372 ], [ -5.727000114378681, 43.515760181926844 ], [ -5.728480546313697, 43.515760181926844 ], [ -5.728480546313697, 43.51534475757343 ], [ -5.730701194216222, 43.51534475757343 ], [ -5.730701194216222, 43.514929330360154 ], [ -5.733662058086256, 43.514929330360154 ], [ -5.733662058086256, 43.51534475757343 ], [ -5.734402274053765, 43.51534475757343 ], [ -5.734402274053765, 43.515760181926844 ], [ -5.735142490021273, 43.515760181926844 ], [ -5.735142490021273, 43.516175603420372 ], [ -5.73588270598878, 43.516175603420372 ], [ -5.73588270598878, 43.516591022054023 ], [ -5.73662292195629, 43.516591022054023 ], [ -5.73662292195629, 43.517006437827789 ], [ -5.737363137923798, 43.517006437827789 ], [ -5.737363137923798, 43.51742185074167 ], [ -5.738103353891305, 43.51742185074167 ], [ -5.738103353891305, 43.517837260795666 ], [ -5.739583785826321, 43.517837260795666 ], [ -5.739583785826321, 43.518252667989771 ], [ -5.74032400179383, 43.518252667989771 ], [ -5.74032400179383, 43.518668072323983 ], [ -5.741064217761339, 43.518668072323983 ], [ -5.741064217761339, 43.519083473798304 ], [ -5.741804433728848, 43.519083473798304 ], [ -5.741804433728848, 43.519498872412733 ], [ -5.742544649696356, 43.519498872412733 ], [ -5.742544649696356, 43.519914268167263 ], [ -5.743284865663864, 43.519914268167263 ], [ -5.743284865663864, 43.520329661061893 ], [ -5.744025081631372, 43.520329661061893 ], [ -5.744025081631372, 43.520745051096618 ], [ -5.744765297598882, 43.520745051096618 ], [ -5.744765297598882, 43.529052251208505 ], [ -5.744025081631372, 43.529052251208505 ], [ -5.744025081631372, 43.529882908301154 ], [ -5.743284865663864, 43.529882908301154 ], [ -5.743284865663864, 43.530713553953994 ], [ -5.742544649696356, 43.530713553953994 ], [ -5.742544649696356, 43.531544188167018 ], [ -5.741804433728848, 43.531544188167018 ], [ -5.741804433728848, 43.531959500983589 ], [ -5.741064217761339, 43.531959500983589 ], [ -5.741064217761339, 43.532790118036843 ], [ -5.74032400179383, 43.532790118036843 ], [ -5.74032400179383, 43.533620723650237 ], [ -5.739583785826321, 43.533620723650237 ], [ -5.739583785826321, 43.53403602216698 ], [ -5.738843569858814, 43.53403602216698 ], [ -5.738843569858814, 43.534451317823752 ], [ -5.738103353891305, 43.534451317823752 ], [ -5.738103353891305, 43.534866610620547 ], [ -5.737363137923798, 43.534866610620547 ], [ -5.737363137923798, 43.535281900557365 ], [ -5.73662292195629, 43.535281900557365 ], [ -5.73662292195629, 43.535697187634213 ], [ -5.73588270598878, 43.535697187634213 ], [ -5.73588270598878, 43.536112471851069 ], [ -5.735142490021273, 43.536112471851069 ], [ -5.735142490021273, 43.536527753207956 ], [ -5.734402274053765, 43.536527753207956 ], [ -5.734402274053765, 43.536943031704851 ], [ -5.733662058086256, 43.536943031704851 ], [ -5.733662058086256, 43.537358307341755 ], [ -5.732921842118747, 43.537358307341755 ], [ -5.732921842118747, 43.537773580118674 ], [ -5.729960978248714, 43.537773580118674 ], [ -5.729960978248714, 43.537358307341755 ], [ -5.727000114378681, 43.537358307341755 ], [ -5.727000114378681, 43.536943031704851 ], [ -5.724039250508648, 43.536943031704851 ], [ -5.724039250508648, 43.536527753207956 ] ] ], [ [ [ -5.821007542252239, 43.550230433520795 ], [ -5.821007542252239, 43.549400056708208 ], [ -5.82026732628473, 43.549400056708208 ], [ -5.82026732628473, 43.546908857629347 ], [ -5.819527110317222, 43.546908857629347 ], [ -5.819527110317222, 43.54192615058799 ], [ -5.818786894349714, 43.54192615058799 ], [ -5.818786894349714, 43.541510906411077 ], [ -5.818046678382206, 43.541510906411077 ], [ -5.818046678382206, 43.541095659374164 ], [ -5.817306462414698, 43.541095659374164 ], [ -5.817306462414698, 43.540680409477226 ], [ -5.816566246447189, 43.540680409477226 ], [ -5.816566246447189, 43.539434642626411 ], [ -5.815826030479681, 43.539434642626411 ], [ -5.815826030479681, 43.537773580118674 ], [ -5.815085814512173, 43.537773580118674 ], [ -5.815085814512173, 43.536527753207956 ], [ -5.815826030479681, 43.536527753207956 ], [ -5.815826030479681, 43.535281900557365 ], [ -5.816566246447189, 43.535281900557365 ], [ -5.816566246447189, 43.53403602216698 ], [ -5.817306462414698, 43.53403602216698 ], [ -5.817306462414698, 43.533205422273518 ], [ -5.818046678382206, 43.533205422273518 ], [ -5.818046678382206, 43.531959500983589 ], [ -5.821007542252239, 43.531959500983589 ], [ -5.821007542252239, 43.53237481094019 ], [ -5.823968406122273, 43.53237481094019 ], [ -5.823968406122273, 43.531959500983589 ], [ -5.824708622089781, 43.531959500983589 ], [ -5.824708622089781, 43.531544188167018 ], [ -5.82544883805729, 43.531544188167018 ], [ -5.82544883805729, 43.531128872490477 ], [ -5.826189054024797, 43.531128872490477 ], [ -5.826189054024797, 43.530713553953994 ], [ -5.827669485959815, 43.530713553953994 ], [ -5.827669485959815, 43.530298232557548 ], [ -5.828409701927322, 43.530298232557548 ], [ -5.828409701927322, 43.529882908301154 ], [ -5.829149917894831, 43.529882908301154 ], [ -5.829149917894831, 43.529467581184797 ], [ -5.829890133862339, 43.529467581184797 ], [ -5.829890133862339, 43.529052251208505 ], [ -5.830630349829847, 43.529052251208505 ], [ -5.830630349829847, 43.528636918372264 ], [ -5.832110781764865, 43.528636918372264 ], [ -5.832110781764865, 43.529052251208505 ], [ -5.832850997732372, 43.529052251208505 ], [ -5.832850997732372, 43.529467581184797 ], [ -5.833591213699881, 43.529467581184797 ], [ -5.833591213699881, 43.529882908301154 ], [ -5.834331429667389, 43.529882908301154 ], [ -5.834331429667389, 43.530298232557548 ], [ -5.835071645634897, 43.530298232557548 ], [ -5.835071645634897, 43.530713553953994 ], [ -5.835811861602406, 43.530713553953994 ], [ -5.835811861602406, 43.531544188167018 ], [ -5.836552077569914, 43.531544188167018 ], [ -5.836552077569914, 43.531959500983589 ], [ -5.837292293537423, 43.531959500983589 ], [ -5.837292293537423, 43.53237481094019 ], [ -5.838032509504931, 43.53237481094019 ], [ -5.838032509504931, 43.532790118036843 ], [ -5.83877272547244, 43.532790118036843 ], [ -5.83877272547244, 43.533205422273518 ], [ -5.841733589342473, 43.533205422273518 ], [ -5.841733589342473, 43.532790118036843 ], [ -5.842473805309981, 43.532790118036843 ], [ -5.842473805309981, 43.53237481094019 ], [ -5.843954237244998, 43.53237481094019 ], [ -5.843954237244998, 43.531959500983589 ], [ -5.846174885147523, 43.531959500983589 ], [ -5.846174885147523, 43.53237481094019 ], [ -5.846915101115031, 43.53237481094019 ], [ -5.846915101115031, 43.532790118036843 ], [ -5.847655317082539, 43.532790118036843 ], [ -5.847655317082539, 43.533620723650237 ], [ -5.848395533050048, 43.533620723650237 ], [ -5.848395533050048, 43.53403602216698 ], [ -5.849135749017555, 43.53403602216698 ], [ -5.849135749017555, 43.534451317823752 ], [ -5.849875964985064, 43.534451317823752 ], [ -5.849875964985064, 43.534866610620547 ], [ -5.850616180952573, 43.534866610620547 ], [ -5.850616180952573, 43.535281900557365 ], [ -5.85135639692008, 43.535281900557365 ], [ -5.85135639692008, 43.536943031704851 ], [ -5.852096612887589, 43.536943031704851 ], [ -5.852096612887589, 43.542756630361758 ], [ -5.852836828855097, 43.542756630361758 ], [ -5.852836828855097, 43.544002328572311 ], [ -5.852096612887589, 43.544002328572311 ], [ -5.852096612887589, 43.54607843505606 ], [ -5.85135639692008, 43.54607843505606 ], [ -5.85135639692008, 43.54773926876247 ], [ -5.850616180952573, 43.54773926876247 ], [ -5.850616180952573, 43.549400056708208 ], [ -5.849875964985064, 43.549400056708208 ], [ -5.849875964985064, 43.550230433520795 ], [ -5.849135749017555, 43.550230433520795 ], [ -5.849135749017555, 43.550645617637002 ], [ -5.847655317082539, 43.550645617637002 ], [ -5.847655317082539, 43.551060798893154 ], [ -5.846915101115031, 43.551060798893154 ], [ -5.846915101115031, 43.551475977289243 ], [ -5.844694453212505, 43.551475977289243 ], [ -5.844694453212505, 43.551060798893154 ], [ -5.842473805309981, 43.551060798893154 ], [ -5.842473805309981, 43.550645617637002 ], [ -5.840993373374964, 43.550645617637002 ], [ -5.840993373374964, 43.550230433520795 ], [ -5.83877272547244, 43.550230433520795 ], [ -5.83877272547244, 43.549815246544526 ], [ -5.837292293537423, 43.549815246544526 ], [ -5.837292293537423, 43.549400056708208 ], [ -5.835071645634897, 43.549400056708208 ], [ -5.835071645634897, 43.548984864011857 ], [ -5.833591213699881, 43.548984864011857 ], [ -5.833591213699881, 43.548569668455436 ], [ -5.831370565797356, 43.548569668455436 ], [ -5.831370565797356, 43.54815447003898 ], [ -5.830630349829847, 43.54815447003898 ], [ -5.830630349829847, 43.549400056708208 ], [ -5.829890133862339, 43.549400056708208 ], [ -5.829890133862339, 43.550230433520795 ], [ -5.829149917894831, 43.550230433520795 ], [ -5.829149917894831, 43.551060798893154 ], [ -5.828409701927322, 43.551060798893154 ], [ -5.828409701927322, 43.551891152825284 ], [ -5.822487974187256, 43.551891152825284 ], [ -5.822487974187256, 43.551060798893154 ], [ -5.821747758219748, 43.551060798893154 ], [ -5.821747758219748, 43.550230433520795 ], [ -5.821007542252239, 43.550230433520795 ] ] ], [ [ [ -0.277530161582322, 35.824969885320684 ], [ -0.276789945614814, 35.824969885320684 ], [ -0.276789945614814, 35.824505411354338 ], [ -0.276049729647306, 35.824505411354338 ], [ -0.276049729647306, 35.824040934669902 ], [ -0.274569297712289, 35.824040934669902 ], [ -0.274569297712289, 35.8235764552674 ], [ -0.271608433842256, 35.8235764552674 ], [ -0.271608433842256, 35.82311197314683 ], [ -0.269387785939731, 35.82311197314683 ], [ -0.269387785939731, 35.822647488308213 ], [ -0.266426922069697, 35.822647488308213 ], [ -0.266426922069697, 35.822183000751579 ], [ -0.264206274167172, 35.822183000751579 ], [ -0.264206274167172, 35.821718510476927 ], [ -0.261245410297139, 35.821718510476927 ], [ -0.261245410297139, 35.821254017484272 ], [ -0.260505194329631, 35.821254017484272 ], [ -0.260505194329631, 35.820325023345006 ], [ -0.259764978362122, 35.820325023345006 ], [ -0.259764978362122, 35.819860522198454 ], [ -0.259024762394614, 35.819860522198454 ], [ -0.259024762394614, 35.818931511751508 ], [ -0.258284546427106, 35.818931511751508 ], [ -0.258284546427106, 35.818467002451158 ], [ -0.257544330459597, 35.818467002451158 ], [ -0.257544330459597, 35.818002490432896 ], [ -0.256804114492089, 35.818002490432896 ], [ -0.256804114492089, 35.81753797569678 ], [ -0.253103034654547, 35.81753797569678 ], [ -0.253103034654547, 35.817073458242774 ], [ -0.248661738849497, 35.817073458242774 ], [ -0.248661738849497, 35.816608938070921 ], [ -0.246441090946972, 35.816608938070921 ], [ -0.246441090946972, 35.817073458242774 ], [ -0.245700874979464, 35.817073458242774 ], [ -0.245700874979464, 35.81753797569678 ], [ -0.244960659011956, 35.81753797569678 ], [ -0.244960659011956, 35.818002490432896 ], [ -0.244220443044447, 35.818002490432896 ], [ -0.244220443044447, 35.818467002451158 ], [ -0.243480227076939, 35.818467002451158 ], [ -0.243480227076939, 35.818931511751508 ], [ -0.242740011109431, 35.818931511751508 ], [ -0.242740011109431, 35.81939601833394 ], [ -0.239779147239397, 35.81939601833394 ], [ -0.239779147239397, 35.818931511751508 ], [ -0.237558499336872, 35.818931511751508 ], [ -0.237558499336872, 35.818467002451158 ], [ -0.236078067401856, 35.818467002451158 ], [ -0.236078067401856, 35.818002490432896 ], [ -0.234597635466839, 35.818002490432896 ], [ -0.234597635466839, 35.81753797569678 ], [ -0.232376987564314, 35.81753797569678 ], [ -0.232376987564314, 35.817073458242774 ], [ -0.231636771596806, 35.817073458242774 ], [ -0.231636771596806, 35.816144415181228 ], [ -0.230896555629297, 35.816144415181228 ], [ -0.230896555629297, 35.815215361248384 ], [ -0.230156339661789, 35.815215361248384 ], [ -0.230156339661789, 35.814286296444358 ], [ -0.229416123694281, 35.814286296444358 ], [ -0.229416123694281, 35.813821759965677 ], [ -0.228675907726772, 35.813821759965677 ], [ -0.228675907726772, 35.813357220769255 ], [ -0.227195475791756, 35.813357220769255 ], [ -0.227195475791756, 35.812892678855093 ], [ -0.225715043856739, 35.812892678855093 ], [ -0.225715043856739, 35.812428134223211 ], [ -0.224234611921722, 35.812428134223211 ], [ -0.224234611921722, 35.810569928518746 ], [ -0.223494395954214, 35.810569928518746 ], [ -0.223494395954214, 35.805924224024189 ], [ -0.224234611921722, 35.805924224024189 ], [ -0.224234611921722, 35.803601269869652 ], [ -0.224974827889231, 35.803601269869652 ], [ -0.224974827889231, 35.803136670886389 ], [ -0.225715043856739, 35.803136670886389 ], [ -0.225715043856739, 35.80220746476764 ], [ -0.226455259824247, 35.80220746476764 ], [ -0.226455259824247, 35.801742857632192 ], [ -0.227195475791756, 35.801742857632192 ], [ -0.227195475791756, 35.801278247779365 ], [ -0.227935691759264, 35.801278247779365 ], [ -0.227935691759264, 35.800813635209181 ], [ -0.230896555629297, 35.800813635209181 ], [ -0.230896555629297, 35.800349019921647 ], [ -0.233117203531822, 35.800349019921647 ], [ -0.233117203531822, 35.799884401916799 ], [ -0.234597635466839, 35.799884401916799 ], [ -0.234597635466839, 35.800349019921647 ], [ -0.235337851434347, 35.800349019921647 ], [ -0.235337851434347, 35.800813635209181 ], [ -0.236078067401856, 35.800813635209181 ], [ -0.236078067401856, 35.801278247779365 ], [ -0.236818283369364, 35.801278247779365 ], [ -0.236818283369364, 35.801742857632192 ], [ -0.237558499336872, 35.801742857632192 ], [ -0.237558499336872, 35.80220746476764 ], [ -0.238298715304381, 35.80220746476764 ], [ -0.238298715304381, 35.802672069185711 ], [ -0.239038931271889, 35.802672069185711 ], [ -0.239038931271889, 35.801278247779365 ], [ -0.239779147239397, 35.801278247779365 ], [ -0.239779147239397, 35.799884401916799 ], [ -0.240519363206906, 35.799884401916799 ], [ -0.240519363206906, 35.798955157755167 ], [ -0.241259579174414, 35.798955157755167 ], [ -0.241259579174414, 35.798490531598425 ], [ -0.241999795141922, 35.798490531598425 ], [ -0.241999795141922, 35.798025902724412 ], [ -0.243480227076939, 35.798025902724412 ], [ -0.243480227076939, 35.797561271133148 ], [ -0.246441090946972, 35.797561271133148 ], [ -0.246441090946972, 35.798025902724412 ], [ -0.247181306914481, 35.798025902724412 ], [ -0.247181306914481, 35.798490531598425 ], [ -0.247921522881989, 35.798490531598425 ], [ -0.247921522881989, 35.798955157755167 ], [ -0.251622602719531, 35.798955157755167 ], [ -0.251622602719531, 35.798490531598425 ], [ -0.254583466589564, 35.798490531598425 ], [ -0.254583466589564, 35.798025902724412 ], [ -0.258284546427106, 35.798025902724412 ], [ -0.258284546427106, 35.797561271133148 ], [ -0.261985626264647, 35.797561271133148 ], [ -0.261985626264647, 35.798025902724412 ], [ -0.264206274167172, 35.798025902724412 ], [ -0.264206274167172, 35.798490531598425 ], [ -0.266426922069697, 35.798490531598425 ], [ -0.266426922069697, 35.798955157755167 ], [ -0.267167138037206, 35.798955157755167 ], [ -0.267167138037206, 35.799419781194644 ], [ -0.267907354004714, 35.799419781194644 ], [ -0.267907354004714, 35.799884401916799 ], [ -0.268647569972222, 35.799884401916799 ], [ -0.268647569972222, 35.800349019921647 ], [ -0.269387785939731, 35.800349019921647 ], [ -0.269387785939731, 35.800813635209181 ], [ -0.270128001907239, 35.800813635209181 ], [ -0.270128001907239, 35.801278247779365 ], [ -0.270868217874747, 35.801278247779365 ], [ -0.270868217874747, 35.801742857632192 ], [ -0.271608433842256, 35.801742857632192 ], [ -0.271608433842256, 35.80220746476764 ], [ -0.272348649809764, 35.80220746476764 ], [ -0.272348649809764, 35.803136670886389 ], [ -0.273088865777272, 35.803136670886389 ], [ -0.273088865777272, 35.803601269869652 ], [ -0.273829081744781, 35.803601269869652 ], [ -0.273829081744781, 35.804065866135467 ], [ -0.275309513679797, 35.804065866135467 ], [ -0.275309513679797, 35.803136670886389 ], [ -0.276049729647306, 35.803136670886389 ], [ -0.276049729647306, 35.80220746476764 ], [ -0.276789945614814, 35.80220746476764 ], [ -0.276789945614814, 35.801278247779365 ], [ -0.277530161582322, 35.801278247779365 ], [ -0.277530161582322, 35.800813635209181 ], [ -0.282711673354881, 35.800813635209181 ], [ -0.282711673354881, 35.801742857632192 ], [ -0.283451889322389, 35.801742857632192 ], [ -0.283451889322389, 35.802672069185711 ], [ -0.284192105289897, 35.802672069185711 ], [ -0.284192105289897, 35.803136670886389 ], [ -0.284932321257406, 35.803136670886389 ], [ -0.284932321257406, 35.804995050514783 ], [ -0.285672537224914, 35.804995050514783 ], [ -0.285672537224914, 35.811499036806339 ], [ -0.286412753192422, 35.811499036806339 ], [ -0.286412753192422, 35.81753797569678 ], [ -0.287152969159931, 35.81753797569678 ], [ -0.287152969159931, 35.821254017484272 ], [ -0.286412753192422, 35.821254017484272 ], [ -0.286412753192422, 35.822183000751579 ], [ -0.285672537224914, 35.822183000751579 ], [ -0.285672537224914, 35.822647488308213 ], [ -0.284932321257406, 35.822647488308213 ], [ -0.284932321257406, 35.82311197314683 ], [ -0.284192105289897, 35.82311197314683 ], [ -0.284192105289897, 35.8235764552674 ], [ -0.283451889322389, 35.8235764552674 ], [ -0.283451889322389, 35.824040934669902 ], [ -0.282711673354881, 35.824040934669902 ], [ -0.282711673354881, 35.824505411354338 ], [ -0.281971457387372, 35.824505411354338 ], [ -0.281971457387372, 35.824969885320684 ], [ -0.281231241419864, 35.824969885320684 ], [ -0.281231241419864, 35.82543435656892 ], [ -0.280491025452356, 35.82543435656892 ], [ -0.280491025452356, 35.825898825099053 ], [ -0.278270377549831, 35.825898825099053 ], [ -0.278270377549831, 35.82543435656892 ], [ -0.277530161582322, 35.82543435656892 ], [ -0.277530161582322, 35.824969885320684 ] ] ], [ [ [ 4.449489006925901, 35.886720696110231 ], [ 4.450229222893409, 35.886720696110231 ], [ 4.450229222893409, 35.886256583779549 ], [ 4.450969438860917, 35.886256583779549 ], [ 4.450969438860917, 35.885328350958126 ], [ 4.451709654828425, 35.885328350958126 ], [ 4.451709654828425, 35.884864230467407 ], [ 4.452449870795934, 35.884864230467407 ], [ 4.452449870795934, 35.884400107256724 ], [ 4.453190086763442, 35.884400107256724 ], [ 4.453190086763442, 35.883471852675449 ], [ 4.45393030273095, 35.883471852675449 ], [ 4.45393030273095, 35.883007721304899 ], [ 4.454670518698459, 35.883007721304899 ], [ 4.454670518698459, 35.878830416575106 ], [ 4.45393030273095, 35.878830416575106 ], [ 4.45393030273095, 35.877902096717058 ], [ 4.453190086763442, 35.877902096717058 ], [ 4.453190086763442, 35.877437932708382 ], [ 4.452449870795934, 35.877437932708382 ], [ 4.452449870795934, 35.876509596531797 ], [ 4.451709654828425, 35.876509596531797 ], [ 4.451709654828425, 35.876045424363902 ], [ 4.450969438860917, 35.876045424363902 ], [ 4.450969438860917, 35.875581249476319 ], [ 4.450229222893409, 35.875581249476319 ], [ 4.450229222893409, 35.875117071869035 ], [ 4.448748790958392, 35.875117071869035 ], [ 4.448748790958392, 35.874652891542084 ], [ 4.448008574990883, 35.874652891542084 ], [ 4.448008574990883, 35.874188708495474 ], [ 4.446528143055867, 35.874188708495474 ], [ 4.446528143055867, 35.873724522729191 ], [ 4.445787927088358, 35.873724522729191 ], [ 4.445787927088358, 35.873260334243312 ], [ 4.444307495153342, 35.873260334243312 ], [ 4.444307495153342, 35.872796143037782 ], [ 4.443567279185833, 35.872796143037782 ], [ 4.443567279185833, 35.872331949112656 ], [ 4.442086847250817, 35.872331949112656 ], [ 4.442086847250817, 35.872796143037782 ], [ 4.441346631283309, 35.872796143037782 ], [ 4.441346631283309, 35.873260334243312 ], [ 4.4406064153158, 35.873260334243312 ], [ 4.4406064153158, 35.873724522729191 ], [ 4.439866199348292, 35.873724522729191 ], [ 4.439866199348292, 35.874188708495474 ], [ 4.439125983380783, 35.874188708495474 ], [ 4.439125983380783, 35.874652891542084 ], [ 4.438385767413275, 35.874652891542084 ], [ 4.438385767413275, 35.875117071869035 ], [ 4.437645551445767, 35.875117071869035 ], [ 4.437645551445767, 35.876509596531797 ], [ 4.436905335478258, 35.876509596531797 ], [ 4.436905335478258, 35.881615310873755 ], [ 4.437645551445767, 35.881615310873755 ], [ 4.437645551445767, 35.882079450404035 ], [ 4.438385767413275, 35.882079450404035 ], [ 4.438385767413275, 35.883007721304899 ], [ 4.439125983380783, 35.883007721304899 ], [ 4.439125983380783, 35.883471852675449 ], [ 4.439866199348292, 35.883471852675449 ], [ 4.439866199348292, 35.884400107256724 ], [ 4.4406064153158, 35.884400107256724 ], [ 4.4406064153158, 35.885328350958126 ], [ 4.441346631283309, 35.885328350958126 ], [ 4.441346631283309, 35.885792468728852 ], [ 4.442086847250817, 35.885792468728852 ], [ 4.442086847250817, 35.886720696110231 ], [ 4.442827063218325, 35.886720696110231 ], [ 4.442827063218325, 35.887184805720871 ], [ 4.443567279185833, 35.887184805720871 ], [ 4.443567279185833, 35.887648912611461 ], [ 4.444307495153342, 35.887648912611461 ], [ 4.444307495153342, 35.888113016781979 ], [ 4.448748790958392, 35.888113016781979 ], [ 4.448748790958392, 35.887648912611461 ], [ 4.449489006925901, 35.887648912611461 ], [ 4.449489006925901, 35.886720696110231 ] ] ], [ [ [ -1.900083562360591, 36.973501747137441 ], [ -1.900083562360591, 36.972586424612288 ], [ -1.899343346393083, 36.972586424612288 ], [ -1.899343346393083, 36.972128759221675 ], [ -1.898603130425575, 36.972128759221675 ], [ -1.898603130425575, 36.971213420184398 ], [ -1.897862914458066, 36.971213420184398 ], [ -1.897862914458066, 36.96617885871477 ], [ -1.898603130425575, 36.96617885871477 ], [ -1.898603130425575, 36.962517150322469 ], [ -1.899343346393083, 36.962517150322469 ], [ -1.899343346393083, 36.961601695706641 ], [ -1.900083562360591, 36.961601695706641 ], [ -1.900083562360591, 36.961143964271145 ], [ -1.900823778328099, 36.961143964271145 ], [ -1.900823778328099, 36.960228493144996 ], [ -1.901563994295608, 36.960228493144996 ], [ -1.901563994295608, 36.959313011012128 ], [ -1.902304210263116, 36.959313011012128 ], [ -1.902304210263116, 36.958855265818187 ], [ -1.903784642198133, 36.958855265818187 ], [ -1.903784642198133, 36.959313011012128 ], [ -1.906745506068166, 36.959313011012128 ], [ -1.906745506068166, 36.959770753454407 ], [ -1.908966153970691, 36.959770753454407 ], [ -1.908966153970691, 36.960228493144996 ], [ -1.9097063699382, 36.960228493144996 ], [ -1.9097063699382, 36.961143964271145 ], [ -1.910446585905708, 36.961143964271145 ], [ -1.910446585905708, 36.961601695706641 ], [ -1.911186801873216, 36.961601695706641 ], [ -1.911186801873216, 36.962059424390425 ], [ -1.911927017840724, 36.962059424390425 ], [ -1.911927017840724, 36.962974873502759 ], [ -1.912667233808233, 36.962974873502759 ], [ -1.912667233808233, 36.970755746537762 ], [ -1.911927017840724, 36.970755746537762 ], [ -1.911927017840724, 36.971671091079031 ], [ -1.911186801873216, 36.971671091079031 ], [ -1.911186801873216, 36.972128759221675 ], [ -1.910446585905708, 36.972128759221675 ], [ -1.910446585905708, 36.973044087250884 ], [ -1.9097063699382, 36.973044087250884 ], [ -1.9097063699382, 36.973501747137441 ], [ -1.90526507413315, 36.973501747137441 ], [ -1.90526507413315, 36.97395940427193 ], [ -1.900823778328099, 36.97395940427193 ], [ -1.900823778328099, 36.973501747137441 ], [ -1.900083562360591, 36.973501747137441 ] ] ], [ [ [ -1.486302836523432, 41.4815425255157 ], [ -1.484822404588416, 41.4815425255157 ], [ -1.484822404588416, 41.481113361833017 ], [ -1.483341972653399, 41.481113361833017 ], [ -1.483341972653399, 41.4806841953082 ], [ -1.481861540718382, 41.4806841953082 ], [ -1.481861540718382, 41.480255025941226 ], [ -1.481121324750874, 41.480255025941226 ], [ -1.481121324750874, 41.478538320052081 ], [ -1.480381108783366, 41.478538320052081 ], [ -1.480381108783366, 41.476392373743145 ], [ -1.479640892815857, 41.476392373743145 ], [ -1.479640892815857, 41.475104771852692 ], [ -1.480381108783366, 41.475104771852692 ], [ -1.480381108783366, 41.47295871186062 ], [ -1.481121324750874, 41.47295871186062 ], [ -1.481121324750874, 41.47081258081743 ], [ -1.481861540718382, 41.47081258081743 ], [ -1.481861540718382, 41.469954108505995 ], [ -1.48260175668589, 41.469954108505995 ], [ -1.48260175668589, 41.469524868087262 ], [ -1.484082188620908, 41.469524868087262 ], [ -1.484082188620908, 41.469095624826537 ], [ -1.486302836523432, 41.469095624826537 ], [ -1.486302836523432, 41.468666378723803 ], [ -1.487783268458449, 41.468666378723803 ], [ -1.487783268458449, 41.468237129779084 ], [ -1.490744132328482, 41.468237129779084 ], [ -1.490744132328482, 41.468666378723803 ], [ -1.491484348295991, 41.468666378723803 ], [ -1.491484348295991, 41.469095624826537 ], [ -1.492964780231007, 41.469095624826537 ], [ -1.492964780231007, 41.469524868087262 ], [ -1.493704996198516, 41.469524868087262 ], [ -1.493704996198516, 41.47038334608272 ], [ -1.494445212166024, 41.47038334608272 ], [ -1.494445212166024, 41.472100267969438 ], [ -1.495185428133532, 41.472100267969438 ], [ -1.495185428133532, 41.474246356382039 ], [ -1.495925644101041, 41.474246356382039 ], [ -1.495925644101041, 41.475533975324922 ], [ -1.495185428133532, 41.475533975324922 ], [ -1.495185428133532, 41.478109136474494 ], [ -1.494445212166024, 41.478109136474494 ], [ -1.494445212166024, 41.480255025941226 ], [ -1.493704996198516, 41.480255025941226 ], [ -1.493704996198516, 41.4806841953082 ], [ -1.492964780231007, 41.4806841953082 ], [ -1.492964780231007, 41.481113361833017 ], [ -1.491484348295991, 41.481113361833017 ], [ -1.491484348295991, 41.4815425255157 ], [ -1.490744132328482, 41.4815425255157 ], [ -1.490744132328482, 41.481971686356232 ], [ -1.490003916360974, 41.481971686356232 ], [ -1.490003916360974, 41.482400844354615 ], [ -1.487783268458449, 41.482400844354615 ], [ -1.487783268458449, 41.481971686356232 ], [ -1.486302836523432, 41.481971686356232 ], [ -1.486302836523432, 41.4815425255157 ] ] ], [ [ [ 0.185104818110386, 41.932299863371739 ], [ 0.185845034077895, 41.932299863371739 ], [ 0.185845034077895, 41.931447529982364 ], [ 0.186585250045403, 41.931447529982364 ], [ 0.186585250045403, 41.931021359016711 ], [ 0.187325466012912, 41.931021359016711 ], [ 0.187325466012912, 41.930169008543487 ], [ 0.18806568198042, 41.930169008543487 ], [ 0.18806568198042, 41.92931664668108 ], [ 0.188805897947928, 41.92931664668108 ], [ 0.188805897947928, 41.928464273429555 ], [ 0.189546113915437, 41.928464273429555 ], [ 0.189546113915437, 41.923349794750358 ], [ 0.188805897947928, 41.923349794750358 ], [ 0.188805897947928, 41.922497341775838 ], [ 0.18806568198042, 41.922497341775838 ], [ 0.18806568198042, 41.921644877412461 ], [ 0.187325466012912, 41.921644877412461 ], [ 0.187325466012912, 41.920792401660272 ], [ 0.186585250045403, 41.920792401660272 ], [ 0.186585250045403, 41.920366159513392 ], [ 0.185845034077895, 41.920366159513392 ], [ 0.185845034077895, 41.919513666678057 ], [ 0.185104818110386, 41.919513666678057 ], [ 0.185104818110386, 41.918661162453994 ], [ 0.184364602142878, 41.918661162453994 ], [ 0.184364602142878, 41.917808646841237 ], [ 0.18362438617537, 41.917808646841237 ], [ 0.18362438617537, 41.917382384764132 ], [ 0.182884170207862, 41.917382384764132 ], [ 0.182884170207862, 41.916956119839853 ], [ 0.182143954240353, 41.916956119839853 ], [ 0.182143954240353, 41.917382384764132 ], [ 0.180663522305336, 41.917382384764132 ], [ 0.180663522305336, 41.917808646841237 ], [ 0.179923306337828, 41.917808646841237 ], [ 0.179923306337828, 41.918234906071213 ], [ 0.178442874402812, 41.918234906071213 ], [ 0.178442874402812, 41.918661162453994 ], [ 0.177702658435303, 41.918661162453994 ], [ 0.177702658435303, 41.919087415989608 ], [ 0.176222226500287, 41.919087415989608 ], [ 0.176222226500287, 41.919513666678057 ], [ 0.175482010532778, 41.919513666678057 ], [ 0.175482010532778, 41.919939914519318 ], [ 0.17474179456527, 41.919939914519318 ], [ 0.17474179456527, 41.920366159513392 ], [ 0.173261362630253, 41.920366159513392 ], [ 0.173261362630253, 41.920792401660272 ], [ 0.172521146662745, 41.920792401660272 ], [ 0.172521146662745, 41.921218640959964 ], [ 0.171040714727728, 41.921218640959964 ], [ 0.171040714727728, 41.924628452857952 ], [ 0.171780930695237, 41.924628452857952 ], [ 0.171780930695237, 41.92761188878891 ], [ 0.172521146662745, 41.92761188878891 ], [ 0.172521146662745, 41.930169008543487 ], [ 0.173261362630253, 41.930169008543487 ], [ 0.173261362630253, 41.931021359016711 ], [ 0.174001578597761, 41.931021359016711 ], [ 0.174001578597761, 41.931873698100702 ], [ 0.17474179456527, 41.931873698100702 ], [ 0.17474179456527, 41.932299863371739 ], [ 0.175482010532778, 41.932299863371739 ], [ 0.175482010532778, 41.933152185371853 ], [ 0.179923306337828, 41.933152185371853 ], [ 0.179923306337828, 41.933578342100922 ], [ 0.184364602142878, 41.933578342100922 ], [ 0.184364602142878, 41.933152185371853 ], [ 0.185104818110386, 41.933152185371853 ], [ 0.185104818110386, 41.932299863371739 ] ] ] ] } }
]
}
