{
"type": "FeatureCollection",
"name": "spain_fires_nrt_ba",
"crs": { "type": "name", "properties": { "name": "urn:ogc:def:crs:OGC:1.3:CRS84" } },
"features": [
{ "type": "Feature", "properties": { }, "geometry": { "type": "MultiPolygon", "coordinates": [ [ [ [ -6.883217455626698, 37.404303405988543 ], [ -6.883217455626698, 37.403848349562864 ], [ -6.882477239659191, 37.403848349562864 ], [ -6.882477239659191, 37.403393290373536 ], [ -6.881737023691683, 37.403393290373536 ], [ -6.881737023691683, 37.399297633307874 ], [ -6.880996807724173, 37.399297633307874 ], [ -6.880996807724173, 37.397477269426659 ], [ -6.880256591756666, 37.397477269426659 ], [ -6.880256591756666, 37.396567070905178 ], [ -6.879516375789158, 37.396567070905178 ], [ -6.879516375789158, 37.396111967499273 ], [ -6.87877615982165, 37.396111967499273 ], [ -6.87877615982165, 37.395201752397135 ], [ -6.878035943854141, 37.395201752397135 ], [ -6.878035943854141, 37.394291526241354 ], [ -6.877295727886632, 37.394291526241354 ], [ -6.877295727886632, 37.390195371754025 ], [ -6.878035943854141, 37.390195371754025 ], [ -6.878035943854141, 37.389285084804889 ], [ -6.87877615982165, 37.389285084804889 ], [ -6.87877615982165, 37.388374786802729 ], [ -6.879516375789158, 37.388374786802729 ], [ -6.879516375789158, 37.387464477747635 ], [ -6.880256591756666, 37.387464477747635 ], [ -6.880256591756666, 37.386554157639708 ], [ -6.880996807724173, 37.386554157639708 ], [ -6.880996807724173, 37.38564382647904 ], [ -6.883957671594207, 37.38564382647904 ], [ -6.883957671594207, 37.385188656753954 ], [ -6.886918535464241, 37.385188656753954 ], [ -6.886918535464241, 37.38473348426573 ], [ -6.889879399334275, 37.38473348426573 ], [ -6.889879399334275, 37.384278309014356 ], [ -6.890619615301782, 37.384278309014356 ], [ -6.890619615301782, 37.38473348426573 ], [ -6.89135983126929, 37.38473348426573 ], [ -6.89135983126929, 37.385188656753954 ], [ -6.892100047236799, 37.385188656753954 ], [ -6.892100047236799, 37.38564382647904 ], [ -6.892840263204308, 37.38564382647904 ], [ -6.892840263204308, 37.386554157639708 ], [ -6.893580479171815, 37.386554157639708 ], [ -6.893580479171815, 37.387009319075268 ], [ -6.894320695139324, 37.387009319075268 ], [ -6.894320695139324, 37.387919633656793 ], [ -6.895060911106833, 37.387919633656793 ], [ -6.895060911106833, 37.388829937185427 ], [ -6.895801127074341, 37.388829937185427 ], [ -6.895801127074341, 37.397477269426659 ], [ -6.895060911106833, 37.397477269426659 ], [ -6.895060911106833, 37.402483163704034 ], [ -6.894320695139324, 37.402483163704034 ], [ -6.894320695139324, 37.402938228420588 ], [ -6.893580479171815, 37.402938228420588 ], [ -6.893580479171815, 37.403848349562864 ], [ -6.892840263204308, 37.403848349562864 ], [ -6.892840263204308, 37.404303405988543 ], [ -6.892100047236799, 37.404303405988543 ], [ -6.892100047236799, 37.40475845965058 ], [ -6.889139183366766, 37.40475845965058 ], [ -6.889139183366766, 37.405213510548954 ], [ -6.885438103529224, 37.405213510548954 ], [ -6.885438103529224, 37.40475845965058 ], [ -6.883957671594207, 37.40475845965058 ], [ -6.883957671594207, 37.404303405988543 ], [ -6.883217455626698, 37.404303405988543 ] ] ], [ [ [ -4.285059409672445, 38.035508470959726 ], [ -4.285059409672445, 38.035057275511058 ], [ -4.284319193704937, 38.035057275511058 ], [ -4.284319193704937, 38.034606077282881 ], [ -4.283578977737428, 38.034606077282881 ], [ -4.283578977737428, 38.033703672488087 ], [ -4.282838761769921, 38.033703672488087 ], [ -4.282838761769921, 38.032801256575411 ], [ -4.282098545802412, 38.032801256575411 ], [ -4.282098545802412, 38.03189882954495 ], [ -4.281358329834903, 38.03189882954495 ], [ -4.281358329834903, 38.025130272445693 ], [ -4.280618113867395, 38.025130272445693 ], [ -4.280618113867395, 38.020166266469609 ], [ -4.281358329834903, 38.020166266469609 ], [ -4.281358329834903, 38.019714976523993 ], [ -4.282098545802412, 38.019714976523993 ], [ -4.282098545802412, 38.019263683799224 ], [ -4.282838761769921, 38.019263683799224 ], [ -4.282838761769921, 38.018812388295352 ], [ -4.283578977737428, 38.018812388295352 ], [ -4.283578977737428, 38.018361090012363 ], [ -4.284319193704937, 38.018361090012363 ], [ -4.284319193704937, 38.017458485109081 ], [ -4.285059409672445, 38.017458485109081 ], [ -4.285059409672445, 38.017007178488825 ], [ -4.286539841607461, 38.017007178488825 ], [ -4.286539841607461, 38.017458485109081 ], [ -4.28728005757497, 38.017458485109081 ], [ -4.28728005757497, 38.01790978895027 ], [ -4.288760489509986, 38.01790978895027 ], [ -4.288760489509986, 38.018361090012363 ], [ -4.289500705477495, 38.018361090012363 ], [ -4.289500705477495, 38.018812388295352 ], [ -4.290240921445004, 38.018812388295352 ], [ -4.290240921445004, 38.019263683799224 ], [ -4.290981137412512, 38.019263683799224 ], [ -4.290981137412512, 38.020617553636107 ], [ -4.29172135338002, 38.020617553636107 ], [ -4.29172135338002, 38.021971398460593 ], [ -4.292461569347529, 38.021971398460593 ], [ -4.292461569347529, 38.023776485984577 ], [ -4.293201785315037, 38.023776485984577 ], [ -4.293201785315037, 38.024679013071236 ], [ -4.293942001282545, 38.024679013071236 ], [ -4.293942001282545, 38.025581529040892 ], [ -4.294682217250053, 38.025581529040892 ], [ -4.294682217250053, 38.026032782856809 ], [ -4.295422433217562, 38.026032782856809 ], [ -4.295422433217562, 38.026484033893453 ], [ -4.29616264918507, 38.026484033893453 ], [ -4.29616264918507, 38.026935282150788 ], [ -4.296902865152578, 38.026935282150788 ], [ -4.296902865152578, 38.027386527628828 ], [ -4.297643081120087, 38.027386527628828 ], [ -4.297643081120087, 38.032801256575411 ], [ -4.296902865152578, 38.032801256575411 ], [ -4.296902865152578, 38.033252465921478 ], [ -4.29616264918507, 38.033252465921478 ], [ -4.29616264918507, 38.034154876275224 ], [ -4.295422433217562, 38.034154876275224 ], [ -4.295422433217562, 38.034606077282881 ], [ -4.294682217250053, 38.034606077282881 ], [ -4.294682217250053, 38.035508470959726 ], [ -4.293942001282545, 38.035508470959726 ], [ -4.293942001282545, 38.035959663628873 ], [ -4.293201785315037, 38.035959663628873 ], [ -4.293201785315037, 38.036410853518497 ], [ -4.29172135338002, 38.036410853518497 ], [ -4.29172135338002, 38.035959663628873 ], [ -4.288760489509986, 38.035959663628873 ], [ -4.288760489509986, 38.035508470959726 ], [ -4.285059409672445, 38.035508470959726 ] ] ], [ [ [ -9.010598146245652, 38.930095482600521 ], [ -9.009117714310635, 38.930095482600521 ], [ -9.009117714310635, 38.929649852880601 ], [ -9.008377498343128, 38.929649852880601 ], [ -9.008377498343128, 38.929204220361015 ], [ -9.007637282375619, 38.929204220361015 ], [ -9.007637282375619, 38.928758585041741 ], [ -9.006897066408111, 38.928758585041741 ], [ -9.006897066408111, 38.928312946922837 ], [ -9.005416634473093, 38.928312946922837 ], [ -9.005416634473093, 38.927867306004288 ], [ -9.004676418505586, 38.927867306004288 ], [ -9.004676418505586, 38.926530366450876 ], [ -9.003936202538076, 38.926530366450876 ], [ -9.003936202538076, 38.924302077869861 ], [ -9.003195986570567, 38.924302077869861 ], [ -9.003195986570567, 38.921628039187318 ], [ -9.00245577060306, 38.921628039187318 ], [ -9.00245577060306, 38.919399596632125 ], [ -9.003195986570567, 38.919399596632125 ], [ -9.003195986570567, 38.917171084090562 ], [ -9.003936202538076, 38.917171084090562 ], [ -9.003936202538076, 38.915388223667904 ], [ -9.004676418505586, 38.915388223667904 ], [ -9.004676418505586, 38.914942501563786 ], [ -9.006156850440602, 38.914942501563786 ], [ -9.006156850440602, 38.914496776660307 ], [ -9.006897066408111, 38.914496776660307 ], [ -9.006897066408111, 38.914051048957482 ], [ -9.008377498343128, 38.914051048957482 ], [ -9.008377498343128, 38.913605318455303 ], [ -9.009857930278143, 38.913605318455303 ], [ -9.009857930278143, 38.913159585153799 ], [ -9.010598146245652, 38.913159585153799 ], [ -9.010598146245652, 38.91271384905297 ], [ -9.012078578180668, 38.91271384905297 ], [ -9.012078578180668, 38.912268110152823 ], [ -9.015039442050702, 38.912268110152823 ], [ -9.015039442050702, 38.91271384905297 ], [ -9.015779658018211, 38.91271384905297 ], [ -9.015779658018211, 38.913159585153799 ], [ -9.016519873985718, 38.913159585153799 ], [ -9.016519873985718, 38.913605318455303 ], [ -9.017260089953226, 38.913605318455303 ], [ -9.017260089953226, 38.914051048957482 ], [ -9.018000305920735, 38.914051048957482 ], [ -9.018000305920735, 38.915388223667904 ], [ -9.018740521888244, 38.915388223667904 ], [ -9.018740521888244, 38.916725373183986 ], [ -9.019480737855751, 38.916725373183986 ], [ -9.019480737855751, 38.918508200013804 ], [ -9.020220953823259, 38.918508200013804 ], [ -9.020220953823259, 38.91984529074211 ], [ -9.020961169790768, 38.91984529074211 ], [ -9.020961169790768, 38.921182356275246 ], [ -9.020220953823259, 38.921182356275246 ], [ -9.020220953823259, 38.922519396612934 ], [ -9.019480737855751, 38.922519396612934 ], [ -9.019480737855751, 38.92385641175494 ], [ -9.018740521888244, 38.92385641175494 ], [ -9.018740521888244, 38.925639059417215 ], [ -9.018000305920735, 38.925639059417215 ], [ -9.018000305920735, 38.926976015768297 ], [ -9.017260089953226, 38.926976015768297 ], [ -9.017260089953226, 38.928312946922837 ], [ -9.016519873985718, 38.928312946922837 ], [ -9.016519873985718, 38.929649852880601 ], [ -9.015039442050702, 38.929649852880601 ], [ -9.015039442050702, 38.930095482600521 ], [ -9.014299226083194, 38.930095482600521 ], [ -9.014299226083194, 38.93054110952076 ], [ -9.012818794148178, 38.93054110952076 ], [ -9.012818794148178, 38.930986733641319 ], [ -9.011338362213161, 38.930986733641319 ], [ -9.011338362213161, 38.93054110952076 ], [ -9.010598146245652, 38.93054110952076 ], [ -9.010598146245652, 38.930095482600521 ] ] ], [ [ [ -6.141521056183348, 39.195636345728808 ], [ -6.141521056183348, 39.194304467303063 ], [ -6.140780840215839, 39.194304467303063 ], [ -6.140780840215839, 39.193416534326971 ], [ -6.140040624248331, 39.193416534326971 ], [ -6.140040624248331, 39.18986469021943 ], [ -6.140780840215839, 39.18986469021943 ], [ -6.140780840215839, 39.187200689327426 ], [ -6.141521056183348, 39.187200689327426 ], [ -6.141521056183348, 39.186312666590219 ], [ -6.142261272150856, 39.186312666590219 ], [ -6.142261272150856, 39.185868651014175 ], [ -6.143001488118364, 39.185868651014175 ], [ -6.143001488118364, 39.185424632633186 ], [ -6.144481920053382, 39.185424632633186 ], [ -6.144481920053382, 39.184980611447273 ], [ -6.14522213602089, 39.184980611447273 ], [ -6.14522213602089, 39.184536587456414 ], [ -6.145962351988398, 39.184536587456414 ], [ -6.145962351988398, 39.184092560660652 ], [ -6.146702567955907, 39.184092560660652 ], [ -6.146702567955907, 39.183648531059973 ], [ -6.147442783923415, 39.183648531059973 ], [ -6.147442783923415, 39.183204498654391 ], [ -6.148182999890922, 39.183204498654391 ], [ -6.148182999890922, 39.182760463443927 ], [ -6.148923215858431, 39.182760463443927 ], [ -6.148923215858431, 39.18231642542856 ], [ -6.14966343182594, 39.18231642542856 ], [ -6.14966343182594, 39.18187238460834 ], [ -6.150403647793447, 39.18187238460834 ], [ -6.150403647793447, 39.181428340983246 ], [ -6.151143863760955, 39.181428340983246 ], [ -6.151143863760955, 39.180984294553298 ], [ -6.152624295695974, 39.180984294553298 ], [ -6.152624295695974, 39.181428340983246 ], [ -6.154844943598499, 39.181428340983246 ], [ -6.154844943598499, 39.18187238460834 ], [ -6.157805807468531, 39.18187238460834 ], [ -6.157805807468531, 39.18231642542856 ], [ -6.158546023436039, 39.18231642542856 ], [ -6.158546023436039, 39.182760463443927 ], [ -6.159286239403548, 39.182760463443927 ], [ -6.159286239403548, 39.183204498654391 ], [ -6.160026455371056, 39.183204498654391 ], [ -6.160026455371056, 39.184092560660652 ], [ -6.160766671338565, 39.184092560660652 ], [ -6.160766671338565, 39.184980611447273 ], [ -6.161506887306073, 39.184980611447273 ], [ -6.161506887306073, 39.189420697083278 ], [ -6.160766671338565, 39.189420697083278 ], [ -6.160766671338565, 39.18986469021943 ], [ -6.160026455371056, 39.18986469021943 ], [ -6.160026455371056, 39.190308680550558 ], [ -6.159286239403548, 39.190308680550558 ], [ -6.159286239403548, 39.190752668076648 ], [ -6.158546023436039, 39.190752668076648 ], [ -6.158546023436039, 39.191196652797707 ], [ -6.157805807468531, 39.191196652797707 ], [ -6.157805807468531, 39.1916406347137 ], [ -6.157065591501024, 39.1916406347137 ], [ -6.157065591501024, 39.192084613824633 ], [ -6.156325375533515, 39.192084613824633 ], [ -6.156325375533515, 39.1925285901305 ], [ -6.155585159566006, 39.1925285901305 ], [ -6.155585159566006, 39.192972563631272 ], [ -6.154844943598499, 39.192972563631272 ], [ -6.154844943598499, 39.193416534326971 ], [ -6.15410472763099, 39.193416534326971 ], [ -6.15410472763099, 39.193860502217575 ], [ -6.153364511663481, 39.193860502217575 ], [ -6.153364511663481, 39.194304467303063 ], [ -6.152624295695974, 39.194304467303063 ], [ -6.152624295695974, 39.194748429583441 ], [ -6.151884079728465, 39.194748429583441 ], [ -6.151884079728465, 39.19519238905869 ], [ -6.151143863760955, 39.19519238905869 ], [ -6.151143863760955, 39.195636345728808 ], [ -6.150403647793447, 39.195636345728808 ], [ -6.150403647793447, 39.196080299593788 ], [ -6.14966343182594, 39.196080299593788 ], [ -6.14966343182594, 39.19652425065361 ], [ -6.148923215858431, 39.19652425065361 ], [ -6.148923215858431, 39.19696819890828 ], [ -6.148182999890922, 39.19696819890828 ], [ -6.148182999890922, 39.19741214435777 ], [ -6.143001488118364, 39.19741214435777 ], [ -6.143001488118364, 39.19652425065361 ], [ -6.142261272150856, 39.19652425065361 ], [ -6.142261272150856, 39.195636345728808 ], [ -6.141521056183348, 39.195636345728808 ] ] ], [ [ [ -3.743221321456344, 39.944543091108599 ], [ -3.743221321456344, 39.944103904206173 ], [ -3.741740889521328, 39.944103904206173 ], [ -3.741740889521328, 39.943664714484513 ], [ -3.741000673553819, 39.943664714484513 ], [ -3.741000673553819, 39.943225521943617 ], [ -3.739520241618802, 39.943225521943617 ], [ -3.739520241618802, 39.942786326583487 ], [ -3.738780025651294, 39.942786326583487 ], [ -3.738780025651294, 39.942347128404151 ], [ -3.738039809683786, 39.942347128404151 ], [ -3.738039809683786, 39.940590307494809 ], [ -3.737299593716278, 39.940590307494809 ], [ -3.737299593716278, 39.938394217926707 ], [ -3.736559377748769, 39.938394217926707 ], [ -3.736559377748769, 39.93531957412776 ], [ -3.737299593716278, 39.93531957412776 ], [ -3.737299593716278, 39.933123315412963 ], [ -3.738039809683786, 39.933123315412963 ], [ -3.738039809683786, 39.931366257698258 ], [ -3.738780025651294, 39.931366257698258 ], [ -3.738780025651294, 39.93048771192678 ], [ -3.739520241618802, 39.93048771192678 ], [ -3.739520241618802, 39.930048434812555 ], [ -3.740260457586311, 39.930048434812555 ], [ -3.740260457586311, 39.929609154879309 ], [ -3.741000673553819, 39.929609154879309 ], [ -3.741000673553819, 39.929169872127098 ], [ -3.742481105488836, 39.929169872127098 ], [ -3.742481105488836, 39.928730586555908 ], [ -3.743221321456344, 39.928730586555908 ], [ -3.743221321456344, 39.928291298165753 ], [ -3.743961537423853, 39.928291298165753 ], [ -3.743961537423853, 39.928730586555908 ], [ -3.746182185326378, 39.928730586555908 ], [ -3.746182185326378, 39.929169872127098 ], [ -3.747662617261394, 39.929169872127098 ], [ -3.747662617261394, 39.929609154879309 ], [ -3.749143049196411, 39.929609154879309 ], [ -3.749143049196411, 39.930048434812555 ], [ -3.750623481131427, 39.930048434812555 ], [ -3.750623481131427, 39.93048771192678 ], [ -3.751363697098936, 39.93048771192678 ], [ -3.751363697098936, 39.931366257698258 ], [ -3.752103913066444, 39.931366257698258 ], [ -3.752103913066444, 39.934441079099038 ], [ -3.752844129033953, 39.934441079099038 ], [ -3.752844129033953, 39.937076530356116 ], [ -3.753584345001461, 39.937076530356116 ], [ -3.753584345001461, 39.938833441478643 ], [ -3.752844129033953, 39.938833441478643 ], [ -3.752844129033953, 39.940151095219512 ], [ -3.752103913066444, 39.940151095219512 ], [ -3.752103913066444, 39.941468723587867 ], [ -3.751363697098936, 39.941468723587867 ], [ -3.751363697098936, 39.942786326583487 ], [ -3.750623481131427, 39.942786326583487 ], [ -3.750623481131427, 39.943664714484513 ], [ -3.749883265163919, 39.943664714484513 ], [ -3.749883265163919, 39.944103904206173 ], [ -3.748402833228903, 39.944103904206173 ], [ -3.748402833228903, 39.944543091108599 ], [ -3.746922401293885, 39.944543091108599 ], [ -3.746922401293885, 39.944982275191784 ], [ -3.746182185326378, 39.944982275191784 ], [ -3.746182185326378, 39.945421456455712 ], [ -3.745441969358869, 39.945421456455712 ], [ -3.745441969358869, 39.944982275191784 ], [ -3.743961537423853, 39.944982275191784 ], [ -3.743961537423853, 39.944543091108599 ], [ -3.743221321456344, 39.944543091108599 ] ] ], [ [ [ -4.783964971773062, 39.974840178474658 ], [ -4.783964971773062, 39.973962190942132 ], [ -4.783224755805555, 39.973962190942132 ], [ -4.783224755805555, 39.973523192946224 ], [ -4.782484539838046, 39.973523192946224 ], [ -4.782484539838046, 39.973084192130564 ], [ -4.78100410790303, 39.973084192130564 ], [ -4.78100410790303, 39.973523192946224 ], [ -4.780263891935521, 39.973523192946224 ], [ -4.780263891935521, 39.974401186118286 ], [ -4.779523675968012, 39.974401186118286 ], [ -4.779523675968012, 39.974840178474658 ], [ -4.778783460000504, 39.974840178474658 ], [ -4.778783460000504, 39.975279168011262 ], [ -4.778043244032996, 39.975279168011262 ], [ -4.778043244032996, 39.975718154728078 ], [ -4.776562812097978, 39.975718154728078 ], [ -4.776562812097978, 39.975279168011262 ], [ -4.773601948227946, 39.975279168011262 ], [ -4.773601948227946, 39.974840178474658 ], [ -4.771381300325421, 39.974840178474658 ], [ -4.771381300325421, 39.974401186118286 ], [ -4.769160652422896, 39.974401186118286 ], [ -4.769160652422896, 39.973962190942132 ], [ -4.766940004520372, 39.973962190942132 ], [ -4.766940004520372, 39.973523192946224 ], [ -4.766199788552862, 39.973523192946224 ], [ -4.766199788552862, 39.971767172765134 ], [ -4.765459572585354, 39.971767172765134 ], [ -4.765459572585354, 39.970011107468473 ], [ -4.764719356617847, 39.970011107468473 ], [ -4.764719356617847, 39.969572084095056 ], [ -4.765459572585354, 39.969572084095056 ], [ -4.765459572585354, 39.967376924932864 ], [ -4.766199788552862, 39.967376924932864 ], [ -4.766199788552862, 39.965181695279512 ], [ -4.766940004520372, 39.965181695279512 ], [ -4.766940004520372, 39.962547326648519 ], [ -4.767680220487879, 39.962547326648519 ], [ -4.767680220487879, 39.960351941917999 ], [ -4.768420436455387, 39.960351941917999 ], [ -4.768420436455387, 39.959912856513299 ], [ -4.769160652422896, 39.959912856513299 ], [ -4.769160652422896, 39.959473768289072 ], [ -4.770641084357912, 39.959473768289072 ], [ -4.770641084357912, 39.959034677245356 ], [ -4.771381300325421, 39.959034677245356 ], [ -4.771381300325421, 39.95859558338212 ], [ -4.775082380162963, 39.95859558338212 ], [ -4.775082380162963, 39.959034677245356 ], [ -4.778783460000504, 39.959034677245356 ], [ -4.778783460000504, 39.959473768289072 ], [ -4.779523675968012, 39.959473768289072 ], [ -4.779523675968012, 39.959912856513299 ], [ -4.780263891935521, 39.959912856513299 ], [ -4.780263891935521, 39.96079102450318 ], [ -4.78100410790303, 39.96079102450318 ], [ -4.78100410790303, 39.961230104268836 ], [ -4.781744323870537, 39.961230104268836 ], [ -4.781744323870537, 39.961669181214937 ], [ -4.782484539838046, 39.961669181214937 ], [ -4.782484539838046, 39.962108255341505 ], [ -4.783224755805555, 39.962108255341505 ], [ -4.783224755805555, 39.966059795599726 ], [ -4.783964971773062, 39.966059795599726 ], [ -4.783964971773062, 39.965620746849432 ], [ -4.78470518774057, 39.965620746849432 ], [ -4.78470518774057, 39.965181695279512 ], [ -4.78544540370808, 39.965181695279512 ], [ -4.78544540370808, 39.964742640889988 ], [ -4.786925835643095, 39.964742640889988 ], [ -4.786925835643095, 39.965181695279512 ], [ -4.787666051610604, 39.965181695279512 ], [ -4.787666051610604, 39.965620746849432 ], [ -4.789146483545621, 39.965620746849432 ], [ -4.789146483545621, 39.966059795599726 ], [ -4.78988669951313, 39.966059795599726 ], [ -4.78988669951313, 39.966498841530409 ], [ -4.790626915480637, 39.966498841530409 ], [ -4.790626915480637, 39.967815962404629 ], [ -4.791367131448146, 39.967815962404629 ], [ -4.791367131448146, 39.969572084095056 ], [ -4.792107347415654, 39.969572084095056 ], [ -4.792107347415654, 39.971328160670524 ], [ -4.791367131448146, 39.971328160670524 ], [ -4.791367131448146, 39.973084192130564 ], [ -4.790626915480637, 39.973084192130564 ], [ -4.790626915480637, 39.974401186118286 ], [ -4.789146483545621, 39.974401186118286 ], [ -4.789146483545621, 39.974840178474658 ], [ -4.788406267578112, 39.974840178474658 ], [ -4.788406267578112, 39.975279168011262 ], [ -4.786925835643095, 39.975279168011262 ], [ -4.786925835643095, 39.975718154728078 ], [ -4.78544540370808, 39.975718154728078 ], [ -4.78544540370808, 39.975279168011262 ], [ -4.78470518774057, 39.975279168011262 ], [ -4.78470518774057, 39.974840178474658 ], [ -4.783964971773062, 39.974840178474658 ] ] ], [ [ [ -5.723299034541139, 43.536943031704851 ], [ -5.723299034541139, 43.536112471851069 ], [ -5.72255881857363, 43.536112471851069 ], [ -5.72255881857363, 43.535281900557365 ], [ -5.721818602606122, 43.535281900557365 ], [ -5.721818602606122, 43.533205422273518 ], [ -5.721078386638613, 43.533205422273518 ], [ -5.721078386638613, 43.527390902703871 ], [ -5.720338170671106, 43.527390902703871 ], [ -5.720338170671106, 43.521991204041377 ], [ -5.719597954703597, 43.521991204041377 ], [ -5.719597954703597, 43.520745051096618 ], [ -5.720338170671106, 43.520745051096618 ], [ -5.720338170671106, 43.519914268167263 ], [ -5.721078386638613, 43.519914268167263 ], [ -5.721078386638613, 43.519498872412733 ], [ -5.721818602606122, 43.519498872412733 ], [ -5.721818602606122, 43.518668072323983 ], [ -5.72255881857363, 43.518668072323983 ], [ -5.72255881857363, 43.517837260795666 ], [ -5.727000114378681, 43.517837260795666 ], [ -5.727000114378681, 43.51742185074167 ], [ -5.728480546313697, 43.51742185074167 ], [ -5.728480546313697, 43.517006437827789 ], [ -5.729220762281205, 43.517006437827789 ], [ -5.729220762281205, 43.516175603420372 ], [ -5.729960978248714, 43.516175603420372 ], [ -5.729960978248714, 43.515760181926844 ], [ -5.730701194216222, 43.515760181926844 ], [ -5.730701194216222, 43.51534475757343 ], [ -5.73144141018373, 43.51534475757343 ], [ -5.73144141018373, 43.514929330360154 ], [ -5.733662058086256, 43.514929330360154 ], [ -5.733662058086256, 43.51534475757343 ], [ -5.735142490021273, 43.51534475757343 ], [ -5.735142490021273, 43.515760181926844 ], [ -5.73588270598878, 43.515760181926844 ], [ -5.73588270598878, 43.516175603420372 ], [ -5.73662292195629, 43.516175603420372 ], [ -5.73662292195629, 43.516591022054023 ], [ -5.737363137923798, 43.516591022054023 ], [ -5.737363137923798, 43.51742185074167 ], [ -5.738103353891305, 43.51742185074167 ], [ -5.738103353891305, 43.518668072323983 ], [ -5.738843569858814, 43.518668072323983 ], [ -5.738843569858814, 43.519498872412733 ], [ -5.739583785826321, 43.519498872412733 ], [ -5.739583785826321, 43.520329661061893 ], [ -5.74032400179383, 43.520329661061893 ], [ -5.74032400179383, 43.521160438271444 ], [ -5.741064217761339, 43.521160438271444 ], [ -5.741064217761339, 43.524898794148825 ], [ -5.74032400179383, 43.524898794148825 ], [ -5.74032400179383, 43.530713553953994 ], [ -5.739583785826321, 43.530713553953994 ], [ -5.739583785826321, 43.531128872490477 ], [ -5.738843569858814, 43.531128872490477 ], [ -5.738843569858814, 43.531544188167018 ], [ -5.738103353891305, 43.531544188167018 ], [ -5.738103353891305, 43.531959500983589 ], [ -5.737363137923798, 43.531959500983589 ], [ -5.737363137923798, 43.532790118036843 ], [ -5.73662292195629, 43.532790118036843 ], [ -5.73662292195629, 43.533205422273518 ], [ -5.73588270598878, 43.533205422273518 ], [ -5.73588270598878, 43.533620723650237 ], [ -5.735142490021273, 43.533620723650237 ], [ -5.735142490021273, 43.53403602216698 ], [ -5.734402274053765, 43.53403602216698 ], [ -5.734402274053765, 43.534451317823752 ], [ -5.733662058086256, 43.534451317823752 ], [ -5.733662058086256, 43.534866610620547 ], [ -5.732921842118747, 43.534866610620547 ], [ -5.732921842118747, 43.535697187634213 ], [ -5.732181626151239, 43.535697187634213 ], [ -5.732181626151239, 43.536112471851069 ], [ -5.73144141018373, 43.536112471851069 ], [ -5.73144141018373, 43.536527753207956 ], [ -5.730701194216222, 43.536527753207956 ], [ -5.730701194216222, 43.536943031704851 ], [ -5.729960978248714, 43.536943031704851 ], [ -5.729960978248714, 43.537358307341755 ], [ -5.729220762281205, 43.537358307341755 ], [ -5.729220762281205, 43.537773580118674 ], [ -5.724779466476156, 43.537773580118674 ], [ -5.724779466476156, 43.537358307341755 ], [ -5.724039250508648, 43.537358307341755 ], [ -5.724039250508648, 43.536943031704851 ], [ -5.723299034541139, 43.536943031704851 ] ] ], [ [ [ -5.840253157407456, 43.550645617637002 ], [ -5.840253157407456, 43.550230433520795 ], [ -5.83877272547244, 43.550230433520795 ], [ -5.83877272547244, 43.549815246544526 ], [ -5.838032509504931, 43.549815246544526 ], [ -5.838032509504931, 43.548984864011857 ], [ -5.837292293537423, 43.548984864011857 ], [ -5.837292293537423, 43.54815447003898 ], [ -5.836552077569914, 43.54815447003898 ], [ -5.836552077569914, 43.546908857629347 ], [ -5.835811861602406, 43.546908857629347 ], [ -5.835811861602406, 43.54607843505606 ], [ -5.831370565797356, 43.54607843505606 ], [ -5.831370565797356, 43.545663219479366 ], [ -5.827669485959815, 43.545663219479366 ], [ -5.827669485959815, 43.545248001042651 ], [ -5.826929269992306, 43.545248001042651 ], [ -5.826929269992306, 43.544832779745889 ], [ -5.826189054024797, 43.544832779745889 ], [ -5.826189054024797, 43.544417555589114 ], [ -5.82544883805729, 43.544417555589114 ], [ -5.82544883805729, 43.543587098695482 ], [ -5.824708622089781, 43.543587098695482 ], [ -5.824708622089781, 43.543171865958641 ], [ -5.823968406122273, 43.543171865958641 ], [ -5.823968406122273, 43.542756630361758 ], [ -5.823228190154764, 43.542756630361758 ], [ -5.823228190154764, 43.54192615058799 ], [ -5.818046678382206, 43.54192615058799 ], [ -5.818046678382206, 43.541095659374164 ], [ -5.817306462414698, 43.541095659374164 ], [ -5.817306462414698, 43.540265156720295 ], [ -5.816566246447189, 43.540265156720295 ], [ -5.816566246447189, 43.539849901103352 ], [ -5.815826030479681, 43.539849901103352 ], [ -5.815826030479681, 43.53403602216698 ], [ -5.816566246447189, 43.53403602216698 ], [ -5.816566246447189, 43.533620723650237 ], [ -5.817306462414698, 43.533620723650237 ], [ -5.817306462414698, 43.532790118036843 ], [ -5.818046678382206, 43.532790118036843 ], [ -5.818046678382206, 43.531959500983589 ], [ -5.823968406122273, 43.531959500983589 ], [ -5.823968406122273, 43.53237481094019 ], [ -5.828409701927322, 43.53237481094019 ], [ -5.828409701927322, 43.531959500983589 ], [ -5.829149917894831, 43.531959500983589 ], [ -5.829149917894831, 43.531544188167018 ], [ -5.830630349829847, 43.531544188167018 ], [ -5.830630349829847, 43.531128872490477 ], [ -5.832110781764865, 43.531128872490477 ], [ -5.832110781764865, 43.531544188167018 ], [ -5.832850997732372, 43.531544188167018 ], [ -5.832850997732372, 43.531959500983589 ], [ -5.833591213699881, 43.531959500983589 ], [ -5.833591213699881, 43.53237481094019 ], [ -5.835071645634897, 43.53237481094019 ], [ -5.835071645634897, 43.532790118036843 ], [ -5.835811861602406, 43.532790118036843 ], [ -5.835811861602406, 43.533205422273518 ], [ -5.836552077569914, 43.533205422273518 ], [ -5.836552077569914, 43.533620723650237 ], [ -5.837292293537423, 43.533620723650237 ], [ -5.837292293537423, 43.53403602216698 ], [ -5.83877272547244, 43.53403602216698 ], [ -5.83877272547244, 43.534451317823752 ], [ -5.839512941439948, 43.534451317823752 ], [ -5.839512941439948, 43.535281900557365 ], [ -5.840253157407456, 43.535281900557365 ], [ -5.840253157407456, 43.537358307341755 ], [ -5.840993373374964, 43.537358307341755 ], [ -5.840993373374964, 43.539019381289471 ], [ -5.842473805309981, 43.539019381289471 ], [ -5.842473805309981, 43.53860411709254 ], [ -5.843954237244998, 43.53860411709254 ], [ -5.843954237244998, 43.538188850035603 ], [ -5.845434669180014, 43.538188850035603 ], [ -5.845434669180014, 43.53860411709254 ], [ -5.846174885147523, 43.53860411709254 ], [ -5.846174885147523, 43.539019381289471 ], [ -5.847655317082539, 43.539019381289471 ], [ -5.847655317082539, 43.539434642626411 ], [ -5.848395533050048, 43.539434642626411 ], [ -5.848395533050048, 43.539849901103352 ], [ -5.849135749017555, 43.539849901103352 ], [ -5.849135749017555, 43.540680409477226 ], [ -5.849875964985064, 43.540680409477226 ], [ -5.849875964985064, 43.542341391904877 ], [ -5.850616180952573, 43.542341391904877 ], [ -5.850616180952573, 43.545248001042651 ], [ -5.849875964985064, 43.545248001042651 ], [ -5.849875964985064, 43.54773926876247 ], [ -5.849135749017555, 43.54773926876247 ], [ -5.849135749017555, 43.549815246544526 ], [ -5.848395533050048, 43.549815246544526 ], [ -5.848395533050048, 43.550230433520795 ], [ -5.847655317082539, 43.550230433520795 ], [ -5.847655317082539, 43.550645617637002 ], [ -5.846174885147523, 43.550645617637002 ], [ -5.846174885147523, 43.551060798893154 ], [ -5.845434669180014, 43.551060798893154 ], [ -5.845434669180014, 43.551475977289243 ], [ -5.843214021277489, 43.551475977289243 ], [ -5.843214021277489, 43.551060798893154 ], [ -5.841733589342473, 43.551060798893154 ], [ -5.841733589342473, 43.550645617637002 ], [ -5.840253157407456, 43.550645617637002 ] ] ], [ [ [ -0.935582156697232, 35.574224701326465 ], [ -0.935582156697232, 35.573758764450957 ], [ -0.934841940729723, 35.573758764450957 ], [ -0.934841940729723, 35.573292824865341 ], [ -0.934101724762215, 35.573292824865341 ], [ -0.934101724762215, 35.57282688256965 ], [ -0.932621292827198, 35.57282688256965 ], [ -0.932621292827198, 35.572360937563893 ], [ -0.93188107685969, 35.572360937563893 ], [ -0.93188107685969, 35.571429039422256 ], [ -0.931140860892182, 35.571429039422256 ], [ -0.931140860892182, 35.56956521061889 ], [ -0.930400644924673, 35.56956521061889 ], [ -0.930400644924673, 35.56770133845621 ], [ -0.929660428957165, 35.56770133845621 ], [ -0.929660428957165, 35.565837422935175 ], [ -0.928920212989657, 35.565837422935175 ], [ -0.928920212989657, 35.563507467562687 ], [ -0.929660428957165, 35.563507467562687 ], [ -0.929660428957165, 35.56164345448888 ], [ -0.930400644924673, 35.56164345448888 ], [ -0.930400644924673, 35.560711431693733 ], [ -0.931140860892182, 35.560711431693733 ], [ -0.931140860892182, 35.560245416231631 ], [ -0.93188107685969, 35.560245416231631 ], [ -0.93188107685969, 35.559779398059881 ], [ -0.933361508794706, 35.559779398059881 ], [ -0.933361508794706, 35.559313377178498 ], [ -0.934101724762215, 35.559313377178498 ], [ -0.934101724762215, 35.558847353587474 ], [ -0.934841940729723, 35.558847353587474 ], [ -0.934841940729723, 35.558381327286853 ], [ -0.935582156697232, 35.558381327286853 ], [ -0.935582156697232, 35.557915298276626 ], [ -0.937062588632248, 35.557915298276626 ], [ -0.937062588632248, 35.557449266556823 ], [ -0.939283236534773, 35.557449266556823 ], [ -0.939283236534773, 35.557915298276626 ], [ -0.941503884437298, 35.557915298276626 ], [ -0.941503884437298, 35.558381327286853 ], [ -0.944464748307332, 35.558381327286853 ], [ -0.944464748307332, 35.558847353587474 ], [ -0.94520496427484, 35.558847353587474 ], [ -0.94520496427484, 35.560245416231631 ], [ -0.945945180242348, 35.560245416231631 ], [ -0.945945180242348, 35.561177444446159 ], [ -0.946685396209857, 35.561177444446159 ], [ -0.946685396209857, 35.562109461821933 ], [ -0.947425612177365, 35.562109461821933 ], [ -0.947425612177365, 35.563507467562687 ], [ -0.948165828144873, 35.563507467562687 ], [ -0.948165828144873, 35.564439457841075 ], [ -0.947425612177365, 35.564439457841075 ], [ -0.947425612177365, 35.56770133845621 ], [ -0.946685396209857, 35.56770133845621 ], [ -0.946685396209857, 35.570963086286405 ], [ -0.945945180242348, 35.570963086286405 ], [ -0.945945180242348, 35.573292824865341 ], [ -0.944464748307332, 35.573292824865341 ], [ -0.944464748307332, 35.573758764450957 ], [ -0.943724532339823, 35.573758764450957 ], [ -0.943724532339823, 35.574224701326465 ], [ -0.942244100404807, 35.574224701326465 ], [ -0.942244100404807, 35.574690635491883 ], [ -0.94076366846979, 35.574690635491883 ], [ -0.94076366846979, 35.575156566947186 ], [ -0.937802804599756, 35.575156566947186 ], [ -0.937802804599756, 35.574690635491883 ], [ -0.937062588632248, 35.574690635491883 ], [ -0.937062588632248, 35.574224701326465 ], [ -0.935582156697232, 35.574224701326465 ] ] ], [ [ [ 0.544109562351929, 35.788732754640378 ], [ 0.544849778319437, 35.788732754640378 ], [ 0.544849778319437, 35.787803380056921 ], [ 0.545589994286945, 35.787803380056921 ], [ 0.545589994286945, 35.787338688689786 ], [ 0.546330210254454, 35.787338688689786 ], [ 0.546330210254454, 35.786409297804781 ], [ 0.547070426221962, 35.786409297804781 ], [ 0.547070426221962, 35.781762180368901 ], [ 0.54781064218947, 35.781762180368901 ], [ 0.54781064218947, 35.78083272428038 ], [ 0.547070426221962, 35.78083272428038 ], [ 0.547070426221962, 35.779903257325017 ], [ 0.546330210254454, 35.779903257325017 ], [ 0.546330210254454, 35.77897377950292 ], [ 0.545589994286945, 35.77897377950292 ], [ 0.545589994286945, 35.777579542394932 ], [ 0.544849778319437, 35.777579542394932 ], [ 0.544849778319437, 35.776650037406554 ], [ 0.544109562351929, 35.776650037406554 ], [ 0.544109562351929, 35.775720521551847 ], [ 0.541888914449404, 35.775720521551847 ], [ 0.541888914449404, 35.776185280837481 ], [ 0.540408482514387, 35.776185280837481 ], [ 0.540408482514387, 35.776650037406554 ], [ 0.53892805057937, 35.776650037406554 ], [ 0.53892805057937, 35.777114791259052 ], [ 0.537447618644354, 35.777114791259052 ], [ 0.537447618644354, 35.777579542394932 ], [ 0.535967186709337, 35.777579542394932 ], [ 0.535967186709337, 35.778044290814222 ], [ 0.53448675477432, 35.778044290814222 ], [ 0.53448675477432, 35.778509036516901 ], [ 0.533006322839304, 35.778509036516901 ], [ 0.533006322839304, 35.779903257325017 ], [ 0.532266106871795, 35.779903257325017 ], [ 0.532266106871795, 35.78083272428038 ], [ 0.531525890904287, 35.78083272428038 ], [ 0.531525890904287, 35.785944598286946 ], [ 0.532266106871795, 35.785944598286946 ], [ 0.532266106871795, 35.786873994605742 ], [ 0.533006322839304, 35.786873994605742 ], [ 0.533006322839304, 35.787338688689786 ], [ 0.533746538806812, 35.787338688689786 ], [ 0.533746538806812, 35.788268068707133 ], [ 0.53448675477432, 35.788268068707133 ], [ 0.53448675477432, 35.788732754640378 ], [ 0.535226970741829, 35.788732754640378 ], [ 0.535226970741829, 35.789662118356006 ], [ 0.535967186709337, 35.789662118356006 ], [ 0.535967186709337, 35.790591471203676 ], [ 0.542629130416912, 35.790591471203676 ], [ 0.542629130416912, 35.790126796138338 ], [ 0.54336934638442, 35.790126796138338 ], [ 0.54336934638442, 35.789662118356006 ], [ 0.544109562351929, 35.789662118356006 ], [ 0.544109562351929, 35.788732754640378 ] ] ], [ [ [ -0.276789945614814, 35.824505411354338 ], [ -0.276049729647306, 35.824505411354338 ], [ -0.276049729647306, 35.824040934669902 ], [ -0.274569297712289, 35.824040934669902 ], [ -0.274569297712289, 35.8235764552674 ], [ -0.272348649809764, 35.8235764552674 ], [ -0.272348649809764, 35.82311197314683 ], [ -0.270128001907239, 35.82311197314683 ], [ -0.270128001907239, 35.822647488308213 ], [ -0.267167138037206, 35.822647488308213 ], [ -0.267167138037206, 35.822183000751579 ], [ -0.264946490134681, 35.822183000751579 ], [ -0.264946490134681, 35.821718510476927 ], [ -0.262725842232156, 35.821718510476927 ], [ -0.262725842232156, 35.821254017484272 ], [ -0.260505194329631, 35.821254017484272 ], [ -0.260505194329631, 35.820789521773627 ], [ -0.259764978362122, 35.820789521773627 ], [ -0.259764978362122, 35.819860522198454 ], [ -0.259024762394614, 35.819860522198454 ], [ -0.259024762394614, 35.81939601833394 ], [ -0.258284546427106, 35.81939601833394 ], [ -0.258284546427106, 35.818467002451158 ], [ -0.257544330459597, 35.818467002451158 ], [ -0.257544330459597, 35.818002490432896 ], [ -0.256804114492089, 35.818002490432896 ], [ -0.256804114492089, 35.81753797569678 ], [ -0.253843250622056, 35.81753797569678 ], [ -0.253843250622056, 35.817073458242774 ], [ -0.252362818687039, 35.817073458242774 ], [ -0.252362818687039, 35.816608938070921 ], [ -0.251622602719531, 35.816608938070921 ], [ -0.251622602719531, 35.816144415181228 ], [ -0.250882386752022, 35.816144415181228 ], [ -0.250882386752022, 35.815215361248384 ], [ -0.250142170784514, 35.815215361248384 ], [ -0.250142170784514, 35.814750830205249 ], [ -0.249401954817006, 35.814750830205249 ], [ -0.249401954817006, 35.814286296444358 ], [ -0.248661738849497, 35.814286296444358 ], [ -0.248661738849497, 35.813357220769255 ], [ -0.247921522881989, 35.813357220769255 ], [ -0.247921522881989, 35.812892678855093 ], [ -0.247181306914481, 35.812892678855093 ], [ -0.247181306914481, 35.812428134223211 ], [ -0.244220443044447, 35.812428134223211 ], [ -0.244220443044447, 35.811963586873631 ], [ -0.243480227076939, 35.811963586873631 ], [ -0.243480227076939, 35.812428134223211 ], [ -0.242740011109431, 35.812428134223211 ], [ -0.242740011109431, 35.813357220769255 ], [ -0.241999795141922, 35.813357220769255 ], [ -0.241999795141922, 35.814286296444358 ], [ -0.241259579174414, 35.814286296444358 ], [ -0.241259579174414, 35.814750830205249 ], [ -0.239779147239397, 35.814750830205249 ], [ -0.239779147239397, 35.815215361248384 ], [ -0.238298715304381, 35.815215361248384 ], [ -0.238298715304381, 35.815679889573708 ], [ -0.237558499336872, 35.815679889573708 ], [ -0.237558499336872, 35.816144415181228 ], [ -0.235337851434347, 35.816144415181228 ], [ -0.235337851434347, 35.815679889573708 ], [ -0.233117203531822, 35.815679889573708 ], [ -0.233117203531822, 35.815215361248384 ], [ -0.231636771596806, 35.815215361248384 ], [ -0.231636771596806, 35.814750830205249 ], [ -0.230896555629297, 35.814750830205249 ], [ -0.230896555629297, 35.813357220769255 ], [ -0.230156339661789, 35.813357220769255 ], [ -0.230156339661789, 35.812428134223211 ], [ -0.229416123694281, 35.812428134223211 ], [ -0.229416123694281, 35.811034484021377 ], [ -0.228675907726772, 35.811034484021377 ], [ -0.228675907726772, 35.810105370298473 ], [ -0.227935691759264, 35.810105370298473 ], [ -0.227935691759264, 35.809176245705025 ], [ -0.227195475791756, 35.809176245705025 ], [ -0.227195475791756, 35.80731796390701 ], [ -0.227935691759264, 35.80731796390701 ], [ -0.227935691759264, 35.805924224024189 ], [ -0.228675907726772, 35.805924224024189 ], [ -0.228675907726772, 35.804530459683846 ], [ -0.229416123694281, 35.804530459683846 ], [ -0.229416123694281, 35.803601269869652 ], [ -0.230156339661789, 35.803601269869652 ], [ -0.230156339661789, 35.803136670886389 ], [ -0.230896555629297, 35.803136670886389 ], [ -0.230896555629297, 35.802672069185711 ], [ -0.231636771596806, 35.802672069185711 ], [ -0.231636771596806, 35.80220746476764 ], [ -0.232376987564314, 35.80220746476764 ], [ -0.232376987564314, 35.801742857632192 ], [ -0.237558499336872, 35.801742857632192 ], [ -0.237558499336872, 35.80220746476764 ], [ -0.238298715304381, 35.80220746476764 ], [ -0.238298715304381, 35.802672069185711 ], [ -0.239038931271889, 35.802672069185711 ], [ -0.239038931271889, 35.800813635209181 ], [ -0.239779147239397, 35.800813635209181 ], [ -0.239779147239397, 35.799884401916799 ], [ -0.240519363206906, 35.799884401916799 ], [ -0.240519363206906, 35.799419781194644 ], [ -0.241259579174414, 35.799419781194644 ], [ -0.241259579174414, 35.798955157755167 ], [ -0.242740011109431, 35.798955157755167 ], [ -0.242740011109431, 35.798490531598425 ], [ -0.245700874979464, 35.798490531598425 ], [ -0.245700874979464, 35.798955157755167 ], [ -0.247921522881989, 35.798955157755167 ], [ -0.247921522881989, 35.799419781194644 ], [ -0.249401954817006, 35.799419781194644 ], [ -0.249401954817006, 35.799884401916799 ], [ -0.250882386752022, 35.799884401916799 ], [ -0.250882386752022, 35.799419781194644 ], [ -0.252362818687039, 35.799419781194644 ], [ -0.252362818687039, 35.798955157755167 ], [ -0.253843250622056, 35.798955157755167 ], [ -0.253843250622056, 35.798490531598425 ], [ -0.255323682557072, 35.798490531598425 ], [ -0.255323682557072, 35.798025902724412 ], [ -0.261245410297139, 35.798025902724412 ], [ -0.261245410297139, 35.798490531598425 ], [ -0.266426922069697, 35.798490531598425 ], [ -0.266426922069697, 35.799419781194644 ], [ -0.267167138037206, 35.799419781194644 ], [ -0.267167138037206, 35.799884401916799 ], [ -0.267907354004714, 35.799884401916799 ], [ -0.267907354004714, 35.800349019921647 ], [ -0.268647569972222, 35.800349019921647 ], [ -0.268647569972222, 35.801278247779365 ], [ -0.269387785939731, 35.801278247779365 ], [ -0.269387785939731, 35.801742857632192 ], [ -0.270128001907239, 35.801742857632192 ], [ -0.270128001907239, 35.80220746476764 ], [ -0.270868217874747, 35.80220746476764 ], [ -0.270868217874747, 35.803136670886389 ], [ -0.271608433842256, 35.803136670886389 ], [ -0.271608433842256, 35.803601269869652 ], [ -0.272348649809764, 35.803601269869652 ], [ -0.272348649809764, 35.804530459683846 ], [ -0.273088865777272, 35.804530459683846 ], [ -0.273088865777272, 35.804995050514783 ], [ -0.273829081744781, 35.804995050514783 ], [ -0.273829081744781, 35.804065866135467 ], [ -0.274569297712289, 35.804065866135467 ], [ -0.274569297712289, 35.803136670886389 ], [ -0.275309513679797, 35.803136670886389 ], [ -0.275309513679797, 35.80220746476764 ], [ -0.276049729647306, 35.80220746476764 ], [ -0.276049729647306, 35.801742857632192 ], [ -0.276789945614814, 35.801742857632192 ], [ -0.276789945614814, 35.801278247779365 ], [ -0.278270377549831, 35.801278247779365 ], [ -0.278270377549831, 35.800813635209181 ], [ -0.279010593517339, 35.800813635209181 ], [ -0.279010593517339, 35.800349019921647 ], [ -0.280491025452356, 35.800349019921647 ], [ -0.280491025452356, 35.800813635209181 ], [ -0.281231241419864, 35.800813635209181 ], [ -0.281231241419864, 35.801278247779365 ], [ -0.282711673354881, 35.801278247779365 ], [ -0.282711673354881, 35.801742857632192 ], [ -0.283451889322389, 35.801742857632192 ], [ -0.283451889322389, 35.80220746476764 ], [ -0.284192105289897, 35.80220746476764 ], [ -0.284192105289897, 35.805459638628236 ], [ -0.284932321257406, 35.805459638628236 ], [ -0.284932321257406, 35.809640809360559 ], [ -0.285672537224914, 35.809640809360559 ], [ -0.285672537224914, 35.813821759965677 ], [ -0.286412753192422, 35.813821759965677 ], [ -0.286412753192422, 35.818467002451158 ], [ -0.287152969159931, 35.818467002451158 ], [ -0.287152969159931, 35.821254017484272 ], [ -0.286412753192422, 35.821254017484272 ], [ -0.286412753192422, 35.822183000751579 ], [ -0.285672537224914, 35.822183000751579 ], [ -0.285672537224914, 35.822647488308213 ], [ -0.284932321257406, 35.822647488308213 ], [ -0.284932321257406, 35.82311197314683 ], [ -0.284192105289897, 35.82311197314683 ], [ -0.284192105289897, 35.8235764552674 ], [ -0.283451889322389, 35.8235764552674 ], [ -0.283451889322389, 35.824040934669902 ], [ -0.282711673354881, 35.824040934669902 ], [ -0.282711673354881, 35.824505411354338 ], [ -0.281971457387372, 35.824505411354338 ], [ -0.281971457387372, 35.824969885320684 ], [ -0.281231241419864, 35.824969885320684 ], [ -0.281231241419864, 35.82543435656892 ], [ -0.280491025452356, 35.82543435656892 ], [ -0.280491025452356, 35.825898825099053 ], [ -0.278270377549831, 35.825898825099053 ], [ -0.278270377549831, 35.82543435656892 ], [ -0.277530161582322, 35.82543435656892 ], [ -0.277530161582322, 35.824969885320684 ], [ -0.276789945614814, 35.824969885320684 ], [ -0.276789945614814, 35.824505411354338 ] ] ], [ [ [ 3.750725133598033, 36.188279898955365 ], [ 3.750725133598033, 36.187817560404099 ], [ 3.75220556553305, 36.187817560404099 ], [ 3.75220556553305, 36.187355219123539 ], [ 3.753685997468065, 36.187355219123539 ], [ 3.753685997468065, 36.186892875113685 ], [ 3.754426213435575, 36.186892875113685 ], [ 3.754426213435575, 36.185505826708528 ], [ 3.755166429403083, 36.185505826708528 ], [ 3.755166429403083, 36.183656390625785 ], [ 3.755906645370591, 36.183656390625785 ], [ 3.755906645370591, 36.182269284907314 ], [ 3.756646861338099, 36.182269284907314 ], [ 3.756646861338099, 36.180882154626616 ], [ 3.757387077305608, 36.180882154626616 ], [ 3.757387077305608, 36.17903260937846 ], [ 3.756646861338099, 36.17903260937846 ], [ 3.756646861338099, 36.177645421787389 ], [ 3.755906645370591, 36.177645421787389 ], [ 3.755906645370591, 36.176258209635364 ], [ 3.755166429403083, 36.176258209635364 ], [ 3.755166429403083, 36.174870972922768 ], [ 3.754426213435575, 36.174870972922768 ], [ 3.754426213435575, 36.173483711649958 ], [ 3.753685997468065, 36.173483711649958 ], [ 3.753685997468065, 36.172558857157064 ], [ 3.75220556553305, 36.172558857157064 ], [ 3.75220556553305, 36.17209642581733 ], [ 3.750725133598033, 36.17209642581733 ], [ 3.750725133598033, 36.171633991748799 ], [ 3.749984917630524, 36.171633991748799 ], [ 3.749984917630524, 36.171171554951435 ], [ 3.748504485695508, 36.171171554951435 ], [ 3.748504485695508, 36.170709115425268 ], [ 3.746283837792983, 36.170709115425268 ], [ 3.746283837792983, 36.171171554951435 ], [ 3.745543621825474, 36.171171554951435 ], [ 3.745543621825474, 36.171633991748799 ], [ 3.744063189890458, 36.171633991748799 ], [ 3.744063189890458, 36.17209642581733 ], [ 3.743322973922949, 36.17209642581733 ], [ 3.743322973922949, 36.172558857157064 ], [ 3.741842541987933, 36.172558857157064 ], [ 3.741842541987933, 36.173021285767938 ], [ 3.740362110052916, 36.173021285767938 ], [ 3.740362110052916, 36.173483711649958 ], [ 3.739621894085408, 36.173483711649958 ], [ 3.739621894085408, 36.173946134803117 ], [ 3.738141462150391, 36.173946134803117 ], [ 3.738141462150391, 36.175333387889239 ], [ 3.737401246182882, 36.175333387889239 ], [ 3.737401246182882, 36.177183020465691 ], [ 3.736661030215375, 36.177183020465691 ], [ 3.736661030215375, 36.17949499978409 ], [ 3.737401246182882, 36.17949499978409 ], [ 3.737401246182882, 36.182731656209292 ], [ 3.738141462150391, 36.182731656209292 ], [ 3.738141462150391, 36.185968178906165 ], [ 3.738881678117899, 36.185968178906165 ], [ 3.738881678117899, 36.186892875113685 ], [ 3.740362110052916, 36.186892875113685 ], [ 3.740362110052916, 36.187355219123539 ], [ 3.741102326020424, 36.187355219123539 ], [ 3.741102326020424, 36.187817560404099 ], [ 3.742582757955441, 36.187817560404099 ], [ 3.742582757955441, 36.188279898955365 ], [ 3.743322973922949, 36.188279898955365 ], [ 3.743322973922949, 36.188742234777301 ], [ 3.744803405857966, 36.188742234777301 ], [ 3.744803405857966, 36.189204567869922 ], [ 3.747764269728, 36.189204567869922 ], [ 3.747764269728, 36.188742234777301 ], [ 3.749244701663016, 36.188742234777301 ], [ 3.749244701663016, 36.188279898955365 ], [ 3.750725133598033, 36.188279898955365 ] ] ], [ [ [ 2.889113747418332, 36.611093797658391 ], [ 2.889113747418332, 36.610633967666281 ], [ 2.88985396338584, 36.610633967666281 ], [ 2.88985396338584, 36.61017413493235 ], [ 2.890594179353348, 36.61017413493235 ], [ 2.890594179353348, 36.606495374357721 ], [ 2.891334395320857, 36.606495374357721 ], [ 2.891334395320857, 36.605115793904091 ], [ 2.892814827255873, 36.605115793904091 ], [ 2.892814827255873, 36.605575656796958 ], [ 2.893555043223381, 36.605575656796958 ], [ 2.893555043223381, 36.606035516948175 ], [ 2.895035475158398, 36.606035516948175 ], [ 2.895035475158398, 36.605575656796958 ], [ 2.895775691125907, 36.605575656796958 ], [ 2.895775691125907, 36.605115793904091 ], [ 2.896515907093415, 36.605115793904091 ], [ 2.896515907093415, 36.604655928269572 ], [ 2.897256123060923, 36.604655928269572 ], [ 2.897256123060923, 36.604196059893432 ], [ 2.897996339028431, 36.604196059893432 ], [ 2.897996339028431, 36.603736188775677 ], [ 2.89873655499594, 36.603736188775677 ], [ 2.89873655499594, 36.603276314916315 ], [ 2.899476770963448, 36.603276314916315 ], [ 2.899476770963448, 36.602816438315351 ], [ 2.900216986930956, 36.602816438315351 ], [ 2.900216986930956, 36.602356558972815 ], [ 2.901697418865973, 36.602356558972815 ], [ 2.901697418865973, 36.601896676888721 ], [ 2.902437634833482, 36.601896676888721 ], [ 2.902437634833482, 36.600057121136963 ], [ 2.90317785080099, 36.600057121136963 ], [ 2.90317785080099, 36.598217521521264 ], [ 2.903918066768498, 36.598217521521264 ], [ 2.903918066768498, 36.597757614763687 ], [ 2.90317785080099, 36.597757614763687 ], [ 2.90317785080099, 36.596377878042439 ], [ 2.902437634833482, 36.596377878042439 ], [ 2.902437634833482, 36.595458039854627 ], [ 2.901697418865973, 36.595458039854627 ], [ 2.901697418865973, 36.594078262012708 ], [ 2.900957202898465, 36.594078262012708 ], [ 2.900957202898465, 36.593158396411461 ], [ 2.900216986930956, 36.593158396411461 ], [ 2.900216986930956, 36.592698459498877 ], [ 2.899476770963448, 36.592698459498877 ], [ 2.899476770963448, 36.593158396411461 ], [ 2.896515907093415, 36.593158396411461 ], [ 2.896515907093415, 36.593618330582743 ], [ 2.89429525919089, 36.593618330582743 ], [ 2.89429525919089, 36.594078262012708 ], [ 2.891334395320857, 36.594078262012708 ], [ 2.891334395320857, 36.594538190701364 ], [ 2.889113747418332, 36.594538190701364 ], [ 2.889113747418332, 36.596377878042439 ], [ 2.888373531450823, 36.596377878042439 ], [ 2.888373531450823, 36.598217521521264 ], [ 2.887633315483315, 36.598217521521264 ], [ 2.887633315483315, 36.598677425537396 ], [ 2.888373531450823, 36.598677425537396 ], [ 2.888373531450823, 36.600976904495894 ], [ 2.889113747418332, 36.600976904495894 ], [ 2.889113747418332, 36.601896676888721 ], [ 2.888373531450823, 36.601896676888721 ], [ 2.888373531450823, 36.601436792063076 ], [ 2.88541266758079, 36.601436792063076 ], [ 2.88541266758079, 36.600517014187183 ], [ 2.886152883548299, 36.600517014187183 ], [ 2.886152883548299, 36.599137326812055 ], [ 2.886893099515807, 36.599137326812055 ], [ 2.886893099515807, 36.597757614763687 ], [ 2.887633315483315, 36.597757614763687 ], [ 2.887633315483315, 36.596377878042439 ], [ 2.886893099515807, 36.596377878042439 ], [ 2.886893099515807, 36.594998116648675 ], [ 2.886152883548299, 36.594998116648675 ], [ 2.886152883548299, 36.593618330582743 ], [ 2.88541266758079, 36.593618330582743 ], [ 2.88541266758079, 36.592238519845012 ], [ 2.884672451613281, 36.592238519845012 ], [ 2.884672451613281, 36.590858684435844 ], [ 2.883932235645773, 36.590858684435844 ], [ 2.883932235645773, 36.590398733816969 ], [ 2.883192019678265, 36.590398733816969 ], [ 2.883192019678265, 36.58993878045689 ], [ 2.882451803710757, 36.58993878045689 ], [ 2.882451803710757, 36.589478824355602 ], [ 2.88097137177574, 36.589478824355602 ], [ 2.88097137177574, 36.589018865513104 ], [ 2.880231155808231, 36.589018865513104 ], [ 2.880231155808231, 36.588558903929453 ], [ 2.879490939840723, 36.588558903929453 ], [ 2.879490939840723, 36.588098939604613 ], [ 2.878010507905707, 36.588098939604613 ], [ 2.878010507905707, 36.588558903929453 ], [ 2.875049644035673, 36.588558903929453 ], [ 2.875049644035673, 36.589018865513104 ], [ 2.874309428068165, 36.589018865513104 ], [ 2.874309428068165, 36.589478824355602 ], [ 2.873569212100656, 36.589478824355602 ], [ 2.873569212100656, 36.58993878045689 ], [ 2.872828996133148, 36.58993878045689 ], [ 2.872828996133148, 36.590398733816969 ], [ 2.87208878016564, 36.590398733816969 ], [ 2.87208878016564, 36.590858684435844 ], [ 2.871348564198132, 36.590858684435844 ], [ 2.871348564198132, 36.591318632313481 ], [ 2.870608348230624, 36.591318632313481 ], [ 2.870608348230624, 36.591778577449873 ], [ 2.869868132263115, 36.591778577449873 ], [ 2.869868132263115, 36.592698459498877 ], [ 2.869127916295606, 36.592698459498877 ], [ 2.869127916295606, 36.594998116648675 ], [ 2.868387700328098, 36.594998116648675 ], [ 2.868387700328098, 36.597297705264687 ], [ 2.86764748436059, 36.597297705264687 ], [ 2.86764748436059, 36.600976904495894 ], [ 2.868387700328098, 36.600976904495894 ], [ 2.868387700328098, 36.602816438315351 ], [ 2.869127916295606, 36.602816438315351 ], [ 2.869127916295606, 36.604655928269572 ], [ 2.869868132263115, 36.604655928269572 ], [ 2.869868132263115, 36.605115793904091 ], [ 2.870608348230624, 36.605115793904091 ], [ 2.870608348230624, 36.605575656796958 ], [ 2.87208878016564, 36.605575656796958 ], [ 2.87208878016564, 36.606035516948175 ], [ 2.873569212100656, 36.606035516948175 ], [ 2.873569212100656, 36.606495374357721 ], [ 2.87653007597069, 36.606495374357721 ], [ 2.87653007597069, 36.606035516948175 ], [ 2.877270291938198, 36.606035516948175 ], [ 2.877270291938198, 36.605575656796958 ], [ 2.878010507905707, 36.605575656796958 ], [ 2.878010507905707, 36.605115793904091 ], [ 2.879490939840723, 36.605115793904091 ], [ 2.879490939840723, 36.604655928269572 ], [ 2.880231155808231, 36.604655928269572 ], [ 2.880231155808231, 36.604196059893432 ], [ 2.88097137177574, 36.604196059893432 ], [ 2.88097137177574, 36.605575656796958 ], [ 2.880231155808231, 36.605575656796958 ], [ 2.880231155808231, 36.607415080951746 ], [ 2.88097137177574, 36.607415080951746 ], [ 2.88097137177574, 36.608794620279923 ], [ 2.881711587743248, 36.608794620279923 ], [ 2.881711587743248, 36.61017413493235 ], [ 2.882451803710757, 36.61017413493235 ], [ 2.882451803710757, 36.610633967666281 ], [ 2.883192019678265, 36.610633967666281 ], [ 2.883192019678265, 36.611093797658391 ], [ 2.884672451613281, 36.611093797658391 ], [ 2.884672451613281, 36.611553624908673 ], [ 2.88541266758079, 36.611553624908673 ], [ 2.88541266758079, 36.612013449417155 ], [ 2.886893099515807, 36.612013449417155 ], [ 2.886893099515807, 36.611553624908673 ], [ 2.887633315483315, 36.611553624908673 ], [ 2.887633315483315, 36.611093797658391 ], [ 2.889113747418332, 36.611093797658391 ] ] ], [ [ [ -1.904524858165641, 36.973044087250884 ], [ -1.902304210263116, 36.973044087250884 ], [ -1.902304210263116, 36.972586424612288 ], [ -1.901563994295608, 36.972586424612288 ], [ -1.901563994295608, 36.971671091079031 ], [ -1.900823778328099, 36.971671091079031 ], [ -1.900823778328099, 36.970755746537762 ], [ -1.900083562360591, 36.970755746537762 ], [ -1.900083562360591, 36.96984039098858 ], [ -1.899343346393083, 36.96984039098858 ], [ -1.899343346393083, 36.968925024431591 ], [ -1.898603130425575, 36.968925024431591 ], [ -1.898603130425575, 36.968467337025196 ], [ -1.897862914458066, 36.968467337025196 ], [ -1.897862914458066, 36.962974873502759 ], [ -1.898603130425575, 36.962974873502759 ], [ -1.898603130425575, 36.962517150322469 ], [ -1.899343346393083, 36.962517150322469 ], [ -1.899343346393083, 36.961601695706641 ], [ -1.900083562360591, 36.961601695706641 ], [ -1.900083562360591, 36.961143964271145 ], [ -1.900823778328099, 36.961143964271145 ], [ -1.900823778328099, 36.960228493144996 ], [ -1.901563994295608, 36.960228493144996 ], [ -1.901563994295608, 36.959770753454407 ], [ -1.906005290100658, 36.959770753454407 ], [ -1.906005290100658, 36.960228493144996 ], [ -1.908966153970691, 36.960228493144996 ], [ -1.908966153970691, 36.96068623008393 ], [ -1.9097063699382, 36.96068623008393 ], [ -1.9097063699382, 36.961601695706641 ], [ -1.910446585905708, 36.961601695706641 ], [ -1.910446585905708, 36.962059424390425 ], [ -1.911186801873216, 36.962059424390425 ], [ -1.911186801873216, 36.962517150322469 ], [ -1.911927017840724, 36.962517150322469 ], [ -1.911927017840724, 36.963432593931294 ], [ -1.912667233808233, 36.963432593931294 ], [ -1.912667233808233, 36.971213420184398 ], [ -1.911927017840724, 36.971213420184398 ], [ -1.911927017840724, 36.972128759221675 ], [ -1.911186801873216, 36.972128759221675 ], [ -1.911186801873216, 36.972586424612288 ], [ -1.910446585905708, 36.972586424612288 ], [ -1.910446585905708, 36.973501747137441 ], [ -1.9097063699382, 36.973501747137441 ], [ -1.9097063699382, 36.97395940427193 ], [ -1.908225938003183, 36.97395940427193 ], [ -1.908225938003183, 36.973501747137441 ], [ -1.904524858165641, 36.973501747137441 ], [ -1.904524858165641, 36.973044087250884 ] ] ], [ [ [ -3.468601197510752, 40.253030605299436 ], [ -3.468601197510752, 40.252156201901066 ], [ -3.467860981543244, 40.252156201901066 ], [ -3.467860981543244, 40.250844575619915 ], [ -3.467120765575736, 40.250844575619915 ], [ -3.467120765575736, 40.249970143976832 ], [ -3.466380549608227, 40.249970143976832 ], [ -3.466380549608227, 40.249095701035969 ], [ -3.465640333640719, 40.249095701035969 ], [ -3.465640333640719, 40.247784015441454 ], [ -3.46490011767321, 40.247784015441454 ], [ -3.46490011767321, 40.247346781261115 ], [ -3.463419685738194, 40.247346781261115 ], [ -3.463419685738194, 40.247784015441454 ], [ -3.461939253803177, 40.247784015441454 ], [ -3.461939253803177, 40.248221246797378 ], [ -3.460458821868161, 40.248221246797378 ], [ -3.460458821868161, 40.248658475328888 ], [ -3.458978389933144, 40.248658475328888 ], [ -3.458978389933144, 40.248221246797378 ], [ -3.458238173965635, 40.248221246797378 ], [ -3.458238173965635, 40.246909544256376 ], [ -3.457497957998127, 40.246909544256376 ], [ -3.457497957998127, 40.246035061773718 ], [ -3.456757742030619, 40.246035061773718 ], [ -3.456757742030619, 40.244723316866896 ], [ -3.45601752606311, 40.244723316866896 ], [ -3.45601752606311, 40.242099750795745 ], [ -3.456757742030619, 40.242099750795745 ], [ -3.456757742030619, 40.241225206177418 ], [ -3.457497957998127, 40.241225206177418 ], [ -3.457497957998127, 40.23991336806769 ], [ -3.458238173965635, 40.23991336806769 ], [ -3.458238173965635, 40.239038795206454 ], [ -3.458978389933144, 40.239038795206454 ], [ -3.458978389933144, 40.238601504539439 ], [ -3.464159901705703, 40.238601504539439 ], [ -3.464159901705703, 40.239038795206454 ], [ -3.46490011767321, 40.239038795206454 ], [ -3.46490011767321, 40.23991336806769 ], [ -3.465640333640719, 40.23991336806769 ], [ -3.465640333640719, 40.239038795206454 ], [ -3.466380549608227, 40.239038795206454 ], [ -3.466380549608227, 40.238164211048165 ], [ -3.467120765575736, 40.238164211048165 ], [ -3.467120765575736, 40.237726914732633 ], [ -3.467860981543244, 40.237726914732633 ], [ -3.467860981543244, 40.237289615592864 ], [ -3.469341413478261, 40.237289615592864 ], [ -3.469341413478261, 40.236852313628852 ], [ -3.470081629445768, 40.236852313628852 ], [ -3.470081629445768, 40.236415008840616 ], [ -3.471562061380785, 40.236415008840616 ], [ -3.471562061380785, 40.235977701228158 ], [ -3.474522925250819, 40.235977701228158 ], [ -3.474522925250819, 40.236415008840616 ], [ -3.47822400508836, 40.236415008840616 ], [ -3.47822400508836, 40.236852313628852 ], [ -3.481184868958394, 40.236852313628852 ], [ -3.481184868958394, 40.237289615592864 ], [ -3.481925084925902, 40.237289615592864 ], [ -3.481925084925902, 40.238164211048165 ], [ -3.482665300893411, 40.238164211048165 ], [ -3.482665300893411, 40.239476083049205 ], [ -3.483405516860918, 40.239476083049205 ], [ -3.483405516860918, 40.2407879296318 ], [ -3.484145732828428, 40.2407879296318 ], [ -3.484145732828428, 40.242099750795745 ], [ -3.484885948795936, 40.242099750795745 ], [ -3.484885948795936, 40.243411546540848 ], [ -3.485626164763444, 40.243411546540848 ], [ -3.485626164763444, 40.24428606291589 ], [ -3.486366380730952, 40.24428606291589 ], [ -3.486366380730952, 40.247346781261115 ], [ -3.485626164763444, 40.247346781261115 ], [ -3.485626164763444, 40.248658475328888 ], [ -3.484885948795936, 40.248658475328888 ], [ -3.484885948795936, 40.250407361210598 ], [ -3.484145732828428, 40.250407361210598 ], [ -3.484145732828428, 40.251281787204768 ], [ -3.483405516860918, 40.251281787204768 ], [ -3.483405516860918, 40.251718995965156 ], [ -3.482665300893411, 40.251718995965156 ], [ -3.482665300893411, 40.252156201901066 ], [ -3.481184868958394, 40.252156201901066 ], [ -3.481184868958394, 40.252593405012497 ], [ -3.479704437023377, 40.252593405012497 ], [ -3.479704437023377, 40.253030605299436 ], [ -3.478964221055869, 40.253030605299436 ], [ -3.478964221055869, 40.253467802761868 ], [ -3.477483789120852, 40.253467802761868 ], [ -3.477483789120852, 40.253904997399822 ], [ -3.470821845413277, 40.253904997399822 ], [ -3.470821845413277, 40.253467802761868 ], [ -3.469341413478261, 40.253467802761868 ], [ -3.469341413478261, 40.253030605299436 ], [ -3.468601197510752, 40.253030605299436 ] ] ], [ [ [ 1.666276969094563, 41.319546424455204 ], [ 1.667017185062072, 41.319546424455204 ], [ 1.667017185062072, 41.318685952030009 ], [ 1.66775740102958, 41.318685952030009 ], [ 1.66775740102958, 41.318255711557249 ], [ 1.668497616997088, 41.318255711557249 ], [ 1.668497616997088, 41.317395222091427 ], [ 1.669237832964597, 41.317395222091427 ], [ 1.669237832964597, 41.316534721265214 ], [ 1.669978048932105, 41.316534721265214 ], [ 1.669978048932105, 41.315674209078693 ], [ 1.670718264899614, 41.315674209078693 ], [ 1.670718264899614, 41.31395315062484 ], [ 1.669978048932105, 41.31395315062484 ], [ 1.669978048932105, 41.308359396826262 ], [ 1.669237832964597, 41.308359396826262 ], [ 1.669237832964597, 41.30749877671883 ], [ 1.668497616997088, 41.30749877671883 ], [ 1.668497616997088, 41.306638145251547 ], [ 1.66775740102958, 41.306638145251547 ], [ 1.66775740102958, 41.306207825257957 ], [ 1.667017185062072, 41.306207825257957 ], [ 1.667017185062072, 41.305777502424441 ], [ 1.661095457322005, 41.305777502424441 ], [ 1.661095457322005, 41.306207825257957 ], [ 1.659615025386988, 41.306207825257957 ], [ 1.659615025386988, 41.306638145251547 ], [ 1.65887480941948, 41.306638145251547 ], [ 1.65887480941948, 41.30749877671883 ], [ 1.658134593451972, 41.30749877671883 ], [ 1.658134593451972, 41.307929088192537 ], [ 1.657394377484463, 41.307929088192537 ], [ 1.657394377484463, 41.308359396826262 ], [ 1.656654161516955, 41.308359396826262 ], [ 1.656654161516955, 41.308789702620011 ], [ 1.655913945549446, 41.308789702620011 ], [ 1.655913945549446, 41.309650305687569 ], [ 1.655173729581938, 41.309650305687569 ], [ 1.655173729581938, 41.312232046730209 ], [ 1.65443351361443, 41.312232046730209 ], [ 1.65443351361443, 41.316104466591995 ], [ 1.655173729581938, 41.316104466591995 ], [ 1.655173729581938, 41.316964973098372 ], [ 1.655913945549446, 41.316964973098372 ], [ 1.655913945549446, 41.317825468244379 ], [ 1.656654161516955, 41.317825468244379 ], [ 1.656654161516955, 41.318685952030009 ], [ 1.657394377484463, 41.318685952030009 ], [ 1.657394377484463, 41.319546424455204 ], [ 1.658134593451972, 41.319546424455204 ], [ 1.658134593451972, 41.319976656407619 ], [ 1.659615025386988, 41.319976656407619 ], [ 1.659615025386988, 41.320406885519908 ], [ 1.66331610522453, 41.320406885519908 ], [ 1.66331610522453, 41.320837111792073 ], [ 1.665536753127055, 41.320837111792073 ], [ 1.665536753127055, 41.320406885519908 ], [ 1.666276969094563, 41.320406885519908 ], [ 1.666276969094563, 41.319546424455204 ] ] ] ] } }
]
}
