{
"type": "FeatureCollection",
"name": "spain_fires_nrt_ba",
"crs": { "type": "name", "properties": { "name": "urn:ogc:def:crs:OGC:1.3:CRS84" } },
"features": [
{ "type": "Feature", "properties": { }, "geometry": { "type": "MultiPolygon", "coordinates": [ [ [ [ -6.09636788216534, 35.244131860837946 ], [ -6.094887450230323, 35.244131860837946 ], [ -6.094887450230323, 35.243196159923691 ], [ -6.094147234262815, 35.243196159923691 ], [ -6.094147234262815, 35.242260448212491 ], [ -6.093407018295306, 35.242260448212491 ], [ -6.093407018295306, 35.241792588308073 ], [ -6.092666802327798, 35.241792588308073 ], [ -6.092666802327798, 35.240856860401699 ], [ -6.09192658636029, 35.240856860401699 ], [ -6.09192658636029, 35.239921121698707 ], [ -6.091186370392781, 35.239921121698707 ], [ -6.091186370392781, 35.238985372199195 ], [ -6.090446154425273, 35.238985372199195 ], [ -6.090446154425273, 35.238049611903328 ], [ -6.089705938457764, 35.238049611903328 ], [ -6.089705938457764, 35.237113840811183 ], [ -6.088965722490255, 35.237113840811183 ], [ -6.088965722490255, 35.2314989875441 ], [ -6.089705938457764, 35.2314989875441 ], [ -6.089705938457764, 35.23103106556232 ], [ -6.090446154425273, 35.23103106556232 ], [ -6.090446154425273, 35.230095213502295 ], [ -6.091186370392781, 35.230095213502295 ], [ -6.091186370392781, 35.229159350647059 ], [ -6.092666802327798, 35.229159350647059 ], [ -6.092666802327798, 35.228691415171298 ], [ -6.094147234262815, 35.228691415171298 ], [ -6.094147234262815, 35.228223476996781 ], [ -6.095627666197831, 35.228223476996781 ], [ -6.095627666197831, 35.227755536123524 ], [ -6.097108098132848, 35.227755536123524 ], [ -6.097108098132848, 35.227287592551555 ], [ -6.097848314100356, 35.227287592551555 ], [ -6.097848314100356, 35.22681964628088 ], [ -6.099328746035373, 35.22681964628088 ], [ -6.099328746035373, 35.226351697311514 ], [ -6.100068962002882, 35.226351697311514 ], [ -6.100068962002882, 35.219332138939201 ], [ -6.100809177970389, 35.219332138939201 ], [ -6.100809177970389, 35.218864146792974 ], [ -6.101549393937898, 35.218864146792974 ], [ -6.101549393937898, 35.218396151948312 ], [ -6.102289609905407, 35.218396151948312 ], [ -6.102289609905407, 35.217928154405257 ], [ -6.103029825872914, 35.217928154405257 ], [ -6.103029825872914, 35.217460154163803 ], [ -6.103770041840423, 35.217460154163803 ], [ -6.103770041840423, 35.216992151223977 ], [ -6.104510257807932, 35.216992151223977 ], [ -6.104510257807932, 35.216524145585787 ], [ -6.105990689742947, 35.216524145585787 ], [ -6.105990689742947, 35.216992151223977 ], [ -6.106730905710457, 35.216992151223977 ], [ -6.106730905710457, 35.217460154163803 ], [ -6.108211337645473, 35.217460154163803 ], [ -6.108211337645473, 35.217928154405257 ], [ -6.108951553612981, 35.217928154405257 ], [ -6.108951553612981, 35.218396151948312 ], [ -6.109691769580489, 35.218396151948312 ], [ -6.109691769580489, 35.220268115136356 ], [ -6.110431985547998, 35.220268115136356 ], [ -6.110431985547998, 35.222608008405743 ], [ -6.112652633450523, 35.222608008405743 ], [ -6.112652633450523, 35.223075978964047 ], [ -6.114873281353049, 35.223075978964047 ], [ -6.114873281353049, 35.223543946823774 ], [ -6.116353713288064, 35.223543946823774 ], [ -6.116353713288064, 35.227287592551555 ], [ -6.117093929255573, 35.227287592551555 ], [ -6.117093929255573, 35.229627283424065 ], [ -6.116353713288064, 35.229627283424065 ], [ -6.116353713288064, 35.230563140881713 ], [ -6.115613497320556, 35.230563140881713 ], [ -6.115613497320556, 35.23103106556232 ], [ -6.114873281353049, 35.23103106556232 ], [ -6.114873281353049, 35.2314989875441 ], [ -6.114133065385539, 35.2314989875441 ], [ -6.114133065385539, 35.231966906827047 ], [ -6.113392849418031, 35.231966906827047 ], [ -6.113392849418031, 35.232902737296321 ], [ -6.112652633450523, 35.232902737296321 ], [ -6.112652633450523, 35.234306462758525 ], [ -6.111912417483015, 35.234306462758525 ], [ -6.111912417483015, 35.235242266238657 ], [ -6.111172201515506, 35.235242266238657 ], [ -6.111172201515506, 35.236645951216566 ], [ -6.110431985547998, 35.236645951216566 ], [ -6.110431985547998, 35.238049611903328 ], [ -6.109691769580489, 35.238049611903328 ], [ -6.109691769580489, 35.238517493400799 ], [ -6.108211337645473, 35.238517493400799 ], [ -6.108211337645473, 35.238985372199195 ], [ -6.107471121677965, 35.238985372199195 ], [ -6.107471121677965, 35.239453248298503 ], [ -6.105990689742947, 35.239453248298503 ], [ -6.105990689742947, 35.239921121698707 ], [ -6.10525047377544, 35.239921121698707 ], [ -6.10525047377544, 35.241792588308073 ], [ -6.104510257807932, 35.241792588308073 ], [ -6.104510257807932, 35.243196159923691 ], [ -6.103770041840423, 35.243196159923691 ], [ -6.103770041840423, 35.243664011730445 ], [ -6.103029825872914, 35.243664011730445 ], [ -6.103029825872914, 35.244131860837946 ], [ -6.102289609905407, 35.244131860837946 ], [ -6.102289609905407, 35.244599707246188 ], [ -6.100809177970389, 35.244599707246188 ], [ -6.100809177970389, 35.245067550955156 ], [ -6.097848314100356, 35.245067550955156 ], [ -6.097848314100356, 35.244599707246188 ], [ -6.09636788216534, 35.244599707246188 ], [ -6.09636788216534, 35.244131860837946 ] ] ], [ [ [ -0.390042988643589, 35.463255325707053 ], [ -0.389302772676081, 35.463255325707053 ], [ -0.389302772676081, 35.462322160097955 ], [ -0.388562556708572, 35.462322160097955 ], [ -0.388562556708572, 35.461388983662978 ], [ -0.387822340741064, 35.461388983662978 ], [ -0.387822340741064, 35.455789697716206 ], [ -0.388562556708572, 35.455789697716206 ], [ -0.388562556708572, 35.454856445503403 ], [ -0.389302772676081, 35.454856445503403 ], [ -0.389302772676081, 35.454389815337642 ], [ -0.390042988643589, 35.454389815337642 ], [ -0.390042988643589, 35.453456546887523 ], [ -0.390783204611098, 35.453456546887523 ], [ -0.390783204611098, 35.452523267612655 ], [ -0.391523420578606, 35.452523267612655 ], [ -0.391523420578606, 35.452056623916008 ], [ -0.392263636546114, 35.452056623916008 ], [ -0.392263636546114, 35.451589977513187 ], [ -0.398925580253689, 35.451589977513187 ], [ -0.398925580253689, 35.452056623916008 ], [ -0.399665796221198, 35.452056623916008 ], [ -0.399665796221198, 35.452523267612655 ], [ -0.400406012188706, 35.452523267612655 ], [ -0.400406012188706, 35.452989908603179 ], [ -0.401146228156214, 35.452989908603179 ], [ -0.401146228156214, 35.453923182465687 ], [ -0.401886444123722, 35.453923182465687 ], [ -0.401886444123722, 35.454856445503403 ], [ -0.402626660091231, 35.454856445503403 ], [ -0.402626660091231, 35.455789697716206 ], [ -0.403366876058739, 35.455789697716206 ], [ -0.403366876058739, 35.45625631976322 ], [ -0.404107092026248, 35.45625631976322 ], [ -0.404107092026248, 35.460455796402229 ], [ -0.403366876058739, 35.460455796402229 ], [ -0.403366876058739, 35.461388983662978 ], [ -0.402626660091231, 35.461388983662978 ], [ -0.402626660091231, 35.461855573233692 ], [ -0.401886444123722, 35.461855573233692 ], [ -0.401886444123722, 35.462322160097955 ], [ -0.401146228156214, 35.462322160097955 ], [ -0.401146228156214, 35.462788744255754 ], [ -0.400406012188706, 35.462788744255754 ], [ -0.400406012188706, 35.463255325707053 ], [ -0.399665796221198, 35.463255325707053 ], [ -0.399665796221198, 35.463721904451859 ], [ -0.398925580253689, 35.463721904451859 ], [ -0.398925580253689, 35.46418848049013 ], [ -0.398185364286181, 35.46418848049013 ], [ -0.398185364286181, 35.464655053821886 ], [ -0.397445148318673, 35.464655053821886 ], [ -0.397445148318673, 35.465121624447079 ], [ -0.396704932351164, 35.465121624447079 ], [ -0.396704932351164, 35.465588192365715 ], [ -0.391523420578606, 35.465588192365715 ], [ -0.391523420578606, 35.465121624447079 ], [ -0.390783204611098, 35.465121624447079 ], [ -0.390783204611098, 35.46418848049013 ], [ -0.390042988643589, 35.46418848049013 ], [ -0.390042988643589, 35.463255325707053 ] ] ], [ [ [ -0.336007223015481, 35.811499036806339 ], [ -0.335267007047972, 35.811499036806339 ], [ -0.335267007047972, 35.80220746476764 ], [ -0.336007223015481, 35.80220746476764 ], [ -0.336007223015481, 35.801742857632192 ], [ -0.336747438982989, 35.801742857632192 ], [ -0.336747438982989, 35.800813635209181 ], [ -0.337487654950497, 35.800813635209181 ], [ -0.337487654950497, 35.800349019921647 ], [ -0.338227870918006, 35.800349019921647 ], [ -0.338227870918006, 35.799419781194644 ], [ -0.344889814625581, 35.799419781194644 ], [ -0.344889814625581, 35.799884401916799 ], [ -0.345630030593089, 35.799884401916799 ], [ -0.345630030593089, 35.800349019921647 ], [ -0.347110462528106, 35.800349019921647 ], [ -0.347110462528106, 35.800813635209181 ], [ -0.347850678495614, 35.800813635209181 ], [ -0.347850678495614, 35.801278247779365 ], [ -0.348590894463122, 35.801278247779365 ], [ -0.348590894463122, 35.801742857632192 ], [ -0.349331110430631, 35.801742857632192 ], [ -0.349331110430631, 35.80220746476764 ], [ -0.350071326398139, 35.80220746476764 ], [ -0.350071326398139, 35.802672069185711 ], [ -0.350811542365647, 35.802672069185711 ], [ -0.350811542365647, 35.804065866135467 ], [ -0.351551758333156, 35.804065866135467 ], [ -0.351551758333156, 35.804995050514783 ], [ -0.352291974300664, 35.804995050514783 ], [ -0.352291974300664, 35.806388806702657 ], [ -0.353032190268173, 35.806388806702657 ], [ -0.353032190268173, 35.810569928518746 ], [ -0.352291974300664, 35.810569928518746 ], [ -0.352291974300664, 35.811499036806339 ], [ -0.351551758333156, 35.811499036806339 ], [ -0.351551758333156, 35.811963586873631 ], [ -0.350811542365647, 35.811963586873631 ], [ -0.350811542365647, 35.812892678855093 ], [ -0.350071326398139, 35.812892678855093 ], [ -0.350071326398139, 35.813357220769255 ], [ -0.347850678495614, 35.813357220769255 ], [ -0.347850678495614, 35.813821759965677 ], [ -0.337487654950497, 35.813821759965677 ], [ -0.337487654950497, 35.812892678855093 ], [ -0.336747438982989, 35.812892678855093 ], [ -0.336747438982989, 35.812428134223211 ], [ -0.336007223015481, 35.812428134223211 ], [ -0.336007223015481, 35.811499036806339 ] ] ], [ [ [ -4.728448774209937, 37.551141954110889 ], [ -4.72770855824243, 37.551141954110889 ], [ -4.72770855824243, 37.550687790959891 ], [ -4.726968342274921, 37.550687790959891 ], [ -4.726968342274921, 37.550233625041443 ], [ -4.725487910339904, 37.550233625041443 ], [ -4.725487910339904, 37.549779456355559 ], [ -4.724747694372395, 37.549779456355559 ], [ -4.724747694372395, 37.549325284902253 ], [ -4.724007478404888, 37.549325284902253 ], [ -4.724007478404888, 37.547962753937895 ], [ -4.723267262437379, 37.547962753937895 ], [ -4.723267262437379, 37.545237617290262 ], [ -4.72252704646987, 37.545237617290262 ], [ -4.72252704646987, 37.542966593982797 ], [ -4.721786830502363, 37.542966593982797 ], [ -4.721786830502363, 37.540695501494071 ], [ -4.72252704646987, 37.540695501494071 ], [ -4.72252704646987, 37.539787045128158 ], [ -4.723267262437379, 37.539787045128158 ], [ -4.723267262437379, 37.538878577693573 ], [ -4.724007478404888, 37.538878577693573 ], [ -4.724007478404888, 37.537515855788129 ], [ -4.724747694372395, 37.537515855788129 ], [ -4.724747694372395, 37.536607360682268 ], [ -4.725487910339904, 37.536607360682268 ], [ -4.725487910339904, 37.536153108978688 ], [ -4.729929206144955, 37.536153108978688 ], [ -4.729929206144955, 37.536607360682268 ], [ -4.730669422112462, 37.536607360682268 ], [ -4.730669422112462, 37.537515855788129 ], [ -4.731409638079971, 37.537515855788129 ], [ -4.731409638079971, 37.538424339825546 ], [ -4.732149854047479, 37.538424339825546 ], [ -4.732149854047479, 37.539332812794434 ], [ -4.732890070014987, 37.539332812794434 ], [ -4.732890070014987, 37.540241274694701 ], [ -4.733630285982496, 37.540241274694701 ], [ -4.733630285982496, 37.540695501494071 ], [ -4.735110717917512, 37.540695501494071 ], [ -4.735110717917512, 37.541149725526246 ], [ -4.736591149852529, 37.541149725526246 ], [ -4.736591149852529, 37.541603946791213 ], [ -4.738071581787547, 37.541603946791213 ], [ -4.738071581787547, 37.543875011607611 ], [ -4.738811797755053, 37.543875011607611 ], [ -4.738811797755053, 37.546146007242164 ], [ -4.739552013722562, 37.546146007242164 ], [ -4.739552013722562, 37.547508571415001 ], [ -4.738811797755053, 37.547508571415001 ], [ -4.738811797755053, 37.549325284902253 ], [ -4.738071581787547, 37.549325284902253 ], [ -4.738071581787547, 37.550687790959891 ], [ -4.737331365820038, 37.550687790959891 ], [ -4.737331365820038, 37.551141954110889 ], [ -4.735850933885021, 37.551141954110889 ], [ -4.735850933885021, 37.55159611449443 ], [ -4.733630285982496, 37.55159611449443 ], [ -4.733630285982496, 37.552050272110492 ], [ -4.732149854047479, 37.552050272110492 ], [ -4.732149854047479, 37.552504426959068 ], [ -4.730669422112462, 37.552504426959068 ], [ -4.730669422112462, 37.552050272110492 ], [ -4.729929206144955, 37.552050272110492 ], [ -4.729929206144955, 37.55159611449443 ], [ -4.728448774209937, 37.55159611449443 ], [ -4.728448774209937, 37.551141954110889 ] ] ], [ [ [ -6.159286239403548, 38.291337999374832 ], [ -6.157805807468531, 38.291337999374832 ], [ -6.157805807468531, 38.290888384414593 ], [ -6.157065591501024, 38.290888384414593 ], [ -6.157065591501024, 38.2904387666688 ], [ -6.156325375533515, 38.2904387666688 ], [ -6.156325375533515, 38.289989146137479 ], [ -6.155585159566006, 38.289989146137479 ], [ -6.155585159566006, 38.289539522820618 ], [ -6.154844943598499, 38.289539522820618 ], [ -6.154844943598499, 38.289089896718245 ], [ -6.15410472763099, 38.289089896718245 ], [ -6.15410472763099, 38.288640267830381 ], [ -6.153364511663481, 38.288640267830381 ], [ -6.153364511663481, 38.288190636156997 ], [ -6.152624295695974, 38.288190636156997 ], [ -6.152624295695974, 38.287741001698151 ], [ -6.151884079728465, 38.287741001698151 ], [ -6.151884079728465, 38.287291364453822 ], [ -6.151143863760955, 38.287291364453822 ], [ -6.151143863760955, 38.286841724424022 ], [ -6.150403647793447, 38.286841724424022 ], [ -6.150403647793447, 38.286392081608781 ], [ -6.148182999890922, 38.286392081608781 ], [ -6.148182999890922, 38.286841724424022 ], [ -6.143001488118364, 38.286841724424022 ], [ -6.143001488118364, 38.287291364453822 ], [ -6.141521056183348, 38.287291364453822 ], [ -6.141521056183348, 38.286392081608781 ], [ -6.140780840215839, 38.286392081608781 ], [ -6.140780840215839, 38.285942436008092 ], [ -6.140040624248331, 38.285942436008092 ], [ -6.140040624248331, 38.285043136450426 ], [ -6.139300408280823, 38.285043136450426 ], [ -6.139300408280823, 38.284143825751116 ], [ -6.138560192313316, 38.284143825751116 ], [ -6.138560192313316, 38.281895500258685 ], [ -6.137819976345806, 38.281895500258685 ], [ -6.137819976345806, 38.27919741775171 ], [ -6.137079760378298, 38.27919741775171 ], [ -6.137079760378298, 38.278298034633728 ], [ -6.137819976345806, 38.278298034633728 ], [ -6.137819976345806, 38.276499234974807 ], [ -6.138560192313316, 38.276499234974807 ], [ -6.138560192313316, 38.274700390752464 ], [ -6.140040624248331, 38.274700390752464 ], [ -6.140040624248331, 38.274250672733928 ], [ -6.140780840215839, 38.274250672733928 ], [ -6.140780840215839, 38.273800951930234 ], [ -6.142261272150856, 38.273800951930234 ], [ -6.142261272150856, 38.273351228341383 ], [ -6.14522213602089, 38.273351228341383 ], [ -6.14522213602089, 38.273800951930234 ], [ -6.148182999890922, 38.273800951930234 ], [ -6.148182999890922, 38.274250672733928 ], [ -6.150403647793447, 38.274250672733928 ], [ -6.150403647793447, 38.274700390752464 ], [ -6.153364511663481, 38.274700390752464 ], [ -6.153364511663481, 38.275150105985837 ], [ -6.155585159566006, 38.275150105985837 ], [ -6.155585159566006, 38.275599818434024 ], [ -6.156325375533515, 38.275599818434024 ], [ -6.156325375533515, 38.276049528097012 ], [ -6.157065591501024, 38.276049528097012 ], [ -6.157065591501024, 38.276948939067388 ], [ -6.158546023436039, 38.276948939067388 ], [ -6.158546023436039, 38.276049528097012 ], [ -6.159286239403548, 38.276049528097012 ], [ -6.159286239403548, 38.275150105985837 ], [ -6.160026455371056, 38.275150105985837 ], [ -6.160026455371056, 38.273800951930234 ], [ -6.161506887306073, 38.273800951930234 ], [ -6.161506887306073, 38.273351228341383 ], [ -6.163727535208598, 38.273351228341383 ], [ -6.163727535208598, 38.272901501967389 ], [ -6.165948183111123, 38.272901501967389 ], [ -6.165948183111123, 38.272451772808274 ], [ -6.168909046981156, 38.272451772808274 ], [ -6.168909046981156, 38.272901501967389 ], [ -6.169649262948665, 38.272901501967389 ], [ -6.169649262948665, 38.273351228341383 ], [ -6.170389478916174, 38.273351228341383 ], [ -6.170389478916174, 38.273800951930234 ], [ -6.171129694883682, 38.273800951930234 ], [ -6.171129694883682, 38.274250672733928 ], [ -6.171869910851189, 38.274250672733928 ], [ -6.171869910851189, 38.274700390752464 ], [ -6.173350342786207, 38.274700390752464 ], [ -6.173350342786207, 38.275150105985837 ], [ -6.174090558753714, 38.275150105985837 ], [ -6.174090558753714, 38.275599818434024 ], [ -6.174830774721223, 38.275599818434024 ], [ -6.174830774721223, 38.276049528097012 ], [ -6.175570990688731, 38.276049528097012 ], [ -6.175570990688731, 38.276499234974807 ], [ -6.176311206656239, 38.276499234974807 ], [ -6.176311206656239, 38.276948939067388 ], [ -6.177051422623747, 38.276948939067388 ], [ -6.177051422623747, 38.27784833889686 ], [ -6.177791638591256, 38.27784833889686 ], [ -6.177791638591256, 38.281895500258685 ], [ -6.178531854558766, 38.281895500258685 ], [ -6.178531854558766, 38.285942436008092 ], [ -6.179272070526273, 38.285942436008092 ], [ -6.179272070526273, 38.288190636156997 ], [ -6.178531854558766, 38.288190636156997 ], [ -6.178531854558766, 38.289089896718245 ], [ -6.177791638591256, 38.289089896718245 ], [ -6.177791638591256, 38.289989146137479 ], [ -6.177051422623747, 38.289989146137479 ], [ -6.177051422623747, 38.2904387666688 ], [ -6.176311206656239, 38.2904387666688 ], [ -6.176311206656239, 38.290888384414593 ], [ -6.174090558753714, 38.290888384414593 ], [ -6.174090558753714, 38.2904387666688 ], [ -6.171129694883682, 38.2904387666688 ], [ -6.171129694883682, 38.289989146137479 ], [ -6.169649262948665, 38.289989146137479 ], [ -6.169649262948665, 38.2904387666688 ], [ -6.168909046981156, 38.2904387666688 ], [ -6.168909046981156, 38.290888384414593 ], [ -6.168168831013648, 38.290888384414593 ], [ -6.168168831013648, 38.291337999374832 ], [ -6.167428615046139, 38.291337999374832 ], [ -6.167428615046139, 38.291787611549523 ], [ -6.16668839907863, 38.291787611549523 ], [ -6.16668839907863, 38.292237220938645 ], [ -6.165948183111123, 38.292237220938645 ], [ -6.165948183111123, 38.292686827542177 ], [ -6.16298731924109, 38.292686827542177 ], [ -6.16298731924109, 38.292237220938645 ], [ -6.161506887306073, 38.292237220938645 ], [ -6.161506887306073, 38.291787611549523 ], [ -6.159286239403548, 38.291787611549523 ], [ -6.159286239403548, 38.291337999374832 ] ] ], [ [ [ -9.072776287516351, 38.633581557188585 ], [ -9.072036071548842, 38.633581557188585 ], [ -9.072036071548842, 38.63313407058525 ], [ -9.071295855581335, 38.63313407058525 ], [ -9.071295855581335, 38.632239088998723 ], [ -9.070555639613827, 38.632239088998723 ], [ -9.070555639613827, 38.627764013471655 ], [ -9.071295855581335, 38.627764013471655 ], [ -9.071295855581335, 38.625526370963662 ], [ -9.070555639613827, 38.625526370963662 ], [ -9.070555639613827, 38.625078834082657 ], [ -9.069815423646318, 38.625078834082657 ], [ -9.069815423646318, 38.624631294408552 ], [ -9.068334991711302, 38.624631294408552 ], [ -9.068334991711302, 38.624183751941345 ], [ -9.067594775743792, 38.624183751941345 ], [ -9.067594775743792, 38.622393554141716 ], [ -9.066854559776285, 38.622393554141716 ], [ -9.066854559776285, 38.619260600460301 ], [ -9.067594775743792, 38.619260600460301 ], [ -9.067594775743792, 38.617917864130504 ], [ -9.068334991711302, 38.617917864130504 ], [ -9.068334991711302, 38.617022692612515 ], [ -9.069075207678809, 38.617022692612515 ], [ -9.069075207678809, 38.616127509922805 ], [ -9.069815423646318, 38.616127509922805 ], [ -9.069815423646318, 38.615232316061451 ], [ -9.074996935418877, 38.615232316061451 ], [ -9.074996935418877, 38.615679914388586 ], [ -9.075737151386386, 38.615679914388586 ], [ -9.075737151386386, 38.616575102664122 ], [ -9.076477367353894, 38.616575102664122 ], [ -9.076477367353894, 38.617022692612515 ], [ -9.077217583321403, 38.617022692612515 ], [ -9.077217583321403, 38.617470279767979 ], [ -9.07795779928891, 38.617470279767979 ], [ -9.07795779928891, 38.617917864130504 ], [ -9.078698015256419, 38.617917864130504 ], [ -9.078698015256419, 38.618365445700064 ], [ -9.079438231223927, 38.618365445700064 ], [ -9.079438231223927, 38.618813024476673 ], [ -9.080178447191436, 38.618813024476673 ], [ -9.080178447191436, 38.619260600460301 ], [ -9.080918663158945, 38.619260600460301 ], [ -9.080918663158945, 38.619708173650963 ], [ -9.081658879126453, 38.619708173650963 ], [ -9.081658879126453, 38.620155744048631 ], [ -9.08239909509396, 38.620155744048631 ], [ -9.08239909509396, 38.620603311653277 ], [ -9.083139311061469, 38.620603311653277 ], [ -9.083139311061469, 38.621498438483556 ], [ -9.083879527028976, 38.621498438483556 ], [ -9.083879527028976, 38.625526370963662 ], [ -9.084619742996486, 38.625526370963662 ], [ -9.084619742996486, 38.630896595669469 ], [ -9.083879527028976, 38.630896595669469 ], [ -9.083879527028976, 38.63179159401556 ], [ -9.083139311061469, 38.63179159401556 ], [ -9.083139311061469, 38.63313407058525 ], [ -9.08239909509396, 38.63313407058525 ], [ -9.08239909509396, 38.63402904099862 ], [ -9.081658879126453, 38.63402904099862 ], [ -9.081658879126453, 38.634924000238762 ], [ -9.07795779928891, 38.634924000238762 ], [ -9.07795779928891, 38.634476522015348 ], [ -9.072776287516351, 38.634476522015348 ], [ -9.072776287516351, 38.633581557188585 ] ] ], [ [ [ -0.743126005145065, 41.657688105650976 ], [ -0.743126005145065, 41.656832112558433 ], [ -0.742385789177556, 41.656832112558433 ], [ -0.742385789177556, 41.656404111745786 ], [ -0.741645573210048, 41.656404111745786 ], [ -0.741645573210048, 41.656832112558433 ], [ -0.74090535724254, 41.656832112558433 ], [ -0.74090535724254, 41.657260110526828 ], [ -0.739424925307523, 41.657260110526828 ], [ -0.739424925307523, 41.657688105650976 ], [ -0.738684709340015, 41.657688105650976 ], [ -0.738684709340015, 41.657260110526828 ], [ -0.737204277404998, 41.657260110526828 ], [ -0.737204277404998, 41.656832112558433 ], [ -0.73646406143749, 41.656832112558433 ], [ -0.73646406143749, 41.656404111745786 ], [ -0.734983629502473, 41.656404111745786 ], [ -0.734983629502473, 41.655548101587804 ], [ -0.734243413534964, 41.655548101587804 ], [ -0.734243413534964, 41.652123947187128 ], [ -0.733503197567456, 41.652123947187128 ], [ -0.733503197567456, 41.649127662766567 ], [ -0.732762981599948, 41.649127662766567 ], [ -0.732762981599948, 41.64570316706542 ], [ -0.73202276563244, 41.64570316706542 ], [ -0.73202276563244, 41.644847014698897 ], [ -0.732762981599948, 41.644847014698897 ], [ -0.732762981599948, 41.643990850955952 ], [ -0.733503197567456, 41.643990850955952 ], [ -0.733503197567456, 41.642706584010881 ], [ -0.734243413534964, 41.642706584010881 ], [ -0.734243413534964, 41.641850391827084 ], [ -0.734983629502473, 41.641850391827084 ], [ -0.734983629502473, 41.6405660822209 ], [ -0.735723845469981, 41.6405660822209 ], [ -0.735723845469981, 41.639709861596501 ], [ -0.73646406143749, 41.639709861596501 ], [ -0.73646406143749, 41.638425509329593 ], [ -0.737204277404998, 41.638425509329593 ], [ -0.737204277404998, 41.63756926026484 ], [ -0.737944493372506, 41.63756926026484 ], [ -0.737944493372506, 41.636712999824013 ], [ -0.740165141275031, 41.636712999824013 ], [ -0.740165141275031, 41.636284865337586 ], [ -0.742385789177556, 41.636284865337586 ], [ -0.742385789177556, 41.635856728007148 ], [ -0.744606437080081, 41.635856728007148 ], [ -0.744606437080081, 41.636284865337586 ], [ -0.74534665304759, 41.636284865337586 ], [ -0.74534665304759, 41.637141131466429 ], [ -0.746086869015098, 41.637141131466429 ], [ -0.746086869015098, 41.63756926026484 ], [ -0.746827084982606, 41.63756926026484 ], [ -0.746827084982606, 41.637997386219226 ], [ -0.747567300950115, 41.637997386219226 ], [ -0.747567300950115, 41.638853629595928 ], [ -0.748307516917623, 41.638853629595928 ], [ -0.748307516917623, 41.639281747018231 ], [ -0.749047732885131, 41.639281747018231 ], [ -0.749047732885131, 41.63542858783272 ], [ -0.74978794885264, 41.63542858783272 ], [ -0.74978794885264, 41.634572298951888 ], [ -0.750528164820148, 41.634572298951888 ], [ -0.750528164820148, 41.634144150245497 ], [ -0.751268380787656, 41.634144150245497 ], [ -0.751268380787656, 41.633287844300781 ], [ -0.756449892560215, 41.633287844300781 ], [ -0.756449892560215, 41.633715998695116 ], [ -0.757190108527723, 41.633715998695116 ], [ -0.757190108527723, 41.634144150245497 ], [ -0.757930324495231, 41.634144150245497 ], [ -0.757930324495231, 41.635000444814295 ], [ -0.75867054046274, 41.635000444814295 ], [ -0.75867054046274, 41.635856728007148 ], [ -0.759410756430248, 41.635856728007148 ], [ -0.759410756430248, 41.6405660822209 ], [ -0.75867054046274, 41.6405660822209 ], [ -0.75867054046274, 41.641422291469091 ], [ -0.757930324495231, 41.641422291469091 ], [ -0.757930324495231, 41.642278489341024 ], [ -0.757190108527723, 41.642278489341024 ], [ -0.757190108527723, 41.642706584010881 ], [ -0.756449892560215, 41.642706584010881 ], [ -0.756449892560215, 41.643134675836656 ], [ -0.751268380787656, 41.643134675836656 ], [ -0.751268380787656, 41.64527509230421 ], [ -0.752008596755165, 41.64527509230421 ], [ -0.752008596755165, 41.650839842357641 ], [ -0.751268380787656, 41.650839842357641 ], [ -0.751268380787656, 41.655548101587804 ], [ -0.750528164820148, 41.655548101587804 ], [ -0.750528164820148, 41.657688105650976 ], [ -0.749047732885131, 41.657688105650976 ], [ -0.749047732885131, 41.658116097930872 ], [ -0.748307516917623, 41.658116097930872 ], [ -0.748307516917623, 41.658544087366508 ], [ -0.747567300950115, 41.658544087366508 ], [ -0.747567300950115, 41.658972073957891 ], [ -0.74534665304759, 41.658972073957891 ], [ -0.74534665304759, 41.658544087366508 ], [ -0.744606437080081, 41.658544087366508 ], [ -0.744606437080081, 41.658116097930872 ], [ -0.743866221112573, 41.658116097930872 ], [ -0.743866221112573, 41.657688105650976 ], [ -0.743126005145065, 41.657688105650976 ] ], [ [ -0.751268380787656, 41.642278489341024 ], [ -0.750528164820148, 41.642278489341024 ], [ -0.750528164820148, 41.643134675836656 ], [ -0.751268380787656, 41.643134675836656 ], [ -0.751268380787656, 41.642278489341024 ] ] ], [ [ [ -2.216895996454158, 43.045762894770256 ], [ -2.216895996454158, 43.045344248849148 ], [ -2.21615578048665, 43.045344248849148 ], [ -2.21615578048665, 43.044925600070989 ], [ -2.215415564519142, 43.044925600070989 ], [ -2.215415564519142, 43.044506948435782 ], [ -2.214675348551634, 43.044506948435782 ], [ -2.214675348551634, 43.043669636594203 ], [ -2.213935132584125, 43.043669636594203 ], [ -2.213935132584125, 43.04241364740399 ], [ -2.213194916616617, 43.04241364740399 ], [ -2.213194916616617, 43.038226831062964 ], [ -2.212454700649109, 43.038226831062964 ], [ -2.212454700649109, 43.033202274328815 ], [ -2.213194916616617, 43.033202274328815 ], [ -2.213194916616617, 43.031527330660673 ], [ -2.213935132584125, 43.031527330660673 ], [ -2.213935132584125, 43.031108587601217 ], [ -2.214675348551634, 43.031108587601217 ], [ -2.214675348551634, 43.030689841684811 ], [ -2.215415564519142, 43.030689841684811 ], [ -2.215415564519142, 43.030271092911441 ], [ -2.21615578048665, 43.030271092911441 ], [ -2.21615578048665, 43.029852341281128 ], [ -2.217636212421667, 43.029852341281128 ], [ -2.217636212421667, 43.029433586793843 ], [ -2.218376428389175, 43.029433586793843 ], [ -2.218376428389175, 43.029014829449622 ], [ -2.219856860324191, 43.029014829449622 ], [ -2.219856860324191, 43.028596069248458 ], [ -2.221337292259209, 43.028596069248458 ], [ -2.221337292259209, 43.029014829449622 ], [ -2.222077508226717, 43.029014829449622 ], [ -2.222077508226717, 43.029433586793843 ], [ -2.222817724194225, 43.029433586793843 ], [ -2.222817724194225, 43.029852341281128 ], [ -2.224298156129242, 43.029852341281128 ], [ -2.224298156129242, 43.030271092911441 ], [ -2.22503837209675, 43.030271092911441 ], [ -2.22503837209675, 43.031108587601217 ], [ -2.225778588064259, 43.031108587601217 ], [ -2.225778588064259, 43.034458452081701 ], [ -2.226518804031767, 43.034458452081701 ], [ -2.226518804031767, 43.039064217187324 ], [ -2.225778588064259, 43.039064217187324 ], [ -2.225778588064259, 43.040738955151873 ], [ -2.22503837209675, 43.040738955151873 ], [ -2.22503837209675, 43.04241364740399 ], [ -2.224298156129242, 43.04241364740399 ], [ -2.224298156129242, 43.044506948435782 ], [ -2.223557940161733, 43.044506948435782 ], [ -2.223557940161733, 43.045344248849148 ], [ -2.222077508226717, 43.045344248849148 ], [ -2.222077508226717, 43.045762894770256 ], [ -2.221337292259209, 43.045762894770256 ], [ -2.221337292259209, 43.0461815378343 ], [ -2.219856860324191, 43.0461815378343 ], [ -2.219856860324191, 43.046600178041274 ], [ -2.218376428389175, 43.046600178041274 ], [ -2.218376428389175, 43.0461815378343 ], [ -2.217636212421667, 43.0461815378343 ], [ -2.217636212421667, 43.045762894770256 ], [ -2.216895996454158, 43.045762894770256 ] ] ], [ [ [ -5.725519682443664, 43.537358307341755 ], [ -5.725519682443664, 43.536943031704851 ], [ -5.724039250508648, 43.536943031704851 ], [ -5.724039250508648, 43.536527753207956 ], [ -5.72255881857363, 43.536527753207956 ], [ -5.72255881857363, 43.535697187634213 ], [ -5.721818602606122, 43.535697187634213 ], [ -5.721818602606122, 43.534451317823752 ], [ -5.721078386638613, 43.534451317823752 ], [ -5.721078386638613, 43.533205422273518 ], [ -5.720338170671106, 43.533205422273518 ], [ -5.720338170671106, 43.53237481094019 ], [ -5.719597954703597, 43.53237481094019 ], [ -5.719597954703597, 43.531128872490477 ], [ -5.718857738736089, 43.531128872490477 ], [ -5.718857738736089, 43.529882908301154 ], [ -5.718117522768581, 43.529882908301154 ], [ -5.718117522768581, 43.529052251208505 ], [ -5.717377306801072, 43.529052251208505 ], [ -5.717377306801072, 43.527806244119944 ], [ -5.716637090833564, 43.527806244119944 ], [ -5.716637090833564, 43.526560211291923 ], [ -5.715896874866057, 43.526560211291923 ], [ -5.715896874866057, 43.525729508440229 ], [ -5.715156658898548, 43.525729508440229 ], [ -5.715156658898548, 43.523652701262279 ], [ -5.715896874866057, 43.523652701262279 ], [ -5.715896874866057, 43.522406582636464 ], [ -5.716637090833564, 43.522406582636464 ], [ -5.716637090833564, 43.521160438271444 ], [ -5.717377306801072, 43.521160438271444 ], [ -5.717377306801072, 43.520329661061893 ], [ -5.718117522768581, 43.520329661061893 ], [ -5.718117522768581, 43.519498872412733 ], [ -5.718857738736089, 43.519498872412733 ], [ -5.718857738736089, 43.519083473798304 ], [ -5.720338170671106, 43.519083473798304 ], [ -5.720338170671106, 43.518668072323983 ], [ -5.721078386638613, 43.518668072323983 ], [ -5.721078386638613, 43.518252667989771 ], [ -5.72255881857363, 43.518252667989771 ], [ -5.72255881857363, 43.517837260795666 ], [ -5.723299034541139, 43.517837260795666 ], [ -5.723299034541139, 43.51742185074167 ], [ -5.724039250508648, 43.51742185074167 ], [ -5.724039250508648, 43.517006437827789 ], [ -5.725519682443664, 43.517006437827789 ], [ -5.725519682443664, 43.516591022054023 ], [ -5.726259898411173, 43.516591022054023 ], [ -5.726259898411173, 43.516175603420372 ], [ -5.727740330346189, 43.516175603420372 ], [ -5.727740330346189, 43.515760181926844 ], [ -5.728480546313697, 43.515760181926844 ], [ -5.728480546313697, 43.51534475757343 ], [ -5.729220762281205, 43.51534475757343 ], [ -5.729220762281205, 43.514929330360154 ], [ -5.730701194216222, 43.514929330360154 ], [ -5.730701194216222, 43.514513900287 ], [ -5.73144141018373, 43.514513900287 ], [ -5.73144141018373, 43.514929330360154 ], [ -5.732921842118747, 43.514929330360154 ], [ -5.732921842118747, 43.51534475757343 ], [ -5.733662058086256, 43.51534475757343 ], [ -5.733662058086256, 43.515760181926844 ], [ -5.735142490021273, 43.515760181926844 ], [ -5.735142490021273, 43.516175603420372 ], [ -5.73662292195629, 43.516175603420372 ], [ -5.73662292195629, 43.516591022054023 ], [ -5.737363137923798, 43.516591022054023 ], [ -5.737363137923798, 43.517006437827789 ], [ -5.738843569858814, 43.517006437827789 ], [ -5.738843569858814, 43.51742185074167 ], [ -5.74032400179383, 43.51742185074167 ], [ -5.74032400179383, 43.517837260795666 ], [ -5.741804433728848, 43.517837260795666 ], [ -5.741804433728848, 43.518668072323983 ], [ -5.742544649696356, 43.518668072323983 ], [ -5.742544649696356, 43.519083473798304 ], [ -5.743284865663864, 43.519083473798304 ], [ -5.743284865663864, 43.519914268167263 ], [ -5.744025081631372, 43.519914268167263 ], [ -5.744025081631372, 43.520745051096618 ], [ -5.744765297598882, 43.520745051096618 ], [ -5.744765297598882, 43.524068068417712 ], [ -5.744025081631372, 43.524068068417712 ], [ -5.744025081631372, 43.527806244119944 ], [ -5.743284865663864, 43.527806244119944 ], [ -5.743284865663864, 43.529052251208505 ], [ -5.742544649696356, 43.529052251208505 ], [ -5.742544649696356, 43.530298232557548 ], [ -5.741804433728848, 43.530298232557548 ], [ -5.741804433728848, 43.531544188167018 ], [ -5.741064217761339, 43.531544188167018 ], [ -5.741064217761339, 43.532790118036843 ], [ -5.74032400179383, 43.532790118036843 ], [ -5.74032400179383, 43.533620723650237 ], [ -5.739583785826321, 43.533620723650237 ], [ -5.739583785826321, 43.53403602216698 ], [ -5.738843569858814, 43.53403602216698 ], [ -5.738843569858814, 43.534451317823752 ], [ -5.737363137923798, 43.534451317823752 ], [ -5.737363137923798, 43.534866610620547 ], [ -5.73662292195629, 43.534866610620547 ], [ -5.73662292195629, 43.535281900557365 ], [ -5.73588270598878, 43.535281900557365 ], [ -5.73588270598878, 43.535697187634213 ], [ -5.735142490021273, 43.535697187634213 ], [ -5.735142490021273, 43.536112471851069 ], [ -5.734402274053765, 43.536112471851069 ], [ -5.734402274053765, 43.536527753207956 ], [ -5.733662058086256, 43.536527753207956 ], [ -5.733662058086256, 43.536943031704851 ], [ -5.732921842118747, 43.536943031704851 ], [ -5.732921842118747, 43.537358307341755 ], [ -5.732181626151239, 43.537358307341755 ], [ -5.732181626151239, 43.537773580118674 ], [ -5.73144141018373, 43.537773580118674 ], [ -5.73144141018373, 43.538188850035603 ], [ -5.729220762281205, 43.538188850035603 ], [ -5.729220762281205, 43.537773580118674 ], [ -5.727000114378681, 43.537773580118674 ], [ -5.727000114378681, 43.537358307341755 ], [ -5.725519682443664, 43.537358307341755 ] ] ], [ [ [ -5.840253157407456, 43.550230433520795 ], [ -5.83877272547244, 43.550230433520795 ], [ -5.83877272547244, 43.549815246544526 ], [ -5.836552077569914, 43.549815246544526 ], [ -5.836552077569914, 43.549400056708208 ], [ -5.835071645634897, 43.549400056708208 ], [ -5.835071645634897, 43.548984864011857 ], [ -5.832850997732372, 43.548984864011857 ], [ -5.832850997732372, 43.548569668455436 ], [ -5.831370565797356, 43.548569668455436 ], [ -5.831370565797356, 43.54815447003898 ], [ -5.829149917894831, 43.54815447003898 ], [ -5.829149917894831, 43.54773926876247 ], [ -5.827669485959815, 43.54773926876247 ], [ -5.827669485959815, 43.547324064625933 ], [ -5.82544883805729, 43.547324064625933 ], [ -5.82544883805729, 43.546908857629347 ], [ -5.823228190154764, 43.546908857629347 ], [ -5.823228190154764, 43.546493647772721 ], [ -5.822487974187256, 43.546493647772721 ], [ -5.822487974187256, 43.54607843505606 ], [ -5.821747758219748, 43.54607843505606 ], [ -5.821747758219748, 43.545248001042651 ], [ -5.821007542252239, 43.545248001042651 ], [ -5.821007542252239, 43.544417555589114 ], [ -5.82026732628473, 43.544417555589114 ], [ -5.82026732628473, 43.543171865958641 ], [ -5.819527110317222, 43.543171865958641 ], [ -5.819527110317222, 43.542341391904877 ], [ -5.818786894349714, 43.542341391904877 ], [ -5.818786894349714, 43.541510906411077 ], [ -5.818046678382206, 43.541510906411077 ], [ -5.818046678382206, 43.540265156720295 ], [ -5.817306462414698, 43.540265156720295 ], [ -5.817306462414698, 43.539434642626411 ], [ -5.816566246447189, 43.539434642626411 ], [ -5.816566246447189, 43.53860411709254 ], [ -5.815826030479681, 43.53860411709254 ], [ -5.815826030479681, 43.537358307341755 ], [ -5.815085814512173, 43.537358307341755 ], [ -5.815085814512173, 43.536527753207956 ], [ -5.815826030479681, 43.536527753207956 ], [ -5.815826030479681, 43.535281900557365 ], [ -5.816566246447189, 43.535281900557365 ], [ -5.816566246447189, 43.53403602216698 ], [ -5.817306462414698, 43.53403602216698 ], [ -5.817306462414698, 43.533205422273518 ], [ -5.818046678382206, 43.533205422273518 ], [ -5.818046678382206, 43.531959500983589 ], [ -5.821007542252239, 43.531959500983589 ], [ -5.821007542252239, 43.53237481094019 ], [ -5.823968406122273, 43.53237481094019 ], [ -5.823968406122273, 43.531959500983589 ], [ -5.82544883805729, 43.531959500983589 ], [ -5.82544883805729, 43.531544188167018 ], [ -5.826189054024797, 43.531544188167018 ], [ -5.826189054024797, 43.531128872490477 ], [ -5.827669485959815, 43.531128872490477 ], [ -5.827669485959815, 43.530713553953994 ], [ -5.829149917894831, 43.530713553953994 ], [ -5.829149917894831, 43.531128872490477 ], [ -5.831370565797356, 43.531128872490477 ], [ -5.831370565797356, 43.531544188167018 ], [ -5.832850997732372, 43.531544188167018 ], [ -5.832850997732372, 43.531959500983589 ], [ -5.835071645634897, 43.531959500983589 ], [ -5.835071645634897, 43.53237481094019 ], [ -5.837292293537423, 43.53237481094019 ], [ -5.837292293537423, 43.532790118036843 ], [ -5.839512941439948, 43.532790118036843 ], [ -5.839512941439948, 43.533205422273518 ], [ -5.841733589342473, 43.533205422273518 ], [ -5.841733589342473, 43.532790118036843 ], [ -5.842473805309981, 43.532790118036843 ], [ -5.842473805309981, 43.53237481094019 ], [ -5.843954237244998, 43.53237481094019 ], [ -5.843954237244998, 43.531959500983589 ], [ -5.846174885147523, 43.531959500983589 ], [ -5.846174885147523, 43.53237481094019 ], [ -5.846915101115031, 43.53237481094019 ], [ -5.846915101115031, 43.533205422273518 ], [ -5.847655317082539, 43.533205422273518 ], [ -5.847655317082539, 43.533620723650237 ], [ -5.848395533050048, 43.533620723650237 ], [ -5.848395533050048, 43.53403602216698 ], [ -5.849135749017555, 43.53403602216698 ], [ -5.849135749017555, 43.534451317823752 ], [ -5.849875964985064, 43.534451317823752 ], [ -5.849875964985064, 43.535281900557365 ], [ -5.850616180952573, 43.535281900557365 ], [ -5.850616180952573, 43.539019381289471 ], [ -5.85135639692008, 43.539019381289471 ], [ -5.85135639692008, 43.542756630361758 ], [ -5.852096612887589, 43.542756630361758 ], [ -5.852096612887589, 43.546493647772721 ], [ -5.85135639692008, 43.546493647772721 ], [ -5.85135639692008, 43.54815447003898 ], [ -5.850616180952573, 43.54815447003898 ], [ -5.850616180952573, 43.549815246544526 ], [ -5.849875964985064, 43.549815246544526 ], [ -5.849875964985064, 43.550230433520795 ], [ -5.849135749017555, 43.550230433520795 ], [ -5.849135749017555, 43.550645617637002 ], [ -5.847655317082539, 43.550645617637002 ], [ -5.847655317082539, 43.551060798893154 ], [ -5.846915101115031, 43.551060798893154 ], [ -5.846915101115031, 43.551475977289243 ], [ -5.844694453212505, 43.551475977289243 ], [ -5.844694453212505, 43.551060798893154 ], [ -5.842473805309981, 43.551060798893154 ], [ -5.842473805309981, 43.550645617637002 ], [ -5.840253157407456, 43.550645617637002 ], [ -5.840253157407456, 43.550230433520795 ] ] ], [ [ [ -0.997020082000423, 43.838506733650519 ], [ -0.997020082000423, 43.837680338979254 ], [ -0.996279866032915, 43.837680338979254 ], [ -0.996279866032915, 43.836853932862539 ], [ -0.995539650065407, 43.836853932862539 ], [ -0.995539650065407, 43.83602751530038 ], [ -0.994799434097898, 43.83602751530038 ], [ -0.994799434097898, 43.835614302227256 ], [ -0.99405921813039, 43.835614302227256 ], [ -0.99405921813039, 43.834787867496956 ], [ -0.993319002162882, 43.834787867496956 ], [ -0.993319002162882, 43.833961421321249 ], [ -0.992578786195373, 43.833961421321249 ], [ -0.992578786195373, 43.829002503914154 ], [ -0.993319002162882, 43.829002503914154 ], [ -0.993319002162882, 43.828175977620944 ], [ -0.99405921813039, 43.828175977620944 ], [ -0.99405921813039, 43.827349439882454 ], [ -0.994799434097898, 43.827349439882454 ], [ -0.994799434097898, 43.826522890698669 ], [ -0.996279866032915, 43.826522890698669 ], [ -0.996279866032915, 43.826109611814793 ], [ -0.99850051393544, 43.826109611814793 ], [ -0.99850051393544, 43.825696330069604 ], [ -1.000721161837965, 43.825696330069604 ], [ -1.000721161837965, 43.825283045463102 ], [ -1.003682025707998, 43.825283045463102 ], [ -1.003682025707998, 43.825696330069604 ], [ -1.004422241675507, 43.825696330069604 ], [ -1.004422241675507, 43.826109611814793 ], [ -1.005162457643015, 43.826109611814793 ], [ -1.005162457643015, 43.826936166721218 ], [ -1.005902673610523, 43.826936166721218 ], [ -1.005902673610523, 43.827349439882454 ], [ -1.006642889578031, 43.827349439882454 ], [ -1.006642889578031, 43.82776271018237 ], [ -1.00738310554554, 43.82776271018237 ], [ -1.00738310554554, 43.828175977620944 ], [ -1.008123321513048, 43.828175977620944 ], [ -1.008123321513048, 43.82858924219822 ], [ -1.008863537480557, 43.82858924219822 ], [ -1.008863537480557, 43.829002503914154 ], [ -1.009603753448065, 43.829002503914154 ], [ -1.009603753448065, 43.829829018762027 ], [ -1.010343969415573, 43.829829018762027 ], [ -1.010343969415573, 43.83313496370014 ], [ -1.011084185383081, 43.83313496370014 ], [ -1.011084185383081, 43.83602751530038 ], [ -1.010343969415573, 43.83602751530038 ], [ -1.010343969415573, 43.836440725512134 ], [ -1.009603753448065, 43.836440725512134 ], [ -1.009603753448065, 43.837267137351574 ], [ -1.008863537480557, 43.837267137351574 ], [ -1.008863537480557, 43.838093537745578 ], [ -1.008123321513048, 43.838093537745578 ], [ -1.008123321513048, 43.838506733650519 ], [ -1.004422241675507, 43.838506733650519 ], [ -1.004422241675507, 43.838919926694103 ], [ -1.000721161837965, 43.838919926694103 ], [ -1.000721161837965, 43.839333116876304 ], [ -0.99850051393544, 43.839333116876304 ], [ -0.99850051393544, 43.838919926694103 ], [ -0.997760297967932, 43.838919926694103 ], [ -0.997760297967932, 43.838506733650519 ], [ -0.997020082000423, 43.838506733650519 ] ] ], [ [ [ -0.270868217874747, 35.53507655783536 ], [ -0.270868217874747, 35.534144226185013 ], [ -0.270128001907239, 35.534144226185013 ], [ -0.270128001907239, 35.533678056296615 ], [ -0.269387785939731, 35.533678056296615 ], [ -0.269387785939731, 35.528083806354168 ], [ -0.270128001907239, 35.528083806354168 ], [ -0.270128001907239, 35.527151393442459 ], [ -0.270868217874747, 35.527151393442459 ], [ -0.270868217874747, 35.52621896969643 ], [ -0.271608433842256, 35.52621896969643 ], [ -0.271608433842256, 35.525286535116166 ], [ -0.272348649809764, 35.525286535116166 ], [ -0.272348649809764, 35.524354089701824 ], [ -0.273088865777272, 35.524354089701824 ], [ -0.273088865777272, 35.523421633453495 ], [ -0.273829081744781, 35.523421633453495 ], [ -0.273829081744781, 35.522489166371336 ], [ -0.274569297712289, 35.522489166371336 ], [ -0.274569297712289, 35.522022928767583 ], [ -0.276049729647306, 35.522022928767583 ], [ -0.276049729647306, 35.521556688455441 ], [ -0.276789945614814, 35.521556688455441 ], [ -0.276789945614814, 35.521090445434879 ], [ -0.279750809484847, 35.521090445434879 ], [ -0.279750809484847, 35.521556688455441 ], [ -0.281231241419864, 35.521556688455441 ], [ -0.281231241419864, 35.522022928767583 ], [ -0.281971457387372, 35.522022928767583 ], [ -0.281971457387372, 35.522489166371336 ], [ -0.282711673354881, 35.522489166371336 ], [ -0.282711673354881, 35.524354089701824 ], [ -0.283451889322389, 35.524354089701824 ], [ -0.283451889322389, 35.5299485996741 ], [ -0.282711673354881, 35.5299485996741 ], [ -0.282711673354881, 35.531347166223014 ], [ -0.281971457387372, 35.531347166223014 ], [ -0.281971457387372, 35.532745708393463 ], [ -0.281231241419864, 35.532745708393463 ], [ -0.281231241419864, 35.534144226185013 ], [ -0.280491025452356, 35.534144226185013 ], [ -0.280491025452356, 35.535542719597274 ], [ -0.279750809484847, 35.535542719597274 ], [ -0.279750809484847, 35.536008878650335 ], [ -0.278270377549831, 35.536008878650335 ], [ -0.278270377549831, 35.536475034994524 ], [ -0.276049729647306, 35.536475034994524 ], [ -0.276049729647306, 35.536941188629832 ], [ -0.273088865777272, 35.536941188629832 ], [ -0.273088865777272, 35.536008878650335 ], [ -0.272348649809764, 35.536008878650335 ], [ -0.272348649809764, 35.535542719597274 ], [ -0.271608433842256, 35.535542719597274 ], [ -0.271608433842256, 35.53507655783536 ], [ -0.270868217874747, 35.53507655783536 ] ] ], [ [ [ 0.54336934638442, 35.790126796138338 ], [ 0.54336934638442, 35.789662118356006 ], [ 0.544109562351929, 35.789662118356006 ], [ 0.544109562351929, 35.789197437856686 ], [ 0.544849778319437, 35.789197437856686 ], [ 0.544849778319437, 35.788732754640378 ], [ 0.546330210254454, 35.788732754640378 ], [ 0.546330210254454, 35.787803380056921 ], [ 0.547070426221962, 35.787803380056921 ], [ 0.547070426221962, 35.786409297804781 ], [ 0.54781064218947, 35.786409297804781 ], [ 0.54781064218947, 35.782691625590473 ], [ 0.547070426221962, 35.782691625590473 ], [ 0.547070426221962, 35.78083272428038 ], [ 0.546330210254454, 35.78083272428038 ], [ 0.546330210254454, 35.77897377950292 ], [ 0.545589994286945, 35.77897377950292 ], [ 0.545589994286945, 35.777579542394932 ], [ 0.544109562351929, 35.777579542394932 ], [ 0.544109562351929, 35.777114791259052 ], [ 0.54336934638442, 35.777114791259052 ], [ 0.54336934638442, 35.776650037406554 ], [ 0.541888914449404, 35.776650037406554 ], [ 0.541888914449404, 35.776185280837481 ], [ 0.540408482514387, 35.776185280837481 ], [ 0.540408482514387, 35.775720521551847 ], [ 0.53892805057937, 35.775720521551847 ], [ 0.53892805057937, 35.776185280837481 ], [ 0.538187834611862, 35.776185280837481 ], [ 0.538187834611862, 35.776650037406554 ], [ 0.536707402676845, 35.776650037406554 ], [ 0.536707402676845, 35.777114791259052 ], [ 0.535226970741829, 35.777114791259052 ], [ 0.535226970741829, 35.777579542394932 ], [ 0.53448675477432, 35.777579542394932 ], [ 0.53448675477432, 35.778044290814222 ], [ 0.533746538806812, 35.778044290814222 ], [ 0.533746538806812, 35.779903257325017 ], [ 0.533006322839304, 35.779903257325017 ], [ 0.533006322839304, 35.784550483432255 ], [ 0.533746538806812, 35.784550483432255 ], [ 0.533746538806812, 35.788268068707133 ], [ 0.53448675477432, 35.788268068707133 ], [ 0.53448675477432, 35.788732754640378 ], [ 0.535226970741829, 35.788732754640378 ], [ 0.535226970741829, 35.789197437856686 ], [ 0.535967186709337, 35.789197437856686 ], [ 0.535967186709337, 35.789662118356006 ], [ 0.536707402676845, 35.789662118356006 ], [ 0.536707402676845, 35.790126796138338 ], [ 0.537447618644354, 35.790126796138338 ], [ 0.537447618644354, 35.790591471203676 ], [ 0.538187834611862, 35.790591471203676 ], [ 0.538187834611862, 35.791056143551991 ], [ 0.53892805057937, 35.791056143551991 ], [ 0.53892805057937, 35.791520813183269 ], [ 0.539668266546879, 35.791520813183269 ], [ 0.539668266546879, 35.791056143551991 ], [ 0.541148698481895, 35.791056143551991 ], [ 0.541148698481895, 35.790591471203676 ], [ 0.541888914449404, 35.790591471203676 ], [ 0.541888914449404, 35.790126796138338 ], [ 0.54336934638442, 35.790126796138338 ] ] ], [ [ [ -0.276049729647306, 35.824505411354338 ], [ -0.276049729647306, 35.824040934669902 ], [ -0.274569297712289, 35.824040934669902 ], [ -0.274569297712289, 35.8235764552674 ], [ -0.272348649809764, 35.8235764552674 ], [ -0.272348649809764, 35.82311197314683 ], [ -0.270128001907239, 35.82311197314683 ], [ -0.270128001907239, 35.822647488308213 ], [ -0.267167138037206, 35.822647488308213 ], [ -0.267167138037206, 35.822183000751579 ], [ -0.264946490134681, 35.822183000751579 ], [ -0.264946490134681, 35.821718510476927 ], [ -0.262725842232156, 35.821718510476927 ], [ -0.262725842232156, 35.821254017484272 ], [ -0.260505194329631, 35.821254017484272 ], [ -0.260505194329631, 35.820789521773627 ], [ -0.259764978362122, 35.820789521773627 ], [ -0.259764978362122, 35.819860522198454 ], [ -0.259024762394614, 35.819860522198454 ], [ -0.259024762394614, 35.81939601833394 ], [ -0.258284546427106, 35.81939601833394 ], [ -0.258284546427106, 35.818467002451158 ], [ -0.257544330459597, 35.818467002451158 ], [ -0.257544330459597, 35.818002490432896 ], [ -0.250882386752022, 35.818002490432896 ], [ -0.250882386752022, 35.81753797569678 ], [ -0.250142170784514, 35.81753797569678 ], [ -0.250142170784514, 35.817073458242774 ], [ -0.249401954817006, 35.817073458242774 ], [ -0.249401954817006, 35.816608938070921 ], [ -0.239038931271889, 35.816608938070921 ], [ -0.239038931271889, 35.817073458242774 ], [ -0.234597635466839, 35.817073458242774 ], [ -0.234597635466839, 35.816608938070921 ], [ -0.233857419499331, 35.816608938070921 ], [ -0.233857419499331, 35.816144415181228 ], [ -0.233117203531822, 35.816144415181228 ], [ -0.233117203531822, 35.815679889573708 ], [ -0.232376987564314, 35.815679889573708 ], [ -0.232376987564314, 35.815215361248384 ], [ -0.230896555629297, 35.815215361248384 ], [ -0.230896555629297, 35.814750830205249 ], [ -0.230156339661789, 35.814750830205249 ], [ -0.230156339661789, 35.814286296444358 ], [ -0.229416123694281, 35.814286296444358 ], [ -0.229416123694281, 35.813357220769255 ], [ -0.228675907726772, 35.813357220769255 ], [ -0.228675907726772, 35.811499036806339 ], [ -0.227935691759264, 35.811499036806339 ], [ -0.227935691759264, 35.809176245705025 ], [ -0.227195475791756, 35.809176245705025 ], [ -0.227195475791756, 35.80731796390701 ], [ -0.227935691759264, 35.80731796390701 ], [ -0.227935691759264, 35.805924224024189 ], [ -0.228675907726772, 35.805924224024189 ], [ -0.228675907726772, 35.804530459683846 ], [ -0.229416123694281, 35.804530459683846 ], [ -0.229416123694281, 35.803601269869652 ], [ -0.230156339661789, 35.803601269869652 ], [ -0.230156339661789, 35.803136670886389 ], [ -0.230896555629297, 35.803136670886389 ], [ -0.230896555629297, 35.802672069185711 ], [ -0.231636771596806, 35.802672069185711 ], [ -0.231636771596806, 35.80220746476764 ], [ -0.232376987564314, 35.80220746476764 ], [ -0.232376987564314, 35.801742857632192 ], [ -0.237558499336872, 35.801742857632192 ], [ -0.237558499336872, 35.80220746476764 ], [ -0.238298715304381, 35.80220746476764 ], [ -0.238298715304381, 35.802672069185711 ], [ -0.239038931271889, 35.802672069185711 ], [ -0.239038931271889, 35.800813635209181 ], [ -0.239779147239397, 35.800813635209181 ], [ -0.239779147239397, 35.799884401916799 ], [ -0.240519363206906, 35.799884401916799 ], [ -0.240519363206906, 35.799419781194644 ], [ -0.241259579174414, 35.799419781194644 ], [ -0.241259579174414, 35.798955157755167 ], [ -0.242740011109431, 35.798955157755167 ], [ -0.242740011109431, 35.798490531598425 ], [ -0.245700874979464, 35.798490531598425 ], [ -0.245700874979464, 35.798955157755167 ], [ -0.247921522881989, 35.798955157755167 ], [ -0.247921522881989, 35.799419781194644 ], [ -0.249401954817006, 35.799419781194644 ], [ -0.249401954817006, 35.799884401916799 ], [ -0.250882386752022, 35.799884401916799 ], [ -0.250882386752022, 35.799419781194644 ], [ -0.252362818687039, 35.799419781194644 ], [ -0.252362818687039, 35.798955157755167 ], [ -0.253843250622056, 35.798955157755167 ], [ -0.253843250622056, 35.798490531598425 ], [ -0.255323682557072, 35.798490531598425 ], [ -0.255323682557072, 35.798025902724412 ], [ -0.261245410297139, 35.798025902724412 ], [ -0.261245410297139, 35.798490531598425 ], [ -0.266426922069697, 35.798490531598425 ], [ -0.266426922069697, 35.799419781194644 ], [ -0.267167138037206, 35.799419781194644 ], [ -0.267167138037206, 35.799884401916799 ], [ -0.267907354004714, 35.799884401916799 ], [ -0.267907354004714, 35.800349019921647 ], [ -0.268647569972222, 35.800349019921647 ], [ -0.268647569972222, 35.801278247779365 ], [ -0.269387785939731, 35.801278247779365 ], [ -0.269387785939731, 35.801742857632192 ], [ -0.270128001907239, 35.801742857632192 ], [ -0.270128001907239, 35.80220746476764 ], [ -0.270868217874747, 35.80220746476764 ], [ -0.270868217874747, 35.803136670886389 ], [ -0.271608433842256, 35.803136670886389 ], [ -0.271608433842256, 35.803601269869652 ], [ -0.272348649809764, 35.803601269869652 ], [ -0.272348649809764, 35.804530459683846 ], [ -0.273088865777272, 35.804530459683846 ], [ -0.273088865777272, 35.804995050514783 ], [ -0.273829081744781, 35.804995050514783 ], [ -0.273829081744781, 35.804065866135467 ], [ -0.274569297712289, 35.804065866135467 ], [ -0.274569297712289, 35.803136670886389 ], [ -0.275309513679797, 35.803136670886389 ], [ -0.275309513679797, 35.80220746476764 ], [ -0.276049729647306, 35.80220746476764 ], [ -0.276049729647306, 35.801742857632192 ], [ -0.276789945614814, 35.801742857632192 ], [ -0.276789945614814, 35.801278247779365 ], [ -0.278270377549831, 35.801278247779365 ], [ -0.278270377549831, 35.800813635209181 ], [ -0.279010593517339, 35.800813635209181 ], [ -0.279010593517339, 35.800349019921647 ], [ -0.280491025452356, 35.800349019921647 ], [ -0.280491025452356, 35.800813635209181 ], [ -0.281231241419864, 35.800813635209181 ], [ -0.281231241419864, 35.801278247779365 ], [ -0.282711673354881, 35.801278247779365 ], [ -0.282711673354881, 35.801742857632192 ], [ -0.283451889322389, 35.801742857632192 ], [ -0.283451889322389, 35.80220746476764 ], [ -0.284192105289897, 35.80220746476764 ], [ -0.284192105289897, 35.804065866135467 ], [ -0.284932321257406, 35.804065866135467 ], [ -0.284932321257406, 35.806388806702657 ], [ -0.285672537224914, 35.806388806702657 ], [ -0.285672537224914, 35.808711679331893 ], [ -0.286412753192422, 35.808711679331893 ], [ -0.286412753192422, 35.811034484021377 ], [ -0.287152969159931, 35.811034484021377 ], [ -0.287152969159931, 35.821254017484272 ], [ -0.286412753192422, 35.821254017484272 ], [ -0.286412753192422, 35.822183000751579 ], [ -0.285672537224914, 35.822183000751579 ], [ -0.285672537224914, 35.822647488308213 ], [ -0.284932321257406, 35.822647488308213 ], [ -0.284932321257406, 35.82311197314683 ], [ -0.284192105289897, 35.82311197314683 ], [ -0.284192105289897, 35.8235764552674 ], [ -0.283451889322389, 35.8235764552674 ], [ -0.283451889322389, 35.824040934669902 ], [ -0.282711673354881, 35.824040934669902 ], [ -0.282711673354881, 35.824505411354338 ], [ -0.281971457387372, 35.824505411354338 ], [ -0.281971457387372, 35.824969885320684 ], [ -0.281231241419864, 35.824969885320684 ], [ -0.281231241419864, 35.82543435656892 ], [ -0.280491025452356, 35.82543435656892 ], [ -0.280491025452356, 35.825898825099053 ], [ -0.278270377549831, 35.825898825099053 ], [ -0.278270377549831, 35.82543435656892 ], [ -0.277530161582322, 35.82543435656892 ], [ -0.277530161582322, 35.824969885320684 ], [ -0.276789945614814, 35.824969885320684 ], [ -0.276789945614814, 35.824505411354338 ], [ -0.276049729647306, 35.824505411354338 ] ] ], [ [ [ 1.247314731484846, 36.131854454851599 ], [ 1.248054947452355, 36.131854454851599 ], [ 1.248054947452355, 36.130929109278505 ], [ 1.248795163419863, 36.130929109278505 ], [ 1.248795163419863, 36.130003752795091 ], [ 1.249535379387371, 36.130003752795091 ], [ 1.249535379387371, 36.129078385401499 ], [ 1.25027559535488, 36.129078385401499 ], [ 1.25027559535488, 36.123525951932208 ], [ 1.249535379387371, 36.123525951932208 ], [ 1.249535379387371, 36.122600508170429 ], [ 1.248795163419863, 36.122600508170429 ], [ 1.248795163419863, 36.121675053499345 ], [ 1.248054947452355, 36.121675053499345 ], [ 1.248054947452355, 36.121212322072857 ], [ 1.247314731484846, 36.121212322072857 ], [ 1.247314731484846, 36.120749587919107 ], [ 1.245834299549829, 36.120749587919107 ], [ 1.245834299549829, 36.120286851038067 ], [ 1.242133219712288, 36.120286851038067 ], [ 1.242133219712288, 36.119824111429786 ], [ 1.238432139874746, 36.119824111429786 ], [ 1.238432139874746, 36.119361369094264 ], [ 1.236951707939729, 36.119361369094264 ], [ 1.236951707939729, 36.119824111429786 ], [ 1.236211491972221, 36.119824111429786 ], [ 1.236211491972221, 36.121212322072857 ], [ 1.235471276004713, 36.121212322072857 ], [ 1.235471276004713, 36.122137782198543 ], [ 1.234731060037205, 36.122137782198543 ], [ 1.234731060037205, 36.123525951932208 ], [ 1.233990844069696, 36.123525951932208 ], [ 1.233990844069696, 36.130466432400581 ], [ 1.234731060037205, 36.130466432400581 ], [ 1.234731060037205, 36.130929109278505 ], [ 1.235471276004713, 36.130929109278505 ], [ 1.235471276004713, 36.131854454851599 ], [ 1.236211491972221, 36.131854454851599 ], [ 1.236211491972221, 36.132317123546741 ], [ 1.236951707939729, 36.132317123546741 ], [ 1.236951707939729, 36.132779789514281 ], [ 1.237691923907238, 36.132779789514281 ], [ 1.237691923907238, 36.133242452754182 ], [ 1.238432139874746, 36.133242452754182 ], [ 1.238432139874746, 36.13370511326643 ], [ 1.239172355842254, 36.13370511326643 ], [ 1.239172355842254, 36.13463042610794 ], [ 1.239912571809763, 36.13463042610794 ], [ 1.239912571809763, 36.135093078437173 ], [ 1.245094083582321, 36.135093078437173 ], [ 1.245094083582321, 36.13463042610794 ], [ 1.245834299549829, 36.13463042610794 ], [ 1.245834299549829, 36.13370511326643 ], [ 1.246574515517338, 36.13370511326643 ], [ 1.246574515517338, 36.132779789514281 ], [ 1.247314731484846, 36.132779789514281 ], [ 1.247314731484846, 36.131854454851599 ] ] ], [ [ [ 2.929085409663781, 36.147121081532141 ], [ 2.929085409663781, 36.146658500127771 ], [ 2.930565841598798, 36.146658500127771 ], [ 2.930565841598798, 36.146195915995342 ], [ 2.932046273533815, 36.146195915995342 ], [ 2.932046273533815, 36.14573332913487 ], [ 2.933526705468831, 36.14573332913487 ], [ 2.933526705468831, 36.14480814722986 ], [ 2.93426692143634, 36.14480814722986 ], [ 2.93426692143634, 36.143882954412867 ], [ 2.935007137403848, 36.143882954412867 ], [ 2.935007137403848, 36.142957750683983 ], [ 2.935747353371357, 36.142957750683983 ], [ 2.935747353371357, 36.142495144727611 ], [ 2.936487569338865, 36.142495144727611 ], [ 2.936487569338865, 36.137868935130264 ], [ 2.937227785306373, 36.137868935130264 ], [ 2.937227785306373, 36.135555728038689 ], [ 2.936487569338865, 36.135555728038689 ], [ 2.936487569338865, 36.135093078437173 ], [ 2.935747353371357, 36.135093078437173 ], [ 2.935747353371357, 36.134167771051025 ], [ 2.935007137403848, 36.134167771051025 ], [ 2.935007137403848, 36.133242452754182 ], [ 2.93426692143634, 36.133242452754182 ], [ 2.93426692143634, 36.132779789514281 ], [ 2.932786489501323, 36.132779789514281 ], [ 2.932786489501323, 36.132317123546741 ], [ 2.930565841598798, 36.132317123546741 ], [ 2.930565841598798, 36.131854454851599 ], [ 2.929085409663781, 36.131854454851599 ], [ 2.929085409663781, 36.132317123546741 ], [ 2.927604977728765, 36.132317123546741 ], [ 2.927604977728765, 36.132779789514281 ], [ 2.926124545793748, 36.132779789514281 ], [ 2.926124545793748, 36.133242452754182 ], [ 2.924644113858732, 36.133242452754182 ], [ 2.924644113858732, 36.13370511326643 ], [ 2.923163681923715, 36.13370511326643 ], [ 2.923163681923715, 36.134167771051025 ], [ 2.922423465956207, 36.134167771051025 ], [ 2.922423465956207, 36.13463042610794 ], [ 2.921683249988698, 36.13463042610794 ], [ 2.921683249988698, 36.136018374912496 ], [ 2.92094303402119, 36.136018374912496 ], [ 2.92094303402119, 36.137868935130264 ], [ 2.920202818053682, 36.137868935130264 ], [ 2.920202818053682, 36.139719451703449 ], [ 2.919462602086173, 36.139719451703449 ], [ 2.919462602086173, 36.141569924631128 ], [ 2.918722386118665, 36.141569924631128 ], [ 2.918722386118665, 36.143420353912397 ], [ 2.917982170151157, 36.143420353912397 ], [ 2.917982170151157, 36.143882954412867 ], [ 2.918722386118665, 36.143882954412867 ], [ 2.918722386118665, 36.14480814722986 ], [ 2.919462602086173, 36.14480814722986 ], [ 2.919462602086173, 36.146195915995342 ], [ 2.920202818053682, 36.146195915995342 ], [ 2.920202818053682, 36.147121081532141 ], [ 2.92094303402119, 36.147121081532141 ], [ 2.92094303402119, 36.148046236156667 ], [ 2.921683249988698, 36.148046236156667 ], [ 2.921683249988698, 36.148508809376793 ], [ 2.923903897891223, 36.148508809376793 ], [ 2.923903897891223, 36.148046236156667 ], [ 2.92538432982624, 36.148046236156667 ], [ 2.92538432982624, 36.147583660208454 ], [ 2.926864761761257, 36.147583660208454 ], [ 2.926864761761257, 36.147121081532141 ], [ 2.929085409663781, 36.147121081532141 ] ] ], [ [ [ 3.744063189890458, 36.186430528374551 ], [ 3.744803405857966, 36.186430528374551 ], [ 3.744803405857966, 36.185968178906165 ], [ 3.745543621825474, 36.185968178906165 ], [ 3.745543621825474, 36.186430528374551 ], [ 3.747024053760491, 36.186430528374551 ], [ 3.747024053760491, 36.186892875113685 ], [ 3.749244701663016, 36.186892875113685 ], [ 3.749244701663016, 36.187355219123539 ], [ 3.751465349565541, 36.187355219123539 ], [ 3.751465349565541, 36.187817560404099 ], [ 3.752945781500558, 36.187817560404099 ], [ 3.752945781500558, 36.187355219123539 ], [ 3.753685997468065, 36.187355219123539 ], [ 3.753685997468065, 36.186892875113685 ], [ 3.754426213435575, 36.186892875113685 ], [ 3.754426213435575, 36.185968178906165 ], [ 3.755166429403083, 36.185968178906165 ], [ 3.755166429403083, 36.185043471781654 ], [ 3.755906645370591, 36.185043471781654 ], [ 3.755906645370591, 36.184118753740272 ], [ 3.756646861338099, 36.184118753740272 ], [ 3.756646861338099, 36.183656390625785 ], [ 3.757387077305608, 36.183656390625785 ], [ 3.757387077305608, 36.181344534115965 ], [ 3.756646861338099, 36.181344534115965 ], [ 3.756646861338099, 36.175795800126778 ], [ 3.755906645370591, 36.175795800126778 ], [ 3.755906645370591, 36.173483711649958 ], [ 3.755166429403083, 36.173483711649958 ], [ 3.755166429403083, 36.173021285767938 ], [ 3.754426213435575, 36.173021285767938 ], [ 3.754426213435575, 36.17209642581733 ], [ 3.753685997468065, 36.17209642581733 ], [ 3.753685997468065, 36.171171554951435 ], [ 3.749984917630524, 36.171171554951435 ], [ 3.749984917630524, 36.171633991748799 ], [ 3.744063189890458, 36.171633991748799 ], [ 3.744063189890458, 36.17209642581733 ], [ 3.742582757955441, 36.17209642581733 ], [ 3.742582757955441, 36.173483711649958 ], [ 3.741842541987933, 36.173483711649958 ], [ 3.741842541987933, 36.174408555227394 ], [ 3.741102326020424, 36.174408555227394 ], [ 3.741102326020424, 36.175795800126778 ], [ 3.740362110052916, 36.175795800126778 ], [ 3.740362110052916, 36.176720616415025 ], [ 3.739621894085408, 36.176720616415025 ], [ 3.739621894085408, 36.178107820380092 ], [ 3.738881678117899, 36.178107820380092 ], [ 3.738881678117899, 36.178570216243784 ], [ 3.738141462150391, 36.178570216243784 ], [ 3.738141462150391, 36.17903260937846 ], [ 3.737401246182882, 36.17903260937846 ], [ 3.737401246182882, 36.17949499978409 ], [ 3.736661030215375, 36.17949499978409 ], [ 3.736661030215375, 36.179957387460668 ], [ 3.735920814247866, 36.179957387460668 ], [ 3.735920814247866, 36.180419772408193 ], [ 3.735180598280357, 36.180419772408193 ], [ 3.735180598280357, 36.185505826708528 ], [ 3.735920814247866, 36.185505826708528 ], [ 3.735920814247866, 36.186430528374551 ], [ 3.736661030215375, 36.186430528374551 ], [ 3.736661030215375, 36.186892875113685 ], [ 3.737401246182882, 36.186892875113685 ], [ 3.737401246182882, 36.187817560404099 ], [ 3.738141462150391, 36.187817560404099 ], [ 3.738141462150391, 36.188279898955365 ], [ 3.742582757955441, 36.188279898955365 ], [ 3.742582757955441, 36.187817560404099 ], [ 3.743322973922949, 36.187817560404099 ], [ 3.743322973922949, 36.187355219123539 ], [ 3.744063189890458, 36.187355219123539 ], [ 3.744063189890458, 36.186430528374551 ] ] ], [ [ [ 2.888373531450823, 36.61017413493235 ], [ 2.889113747418332, 36.61017413493235 ], [ 2.889113747418332, 36.609714299456655 ], [ 2.88985396338584, 36.609714299456655 ], [ 2.88985396338584, 36.609254461239168 ], [ 2.890594179353348, 36.609254461239168 ], [ 2.890594179353348, 36.608794620279923 ], [ 2.891334395320857, 36.608794620279923 ], [ 2.891334395320857, 36.606035516948175 ], [ 2.890594179353348, 36.606035516948175 ], [ 2.890594179353348, 36.604655928269572 ], [ 2.891334395320857, 36.604655928269572 ], [ 2.891334395320857, 36.605115793904091 ], [ 2.892814827255873, 36.605115793904091 ], [ 2.892814827255873, 36.605575656796958 ], [ 2.893555043223381, 36.605575656796958 ], [ 2.893555043223381, 36.606035516948175 ], [ 2.895035475158398, 36.606035516948175 ], [ 2.895035475158398, 36.605575656796958 ], [ 2.895775691125907, 36.605575656796958 ], [ 2.895775691125907, 36.605115793904091 ], [ 2.896515907093415, 36.605115793904091 ], [ 2.896515907093415, 36.604655928269572 ], [ 2.897256123060923, 36.604655928269572 ], [ 2.897256123060923, 36.604196059893432 ], [ 2.897996339028431, 36.604196059893432 ], [ 2.897996339028431, 36.603736188775677 ], [ 2.89873655499594, 36.603736188775677 ], [ 2.89873655499594, 36.603276314916315 ], [ 2.899476770963448, 36.603276314916315 ], [ 2.899476770963448, 36.602816438315351 ], [ 2.900216986930956, 36.602816438315351 ], [ 2.900216986930956, 36.602356558972815 ], [ 2.901697418865973, 36.602356558972815 ], [ 2.901697418865973, 36.601896676888721 ], [ 2.902437634833482, 36.601896676888721 ], [ 2.902437634833482, 36.600057121136963 ], [ 2.90317785080099, 36.600057121136963 ], [ 2.90317785080099, 36.598217521521264 ], [ 2.903918066768498, 36.598217521521264 ], [ 2.903918066768498, 36.597757614763687 ], [ 2.90317785080099, 36.597757614763687 ], [ 2.90317785080099, 36.596377878042439 ], [ 2.902437634833482, 36.596377878042439 ], [ 2.902437634833482, 36.595458039854627 ], [ 2.901697418865973, 36.595458039854627 ], [ 2.901697418865973, 36.594078262012708 ], [ 2.900957202898465, 36.594078262012708 ], [ 2.900957202898465, 36.593158396411461 ], [ 2.900216986930956, 36.593158396411461 ], [ 2.900216986930956, 36.592698459498877 ], [ 2.899476770963448, 36.592698459498877 ], [ 2.899476770963448, 36.593158396411461 ], [ 2.896515907093415, 36.593158396411461 ], [ 2.896515907093415, 36.593618330582743 ], [ 2.89429525919089, 36.593618330582743 ], [ 2.89429525919089, 36.594078262012708 ], [ 2.891334395320857, 36.594078262012708 ], [ 2.891334395320857, 36.594538190701364 ], [ 2.889113747418332, 36.594538190701364 ], [ 2.889113747418332, 36.596377878042439 ], [ 2.888373531450823, 36.596377878042439 ], [ 2.888373531450823, 36.598217521521264 ], [ 2.887633315483315, 36.598217521521264 ], [ 2.887633315483315, 36.596837793024264 ], [ 2.886893099515807, 36.596837793024264 ], [ 2.886893099515807, 36.593158396411461 ], [ 2.886152883548299, 36.593158396411461 ], [ 2.886152883548299, 36.592238519845012 ], [ 2.88541266758079, 36.592238519845012 ], [ 2.88541266758079, 36.591778577449873 ], [ 2.884672451613281, 36.591778577449873 ], [ 2.884672451613281, 36.591318632313481 ], [ 2.883932235645773, 36.591318632313481 ], [ 2.883932235645773, 36.590398733816969 ], [ 2.883192019678265, 36.590398733816969 ], [ 2.883192019678265, 36.58993878045689 ], [ 2.882451803710757, 36.58993878045689 ], [ 2.882451803710757, 36.589478824355602 ], [ 2.881711587743248, 36.589478824355602 ], [ 2.881711587743248, 36.589018865513104 ], [ 2.88097137177574, 36.589018865513104 ], [ 2.88097137177574, 36.588558903929453 ], [ 2.879490939840723, 36.588558903929453 ], [ 2.879490939840723, 36.589018865513104 ], [ 2.87653007597069, 36.589018865513104 ], [ 2.87653007597069, 36.589478824355602 ], [ 2.874309428068165, 36.589478824355602 ], [ 2.874309428068165, 36.58993878045689 ], [ 2.87208878016564, 36.58993878045689 ], [ 2.87208878016564, 36.590858684435844 ], [ 2.871348564198132, 36.590858684435844 ], [ 2.871348564198132, 36.592238519845012 ], [ 2.870608348230624, 36.592238519845012 ], [ 2.870608348230624, 36.593158396411461 ], [ 2.869868132263115, 36.593158396411461 ], [ 2.869868132263115, 36.594078262012708 ], [ 2.869127916295606, 36.594078262012708 ], [ 2.869127916295606, 36.594998116648675 ], [ 2.868387700328098, 36.594998116648675 ], [ 2.868387700328098, 36.597297705264687 ], [ 2.86764748436059, 36.597297705264687 ], [ 2.86764748436059, 36.601896676888721 ], [ 2.868387700328098, 36.601896676888721 ], [ 2.868387700328098, 36.602816438315351 ], [ 2.869127916295606, 36.602816438315351 ], [ 2.869127916295606, 36.603736188775677 ], [ 2.869868132263115, 36.603736188775677 ], [ 2.869868132263115, 36.604655928269572 ], [ 2.870608348230624, 36.604655928269572 ], [ 2.870608348230624, 36.605575656796958 ], [ 2.871348564198132, 36.605575656796958 ], [ 2.871348564198132, 36.606035516948175 ], [ 2.87208878016564, 36.606035516948175 ], [ 2.87208878016564, 36.606495374357721 ], [ 2.87653007597069, 36.606495374357721 ], [ 2.87653007597069, 36.606035516948175 ], [ 2.878010507905707, 36.606035516948175 ], [ 2.878010507905707, 36.605575656796958 ], [ 2.878750723873215, 36.605575656796958 ], [ 2.878750723873215, 36.605115793904091 ], [ 2.880231155808231, 36.605115793904091 ], [ 2.880231155808231, 36.604655928269572 ], [ 2.88097137177574, 36.604655928269572 ], [ 2.88097137177574, 36.608794620279923 ], [ 2.881711587743248, 36.608794620279923 ], [ 2.881711587743248, 36.609254461239168 ], [ 2.882451803710757, 36.609254461239168 ], [ 2.882451803710757, 36.61017413493235 ], [ 2.883192019678265, 36.61017413493235 ], [ 2.883192019678265, 36.610633967666281 ], [ 2.883932235645773, 36.610633967666281 ], [ 2.883932235645773, 36.611093797658391 ], [ 2.884672451613281, 36.611093797658391 ], [ 2.884672451613281, 36.611553624908673 ], [ 2.88541266758079, 36.611553624908673 ], [ 2.88541266758079, 36.612013449417155 ], [ 2.886152883548299, 36.612013449417155 ], [ 2.886152883548299, 36.611553624908673 ], [ 2.886893099515807, 36.611553624908673 ], [ 2.886893099515807, 36.611093797658391 ], [ 2.887633315483315, 36.611093797658391 ], [ 2.887633315483315, 36.610633967666281 ], [ 2.888373531450823, 36.610633967666281 ], [ 2.888373531450823, 36.61017413493235 ] ], [ [ 2.889113747418332, 36.600976904495894 ], [ 2.889113747418332, 36.601896676888721 ], [ 2.887633315483315, 36.601896676888721 ], [ 2.887633315483315, 36.601436792063076 ], [ 2.886152883548299, 36.601436792063076 ], [ 2.886152883548299, 36.600517014187183 ], [ 2.886893099515807, 36.600517014187183 ], [ 2.886893099515807, 36.598677425537396 ], [ 2.888373531450823, 36.598677425537396 ], [ 2.888373531450823, 36.600976904495894 ], [ 2.889113747418332, 36.600976904495894 ] ] ], [ [ [ 3.237015252147248, 36.635001178715243 ], [ 3.237755468114757, 36.635001178715243 ], [ 3.237755468114757, 36.634541491315147 ], [ 3.238495684082265, 36.634541491315147 ], [ 3.238495684082265, 36.634081801172542 ], [ 3.239235900049774, 36.634081801172542 ], [ 3.239235900049774, 36.633162412659935 ], [ 3.239976116017282, 36.633162412659935 ], [ 3.239976116017282, 36.632243013177515 ], [ 3.239235900049774, 36.632243013177515 ], [ 3.239235900049774, 36.625806909654813 ], [ 3.238495684082265, 36.625806909654813 ], [ 3.238495684082265, 36.625347167407384 ], [ 3.237755468114757, 36.625347167407384 ], [ 3.237755468114757, 36.624887422417736 ], [ 3.237015252147248, 36.624887422417736 ], [ 3.237015252147248, 36.624427674685869 ], [ 3.236275036179741, 36.624427674685869 ], [ 3.236275036179741, 36.623967924211811 ], [ 3.235534820212232, 36.623967924211811 ], [ 3.235534820212232, 36.623508170995557 ], [ 3.234794604244723, 36.623508170995557 ], [ 3.234794604244723, 36.623048415037132 ], [ 3.234054388277215, 36.623048415037132 ], [ 3.234054388277215, 36.622588656336532 ], [ 3.22739244456964, 36.622588656336532 ], [ 3.22739244456964, 36.623508170995557 ], [ 3.226652228602132, 36.623508170995557 ], [ 3.226652228602132, 36.623967924211811 ], [ 3.225912012634624, 36.623967924211811 ], [ 3.225912012634624, 36.624887422417736 ], [ 3.225171796667116, 36.624887422417736 ], [ 3.225171796667116, 36.633162412659935 ], [ 3.225912012634624, 36.633162412659935 ], [ 3.225912012634624, 36.635001178715243 ], [ 3.226652228602132, 36.635001178715243 ], [ 3.226652228602132, 36.635460863372849 ], [ 3.22739244456964, 36.635460863372849 ], [ 3.22739244456964, 36.636380224460474 ], [ 3.228132660537149, 36.636380224460474 ], [ 3.228132660537149, 36.637299574577931 ], [ 3.234794604244723, 36.637299574577931 ], [ 3.234794604244723, 36.636839900890493 ], [ 3.235534820212232, 36.636839900890493 ], [ 3.235534820212232, 36.636380224460474 ], [ 3.236275036179741, 36.636380224460474 ], [ 3.236275036179741, 36.635920545287931 ], [ 3.237015252147248, 36.635920545287931 ], [ 3.237015252147248, 36.635001178715243 ] ] ], [ [ [ 3.128203504923524, 36.687387561947112 ], [ 3.128203504923524, 36.68692818727758 ], [ 3.128943720891032, 36.68692818727758 ], [ 3.128943720891032, 36.68600942970653 ], [ 3.12968393685854, 36.68600942970653 ], [ 3.12968393685854, 36.685090661159613 ], [ 3.130424152826048, 36.685090661159613 ], [ 3.130424152826048, 36.684171881636921 ], [ 3.131164368793557, 36.684171881636921 ], [ 3.131164368793557, 36.683253091138575 ], [ 3.131904584761065, 36.683253091138575 ], [ 3.131904584761065, 36.682334289664659 ], [ 3.132644800728573, 36.682334289664659 ], [ 3.132644800728573, 36.681415477215303 ], [ 3.133385016696082, 36.681415477215303 ], [ 3.133385016696082, 36.680956066874856 ], [ 3.13412523266359, 36.680956066874856 ], [ 3.13412523266359, 36.678199547212365 ], [ 3.133385016696082, 36.678199547212365 ], [ 3.133385016696082, 36.67452403401316 ], [ 3.132644800728573, 36.67452403401316 ], [ 3.132644800728573, 36.674064582516735 ], [ 3.131164368793557, 36.674064582516735 ], [ 3.131164368793557, 36.673605128276698 ], [ 3.130424152826048, 36.673605128276698 ], [ 3.130424152826048, 36.673145671293035 ], [ 3.128943720891032, 36.673145671293035 ], [ 3.128943720891032, 36.672686211565782 ], [ 3.128203504923524, 36.672686211565782 ], [ 3.128203504923524, 36.672226749094932 ], [ 3.126723072988507, 36.672226749094932 ], [ 3.126723072988507, 36.671767283880513 ], [ 3.120061129280932, 36.671767283880513 ], [ 3.120061129280932, 36.672226749094932 ], [ 3.119320913313424, 36.672226749094932 ], [ 3.119320913313424, 36.672686211565782 ], [ 3.118580697345915, 36.672686211565782 ], [ 3.118580697345915, 36.673145671293035 ], [ 3.117840481378407, 36.673145671293035 ], [ 3.117840481378407, 36.673605128276698 ], [ 3.117100265410898, 36.673605128276698 ], [ 3.117100265410898, 36.674064582516735 ], [ 3.11636004944339, 36.674064582516735 ], [ 3.11636004944339, 36.674983482765938 ], [ 3.115619833475882, 36.674983482765938 ], [ 3.115619833475882, 36.675442928775055 ], [ 3.114879617508374, 36.675442928775055 ], [ 3.114879617508374, 36.675902372040525 ], [ 3.114139401540865, 36.675902372040525 ], [ 3.114139401540865, 36.676361812562291 ], [ 3.113399185573357, 36.676361812562291 ], [ 3.113399185573357, 36.676821250340389 ], [ 3.112658969605848, 36.676821250340389 ], [ 3.112658969605848, 36.677280685374775 ], [ 3.11191875363834, 36.677280685374775 ], [ 3.11191875363834, 36.677740117665422 ], [ 3.111178537670832, 36.677740117665422 ], [ 3.111178537670832, 36.679577819390644 ], [ 3.110438321703324, 36.679577819390644 ], [ 3.110438321703324, 36.681415477215303 ], [ 3.109698105735816, 36.681415477215303 ], [ 3.109698105735816, 36.682334289664659 ], [ 3.110438321703324, 36.682334289664659 ], [ 3.110438321703324, 36.684171881636921 ], [ 3.111178537670832, 36.684171881636921 ], [ 3.111178537670832, 36.685550046805048 ], [ 3.11191875363834, 36.685550046805048 ], [ 3.11191875363834, 36.68600942970653 ], [ 3.112658969605848, 36.68600942970653 ], [ 3.112658969605848, 36.686468809864046 ], [ 3.113399185573357, 36.686468809864046 ], [ 3.113399185573357, 36.68692818727758 ], [ 3.114139401540865, 36.68692818727758 ], [ 3.114139401540865, 36.687387561947112 ], [ 3.114879617508374, 36.687387561947112 ], [ 3.114879617508374, 36.687846933872635 ], [ 3.115619833475882, 36.687846933872635 ], [ 3.115619833475882, 36.688306303054155 ], [ 3.11636004944339, 36.688306303054155 ], [ 3.11636004944339, 36.688765669491623 ], [ 3.117840481378407, 36.688765669491623 ], [ 3.117840481378407, 36.689225033185046 ], [ 3.118580697345915, 36.689225033185046 ], [ 3.118580697345915, 36.689684394134424 ], [ 3.119320913313424, 36.689684394134424 ], [ 3.119320913313424, 36.689225033185046 ], [ 3.126723072988507, 36.689225033185046 ], [ 3.126723072988507, 36.688306303054155 ], [ 3.127463288956015, 36.688306303054155 ], [ 3.127463288956015, 36.687387561947112 ], [ 3.128203504923524, 36.687387561947112 ] ] ], [ [ [ 2.003075234310855, 41.411980948192124 ], [ 2.003075234310855, 41.411121697268769 ], [ 2.003815450278363, 41.411121697268769 ], [ 2.003815450278363, 41.410692067545178 ], [ 2.004555666245873, 41.410692067545178 ], [ 2.004555666245873, 41.409832799574154 ], [ 2.005295882213381, 41.409832799574154 ], [ 2.005295882213381, 41.404676953083538 ], [ 2.004555666245873, 41.404676953083538 ], [ 2.004555666245873, 41.403817605558082 ], [ 2.003815450278363, 41.403817605558082 ], [ 2.003815450278363, 41.402528562961002 ], [ 2.003075234310855, 41.402528562961002 ], [ 2.003075234310855, 41.401669187023749 ], [ 2.002335018343347, 41.401669187023749 ], [ 2.002335018343347, 41.400809799721856 ], [ 2.001594802375839, 41.400809799721856 ], [ 2.001594802375839, 41.399950401055364 ], [ 2.000854586408331, 41.399950401055364 ], [ 2.000854586408331, 41.399520697460403 ], [ 1.997893722538297, 41.399520697460403 ], [ 1.997893722538297, 41.399090991024323 ], [ 1.994932858668264, 41.399090991024323 ], [ 1.994932858668264, 41.399950401055364 ], [ 1.994192642700756, 41.399950401055364 ], [ 1.994192642700756, 41.400809799721856 ], [ 1.993452426733247, 41.400809799721856 ], [ 1.993452426733247, 41.401669187023749 ], [ 1.992712210765739, 41.401669187023749 ], [ 1.992712210765739, 41.402958246667872 ], [ 1.99197199479823, 41.402958246667872 ], [ 1.99197199479823, 41.403817605558082 ], [ 1.991231778830722, 41.403817605558082 ], [ 1.991231778830722, 41.408114229537027 ], [ 1.99197199479823, 41.408114229537027 ], [ 1.99197199479823, 41.409403161326757 ], [ 1.992712210765739, 41.409403161326757 ], [ 1.992712210765739, 41.410262434980304 ], [ 1.993452426733247, 41.410262434980304 ], [ 1.993452426733247, 41.411121697268769 ], [ 1.994192642700756, 41.411121697268769 ], [ 1.994192642700756, 41.411980948192124 ], [ 1.994932858668264, 41.411980948192124 ], [ 1.994932858668264, 41.412840187750334 ], [ 2.001594802375839, 41.412840187750334 ], [ 2.001594802375839, 41.412410569391874 ], [ 2.002335018343347, 41.412410569391874 ], [ 2.002335018343347, 41.411980948192124 ], [ 2.003075234310855, 41.411980948192124 ] ] ], [ [ [ 0.185104818110386, 41.932726025795461 ], [ 0.185845034077895, 41.932726025795461 ], [ 0.185845034077895, 41.932299863371739 ], [ 0.186585250045403, 41.932299863371739 ], [ 0.186585250045403, 41.931021359016711 ], [ 0.187325466012912, 41.931021359016711 ], [ 0.187325466012912, 41.929742829035931 ], [ 0.18806568198042, 41.929742829035931 ], [ 0.18806568198042, 41.928464273429555 ], [ 0.188805897947928, 41.928464273429555 ], [ 0.188805897947928, 41.92761188878891 ], [ 0.189546113915437, 41.92761188878891 ], [ 0.189546113915437, 41.926333290473444 ], [ 0.190286329882945, 41.926333290473444 ], [ 0.190286329882945, 41.925480877360194 ], [ 0.189546113915437, 41.925480877360194 ], [ 0.189546113915437, 41.923349794750358 ], [ 0.188805897947928, 41.923349794750358 ], [ 0.188805897947928, 41.92207111101775 ], [ 0.18806568198042, 41.92207111101775 ], [ 0.18806568198042, 41.921644877412461 ], [ 0.187325466012912, 41.921644877412461 ], [ 0.187325466012912, 41.921218640959964 ], [ 0.186585250045403, 41.921218640959964 ], [ 0.186585250045403, 41.920792401660272 ], [ 0.185104818110386, 41.920792401660272 ], [ 0.185104818110386, 41.920366159513392 ], [ 0.184364602142878, 41.920366159513392 ], [ 0.184364602142878, 41.919939914519318 ], [ 0.18362438617537, 41.919939914519318 ], [ 0.18362438617537, 41.919513666678057 ], [ 0.182884170207862, 41.919513666678057 ], [ 0.182884170207862, 41.919087415989608 ], [ 0.181403738272845, 41.919087415989608 ], [ 0.181403738272845, 41.918661162453994 ], [ 0.176962442467795, 41.918661162453994 ], [ 0.176962442467795, 41.919087415989608 ], [ 0.17474179456527, 41.919087415989608 ], [ 0.17474179456527, 41.919939914519318 ], [ 0.174001578597761, 41.919939914519318 ], [ 0.174001578597761, 41.921218640959964 ], [ 0.173261362630253, 41.921218640959964 ], [ 0.173261362630253, 41.92207111101775 ], [ 0.172521146662745, 41.92207111101775 ], [ 0.172521146662745, 41.923349794750358 ], [ 0.171780930695237, 41.923349794750358 ], [ 0.171780930695237, 41.925480877360194 ], [ 0.172521146662745, 41.925480877360194 ], [ 0.172521146662745, 41.928464273429555 ], [ 0.173261362630253, 41.928464273429555 ], [ 0.173261362630253, 41.931021359016711 ], [ 0.174001578597761, 41.931021359016711 ], [ 0.174001578597761, 41.931873698100702 ], [ 0.17474179456527, 41.931873698100702 ], [ 0.17474179456527, 41.932299863371739 ], [ 0.176222226500287, 41.932299863371739 ], [ 0.176222226500287, 41.932726025795461 ], [ 0.177702658435303, 41.932726025795461 ], [ 0.177702658435303, 41.933152185371853 ], [ 0.17918309037032, 41.933152185371853 ], [ 0.17918309037032, 41.933578342100922 ], [ 0.180663522305336, 41.933578342100922 ], [ 0.180663522305336, 41.934004495982656 ], [ 0.182884170207862, 41.934004495982656 ], [ 0.182884170207862, 41.933578342100922 ], [ 0.18362438617537, 41.933578342100922 ], [ 0.18362438617537, 41.933152185371853 ], [ 0.185104818110386, 41.933152185371853 ], [ 0.185104818110386, 41.932726025795461 ] ] ] ] } }
]
}
