{
"type": "FeatureCollection",
"name": "spain_fires_modis_ba",
"crs": { "type": "name", "properties": { "name": "urn:ogc:def:crs:OGC:1.3:CRS84" } },
"features": [
{ "type": "Feature", "properties": { }, "geometry": { "type": "Polygon", "coordinates": [ [ [ -6.735174262125033, 37.252160944864045 ], [ -6.729992750352474, 37.252160944864045 ], [ -6.729992750352474, 37.251704966050767 ], [ -6.727772102449949, 37.251704966050767 ], [ -6.727772102449949, 37.250793000145379 ], [ -6.728512318417457, 37.250793000145379 ], [ -6.728512318417457, 37.249881023201638 ], [ -6.729252534384965, 37.249881023201638 ], [ -6.729252534384965, 37.249425030590409 ], [ -6.729992750352474, 37.249425030590409 ], [ -6.729992750352474, 37.248969035219631 ], [ -6.730732966319983, 37.248969035219631 ], [ -6.730732966319983, 37.248513037089317 ], [ -6.731473182287491, 37.248513037089317 ], [ -6.731473182287491, 37.248057036199462 ], [ -6.732953614222508, 37.248057036199462 ], [ -6.732953614222508, 37.247601032550094 ], [ -6.738135125995067, 37.247601032550094 ], [ -6.738135125995067, 37.248057036199462 ], [ -6.738875341962574, 37.248057036199462 ], [ -6.738875341962574, 37.250337013053297 ], [ -6.738135125995067, 37.250337013053297 ], [ -6.738135125995067, 37.251704966050767 ], [ -6.735174262125033, 37.251704966050767 ], [ -6.735174262125033, 37.252160944864045 ] ] ] } }
]
}
