{
"type": "FeatureCollection",
"name": "spain_fires_modis_ba",
"crs": { "type": "name", "properties": { "name": "urn:ogc:def:crs:OGC:1.3:CRS84" } },
"features": [
{ "type": "Feature", "properties": { }, "geometry": { "type": "MultiPolygon", "coordinates": [ [ [ [ -8.429528611751611, 37.399297633307874 ], [ -8.429528611751611, 37.398842546482811 ], [ -8.428788395784101, 37.398842546482811 ], [ -8.428788395784101, 37.398387456894255 ], [ -8.428048179816592, 37.398387456894255 ], [ -8.428048179816592, 37.3979323645422 ], [ -8.427307963849083, 37.3979323645422 ], [ -8.427307963849083, 37.397477269426659 ], [ -8.426567747881576, 37.397477269426659 ], [ -8.426567747881576, 37.397022171547654 ], [ -8.425827531914068, 37.397022171547654 ], [ -8.425827531914068, 37.396567070905178 ], [ -8.425087315946559, 37.396567070905178 ], [ -8.425087315946559, 37.395656861329911 ], [ -8.42434709997905, 37.395656861329911 ], [ -8.42434709997905, 37.395201752397135 ], [ -8.423606884011543, 37.395201752397135 ], [ -8.423606884011543, 37.394746640700951 ], [ -8.422866668044033, 37.394746640700951 ], [ -8.422866668044033, 37.394291526241354 ], [ -8.422126452076526, 37.394291526241354 ], [ -8.422126452076526, 37.393381289032028 ], [ -8.421386236109019, 37.393381289032028 ], [ -8.421386236109019, 37.392926166282308 ], [ -8.420646020141509, 37.392926166282308 ], [ -8.420646020141509, 37.392471040769244 ], [ -8.419905804174, 37.392471040769244 ], [ -8.419905804174, 37.391560781453087 ], [ -8.419165588206493, 37.391560781453087 ], [ -8.419165588206493, 37.391105647650036 ], [ -8.418425372238985, 37.391105647650036 ], [ -8.418425372238985, 37.390195371754025 ], [ -8.417685156271476, 37.390195371754025 ], [ -8.417685156271476, 37.389740229661093 ], [ -8.416944940303967, 37.389740229661093 ], [ -8.416944940303967, 37.388829937185427 ], [ -8.41620472433646, 37.388829937185427 ], [ -8.41620472433646, 37.387919633656793 ], [ -8.415464508368952, 37.387919633656793 ], [ -8.415464508368952, 37.387009319075268 ], [ -8.414724292401443, 37.387009319075268 ], [ -8.414724292401443, 37.386554157639708 ], [ -8.413984076433936, 37.386554157639708 ], [ -8.413984076433936, 37.38564382647904 ], [ -8.413243860466427, 37.38564382647904 ], [ -8.413243860466427, 37.38473348426573 ], [ -8.412503644498917, 37.38473348426573 ], [ -8.412503644498917, 37.383823130999872 ], [ -8.41176342853141, 37.383823130999872 ], [ -8.41176342853141, 37.382912766681549 ], [ -8.411023212563901, 37.382912766681549 ], [ -8.411023212563901, 37.382002391310884 ], [ -8.410282996596392, 37.382002391310884 ], [ -8.410282996596392, 37.381092004887947 ], [ -8.411023212563901, 37.381092004887947 ], [ -8.411023212563901, 37.379726404530764 ], [ -8.41176342853141, 37.379726404530764 ], [ -8.41176342853141, 37.378360779306533 ], [ -8.412503644498917, 37.378360779306533 ], [ -8.412503644498917, 37.377450348675495 ], [ -8.413984076433936, 37.377450348675495 ], [ -8.413984076433936, 37.376995129215565 ], [ -8.41620472433646, 37.376995129215565 ], [ -8.41620472433646, 37.377450348675495 ], [ -8.416944940303967, 37.377450348675495 ], [ -8.416944940303967, 37.377905565372494 ], [ -8.417685156271476, 37.377905565372494 ], [ -8.417685156271476, 37.378815990477591 ], [ -8.418425372238985, 37.378815990477591 ], [ -8.418425372238985, 37.379726404530764 ], [ -8.419165588206493, 37.379726404530764 ], [ -8.419165588206493, 37.380181607412844 ], [ -8.419905804174, 37.380181607412844 ], [ -8.419905804174, 37.381092004887947 ], [ -8.420646020141509, 37.381092004887947 ], [ -8.420646020141509, 37.382002391310884 ], [ -8.421386236109019, 37.382002391310884 ], [ -8.421386236109019, 37.382457580377753 ], [ -8.422126452076526, 37.382457580377753 ], [ -8.422126452076526, 37.383367950222258 ], [ -8.422866668044033, 37.383367950222258 ], [ -8.422866668044033, 37.384278309014356 ], [ -8.423606884011543, 37.384278309014356 ], [ -8.423606884011543, 37.385188656753954 ], [ -8.42434709997905, 37.385188656753954 ], [ -8.42434709997905, 37.38564382647904 ], [ -8.425087315946559, 37.38564382647904 ], [ -8.425087315946559, 37.386098993440967 ], [ -8.425827531914068, 37.386098993440967 ], [ -8.425827531914068, 37.387009319075268 ], [ -8.426567747881576, 37.387009319075268 ], [ -8.426567747881576, 37.387464477747635 ], [ -8.427307963849083, 37.387464477747635 ], [ -8.427307963849083, 37.387919633656793 ], [ -8.428048179816592, 37.387919633656793 ], [ -8.428048179816592, 37.388374786802729 ], [ -8.428788395784101, 37.388374786802729 ], [ -8.428788395784101, 37.388829937185427 ], [ -8.429528611751611, 37.388829937185427 ], [ -8.429528611751611, 37.389285084804889 ], [ -8.431009043686625, 37.389285084804889 ], [ -8.431009043686625, 37.389740229661093 ], [ -8.431749259654135, 37.389740229661093 ], [ -8.431749259654135, 37.390195371754025 ], [ -8.433229691589151, 37.390195371754025 ], [ -8.433229691589151, 37.390650511083678 ], [ -8.43396990755666, 37.390650511083678 ], [ -8.43396990755666, 37.391105647650036 ], [ -8.434710123524168, 37.391105647650036 ], [ -8.434710123524168, 37.391560781453087 ], [ -8.435450339491677, 37.391560781453087 ], [ -8.435450339491677, 37.39201591249283 ], [ -8.436190555459184, 37.39201591249283 ], [ -8.436190555459184, 37.393836409018384 ], [ -8.436930771426693, 37.393836409018384 ], [ -8.436930771426693, 37.394746640700951 ], [ -8.436190555459184, 37.394746640700951 ], [ -8.436190555459184, 37.396111967499273 ], [ -8.435450339491677, 37.396111967499273 ], [ -8.435450339491677, 37.397022171547654 ], [ -8.434710123524168, 37.397022171547654 ], [ -8.434710123524168, 37.3979323645422 ], [ -8.43396990755666, 37.3979323645422 ], [ -8.43396990755666, 37.398387456894255 ], [ -8.433229691589151, 37.398387456894255 ], [ -8.433229691589151, 37.398842546482811 ], [ -8.432489475621644, 37.398842546482811 ], [ -8.432489475621644, 37.399297633307874 ], [ -8.429528611751611, 37.399297633307874 ] ] ], [ [ [ -7.84327756548501, 41.939970351354631 ], [ -7.84327756548501, 41.939544237336001 ], [ -7.842537349517501, 41.939544237336001 ], [ -7.842537349517501, 41.939118120469992 ], [ -7.841797133549992, 41.939118120469992 ], [ -7.841797133549992, 41.937839752787625 ], [ -7.841056917582485, 41.937839752787625 ], [ -7.841056917582485, 41.936561359478858 ], [ -7.840316701614976, 41.936561359478858 ], [ -7.840316701614976, 41.929742829035931 ], [ -7.841056917582485, 41.929742829035931 ], [ -7.841056917582485, 41.926759492759189 ], [ -7.841797133549992, 41.926759492759189 ], [ -7.841797133549992, 41.923776016966784 ], [ -7.842537349517501, 41.923776016966784 ], [ -7.842537349517501, 41.921218640959964 ], [ -7.84327756548501, 41.921218640959964 ], [ -7.84327756548501, 41.919513666678057 ], [ -7.844017781452516, 41.919513666678057 ], [ -7.844017781452516, 41.917808646841237 ], [ -7.844757997420025, 41.917808646841237 ], [ -7.844757997420025, 41.916956119839853 ], [ -7.845498213387533, 41.916956119839853 ], [ -7.845498213387533, 41.916529852068429 ], [ -7.846238429355042, 41.916529852068429 ], [ -7.846238429355042, 41.916103581449839 ], [ -7.847718861290059, 41.916103581449839 ], [ -7.847718861290059, 41.915677307984119 ], [ -7.850679725160092, 41.915677307984119 ], [ -7.850679725160092, 41.916103581449839 ], [ -7.851419941127602, 41.916103581449839 ], [ -7.851419941127602, 41.916529852068429 ], [ -7.852160157095109, 41.916529852068429 ], [ -7.852160157095109, 41.916956119839853 ], [ -7.852900373062616, 41.916956119839853 ], [ -7.852900373062616, 41.917382384764132 ], [ -7.853640589030126, 41.917382384764132 ], [ -7.853640589030126, 41.923349794750358 ], [ -7.852900373062616, 41.923349794750358 ], [ -7.852900373062616, 41.925480877360194 ], [ -7.852160157095109, 41.925480877360194 ], [ -7.852160157095109, 41.932299863371739 ], [ -7.852900373062616, 41.932299863371739 ], [ -7.852900373062616, 41.934004495982656 ], [ -7.853640589030126, 41.934004495982656 ], [ -7.853640589030126, 41.935709083036194 ], [ -7.852900373062616, 41.935709083036194 ], [ -7.852900373062616, 41.936561359478858 ], [ -7.852160157095109, 41.936561359478858 ], [ -7.852160157095109, 41.936987493429157 ], [ -7.851419941127602, 41.936987493429157 ], [ -7.851419941127602, 41.937413624532077 ], [ -7.850679725160092, 41.937413624532077 ], [ -7.850679725160092, 41.9382658781958 ], [ -7.849939509192585, 41.9382658781958 ], [ -7.849939509192585, 41.938692000756582 ], [ -7.848459077257567, 41.938692000756582 ], [ -7.848459077257567, 41.939118120469992 ], [ -7.847718861290059, 41.939118120469992 ], [ -7.847718861290059, 41.939544237336001 ], [ -7.846978645322551, 41.939544237336001 ], [ -7.846978645322551, 41.939970351354631 ], [ -7.84327756548501, 41.939970351354631 ] ] ] ] } }
]
}
