{
"type": "FeatureCollection",
"name": "spain_fires_nrt_ba",
"crs": { "type": "name", "properties": { "name": "urn:ogc:def:crs:OGC:1.3:CRS84" } },
"features": [
{ "type": "Feature", "properties": { }, "geometry": { "type": "MultiPolygon", "coordinates": [ [ [ [ -6.303628353067674, 36.843415793832506 ], [ -6.302147921132656, 36.843415793832506 ], [ -6.302147921132656, 36.842957352877669 ], [ -6.299927273230131, 36.842957352877669 ], [ -6.299927273230131, 36.841582013522675 ], [ -6.299187057262623, 36.841582013522675 ], [ -6.299187057262623, 36.840665106877431 ], [ -6.298446841295115, 36.840665106877431 ], [ -6.298446841295115, 36.839289726296961 ], [ -6.297706625327606, 36.839289726296961 ], [ -6.297706625327606, 36.838372792168386 ], [ -6.296966409360098, 36.838372792168386 ], [ -6.296966409360098, 36.836997370363399 ], [ -6.297706625327606, 36.836997370363399 ], [ -6.297706625327606, 36.835163436147987 ], [ -6.298446841295115, 36.835163436147987 ], [ -6.298446841295115, 36.83378795663031 ], [ -6.299187057262623, 36.83378795663031 ], [ -6.299187057262623, 36.833329457961419 ], [ -6.299927273230131, 36.833329457961419 ], [ -6.299927273230131, 36.832870956544376 ], [ -6.30066748919764, 36.832870956544376 ], [ -6.30066748919764, 36.832412452379202 ], [ -6.301407705165149, 36.832412452379202 ], [ -6.301407705165149, 36.831953945465905 ], [ -6.302147921132656, 36.831953945465905 ], [ -6.302147921132656, 36.831495435804499 ], [ -6.302888137100165, 36.831495435804499 ], [ -6.302888137100165, 36.831036923395004 ], [ -6.303628353067674, 36.831036923395004 ], [ -6.303628353067674, 36.830578408237436 ], [ -6.304368569035181, 36.830578408237436 ], [ -6.304368569035181, 36.829661369678071 ], [ -6.310290296775248, 36.829661369678071 ], [ -6.310290296775248, 36.830578408237436 ], [ -6.311030512742757, 36.830578408237436 ], [ -6.311030512742757, 36.831495435804499 ], [ -6.311770728710265, 36.831495435804499 ], [ -6.311770728710265, 36.832870956544376 ], [ -6.312510944677773, 36.832870956544376 ], [ -6.312510944677773, 36.83378795663031 ], [ -6.313251160645282, 36.83378795663031 ], [ -6.313251160645282, 36.836997370363399 ], [ -6.312510944677773, 36.836997370363399 ], [ -6.312510944677773, 36.841123561574236 ], [ -6.311770728710265, 36.841123561574236 ], [ -6.311770728710265, 36.841582013522675 ], [ -6.311030512742757, 36.841582013522675 ], [ -6.311030512742757, 36.842040462722721 ], [ -6.310290296775248, 36.842040462722721 ], [ -6.310290296775248, 36.842498909174395 ], [ -6.30955008080774, 36.842498909174395 ], [ -6.30955008080774, 36.842957352877669 ], [ -6.308809864840232, 36.842957352877669 ], [ -6.308809864840232, 36.843874232038935 ], [ -6.308069648872723, 36.843874232038935 ], [ -6.308069648872723, 36.844332667496914 ], [ -6.305849000970198, 36.844332667496914 ], [ -6.305849000970198, 36.843874232038935 ], [ -6.303628353067674, 36.843874232038935 ], [ -6.303628353067674, 36.843415793832506 ] ] ], [ [ [ -6.366546710305881, 37.29364346354987 ], [ -6.365066278370866, 37.29364346354987 ], [ -6.365066278370866, 37.293187735912348 ], [ -6.363585846435849, 37.293187735912348 ], [ -6.363585846435849, 37.292732005514111 ], [ -6.362105414500832, 37.292732005514111 ], [ -6.362105414500832, 37.292276272355167 ], [ -6.360624982565815, 37.292276272355167 ], [ -6.360624982565815, 37.29182053643553 ], [ -6.359144550630798, 37.29182053643553 ], [ -6.359144550630798, 37.2913647977552 ], [ -6.35840433466329, 37.2913647977552 ], [ -6.35840433466329, 37.289086062943767 ], [ -6.357664118695782, 37.289086062943767 ], [ -6.357664118695782, 37.284984166365774 ], [ -6.35840433466329, 37.284984166365774 ], [ -6.35840433466329, 37.28407260342707 ], [ -6.359144550630798, 37.28407260342707 ], [ -6.359144550630798, 37.28316102944644 ], [ -6.359884766598306, 37.28316102944644 ], [ -6.359884766598306, 37.282249444424018 ], [ -6.360624982565815, 37.282249444424018 ], [ -6.360624982565815, 37.281337848359875 ], [ -6.361365198533323, 37.281337848359875 ], [ -6.361365198533323, 37.280426241254119 ], [ -6.362105414500832, 37.280426241254119 ], [ -6.362105414500832, 37.279970433560663 ], [ -6.362845630468341, 37.279970433560663 ], [ -6.362845630468341, 37.279514623106849 ], [ -6.363585846435849, 37.279514623106849 ], [ -6.363585846435849, 37.279058809892668 ], [ -6.365066278370866, 37.279058809892668 ], [ -6.365066278370866, 37.278602993918142 ], [ -6.365806494338374, 37.278602993918142 ], [ -6.365806494338374, 37.278147175183292 ], [ -6.368027142240899, 37.278147175183292 ], [ -6.368027142240899, 37.278602993918142 ], [ -6.369507574175914, 37.278602993918142 ], [ -6.369507574175914, 37.279058809892668 ], [ -6.370988006110932, 37.279058809892668 ], [ -6.370988006110932, 37.279514623106849 ], [ -6.372468438045948, 37.279514623106849 ], [ -6.372468438045948, 37.279970433560663 ], [ -6.373948869980965, 37.279970433560663 ], [ -6.373948869980965, 37.280426241254119 ], [ -6.375429301915982, 37.280426241254119 ], [ -6.375429301915982, 37.280882046187195 ], [ -6.37616951788349, 37.280882046187195 ], [ -6.37616951788349, 37.281337848359875 ], [ -6.376909733850998, 37.281337848359875 ], [ -6.376909733850998, 37.28316102944644 ], [ -6.377649949818506, 37.28316102944644 ], [ -6.377649949818506, 37.286351490070047 ], [ -6.376909733850998, 37.286351490070047 ], [ -6.376909733850998, 37.288174549694837 ], [ -6.37616951788349, 37.288174549694837 ], [ -6.37616951788349, 37.290453312112554 ], [ -6.375429301915982, 37.290453312112554 ], [ -6.375429301915982, 37.292276272355167 ], [ -6.374689085948473, 37.292276272355167 ], [ -6.374689085948473, 37.292732005514111 ], [ -6.373208654013458, 37.292732005514111 ], [ -6.373208654013458, 37.293187735912348 ], [ -6.372468438045948, 37.293187735912348 ], [ -6.372468438045948, 37.29364346354987 ], [ -6.37172822207844, 37.29364346354987 ], [ -6.37172822207844, 37.29409918842665 ], [ -6.370988006110932, 37.29409918842665 ], [ -6.370988006110932, 37.294554910542708 ], [ -6.368027142240899, 37.294554910542708 ], [ -6.368027142240899, 37.29409918842665 ], [ -6.366546710305881, 37.29409918842665 ], [ -6.366546710305881, 37.29364346354987 ] ] ], [ [ [ -8.417685156271476, 37.397477269426659 ], [ -8.416944940303967, 37.397477269426659 ], [ -8.416944940303967, 37.397022171547654 ], [ -8.41620472433646, 37.397022171547654 ], [ -8.41620472433646, 37.396111967499273 ], [ -8.415464508368952, 37.396111967499273 ], [ -8.415464508368952, 37.395656861329911 ], [ -8.414724292401443, 37.395656861329911 ], [ -8.414724292401443, 37.395201752397135 ], [ -8.413984076433936, 37.395201752397135 ], [ -8.413984076433936, 37.390650511083678 ], [ -8.414724292401443, 37.390650511083678 ], [ -8.414724292401443, 37.390195371754025 ], [ -8.415464508368952, 37.390195371754025 ], [ -8.415464508368952, 37.389285084804889 ], [ -8.41620472433646, 37.389285084804889 ], [ -8.41620472433646, 37.388829937185427 ], [ -8.415464508368952, 37.388829937185427 ], [ -8.415464508368952, 37.388374786802729 ], [ -8.414724292401443, 37.388374786802729 ], [ -8.414724292401443, 37.387919633656793 ], [ -8.413243860466427, 37.387919633656793 ], [ -8.413243860466427, 37.387464477747635 ], [ -8.412503644498917, 37.387464477747635 ], [ -8.412503644498917, 37.386098993440967 ], [ -8.41176342853141, 37.386098993440967 ], [ -8.41176342853141, 37.38473348426573 ], [ -8.411023212563901, 37.38473348426573 ], [ -8.411023212563901, 37.385188656753954 ], [ -8.408062348693868, 37.385188656753954 ], [ -8.408062348693868, 37.38473348426573 ], [ -8.40732213272636, 37.38473348426573 ], [ -8.40732213272636, 37.384278309014356 ], [ -8.405841700791342, 37.384278309014356 ], [ -8.405841700791342, 37.383823130999872 ], [ -8.405101484823835, 37.383823130999872 ], [ -8.405101484823835, 37.382002391310884 ], [ -8.404361268856325, 37.382002391310884 ], [ -8.404361268856325, 37.377905565372494 ], [ -8.405101484823835, 37.377905565372494 ], [ -8.405101484823835, 37.376084682006905 ], [ -8.405841700791342, 37.376084682006905 ], [ -8.405841700791342, 37.375629454258195 ], [ -8.40732213272636, 37.375629454258195 ], [ -8.40732213272636, 37.37517422374659 ], [ -8.408062348693868, 37.37517422374659 ], [ -8.408062348693868, 37.374718990472104 ], [ -8.411023212563901, 37.374718990472104 ], [ -8.411023212563901, 37.37517422374659 ], [ -8.412503644498917, 37.37517422374659 ], [ -8.412503644498917, 37.375629454258195 ], [ -8.413243860466427, 37.375629454258195 ], [ -8.413243860466427, 37.376084682006905 ], [ -8.413984076433936, 37.376084682006905 ], [ -8.413984076433936, 37.376995129215565 ], [ -8.414724292401443, 37.376995129215565 ], [ -8.414724292401443, 37.378815990477591 ], [ -8.41620472433646, 37.378815990477591 ], [ -8.41620472433646, 37.378360779306533 ], [ -8.416944940303967, 37.378360779306533 ], [ -8.416944940303967, 37.377905565372494 ], [ -8.417685156271476, 37.377905565372494 ], [ -8.417685156271476, 37.37517422374659 ], [ -8.418425372238985, 37.37517422374659 ], [ -8.418425372238985, 37.373808515634522 ], [ -8.419905804174, 37.373808515634522 ], [ -8.419905804174, 37.373353274071448 ], [ -8.422866668044033, 37.373353274071448 ], [ -8.422866668044033, 37.372898029745542 ], [ -8.425087315946559, 37.372898029745542 ], [ -8.425087315946559, 37.373353274071448 ], [ -8.425827531914068, 37.373353274071448 ], [ -8.425827531914068, 37.374718990472104 ], [ -8.426567747881576, 37.374718990472104 ], [ -8.426567747881576, 37.375629454258195 ], [ -8.427307963849083, 37.375629454258195 ], [ -8.427307963849083, 37.376995129215565 ], [ -8.428048179816592, 37.376995129215565 ], [ -8.428048179816592, 37.379271198885675 ], [ -8.427307963849083, 37.379271198885675 ], [ -8.427307963849083, 37.381092004887947 ], [ -8.426567747881576, 37.381092004887947 ], [ -8.426567747881576, 37.382002391310884 ], [ -8.425087315946559, 37.382002391310884 ], [ -8.425087315946559, 37.382457580377753 ], [ -8.423606884011543, 37.382457580377753 ], [ -8.423606884011543, 37.382912766681549 ], [ -8.422866668044033, 37.382912766681549 ], [ -8.422866668044033, 37.383823130999872 ], [ -8.422126452076526, 37.383823130999872 ], [ -8.422126452076526, 37.386554157639708 ], [ -8.421386236109019, 37.386554157639708 ], [ -8.421386236109019, 37.387009319075268 ], [ -8.420646020141509, 37.387009319075268 ], [ -8.420646020141509, 37.388374786802729 ], [ -8.422126452076526, 37.388374786802729 ], [ -8.422126452076526, 37.388829937185427 ], [ -8.422866668044033, 37.388829937185427 ], [ -8.422866668044033, 37.389285084804889 ], [ -8.423606884011543, 37.389285084804889 ], [ -8.423606884011543, 37.389740229661093 ], [ -8.42434709997905, 37.389740229661093 ], [ -8.42434709997905, 37.391560781453087 ], [ -8.425087315946559, 37.391560781453087 ], [ -8.425087315946559, 37.394291526241354 ], [ -8.42434709997905, 37.394291526241354 ], [ -8.42434709997905, 37.396111967499273 ], [ -8.423606884011543, 37.396111967499273 ], [ -8.423606884011543, 37.397022171547654 ], [ -8.422866668044033, 37.397022171547654 ], [ -8.422866668044033, 37.397477269426659 ], [ -8.422126452076526, 37.397477269426659 ], [ -8.422126452076526, 37.3979323645422 ], [ -8.420646020141509, 37.3979323645422 ], [ -8.420646020141509, 37.398387456894255 ], [ -8.418425372238985, 37.398387456894255 ], [ -8.418425372238985, 37.3979323645422 ], [ -8.417685156271476, 37.3979323645422 ], [ -8.417685156271476, 37.397477269426659 ] ] ], [ [ [ -8.13122157684575, 41.104506491053591 ], [ -8.130481360878242, 41.104506491053591 ], [ -8.130481360878242, 41.100621527112303 ], [ -8.129741144910733, 41.100621527112303 ], [ -8.129741144910733, 41.095872925755465 ], [ -8.129000928943226, 41.095872925755465 ], [ -8.129000928943226, 41.095441217699893 ], [ -8.128260712975717, 41.095441217699893 ], [ -8.128260712975717, 41.094577793077264 ], [ -8.127520497008208, 41.094577793077264 ], [ -8.127520497008208, 41.094146076510221 ], [ -8.1267802810407, 41.094146076510221 ], [ -8.1267802810407, 41.088533502960537 ], [ -8.127520497008208, 41.088533502960537 ], [ -8.127520497008208, 41.08766998755037 ], [ -8.128260712975717, 41.08766998755037 ], [ -8.128260712975717, 41.086806460791983 ], [ -8.129000928943226, 41.086806460791983 ], [ -8.129000928943226, 41.085942922685405 ], [ -8.129741144910733, 41.085942922685405 ], [ -8.129741144910733, 41.085079373230698 ], [ -8.130481360878242, 41.085079373230698 ], [ -8.130481360878242, 41.084215812427892 ], [ -8.13122157684575, 41.084215812427892 ], [ -8.13122157684575, 41.083352240277058 ], [ -8.131961792813259, 41.083352240277058 ], [ -8.131961792813259, 41.08292044994613 ], [ -8.134182440715785, 41.08292044994613 ], [ -8.134182440715785, 41.08248865677821 ], [ -8.136403088618311, 41.08248865677821 ], [ -8.136403088618311, 41.082056860773321 ], [ -8.138623736520834, 41.082056860773321 ], [ -8.138623736520834, 41.081625061931426 ], [ -8.141584600390868, 41.081625061931426 ], [ -8.141584600390868, 41.082056860773321 ], [ -8.142324816358375, 41.082056860773321 ], [ -8.142324816358375, 41.08248865677821 ], [ -8.143065032325884, 41.08248865677821 ], [ -8.143065032325884, 41.08292044994613 ], [ -8.143805248293392, 41.08292044994613 ], [ -8.143805248293392, 41.083352240277058 ], [ -8.144545464260901, 41.083352240277058 ], [ -8.144545464260901, 41.083784027770974 ], [ -8.145285680228408, 41.083784027770974 ], [ -8.145285680228408, 41.084215812427892 ], [ -8.146025896195917, 41.084215812427892 ], [ -8.146025896195917, 41.089397007022427 ], [ -8.146766112163425, 41.089397007022427 ], [ -8.146766112163425, 41.089828754797736 ], [ -8.147506328130934, 41.089828754797736 ], [ -8.147506328130934, 41.090692241837125 ], [ -8.148246544098441, 41.090692241837125 ], [ -8.148246544098441, 41.09112398110117 ], [ -8.14898676006595, 41.09112398110117 ], [ -8.14898676006595, 41.091555717528109 ], [ -8.14972697603346, 41.091555717528109 ], [ -8.14972697603346, 41.09198745111793 ], [ -8.150467192000969, 41.09198745111793 ], [ -8.150467192000969, 41.096736333355096 ], [ -8.14972697603346, 41.096736333355096 ], [ -8.14972697603346, 41.097168032899141 ], [ -8.14898676006595, 41.097168032899141 ], [ -8.14898676006595, 41.098031423475675 ], [ -8.148246544098441, 41.098031423475675 ], [ -8.148246544098441, 41.098894802703406 ], [ -8.147506328130934, 41.098894802703406 ], [ -8.147506328130934, 41.09932648806145 ], [ -8.146766112163425, 41.09932648806145 ], [ -8.146766112163425, 41.099758170582298 ], [ -8.145285680228408, 41.099758170582298 ], [ -8.145285680228408, 41.10018985026592 ], [ -8.143805248293392, 41.10018985026592 ], [ -8.143805248293392, 41.100621527112303 ], [ -8.143065032325884, 41.100621527112303 ], [ -8.143065032325884, 41.101053201121459 ], [ -8.141584600390868, 41.101053201121459 ], [ -8.141584600390868, 41.101484872293369 ], [ -8.14084438442336, 41.101484872293369 ], [ -8.14084438442336, 41.104506491053591 ], [ -8.140104168455851, 41.104506491053591 ], [ -8.140104168455851, 41.10536978516388 ], [ -8.139363952488344, 41.10536978516388 ], [ -8.139363952488344, 41.106233067924975 ], [ -8.138623736520834, 41.106233067924975 ], [ -8.138623736520834, 41.10666470504956 ], [ -8.137883520553325, 41.10666470504956 ], [ -8.137883520553325, 41.107096339336834 ], [ -8.132702008780768, 41.107096339336834 ], [ -8.132702008780768, 41.106233067924975 ], [ -8.131961792813259, 41.106233067924975 ], [ -8.131961792813259, 41.10536978516388 ], [ -8.13122157684575, 41.10536978516388 ], [ -8.13122157684575, 41.104506491053591 ] ] ], [ [ [ -8.074965163315117, 41.617872392060733 ], [ -8.074965163315117, 41.617015869981323 ], [ -8.074224947347609, 41.617015869981323 ], [ -8.074224947347609, 41.6157310655339 ], [ -8.0734847313801, 41.6157310655339 ], [ -8.0734847313801, 41.614874515016808 ], [ -8.072744515412591, 41.614874515016808 ], [ -8.072744515412591, 41.613589667913033 ], [ -8.072004299445084, 41.613589667913033 ], [ -8.072004299445084, 41.606308384227134 ], [ -8.072744515412591, 41.606308384227134 ], [ -8.072744515412591, 41.605451708587189 ], [ -8.0734847313801, 41.605451708587189 ], [ -8.0734847313801, 41.604595021572678 ], [ -8.074224947347609, 41.604595021572678 ], [ -8.074224947347609, 41.604166673799973 ], [ -8.074965163315117, 41.604166673799973 ], [ -8.074965163315117, 41.603738323183656 ], [ -8.080146675087676, 41.603738323183656 ], [ -8.080146675087676, 41.604166673799973 ], [ -8.084587970892727, 41.604166673799973 ], [ -8.084587970892727, 41.604595021572678 ], [ -8.089029266697777, 41.604595021572678 ], [ -8.089029266697777, 41.604166673799973 ], [ -8.089769482665284, 41.604166673799973 ], [ -8.089769482665284, 41.603738323183656 ], [ -8.090509698632792, 41.603738323183656 ], [ -8.090509698632792, 41.603309969723703 ], [ -8.091249914600301, 41.603309969723703 ], [ -8.091249914600301, 41.602881613420152 ], [ -8.09199013056781, 41.602881613420152 ], [ -8.09199013056781, 41.60245325427298 ], [ -8.093470562502825, 41.60245325427298 ], [ -8.093470562502825, 41.602881613420152 ], [ -8.094210778470332, 41.602881613420152 ], [ -8.094210778470332, 41.603309969723703 ], [ -8.09569121040535, 41.603309969723703 ], [ -8.09569121040535, 41.603738323183656 ], [ -8.09643142637286, 41.603738323183656 ], [ -8.09643142637286, 41.604166673799973 ], [ -8.097171642340369, 41.604166673799973 ], [ -8.097171642340369, 41.605451708587189 ], [ -8.097911858307876, 41.605451708587189 ], [ -8.097911858307876, 41.607165048492476 ], [ -8.098652074275385, 41.607165048492476 ], [ -8.098652074275385, 41.608450023563023 ], [ -8.097911858307876, 41.608450023563023 ], [ -8.097911858307876, 41.609306659391692 ], [ -8.097171642340369, 41.609306659391692 ], [ -8.097171642340369, 41.610591591807022 ], [ -8.09643142637286, 41.610591591807022 ], [ -8.09643142637286, 41.611876498629051 ], [ -8.09569121040535, 41.611876498629051 ], [ -8.09569121040535, 41.612733088958493 ], [ -8.091249914600301, 41.612733088958493 ], [ -8.091249914600301, 41.612304795215636 ], [ -8.089769482665284, 41.612304795215636 ], [ -8.089769482665284, 41.612733088958493 ], [ -8.089029266697777, 41.612733088958493 ], [ -8.089029266697777, 41.613161379857637 ], [ -8.088289050730268, 41.613161379857637 ], [ -8.088289050730268, 41.614017953124694 ], [ -8.087548834762758, 41.614017953124694 ], [ -8.087548834762758, 41.614446235492629 ], [ -8.086808618795251, 41.614446235492629 ], [ -8.086808618795251, 41.614874515016808 ], [ -8.086068402827742, 41.614874515016808 ], [ -8.086068402827742, 41.615302791697232 ], [ -8.085328186860234, 41.615302791697232 ], [ -8.085328186860234, 41.6157310655339 ], [ -8.084587970892727, 41.6157310655339 ], [ -8.084587970892727, 41.616159336526813 ], [ -8.083847754925218, 41.616159336526813 ], [ -8.083847754925218, 41.616587604675956 ], [ -8.083107538957709, 41.616587604675956 ], [ -8.083107538957709, 41.617015869981323 ], [ -8.082367322990201, 41.617015869981323 ], [ -8.082367322990201, 41.61744413244292 ], [ -8.081627107022694, 41.61744413244292 ], [ -8.081627107022694, 41.618300648834762 ], [ -8.080886891055185, 41.618300648834762 ], [ -8.080886891055185, 41.618728902764992 ], [ -8.080146675087676, 41.618728902764992 ], [ -8.080146675087676, 41.619157153851425 ], [ -8.07792602718515, 41.619157153851425 ], [ -8.07792602718515, 41.618728902764992 ], [ -8.077185811217642, 41.618728902764992 ], [ -8.077185811217642, 41.618300648834762 ], [ -8.076445595250133, 41.618300648834762 ], [ -8.076445595250133, 41.617872392060733 ], [ -8.074965163315117, 41.617872392060733 ] ] ], [ [ [ -5.255482543075872, 41.910135493841686 ], [ -5.254742327108364, 41.910135493841686 ], [ -5.254742327108364, 41.909709180516423 ], [ -5.254002111140855, 41.909709180516423 ], [ -5.254002111140855, 41.909282864344092 ], [ -5.253261895173347, 41.909282864344092 ], [ -5.253261895173347, 41.908856545324682 ], [ -5.252521679205839, 41.908856545324682 ], [ -5.252521679205839, 41.908003898744688 ], [ -5.25178146323833, 41.908003898744688 ], [ -5.25178146323833, 41.907577571184092 ], [ -5.251041247270821, 41.907577571184092 ], [ -5.251041247270821, 41.90715124077645 ], [ -5.250301031303313, 41.90715124077645 ], [ -5.250301031303313, 41.898197644554962 ], [ -5.251041247270821, 41.898197644554962 ], [ -5.251041247270821, 41.897344855624759 ], [ -5.25178146323833, 41.897344855624759 ], [ -5.25178146323833, 41.89649205530678 ], [ -5.252521679205839, 41.89649205530678 ], [ -5.252521679205839, 41.896065650877382 ], [ -5.253261895173347, 41.896065650877382 ], [ -5.253261895173347, 41.89563924360106 ], [ -5.254002111140855, 41.89563924360106 ], [ -5.254002111140855, 41.895212833477814 ], [ -5.254742327108364, 41.895212833477814 ], [ -5.254742327108364, 41.89563924360106 ], [ -5.258443406945904, 41.89563924360106 ], [ -5.258443406945904, 41.895212833477814 ], [ -5.259183622913413, 41.895212833477814 ], [ -5.259183622913413, 41.89478642050765 ], [ -5.259923838880921, 41.89478642050765 ], [ -5.259923838880921, 41.894360004690576 ], [ -5.26066405484843, 41.894360004690576 ], [ -5.26066405484843, 41.893933586026584 ], [ -5.261404270815938, 41.893933586026584 ], [ -5.261404270815938, 41.893507164515697 ], [ -5.262144486783447, 41.893507164515697 ], [ -5.262144486783447, 41.893080740157906 ], [ -5.263624918718463, 41.893080740157906 ], [ -5.263624918718463, 41.893507164515697 ], [ -5.264365134685971, 41.893507164515697 ], [ -5.264365134685971, 41.893933586026584 ], [ -5.265105350653481, 41.893933586026584 ], [ -5.265105350653481, 41.894360004690576 ], [ -5.265845566620988, 41.894360004690576 ], [ -5.265845566620988, 41.89478642050765 ], [ -5.266585782588496, 41.89478642050765 ], [ -5.266585782588496, 41.895212833477814 ], [ -5.267325998556005, 41.895212833477814 ], [ -5.267325998556005, 41.896065650877382 ], [ -5.268066214523513, 41.896065650877382 ], [ -5.268066214523513, 41.897344855624759 ], [ -5.268806430491021, 41.897344855624759 ], [ -5.268806430491021, 41.902035053816313 ], [ -5.26954664645853, 41.902035053816313 ], [ -5.26954664645853, 41.905019546032612 ], [ -5.268806430491021, 41.905019546032612 ], [ -5.268806430491021, 41.905872232471246 ], [ -5.268066214523513, 41.905872232471246 ], [ -5.268066214523513, 41.90715124077645 ], [ -5.267325998556005, 41.90715124077645 ], [ -5.267325998556005, 41.908430223458211 ], [ -5.266585782588496, 41.908430223458211 ], [ -5.266585782588496, 41.908856545324682 ], [ -5.265845566620988, 41.908856545324682 ], [ -5.265845566620988, 41.909282864344092 ], [ -5.265105350653481, 41.909282864344092 ], [ -5.265105350653481, 41.909709180516423 ], [ -5.264365134685971, 41.909709180516423 ], [ -5.264365134685971, 41.910135493841686 ], [ -5.263624918718463, 41.910135493841686 ], [ -5.263624918718463, 41.910988111950957 ], [ -5.262884702750956, 41.910988111950957 ], [ -5.262884702750956, 41.911414416734971 ], [ -5.256222759043379, 41.911414416734971 ], [ -5.256222759043379, 41.910561804319869 ], [ -5.255482543075872, 41.910561804319869 ], [ -5.255482543075872, 41.910135493841686 ] ] ], [ [ [ -7.828473246134843, 41.941674778955068 ], [ -7.828473246134843, 41.940822570849669 ], [ -7.827733030167334, 41.940822570849669 ], [ -7.827733030167334, 41.939118120469992 ], [ -7.826992814199825, 41.939118120469992 ], [ -7.826992814199825, 41.937413624532077 ], [ -7.824772166297301, 41.937413624532077 ], [ -7.824772166297301, 41.937839752787625 ], [ -7.822551518394777, 41.937839752787625 ], [ -7.822551518394777, 41.937413624532077 ], [ -7.821811302427268, 41.937413624532077 ], [ -7.821811302427268, 41.936561359478858 ], [ -7.821071086459759, 41.936561359478858 ], [ -7.821071086459759, 41.935282940543829 ], [ -7.82033087049225, 41.935282940543829 ], [ -7.82033087049225, 41.934430647017059 ], [ -7.819590654524741, 41.934430647017059 ], [ -7.819590654524741, 41.933578342100922 ], [ -7.818850438557233, 41.933578342100922 ], [ -7.818850438557233, 41.933152185371853 ], [ -7.8158895746872, 41.933152185371853 ], [ -7.8158895746872, 41.933578342100922 ], [ -7.813668926784676, 41.933578342100922 ], [ -7.813668926784676, 41.932726025795461 ], [ -7.812928710817167, 41.932726025795461 ], [ -7.812928710817167, 41.932299863371739 ], [ -7.812188494849659, 41.932299863371739 ], [ -7.812188494849659, 41.931447529982364 ], [ -7.81144827888215, 41.931447529982364 ], [ -7.81144827888215, 41.93059518520375 ], [ -7.810708062914642, 41.93059518520375 ], [ -7.810708062914642, 41.929742829035931 ], [ -7.81144827888215, 41.929742829035931 ], [ -7.81144827888215, 41.925907085340441 ], [ -7.812188494849659, 41.925907085340441 ], [ -7.812188494849659, 41.924628452857952 ], [ -7.812928710817167, 41.924628452857952 ], [ -7.812928710817167, 41.924202236335979 ], [ -7.813668926784676, 41.924202236335979 ], [ -7.813668926784676, 41.923776016966784 ], [ -7.815149358719691, 41.923776016966784 ], [ -7.815149358719691, 41.923349794750358 ], [ -7.8158895746872, 41.923349794750358 ], [ -7.8158895746872, 41.922923569686702 ], [ -7.81662979065471, 41.922923569686702 ], [ -7.81662979065471, 41.923349794750358 ], [ -7.818110222589726, 41.923349794750358 ], [ -7.818110222589726, 41.923776016966784 ], [ -7.818850438557233, 41.923776016966784 ], [ -7.818850438557233, 41.923349794750358 ], [ -7.819590654524741, 41.923349794750358 ], [ -7.819590654524741, 41.922497341775838 ], [ -7.82033087049225, 41.922497341775838 ], [ -7.82033087049225, 41.921644877412461 ], [ -7.821071086459759, 41.921644877412461 ], [ -7.821071086459759, 41.921218640959964 ], [ -7.824031950329791, 41.921218640959964 ], [ -7.824031950329791, 41.919513666678057 ], [ -7.824772166297301, 41.919513666678057 ], [ -7.824772166297301, 41.918234906071213 ], [ -7.825512382264808, 41.918234906071213 ], [ -7.825512382264808, 41.917808646841237 ], [ -7.826252598232317, 41.917808646841237 ], [ -7.826252598232317, 41.917382384764132 ], [ -7.826992814199825, 41.917382384764132 ], [ -7.826992814199825, 41.916956119839853 ], [ -7.827733030167334, 41.916956119839853 ], [ -7.827733030167334, 41.916529852068429 ], [ -7.828473246134843, 41.916529852068429 ], [ -7.828473246134843, 41.916103581449839 ], [ -7.82921346210235, 41.916103581449839 ], [ -7.82921346210235, 41.915677307984119 ], [ -7.829953678069859, 41.915677307984119 ], [ -7.829953678069859, 41.915251031671261 ], [ -7.830693894037368, 41.915251031671261 ], [ -7.830693894037368, 41.914824752511258 ], [ -7.831434110004875, 41.914824752511258 ], [ -7.831434110004875, 41.914398470504132 ], [ -7.832174325972384, 41.914398470504132 ], [ -7.832174325972384, 41.913972185649875 ], [ -7.832914541939894, 41.913972185649875 ], [ -7.832914541939894, 41.911840718671883 ], [ -7.832174325972384, 41.911840718671883 ], [ -7.832174325972384, 41.908856545324682 ], [ -7.832914541939894, 41.908856545324682 ], [ -7.832914541939894, 41.908430223458211 ], [ -7.833654757907399, 41.908430223458211 ], [ -7.833654757907399, 41.907577571184092 ], [ -7.834394973874908, 41.907577571184092 ], [ -7.834394973874908, 41.906724907521763 ], [ -7.835135189842418, 41.906724907521763 ], [ -7.835135189842418, 41.906298571420017 ], [ -7.837355837744941, 41.906298571420017 ], [ -7.837355837744941, 41.906724907521763 ], [ -7.840316701614976, 41.906724907521763 ], [ -7.840316701614976, 41.90715124077645 ], [ -7.84327756548501, 41.90715124077645 ], [ -7.84327756548501, 41.907577571184092 ], [ -7.846238429355042, 41.907577571184092 ], [ -7.846238429355042, 41.908003898744688 ], [ -7.849199293225076, 41.908003898744688 ], [ -7.849199293225076, 41.908430223458211 ], [ -7.852160157095109, 41.908430223458211 ], [ -7.852160157095109, 41.908856545324682 ], [ -7.855121020965142, 41.908856545324682 ], [ -7.855121020965142, 41.909282864344092 ], [ -7.85586123693265, 41.909282864344092 ], [ -7.85586123693265, 41.910988111950957 ], [ -7.85660145290016, 41.910988111950957 ], [ -7.85660145290016, 41.913119607400013 ], [ -7.857341668867667, 41.913119607400013 ], [ -7.857341668867667, 41.912693314004407 ], [ -7.858081884835176, 41.912693314004407 ], [ -7.858081884835176, 41.912267017761693 ], [ -7.858822100802684, 41.912267017761693 ], [ -7.858822100802684, 41.911840718671883 ], [ -7.864003612575242, 41.911840718671883 ], [ -7.864003612575242, 41.913119607400013 ], [ -7.864743828542751, 41.913119607400013 ], [ -7.864743828542751, 41.913972185649875 ], [ -7.86548404451026, 41.913972185649875 ], [ -7.86548404451026, 41.915251031671261 ], [ -7.866224260477767, 41.915251031671261 ], [ -7.866224260477767, 41.916103581449839 ], [ -7.866964476445275, 41.916103581449839 ], [ -7.866964476445275, 41.917808646841237 ], [ -7.866224260477767, 41.917808646841237 ], [ -7.866224260477767, 41.920792401660272 ], [ -7.86548404451026, 41.920792401660272 ], [ -7.86548404451026, 41.923349794750358 ], [ -7.864743828542751, 41.923349794750358 ], [ -7.864743828542751, 41.925054666532688 ], [ -7.864003612575242, 41.925054666532688 ], [ -7.864003612575242, 41.925907085340441 ], [ -7.863263396607733, 41.925907085340441 ], [ -7.863263396607733, 41.926333290473444 ], [ -7.862523180640224, 41.926333290473444 ], [ -7.862523180640224, 41.926759492759189 ], [ -7.861782964672718, 41.926759492759189 ], [ -7.861782964672718, 41.92761188878891 ], [ -7.861042748705209, 41.92761188878891 ], [ -7.861042748705209, 41.928038082532858 ], [ -7.8603025327377, 41.928038082532858 ], [ -7.8603025327377, 41.928464273429555 ], [ -7.859562316770193, 41.928464273429555 ], [ -7.859562316770193, 41.928890461478971 ], [ -7.858822100802684, 41.928890461478971 ], [ -7.858822100802684, 41.929742829035931 ], [ -7.859562316770193, 41.929742829035931 ], [ -7.859562316770193, 41.931021359016711 ], [ -7.8603025327377, 41.931021359016711 ], [ -7.8603025327377, 41.931873698100702 ], [ -7.861042748705209, 41.931873698100702 ], [ -7.861042748705209, 41.933152185371853 ], [ -7.861782964672718, 41.933152185371853 ], [ -7.861782964672718, 41.934856795204119 ], [ -7.861042748705209, 41.934856795204119 ], [ -7.861042748705209, 41.936135222681209 ], [ -7.8603025327377, 41.936135222681209 ], [ -7.8603025327377, 41.936987493429157 ], [ -7.859562316770193, 41.936987493429157 ], [ -7.859562316770193, 41.9382658781958 ], [ -7.858822100802684, 41.9382658781958 ], [ -7.858822100802684, 41.939118120469992 ], [ -7.853640589030126, 41.939118120469992 ], [ -7.853640589030126, 41.9382658781958 ], [ -7.852900373062616, 41.9382658781958 ], [ -7.852900373062616, 41.937839752787625 ], [ -7.852160157095109, 41.937839752787625 ], [ -7.852160157095109, 41.936987493429157 ], [ -7.850679725160092, 41.936987493429157 ], [ -7.850679725160092, 41.937413624532077 ], [ -7.849199293225076, 41.937413624532077 ], [ -7.849199293225076, 41.9382658781958 ], [ -7.848459077257567, 41.9382658781958 ], [ -7.848459077257567, 41.939118120469992 ], [ -7.847718861290059, 41.939118120469992 ], [ -7.847718861290059, 41.939970351354631 ], [ -7.846978645322551, 41.939970351354631 ], [ -7.846978645322551, 41.940822570849669 ], [ -7.842537349517501, 41.940822570849669 ], [ -7.842537349517501, 41.940396462525847 ], [ -7.836615621777434, 41.940396462525847 ], [ -7.836615621777434, 41.940822570849669 ], [ -7.835875405809925, 41.940822570849669 ], [ -7.835875405809925, 41.941248676326076 ], [ -7.835135189842418, 41.941248676326076 ], [ -7.835135189842418, 41.941674778955068 ], [ -7.834394973874908, 41.941674778955068 ], [ -7.834394973874908, 41.942100878736653 ], [ -7.833654757907399, 41.942100878736653 ], [ -7.833654757907399, 41.942526975670802 ], [ -7.832914541939894, 41.942526975670802 ], [ -7.832914541939894, 41.942953069757536 ], [ -7.831434110004875, 41.942953069757536 ], [ -7.831434110004875, 41.942526975670802 ], [ -7.830693894037368, 41.942526975670802 ], [ -7.830693894037368, 41.942100878736653 ], [ -7.829953678069859, 41.942100878736653 ], [ -7.829953678069859, 41.941674778955068 ], [ -7.828473246134843, 41.941674778955068 ] ] ], [ [ [ -6.764042684857857, 42.558213843003912 ], [ -6.764042684857857, 42.557369924099952 ], [ -6.763302468890348, 42.557369924099952 ], [ -6.763302468890348, 42.556947960367992 ], [ -6.76256225292284, 42.556947960367992 ], [ -6.76256225292284, 42.556525993782721 ], [ -6.761822036955333, 42.556525993782721 ], [ -6.761822036955333, 42.555682052052248 ], [ -6.761081820987823, 42.555682052052248 ], [ -6.761081820987823, 42.555260076907061 ], [ -6.760341605020315, 42.555260076907061 ], [ -6.760341605020315, 42.553150158381676 ], [ -6.761081820987823, 42.553150158381676 ], [ -6.761081820987823, 42.54935212527954 ], [ -6.761822036955333, 42.54935212527954 ], [ -6.761822036955333, 42.54850808653768 ], [ -6.76256225292284, 42.54850808653768 ], [ -6.76256225292284, 42.548086062886881 ], [ -6.763302468890348, 42.548086062886881 ], [ -6.763302468890348, 42.547664036382848 ], [ -6.764042684857857, 42.547664036382848 ], [ -6.764042684857857, 42.547242007025581 ], [ -6.764782900825367, 42.547242007025581 ], [ -6.764782900825367, 42.546397939751351 ], [ -6.765523116792874, 42.546397939751351 ], [ -6.765523116792874, 42.545975901834403 ], [ -6.766263332760382, 42.545975901834403 ], [ -6.766263332760382, 42.545553861064228 ], [ -6.767003548727891, 42.545553861064228 ], [ -6.767003548727891, 42.54513181744084 ], [ -6.775886140337991, 42.54513181744084 ], [ -6.775886140337991, 42.545553861064228 ], [ -6.776626356305498, 42.545553861064228 ], [ -6.776626356305498, 42.545975901834403 ], [ -6.777366572273007, 42.545975901834403 ], [ -6.777366572273007, 42.546397939751351 ], [ -6.778106788240516, 42.546397939751351 ], [ -6.778106788240516, 42.547242007025581 ], [ -6.778847004208023, 42.547242007025581 ], [ -6.778847004208023, 42.548086062886881 ], [ -6.779587220175531, 42.548086062886881 ], [ -6.779587220175531, 42.54850808653768 ], [ -6.780327436143041, 42.54850808653768 ], [ -6.780327436143041, 42.54935212527954 ], [ -6.781067652110549, 42.54935212527954 ], [ -6.781067652110549, 42.550196152608407 ], [ -6.780327436143041, 42.550196152608407 ], [ -6.780327436143041, 42.554416118056778 ], [ -6.779587220175531, 42.554416118056778 ], [ -6.779587220175531, 42.556947960367992 ], [ -6.778847004208023, 42.556947960367992 ], [ -6.778847004208023, 42.557791884978592 ], [ -6.778106788240516, 42.557791884978592 ], [ -6.778106788240516, 42.558635798175914 ], [ -6.777366572273007, 42.558635798175914 ], [ -6.777366572273007, 42.559057750494581 ], [ -6.776626356305498, 42.559057750494581 ], [ -6.776626356305498, 42.559479699959915 ], [ -6.767003548727891, 42.559479699959915 ], [ -6.767003548727891, 42.559057750494581 ], [ -6.765523116792874, 42.559057750494581 ], [ -6.765523116792874, 42.558635798175914 ], [ -6.764782900825367, 42.558635798175914 ], [ -6.764782900825367, 42.558213843003912 ], [ -6.764042684857857, 42.558213843003912 ] ] ], [ [ [ -5.324322628054147, 43.230524637068527 ], [ -5.323582412086639, 43.230524637068527 ], [ -5.323582412086639, 43.229689868547368 ], [ -5.32284219611913, 43.229689868547368 ], [ -5.32284219611913, 43.229272479999416 ], [ -5.322101980151621, 43.229272479999416 ], [ -5.322101980151621, 43.22843769432874 ], [ -5.321361764184113, 43.22843769432874 ], [ -5.321361764184113, 43.227602897225083 ], [ -5.320621548216605, 43.227602897225083 ], [ -5.320621548216605, 43.227185494385886 ], [ -5.319881332249095, 43.227185494385886 ], [ -5.319881332249095, 43.226350680132789 ], [ -5.319141116281588, 43.226350680132789 ], [ -5.319141116281588, 43.225515854446755 ], [ -5.31840090031408, 43.225515854446755 ], [ -5.31840090031408, 43.218836837375243 ], [ -5.319141116281588, 43.218836837375243 ], [ -5.319141116281588, 43.21800190879371 ], [ -5.319881332249095, 43.21800190879371 ], [ -5.319881332249095, 43.217166968779452 ], [ -5.320621548216605, 43.217166968779452 ], [ -5.320621548216605, 43.216332017332483 ], [ -5.321361764184113, 43.216332017332483 ], [ -5.321361764184113, 43.215497054452825 ], [ -5.322101980151621, 43.215497054452825 ], [ -5.322101980151621, 43.214662080140506 ], [ -5.32284219611913, 43.214662080140506 ], [ -5.32284219611913, 43.214244588697113 ], [ -5.323582412086639, 43.214244588697113 ], [ -5.323582412086639, 43.213827094395548 ], [ -5.325803059989163, 43.213827094395548 ], [ -5.325803059989163, 43.213409597235824 ], [ -5.327283491924181, 43.213409597235824 ], [ -5.327283491924181, 43.212992097217956 ], [ -5.329504139826704, 43.212992097217956 ], [ -5.329504139826704, 43.212574594341923 ], [ -5.33172478772923, 43.212574594341923 ], [ -5.33172478772923, 43.212157088607761 ], [ -5.333945435631755, 43.212157088607761 ], [ -5.333945435631755, 43.21173958001544 ], [ -5.33616608353428, 43.21173958001544 ], [ -5.33616608353428, 43.211322068564975 ], [ -5.338386731436805, 43.211322068564975 ], [ -5.338386731436805, 43.212157088607761 ], [ -5.339126947404313, 43.212157088607761 ], [ -5.339126947404313, 43.212574594341923 ], [ -5.341347595306839, 43.212574594341923 ], [ -5.341347595306839, 43.212157088607761 ], [ -5.342087811274347, 43.212157088607761 ], [ -5.342087811274347, 43.212574594341923 ], [ -5.343568243209364, 43.212574594341923 ], [ -5.343568243209364, 43.212992097217956 ], [ -5.344308459176871, 43.212992097217956 ], [ -5.344308459176871, 43.213409597235824 ], [ -5.345788891111889, 43.213409597235824 ], [ -5.345788891111889, 43.214662080140506 ], [ -5.346529107079396, 43.214662080140506 ], [ -5.346529107079396, 43.218419374513573 ], [ -5.347269323046905, 43.218419374513573 ], [ -5.347269323046905, 43.220089208811132 ], [ -5.346529107079396, 43.220089208811132 ], [ -5.346529107079396, 43.220924108810742 ], [ -5.345788891111889, 43.220924108810742 ], [ -5.345788891111889, 43.221758997377563 ], [ -5.34504867514438, 43.221758997377563 ], [ -5.34504867514438, 43.222176437373662 ], [ -5.344308459176871, 43.222176437373662 ], [ -5.344308459176871, 43.223011308791236 ], [ -5.343568243209364, 43.223011308791236 ], [ -5.343568243209364, 43.223846168775957 ], [ -5.342828027241855, 43.223846168775957 ], [ -5.342828027241855, 43.224681017327796 ], [ -5.342087811274347, 43.224681017327796 ], [ -5.342087811274347, 43.225515854446755 ], [ -5.341347595306839, 43.225515854446755 ], [ -5.341347595306839, 43.226350680132789 ], [ -5.34060737933933, 43.226350680132789 ], [ -5.34060737933933, 43.227185494385886 ], [ -5.339867163371822, 43.227185494385886 ], [ -5.339867163371822, 43.228020297206037 ], [ -5.339126947404313, 43.228020297206037 ], [ -5.339126947404313, 43.2288550885932 ], [ -5.335425867566772, 43.2288550885932 ], [ -5.335425867566772, 43.229272479999416 ], [ -5.334685651599263, 43.229272479999416 ], [ -5.334685651599263, 43.229689868547368 ], [ -5.333945435631755, 43.229689868547368 ], [ -5.333945435631755, 43.230107254237076 ], [ -5.333205219664247, 43.230107254237076 ], [ -5.333205219664247, 43.230524637068527 ], [ -5.332465003696738, 43.230524637068527 ], [ -5.332465003696738, 43.231359394156634 ], [ -5.33172478772923, 43.231359394156634 ], [ -5.33172478772923, 43.23177676841329 ], [ -5.330984571761722, 43.23177676841329 ], [ -5.330984571761722, 43.232194139811689 ], [ -5.325803059989163, 43.232194139811689 ], [ -5.325803059989163, 43.23177676841329 ], [ -5.325062844021655, 43.23177676841329 ], [ -5.325062844021655, 43.231359394156634 ], [ -5.324322628054147, 43.231359394156634 ], [ -5.324322628054147, 43.230524637068527 ] ] ], [ [ [ -3.833527669492361, 43.417224635670451 ], [ -3.832787453524852, 43.417224635670451 ], [ -3.832787453524852, 43.41639242864612 ], [ -3.832047237557345, 43.41639242864612 ], [ -3.832047237557345, 43.412231221964042 ], [ -3.832787453524852, 43.412231221964042 ], [ -3.832787453524852, 43.410982804202497 ], [ -3.833527669492361, 43.410982804202497 ], [ -3.833527669492361, 43.40973436070712 ], [ -3.83426788545987, 43.40973436070712 ], [ -3.83426788545987, 43.408485891477945 ], [ -3.835008101427377, 43.408485891477945 ], [ -3.835008101427377, 43.407653564361979 ], [ -3.835748317394887, 43.407653564361979 ], [ -3.835748317394887, 43.40723739651505 ], [ -3.836488533362394, 43.40723739651505 ], [ -3.836488533362394, 43.40682122580882 ], [ -3.837228749329902, 43.40682122580882 ], [ -3.837228749329902, 43.406405052243301 ], [ -3.837968965297411, 43.406405052243301 ], [ -3.837968965297411, 43.405572696534385 ], [ -3.838709181264919, 43.405572696534385 ], [ -3.838709181264919, 43.405156514391003 ], [ -3.841670045134952, 43.405156514391003 ], [ -3.841670045134952, 43.405572696534385 ], [ -3.843890693037478, 43.405572696534385 ], [ -3.843890693037478, 43.405988875818487 ], [ -3.846111340940003, 43.405988875818487 ], [ -3.846111340940003, 43.406405052243301 ], [ -3.846851556907511, 43.406405052243301 ], [ -3.846851556907511, 43.40682122580882 ], [ -3.84759177287502, 43.40682122580882 ], [ -3.84759177287502, 43.407653564361979 ], [ -3.848331988842528, 43.407653564361979 ], [ -3.848331988842528, 43.408902050746981 ], [ -3.849072204810036, 43.408902050746981 ], [ -3.849072204810036, 43.40973436070712 ], [ -3.849812420777544, 43.40973436070712 ], [ -3.849812420777544, 43.414727980285306 ], [ -3.849072204810036, 43.414727980285306 ], [ -3.849072204810036, 43.415560210184402 ], [ -3.848331988842528, 43.415560210184402 ], [ -3.848331988842528, 43.41639242864612 ], [ -3.84759177287502, 43.41639242864612 ], [ -3.84759177287502, 43.417224635670451 ], [ -3.846851556907511, 43.417224635670451 ], [ -3.846851556907511, 43.417640734893581 ], [ -3.843890693037478, 43.417640734893581 ], [ -3.843890693037478, 43.418056831257374 ], [ -3.841670045134952, 43.418056831257374 ], [ -3.841670045134952, 43.418472924761808 ], [ -3.839449397232428, 43.418472924761808 ], [ -3.839449397232428, 43.418889015406876 ], [ -3.837228749329902, 43.418889015406876 ], [ -3.837228749329902, 43.419305103192592 ], [ -3.835008101427377, 43.419305103192592 ], [ -3.835008101427377, 43.418889015406876 ], [ -3.83426788545987, 43.418889015406876 ], [ -3.83426788545987, 43.418056831257374 ], [ -3.833527669492361, 43.418056831257374 ], [ -3.833527669492361, 43.417224635670451 ] ] ], [ [ [ -5.72255881857363, 43.536527753207956 ], [ -5.72255881857363, 43.535697187634213 ], [ -5.721818602606122, 43.535697187634213 ], [ -5.721818602606122, 43.534866610620547 ], [ -5.721078386638613, 43.534866610620547 ], [ -5.721078386638613, 43.533620723650237 ], [ -5.720338170671106, 43.533620723650237 ], [ -5.720338170671106, 43.532790118036843 ], [ -5.719597954703597, 43.532790118036843 ], [ -5.719597954703597, 43.531959500983589 ], [ -5.718857738736089, 43.531959500983589 ], [ -5.718857738736089, 43.530713553953994 ], [ -5.718117522768581, 43.530713553953994 ], [ -5.718117522768581, 43.529882908301154 ], [ -5.717377306801072, 43.529882908301154 ], [ -5.717377306801072, 43.529052251208505 ], [ -5.716637090833564, 43.529052251208505 ], [ -5.716637090833564, 43.527806244119944 ], [ -5.715896874866057, 43.527806244119944 ], [ -5.715896874866057, 43.526975558427864 ], [ -5.715156658898548, 43.526975558427864 ], [ -5.715156658898548, 43.525314152724491 ], [ -5.715896874866057, 43.525314152724491 ], [ -5.715896874866057, 43.521575822586357 ], [ -5.716637090833564, 43.521575822586357 ], [ -5.716637090833564, 43.520329661061893 ], [ -5.717377306801072, 43.520329661061893 ], [ -5.717377306801072, 43.519914268167263 ], [ -5.718117522768581, 43.519914268167263 ], [ -5.718117522768581, 43.519498872412733 ], [ -5.718857738736089, 43.519498872412733 ], [ -5.718857738736089, 43.519083473798304 ], [ -5.719597954703597, 43.519083473798304 ], [ -5.719597954703597, 43.518252667989771 ], [ -5.720338170671106, 43.518252667989771 ], [ -5.720338170671106, 43.517837260795666 ], [ -5.721078386638613, 43.517837260795666 ], [ -5.721078386638613, 43.51742185074167 ], [ -5.721818602606122, 43.51742185074167 ], [ -5.721818602606122, 43.517006437827789 ], [ -5.723299034541139, 43.517006437827789 ], [ -5.723299034541139, 43.516591022054023 ], [ -5.724779466476156, 43.516591022054023 ], [ -5.724779466476156, 43.516175603420372 ], [ -5.726259898411173, 43.516175603420372 ], [ -5.726259898411173, 43.515760181926844 ], [ -5.727740330346189, 43.515760181926844 ], [ -5.727740330346189, 43.51534475757343 ], [ -5.729220762281205, 43.51534475757343 ], [ -5.729220762281205, 43.514929330360154 ], [ -5.729960978248714, 43.514929330360154 ], [ -5.729960978248714, 43.514513900287 ], [ -5.73144141018373, 43.514513900287 ], [ -5.73144141018373, 43.514098467353968 ], [ -5.732921842118747, 43.514098467353968 ], [ -5.732921842118747, 43.513683031561072 ], [ -5.734402274053765, 43.513683031561072 ], [ -5.734402274053765, 43.514098467353968 ], [ -5.73662292195629, 43.514098467353968 ], [ -5.73662292195629, 43.514513900287 ], [ -5.738843569858814, 43.514513900287 ], [ -5.738843569858814, 43.514929330360154 ], [ -5.74032400179383, 43.514929330360154 ], [ -5.74032400179383, 43.51534475757343 ], [ -5.741064217761339, 43.51534475757343 ], [ -5.741064217761339, 43.515760181926844 ], [ -5.741804433728848, 43.515760181926844 ], [ -5.741804433728848, 43.516591022054023 ], [ -5.742544649696356, 43.516591022054023 ], [ -5.742544649696356, 43.51742185074167 ], [ -5.743284865663864, 43.51742185074167 ], [ -5.743284865663864, 43.518252667989771 ], [ -5.744025081631372, 43.518252667989771 ], [ -5.744025081631372, 43.519083473798304 ], [ -5.744765297598882, 43.519083473798304 ], [ -5.744765297598882, 43.519498872412733 ], [ -5.745505513566389, 43.519498872412733 ], [ -5.745505513566389, 43.520329661061893 ], [ -5.746245729533897, 43.520329661061893 ], [ -5.746245729533897, 43.523652701262279 ], [ -5.745505513566389, 43.523652701262279 ], [ -5.745505513566389, 43.529052251208505 ], [ -5.744765297598882, 43.529052251208505 ], [ -5.744765297598882, 43.531128872490477 ], [ -5.744025081631372, 43.531128872490477 ], [ -5.744025081631372, 43.531544188167018 ], [ -5.743284865663864, 43.531544188167018 ], [ -5.743284865663864, 43.531959500983589 ], [ -5.742544649696356, 43.531959500983589 ], [ -5.742544649696356, 43.53237481094019 ], [ -5.741804433728848, 43.53237481094019 ], [ -5.741804433728848, 43.532790118036843 ], [ -5.741064217761339, 43.532790118036843 ], [ -5.741064217761339, 43.533205422273518 ], [ -5.74032400179383, 43.533205422273518 ], [ -5.74032400179383, 43.533620723650237 ], [ -5.739583785826321, 43.533620723650237 ], [ -5.739583785826321, 43.53403602216698 ], [ -5.738843569858814, 43.53403602216698 ], [ -5.738843569858814, 43.534451317823752 ], [ -5.738103353891305, 43.534451317823752 ], [ -5.738103353891305, 43.534866610620547 ], [ -5.737363137923798, 43.534866610620547 ], [ -5.737363137923798, 43.535281900557365 ], [ -5.73662292195629, 43.535281900557365 ], [ -5.73662292195629, 43.535697187634213 ], [ -5.73588270598878, 43.535697187634213 ], [ -5.73588270598878, 43.536112471851069 ], [ -5.735142490021273, 43.536112471851069 ], [ -5.735142490021273, 43.536527753207956 ], [ -5.734402274053765, 43.536527753207956 ], [ -5.734402274053765, 43.536943031704851 ], [ -5.733662058086256, 43.536943031704851 ], [ -5.733662058086256, 43.537358307341755 ], [ -5.732921842118747, 43.537358307341755 ], [ -5.732921842118747, 43.537773580118674 ], [ -5.729960978248714, 43.537773580118674 ], [ -5.729960978248714, 43.537358307341755 ], [ -5.727000114378681, 43.537358307341755 ], [ -5.727000114378681, 43.536943031704851 ], [ -5.724039250508648, 43.536943031704851 ], [ -5.724039250508648, 43.536527753207956 ], [ -5.72255881857363, 43.536527753207956 ] ] ], [ [ [ -5.85653790869264, 43.558948699346487 ], [ -5.85653790869264, 43.558533572431813 ], [ -5.855797692725131, 43.558533572431813 ], [ -5.855797692725131, 43.55811844265704 ], [ -5.854317260790114, 43.55811844265704 ], [ -5.854317260790114, 43.55770331002217 ], [ -5.853577044822605, 43.55770331002217 ], [ -5.853577044822605, 43.556873036172156 ], [ -5.852836828855097, 43.556873036172156 ], [ -5.852836828855097, 43.555627603946476 ], [ -5.852096612887589, 43.555627603946476 ], [ -5.852096612887589, 43.554382145980071 ], [ -5.85135639692008, 43.554382145980071 ], [ -5.85135639692008, 43.553136662272983 ], [ -5.850616180952573, 43.553136662272983 ], [ -5.850616180952573, 43.551891152825284 ], [ -5.849875964985064, 43.551891152825284 ], [ -5.849875964985064, 43.550645617637002 ], [ -5.847655317082539, 43.550645617637002 ], [ -5.847655317082539, 43.551060798893154 ], [ -5.846915101115031, 43.551060798893154 ], [ -5.846915101115031, 43.551475977289243 ], [ -5.844694453212505, 43.551475977289243 ], [ -5.844694453212505, 43.551060798893154 ], [ -5.842473805309981, 43.551060798893154 ], [ -5.842473805309981, 43.550645617637002 ], [ -5.840253157407456, 43.550645617637002 ], [ -5.840253157407456, 43.550230433520795 ], [ -5.83877272547244, 43.550230433520795 ], [ -5.83877272547244, 43.549815246544526 ], [ -5.836552077569914, 43.549815246544526 ], [ -5.836552077569914, 43.549400056708208 ], [ -5.835071645634897, 43.549400056708208 ], [ -5.835071645634897, 43.548984864011857 ], [ -5.832850997732372, 43.548984864011857 ], [ -5.832850997732372, 43.548569668455436 ], [ -5.832110781764865, 43.548569668455436 ], [ -5.832110781764865, 43.548984864011857 ], [ -5.831370565797356, 43.548984864011857 ], [ -5.831370565797356, 43.549815246544526 ], [ -5.830630349829847, 43.549815246544526 ], [ -5.830630349829847, 43.550230433520795 ], [ -5.829890133862339, 43.550230433520795 ], [ -5.829890133862339, 43.550645617637002 ], [ -5.829149917894831, 43.550645617637002 ], [ -5.829149917894831, 43.551475977289243 ], [ -5.828409701927322, 43.551475977289243 ], [ -5.828409701927322, 43.551891152825284 ], [ -5.822487974187256, 43.551891152825284 ], [ -5.822487974187256, 43.551060798893154 ], [ -5.821747758219748, 43.551060798893154 ], [ -5.821747758219748, 43.550230433520795 ], [ -5.821007542252239, 43.550230433520795 ], [ -5.821007542252239, 43.549400056708208 ], [ -5.82026732628473, 43.549400056708208 ], [ -5.82026732628473, 43.546908857629347 ], [ -5.819527110317222, 43.546908857629347 ], [ -5.819527110317222, 43.54192615058799 ], [ -5.818786894349714, 43.54192615058799 ], [ -5.818786894349714, 43.541510906411077 ], [ -5.818046678382206, 43.541510906411077 ], [ -5.818046678382206, 43.541095659374164 ], [ -5.817306462414698, 43.541095659374164 ], [ -5.817306462414698, 43.540680409477226 ], [ -5.816566246447189, 43.540680409477226 ], [ -5.816566246447189, 43.539434642626411 ], [ -5.815826030479681, 43.539434642626411 ], [ -5.815826030479681, 43.537773580118674 ], [ -5.815085814512173, 43.537773580118674 ], [ -5.815085814512173, 43.536527753207956 ], [ -5.815826030479681, 43.536527753207956 ], [ -5.815826030479681, 43.535281900557365 ], [ -5.816566246447189, 43.535281900557365 ], [ -5.816566246447189, 43.53403602216698 ], [ -5.817306462414698, 43.53403602216698 ], [ -5.817306462414698, 43.533205422273518 ], [ -5.818046678382206, 43.533205422273518 ], [ -5.818046678382206, 43.531959500983589 ], [ -5.821007542252239, 43.531959500983589 ], [ -5.821007542252239, 43.53237481094019 ], [ -5.823968406122273, 43.53237481094019 ], [ -5.823968406122273, 43.531959500983589 ], [ -5.824708622089781, 43.531959500983589 ], [ -5.824708622089781, 43.531544188167018 ], [ -5.82544883805729, 43.531544188167018 ], [ -5.82544883805729, 43.531128872490477 ], [ -5.826189054024797, 43.531128872490477 ], [ -5.826189054024797, 43.530713553953994 ], [ -5.827669485959815, 43.530713553953994 ], [ -5.827669485959815, 43.530298232557548 ], [ -5.828409701927322, 43.530298232557548 ], [ -5.828409701927322, 43.529882908301154 ], [ -5.829149917894831, 43.529882908301154 ], [ -5.829149917894831, 43.529467581184797 ], [ -5.829890133862339, 43.529467581184797 ], [ -5.829890133862339, 43.529052251208505 ], [ -5.830630349829847, 43.529052251208505 ], [ -5.830630349829847, 43.528636918372264 ], [ -5.832110781764865, 43.528636918372264 ], [ -5.832110781764865, 43.529052251208505 ], [ -5.832850997732372, 43.529052251208505 ], [ -5.832850997732372, 43.529467581184797 ], [ -5.833591213699881, 43.529467581184797 ], [ -5.833591213699881, 43.529882908301154 ], [ -5.834331429667389, 43.529882908301154 ], [ -5.834331429667389, 43.530298232557548 ], [ -5.835071645634897, 43.530298232557548 ], [ -5.835071645634897, 43.530713553953994 ], [ -5.835811861602406, 43.530713553953994 ], [ -5.835811861602406, 43.531544188167018 ], [ -5.836552077569914, 43.531544188167018 ], [ -5.836552077569914, 43.531959500983589 ], [ -5.837292293537423, 43.531959500983589 ], [ -5.837292293537423, 43.53237481094019 ], [ -5.838032509504931, 43.53237481094019 ], [ -5.838032509504931, 43.532790118036843 ], [ -5.83877272547244, 43.532790118036843 ], [ -5.83877272547244, 43.533205422273518 ], [ -5.841733589342473, 43.533205422273518 ], [ -5.841733589342473, 43.532790118036843 ], [ -5.842473805309981, 43.532790118036843 ], [ -5.842473805309981, 43.53237481094019 ], [ -5.843954237244998, 43.53237481094019 ], [ -5.843954237244998, 43.531959500983589 ], [ -5.846174885147523, 43.531959500983589 ], [ -5.846174885147523, 43.53237481094019 ], [ -5.846915101115031, 43.53237481094019 ], [ -5.846915101115031, 43.532790118036843 ], [ -5.847655317082539, 43.532790118036843 ], [ -5.847655317082539, 43.533620723650237 ], [ -5.848395533050048, 43.533620723650237 ], [ -5.848395533050048, 43.53403602216698 ], [ -5.849135749017555, 43.53403602216698 ], [ -5.849135749017555, 43.534451317823752 ], [ -5.849875964985064, 43.534451317823752 ], [ -5.849875964985064, 43.534866610620547 ], [ -5.850616180952573, 43.534866610620547 ], [ -5.850616180952573, 43.535281900557365 ], [ -5.85135639692008, 43.535281900557365 ], [ -5.85135639692008, 43.536943031704851 ], [ -5.852096612887589, 43.536943031704851 ], [ -5.852096612887589, 43.542756630361758 ], [ -5.852836828855097, 43.542756630361758 ], [ -5.852836828855097, 43.544002328572311 ], [ -5.852096612887589, 43.544002328572311 ], [ -5.852096612887589, 43.545248001042651 ], [ -5.854317260790114, 43.545248001042651 ], [ -5.854317260790114, 43.545663219479366 ], [ -5.85653790869264, 43.545663219479366 ], [ -5.85653790869264, 43.54607843505606 ], [ -5.858758556595164, 43.54607843505606 ], [ -5.858758556595164, 43.546493647772721 ], [ -5.860238988530181, 43.546493647772721 ], [ -5.860238988530181, 43.546908857629347 ], [ -5.862459636432706, 43.546908857629347 ], [ -5.862459636432706, 43.547324064625933 ], [ -5.864680284335232, 43.547324064625933 ], [ -5.864680284335232, 43.54773926876247 ], [ -5.86542050030274, 43.54773926876247 ], [ -5.86542050030274, 43.550230433520795 ], [ -5.866160716270247, 43.550230433520795 ], [ -5.866160716270247, 43.552306325501249 ], [ -5.866900932237757, 43.552306325501249 ], [ -5.866900932237757, 43.553136662272983 ], [ -5.866160716270247, 43.553136662272983 ], [ -5.866160716270247, 43.555212454151096 ], [ -5.86542050030274, 43.555212454151096 ], [ -5.86542050030274, 43.55770331002217 ], [ -5.864680284335232, 43.55770331002217 ], [ -5.864680284335232, 43.558533572431813 ], [ -5.863940068367723, 43.558533572431813 ], [ -5.863940068367723, 43.558948699346487 ], [ -5.863199852400214, 43.558948699346487 ], [ -5.863199852400214, 43.559363823401071 ], [ -5.862459636432706, 43.559363823401071 ], [ -5.862459636432706, 43.55977894459555 ], [ -5.860979204497688, 43.55977894459555 ], [ -5.860979204497688, 43.560194062929931 ], [ -5.860238988530181, 43.560194062929931 ], [ -5.860238988530181, 43.55977894459555 ], [ -5.858758556595164, 43.55977894459555 ], [ -5.858758556595164, 43.559363823401071 ], [ -5.858018340627656, 43.559363823401071 ], [ -5.858018340627656, 43.558948699346487 ], [ -5.85653790869264, 43.558948699346487 ] ], [ [ -5.85135639692008, 43.546493647772721 ], [ -5.852096612887589, 43.546493647772721 ], [ -5.852096612887589, 43.54607843505606 ], [ -5.85135639692008, 43.54607843505606 ], [ -5.85135639692008, 43.546493647772721 ] ] ], [ [ [ -0.934101724762215, 35.571429039422256 ], [ -0.933361508794706, 35.571429039422256 ], [ -0.933361508794706, 35.570963086286405 ], [ -0.932621292827198, 35.570963086286405 ], [ -0.932621292827198, 35.570497130440543 ], [ -0.93188107685969, 35.570497130440543 ], [ -0.93188107685969, 35.56956521061889 ], [ -0.931140860892182, 35.56956521061889 ], [ -0.931140860892182, 35.564439457841075 ], [ -0.93188107685969, 35.564439457841075 ], [ -0.93188107685969, 35.563973464056765 ], [ -0.932621292827198, 35.563973464056765 ], [ -0.932621292827198, 35.56304146835884 ], [ -0.933361508794706, 35.56304146835884 ], [ -0.933361508794706, 35.562109461821933 ], [ -0.934101724762215, 35.562109461821933 ], [ -0.934101724762215, 35.56164345448888 ], [ -0.934841940729723, 35.56164345448888 ], [ -0.934841940729723, 35.560711431693733 ], [ -0.935582156697232, 35.560711431693733 ], [ -0.935582156697232, 35.559779398059881 ], [ -0.93632237266474, 35.559779398059881 ], [ -0.93632237266474, 35.559313377178498 ], [ -0.938543020567265, 35.559313377178498 ], [ -0.938543020567265, 35.558847353587474 ], [ -0.942244100404807, 35.558847353587474 ], [ -0.942244100404807, 35.559779398059881 ], [ -0.942984316372315, 35.559779398059881 ], [ -0.942984316372315, 35.560245416231631 ], [ -0.943724532339823, 35.560245416231631 ], [ -0.943724532339823, 35.560711431693733 ], [ -0.944464748307332, 35.560711431693733 ], [ -0.944464748307332, 35.561177444446159 ], [ -0.94520496427484, 35.561177444446159 ], [ -0.94520496427484, 35.56164345448888 ], [ -0.945945180242348, 35.56164345448888 ], [ -0.945945180242348, 35.562109461821933 ], [ -0.946685396209857, 35.562109461821933 ], [ -0.946685396209857, 35.563973464056765 ], [ -0.945945180242348, 35.563973464056765 ], [ -0.945945180242348, 35.571429039422256 ], [ -0.94520496427484, 35.571429039422256 ], [ -0.94520496427484, 35.572360937563893 ], [ -0.944464748307332, 35.572360937563893 ], [ -0.944464748307332, 35.57282688256965 ], [ -0.943724532339823, 35.57282688256965 ], [ -0.943724532339823, 35.573758764450957 ], [ -0.935582156697232, 35.573758764450957 ], [ -0.935582156697232, 35.57282688256965 ], [ -0.934841940729723, 35.57282688256965 ], [ -0.934841940729723, 35.572360937563893 ], [ -0.934101724762215, 35.572360937563893 ], [ -0.934101724762215, 35.571429039422256 ] ] ], [ [ [ -0.276049729647306, 35.824505411354338 ], [ -0.276049729647306, 35.824040934669902 ], [ -0.274569297712289, 35.824040934669902 ], [ -0.274569297712289, 35.8235764552674 ], [ -0.271608433842256, 35.8235764552674 ], [ -0.271608433842256, 35.82311197314683 ], [ -0.269387785939731, 35.82311197314683 ], [ -0.269387785939731, 35.822647488308213 ], [ -0.266426922069697, 35.822647488308213 ], [ -0.266426922069697, 35.822183000751579 ], [ -0.264206274167172, 35.822183000751579 ], [ -0.264206274167172, 35.821718510476927 ], [ -0.261245410297139, 35.821718510476927 ], [ -0.261245410297139, 35.821254017484272 ], [ -0.260505194329631, 35.821254017484272 ], [ -0.260505194329631, 35.820325023345006 ], [ -0.259764978362122, 35.820325023345006 ], [ -0.259764978362122, 35.819860522198454 ], [ -0.259024762394614, 35.819860522198454 ], [ -0.259024762394614, 35.818931511751508 ], [ -0.258284546427106, 35.818931511751508 ], [ -0.258284546427106, 35.818467002451158 ], [ -0.257544330459597, 35.818467002451158 ], [ -0.257544330459597, 35.818002490432896 ], [ -0.256804114492089, 35.818002490432896 ], [ -0.256804114492089, 35.81753797569678 ], [ -0.253103034654547, 35.81753797569678 ], [ -0.253103034654547, 35.817073458242774 ], [ -0.248661738849497, 35.817073458242774 ], [ -0.248661738849497, 35.816608938070921 ], [ -0.246441090946972, 35.816608938070921 ], [ -0.246441090946972, 35.817073458242774 ], [ -0.245700874979464, 35.817073458242774 ], [ -0.245700874979464, 35.81753797569678 ], [ -0.244960659011956, 35.81753797569678 ], [ -0.244960659011956, 35.818002490432896 ], [ -0.244220443044447, 35.818002490432896 ], [ -0.244220443044447, 35.818467002451158 ], [ -0.243480227076939, 35.818467002451158 ], [ -0.243480227076939, 35.818931511751508 ], [ -0.242740011109431, 35.818931511751508 ], [ -0.242740011109431, 35.81939601833394 ], [ -0.239779147239397, 35.81939601833394 ], [ -0.239779147239397, 35.818931511751508 ], [ -0.237558499336872, 35.818931511751508 ], [ -0.237558499336872, 35.818467002451158 ], [ -0.236078067401856, 35.818467002451158 ], [ -0.236078067401856, 35.818002490432896 ], [ -0.234597635466839, 35.818002490432896 ], [ -0.234597635466839, 35.81753797569678 ], [ -0.232376987564314, 35.81753797569678 ], [ -0.232376987564314, 35.817073458242774 ], [ -0.231636771596806, 35.817073458242774 ], [ -0.231636771596806, 35.816144415181228 ], [ -0.230896555629297, 35.816144415181228 ], [ -0.230896555629297, 35.815215361248384 ], [ -0.230156339661789, 35.815215361248384 ], [ -0.230156339661789, 35.814286296444358 ], [ -0.229416123694281, 35.814286296444358 ], [ -0.229416123694281, 35.813821759965677 ], [ -0.228675907726772, 35.813821759965677 ], [ -0.228675907726772, 35.813357220769255 ], [ -0.227195475791756, 35.813357220769255 ], [ -0.227195475791756, 35.812892678855093 ], [ -0.225715043856739, 35.812892678855093 ], [ -0.225715043856739, 35.812428134223211 ], [ -0.224234611921722, 35.812428134223211 ], [ -0.224234611921722, 35.810569928518746 ], [ -0.223494395954214, 35.810569928518746 ], [ -0.223494395954214, 35.805924224024189 ], [ -0.224234611921722, 35.805924224024189 ], [ -0.224234611921722, 35.803601269869652 ], [ -0.224974827889231, 35.803601269869652 ], [ -0.224974827889231, 35.803136670886389 ], [ -0.225715043856739, 35.803136670886389 ], [ -0.225715043856739, 35.80220746476764 ], [ -0.226455259824247, 35.80220746476764 ], [ -0.226455259824247, 35.801742857632192 ], [ -0.227195475791756, 35.801742857632192 ], [ -0.227195475791756, 35.801278247779365 ], [ -0.227935691759264, 35.801278247779365 ], [ -0.227935691759264, 35.800813635209181 ], [ -0.230896555629297, 35.800813635209181 ], [ -0.230896555629297, 35.800349019921647 ], [ -0.233117203531822, 35.800349019921647 ], [ -0.233117203531822, 35.799884401916799 ], [ -0.234597635466839, 35.799884401916799 ], [ -0.234597635466839, 35.800349019921647 ], [ -0.235337851434347, 35.800349019921647 ], [ -0.235337851434347, 35.800813635209181 ], [ -0.236078067401856, 35.800813635209181 ], [ -0.236078067401856, 35.801278247779365 ], [ -0.236818283369364, 35.801278247779365 ], [ -0.236818283369364, 35.801742857632192 ], [ -0.237558499336872, 35.801742857632192 ], [ -0.237558499336872, 35.80220746476764 ], [ -0.238298715304381, 35.80220746476764 ], [ -0.238298715304381, 35.802672069185711 ], [ -0.239038931271889, 35.802672069185711 ], [ -0.239038931271889, 35.800349019921647 ], [ -0.239779147239397, 35.800349019921647 ], [ -0.239779147239397, 35.798490531598425 ], [ -0.240519363206906, 35.798490531598425 ], [ -0.240519363206906, 35.798025902724412 ], [ -0.241999795141922, 35.798025902724412 ], [ -0.241999795141922, 35.797561271133148 ], [ -0.242740011109431, 35.797561271133148 ], [ -0.242740011109431, 35.797096636824634 ], [ -0.244960659011956, 35.797096636824634 ], [ -0.244960659011956, 35.797561271133148 ], [ -0.246441090946972, 35.797561271133148 ], [ -0.246441090946972, 35.798025902724412 ], [ -0.247181306914481, 35.798025902724412 ], [ -0.247181306914481, 35.798490531598425 ], [ -0.247921522881989, 35.798490531598425 ], [ -0.247921522881989, 35.798955157755167 ], [ -0.251622602719531, 35.798955157755167 ], [ -0.251622602719531, 35.798490531598425 ], [ -0.254583466589564, 35.798490531598425 ], [ -0.254583466589564, 35.798025902724412 ], [ -0.258284546427106, 35.798025902724412 ], [ -0.258284546427106, 35.797561271133148 ], [ -0.261985626264647, 35.797561271133148 ], [ -0.261985626264647, 35.798025902724412 ], [ -0.264206274167172, 35.798025902724412 ], [ -0.264206274167172, 35.798490531598425 ], [ -0.266426922069697, 35.798490531598425 ], [ -0.266426922069697, 35.798955157755167 ], [ -0.267167138037206, 35.798955157755167 ], [ -0.267167138037206, 35.799419781194644 ], [ -0.267907354004714, 35.799419781194644 ], [ -0.267907354004714, 35.799884401916799 ], [ -0.268647569972222, 35.799884401916799 ], [ -0.268647569972222, 35.800349019921647 ], [ -0.269387785939731, 35.800349019921647 ], [ -0.269387785939731, 35.800813635209181 ], [ -0.270128001907239, 35.800813635209181 ], [ -0.270128001907239, 35.801278247779365 ], [ -0.270868217874747, 35.801278247779365 ], [ -0.270868217874747, 35.801742857632192 ], [ -0.271608433842256, 35.801742857632192 ], [ -0.271608433842256, 35.80220746476764 ], [ -0.272348649809764, 35.80220746476764 ], [ -0.272348649809764, 35.803136670886389 ], [ -0.273088865777272, 35.803136670886389 ], [ -0.273088865777272, 35.803601269869652 ], [ -0.273829081744781, 35.803601269869652 ], [ -0.273829081744781, 35.804065866135467 ], [ -0.275309513679797, 35.804065866135467 ], [ -0.275309513679797, 35.803136670886389 ], [ -0.276049729647306, 35.803136670886389 ], [ -0.276049729647306, 35.80220746476764 ], [ -0.276789945614814, 35.80220746476764 ], [ -0.276789945614814, 35.801278247779365 ], [ -0.277530161582322, 35.801278247779365 ], [ -0.277530161582322, 35.800813635209181 ], [ -0.282711673354881, 35.800813635209181 ], [ -0.282711673354881, 35.801742857632192 ], [ -0.283451889322389, 35.801742857632192 ], [ -0.283451889322389, 35.802672069185711 ], [ -0.284192105289897, 35.802672069185711 ], [ -0.284192105289897, 35.803136670886389 ], [ -0.284932321257406, 35.803136670886389 ], [ -0.284932321257406, 35.804995050514783 ], [ -0.285672537224914, 35.804995050514783 ], [ -0.285672537224914, 35.811499036806339 ], [ -0.286412753192422, 35.811499036806339 ], [ -0.286412753192422, 35.81753797569678 ], [ -0.287152969159931, 35.81753797569678 ], [ -0.287152969159931, 35.821254017484272 ], [ -0.286412753192422, 35.821254017484272 ], [ -0.286412753192422, 35.822183000751579 ], [ -0.285672537224914, 35.822183000751579 ], [ -0.285672537224914, 35.822647488308213 ], [ -0.284932321257406, 35.822647488308213 ], [ -0.284932321257406, 35.82311197314683 ], [ -0.284192105289897, 35.82311197314683 ], [ -0.284192105289897, 35.8235764552674 ], [ -0.283451889322389, 35.8235764552674 ], [ -0.283451889322389, 35.824040934669902 ], [ -0.282711673354881, 35.824040934669902 ], [ -0.282711673354881, 35.824505411354338 ], [ -0.281971457387372, 35.824505411354338 ], [ -0.281971457387372, 35.824969885320684 ], [ -0.281231241419864, 35.824969885320684 ], [ -0.281231241419864, 35.82543435656892 ], [ -0.280491025452356, 35.82543435656892 ], [ -0.280491025452356, 35.825898825099053 ], [ -0.278270377549831, 35.825898825099053 ], [ -0.278270377549831, 35.82543435656892 ], [ -0.277530161582322, 35.82543435656892 ], [ -0.277530161582322, 35.824969885320684 ], [ -0.276789945614814, 35.824969885320684 ], [ -0.276789945614814, 35.824505411354338 ], [ -0.276049729647306, 35.824505411354338 ] ] ], [ [ [ 0.132549484417295, 36.022125078837831 ], [ 0.133289700384803, 36.022125078837831 ], [ 0.133289700384803, 36.02119844118188 ], [ 0.134029916352311, 36.02119844118188 ], [ 0.134029916352311, 36.014711672484637 ], [ 0.133289700384803, 36.014711672484637 ], [ 0.133289700384803, 36.01378494765703 ], [ 0.132549484417295, 36.01378494765703 ], [ 0.132549484417295, 36.012858211933477 ], [ 0.131809268449787, 36.012858211933477 ], [ 0.131809268449787, 36.01239483998576 ], [ 0.131069052482278, 36.01239483998576 ], [ 0.131069052482278, 36.011468087918502 ], [ 0.13032883651477, 36.011468087918502 ], [ 0.13032883651477, 36.011004707799003 ], [ 0.129588620547261, 36.011004707799003 ], [ 0.129588620547261, 36.010541324955597 ], [ 0.128848404579753, 36.010541324955597 ], [ 0.128848404579753, 36.011004707799003 ], [ 0.123666892807195, 36.011004707799003 ], [ 0.123666892807195, 36.011468087918502 ], [ 0.122926676839686, 36.011468087918502 ], [ 0.122926676839686, 36.01239483998576 ], [ 0.122186460872178, 36.01239483998576 ], [ 0.122186460872178, 36.012858211933477 ], [ 0.12144624490467, 36.012858211933477 ], [ 0.12144624490467, 36.013321581157236 ], [ 0.120706028937161, 36.013321581157236 ], [ 0.120706028937161, 36.01378494765703 ], [ 0.119965812969653, 36.01378494765703 ], [ 0.119965812969653, 36.014711672484637 ], [ 0.119225597002145, 36.014711672484637 ], [ 0.119225597002145, 36.018881799368508 ], [ 0.119965812969653, 36.018881799368508 ], [ 0.119965812969653, 36.01934513317952 ], [ 0.120706028937161, 36.01934513317952 ], [ 0.120706028937161, 36.020271792629075 ], [ 0.12144624490467, 36.020271792629075 ], [ 0.12144624490467, 36.020735118267581 ], [ 0.122186460872178, 36.020735118267581 ], [ 0.122186460872178, 36.02119844118188 ], [ 0.122926676839686, 36.02119844118188 ], [ 0.122926676839686, 36.022125078837831 ], [ 0.123666892807195, 36.022125078837831 ], [ 0.123666892807195, 36.022588393579454 ], [ 0.124407108774703, 36.022588393579454 ], [ 0.124407108774703, 36.023051705596806 ], [ 0.125147324742211, 36.023051705596806 ], [ 0.125147324742211, 36.023978321458699 ], [ 0.131069052482278, 36.023978321458699 ], [ 0.131069052482278, 36.023515014889895 ], [ 0.131809268449787, 36.023515014889895 ], [ 0.131809268449787, 36.022588393579454 ], [ 0.132549484417295, 36.022588393579454 ], [ 0.132549484417295, 36.022125078837831 ] ] ], [ [ [ 2.883192019678265, 36.601436792063076 ], [ 2.883192019678265, 36.600517014187183 ], [ 2.883932235645773, 36.600517014187183 ], [ 2.883932235645773, 36.599597225345263 ], [ 2.884672451613281, 36.599597225345263 ], [ 2.884672451613281, 36.598677425537396 ], [ 2.88541266758079, 36.598677425537396 ], [ 2.88541266758079, 36.597757614763687 ], [ 2.886152883548299, 36.597757614763687 ], [ 2.886152883548299, 36.593158396411461 ], [ 2.88541266758079, 36.593158396411461 ], [ 2.88541266758079, 36.592238519845012 ], [ 2.884672451613281, 36.592238519845012 ], [ 2.884672451613281, 36.591778577449873 ], [ 2.883932235645773, 36.591778577449873 ], [ 2.883932235645773, 36.590858684435844 ], [ 2.883192019678265, 36.590858684435844 ], [ 2.883192019678265, 36.58993878045689 ], [ 2.882451803710757, 36.58993878045689 ], [ 2.882451803710757, 36.589018865513104 ], [ 2.877270291938198, 36.589018865513104 ], [ 2.877270291938198, 36.589478824355602 ], [ 2.87653007597069, 36.589478824355602 ], [ 2.87653007597069, 36.58993878045689 ], [ 2.875789860003182, 36.58993878045689 ], [ 2.875789860003182, 36.590858684435844 ], [ 2.875049644035673, 36.590858684435844 ], [ 2.875049644035673, 36.591318632313481 ], [ 2.874309428068165, 36.591318632313481 ], [ 2.874309428068165, 36.591778577449873 ], [ 2.873569212100656, 36.591778577449873 ], [ 2.873569212100656, 36.592698459498877 ], [ 2.872828996133148, 36.592698459498877 ], [ 2.872828996133148, 36.593158396411461 ], [ 2.87208878016564, 36.593158396411461 ], [ 2.87208878016564, 36.593618330582743 ], [ 2.871348564198132, 36.593618330582743 ], [ 2.871348564198132, 36.594538190701364 ], [ 2.870608348230624, 36.594538190701364 ], [ 2.870608348230624, 36.599137326812055 ], [ 2.871348564198132, 36.599137326812055 ], [ 2.871348564198132, 36.600057121136963 ], [ 2.87208878016564, 36.600057121136963 ], [ 2.87208878016564, 36.600976904495894 ], [ 2.872828996133148, 36.600976904495894 ], [ 2.872828996133148, 36.601896676888721 ], [ 2.873569212100656, 36.601896676888721 ], [ 2.873569212100656, 36.602816438315351 ], [ 2.874309428068165, 36.602816438315351 ], [ 2.874309428068165, 36.603276314916315 ], [ 2.875049644035673, 36.603276314916315 ], [ 2.875049644035673, 36.603736188775677 ], [ 2.88097137177574, 36.603736188775677 ], [ 2.88097137177574, 36.603276314916315 ], [ 2.881711587743248, 36.603276314916315 ], [ 2.881711587743248, 36.602356558972815 ], [ 2.882451803710757, 36.602356558972815 ], [ 2.882451803710757, 36.601436792063076 ], [ 2.883192019678265, 36.601436792063076 ] ] ], [ [ [ 3.127463288956015, 36.688306303054155 ], [ 3.127463288956015, 36.687846933872635 ], [ 3.128943720891032, 36.687846933872635 ], [ 3.128943720891032, 36.686468809864046 ], [ 3.12968393685854, 36.686468809864046 ], [ 3.12968393685854, 36.685550046805048 ], [ 3.130424152826048, 36.685550046805048 ], [ 3.130424152826048, 36.684171881636921 ], [ 3.131164368793557, 36.684171881636921 ], [ 3.131164368793557, 36.683253091138575 ], [ 3.131904584761065, 36.683253091138575 ], [ 3.131904584761065, 36.681874884811897 ], [ 3.132644800728573, 36.681874884811897 ], [ 3.132644800728573, 36.680956066874856 ], [ 3.133385016696082, 36.680956066874856 ], [ 3.133385016696082, 36.679577819390644 ], [ 3.13412523266359, 36.679577819390644 ], [ 3.13412523266359, 36.676361812562291 ], [ 3.133385016696082, 36.676361812562291 ], [ 3.133385016696082, 36.67452403401316 ], [ 3.132644800728573, 36.67452403401316 ], [ 3.132644800728573, 36.674064582516735 ], [ 3.131164368793557, 36.674064582516735 ], [ 3.131164368793557, 36.673605128276698 ], [ 3.12968393685854, 36.673605128276698 ], [ 3.12968393685854, 36.673145671293035 ], [ 3.128943720891032, 36.673145671293035 ], [ 3.128943720891032, 36.672686211565782 ], [ 3.127463288956015, 36.672686211565782 ], [ 3.127463288956015, 36.672226749094932 ], [ 3.125982857020999, 36.672226749094932 ], [ 3.125982857020999, 36.671767283880513 ], [ 3.120061129280932, 36.671767283880513 ], [ 3.120061129280932, 36.672226749094932 ], [ 3.119320913313424, 36.672226749094932 ], [ 3.119320913313424, 36.672686211565782 ], [ 3.118580697345915, 36.672686211565782 ], [ 3.118580697345915, 36.673145671293035 ], [ 3.117840481378407, 36.673145671293035 ], [ 3.117840481378407, 36.674064582516735 ], [ 3.117100265410898, 36.674064582516735 ], [ 3.117100265410898, 36.67452403401316 ], [ 3.11636004944339, 36.67452403401316 ], [ 3.11636004944339, 36.674983482765938 ], [ 3.115619833475882, 36.674983482765938 ], [ 3.115619833475882, 36.675902372040525 ], [ 3.114879617508374, 36.675902372040525 ], [ 3.114879617508374, 36.676361812562291 ], [ 3.114139401540865, 36.676361812562291 ], [ 3.114139401540865, 36.676821250340389 ], [ 3.113399185573357, 36.676821250340389 ], [ 3.113399185573357, 36.677280685374775 ], [ 3.112658969605848, 36.677280685374775 ], [ 3.112658969605848, 36.678199547212365 ], [ 3.11191875363834, 36.678199547212365 ], [ 3.11191875363834, 36.678658974015555 ], [ 3.111178537670832, 36.678658974015555 ], [ 3.111178537670832, 36.679118398074984 ], [ 3.110438321703324, 36.679118398074984 ], [ 3.110438321703324, 36.684171881636921 ], [ 3.111178537670832, 36.684171881636921 ], [ 3.111178537670832, 36.684631272770233 ], [ 3.11191875363834, 36.684631272770233 ], [ 3.11191875363834, 36.685090661159613 ], [ 3.112658969605848, 36.685090661159613 ], [ 3.112658969605848, 36.685550046805048 ], [ 3.113399185573357, 36.685550046805048 ], [ 3.113399185573357, 36.68600942970653 ], [ 3.114139401540865, 36.68600942970653 ], [ 3.114139401540865, 36.686468809864046 ], [ 3.114879617508374, 36.686468809864046 ], [ 3.114879617508374, 36.68692818727758 ], [ 3.115619833475882, 36.68692818727758 ], [ 3.115619833475882, 36.687387561947112 ], [ 3.11636004944339, 36.687387561947112 ], [ 3.11636004944339, 36.687846933872635 ], [ 3.117100265410898, 36.687846933872635 ], [ 3.117100265410898, 36.688306303054155 ], [ 3.117840481378407, 36.688306303054155 ], [ 3.117840481378407, 36.688765669491623 ], [ 3.118580697345915, 36.688765669491623 ], [ 3.118580697345915, 36.689225033185046 ], [ 3.119320913313424, 36.689225033185046 ], [ 3.119320913313424, 36.689684394134424 ], [ 3.122281777183456, 36.689684394134424 ], [ 3.122281777183456, 36.689225033185046 ], [ 3.123762209118474, 36.689225033185046 ], [ 3.123762209118474, 36.688765669491623 ], [ 3.12524264105349, 36.688765669491623 ], [ 3.12524264105349, 36.688306303054155 ], [ 3.127463288956015, 36.688306303054155 ] ] ], [ [ [ 3.979451867558108, 36.737442947769267 ], [ 3.980192083525616, 36.737442947769267 ], [ 3.980192083525616, 36.73698387227374 ], [ 3.980932299493125, 36.73698387227374 ], [ 3.980932299493125, 36.736524794032796 ], [ 3.981672515460633, 36.736524794032796 ], [ 3.981672515460633, 36.736065713046429 ], [ 3.982412731428141, 36.736065713046429 ], [ 3.982412731428141, 36.735606629314681 ], [ 3.98315294739565, 36.735606629314681 ], [ 3.98315294739565, 36.734688453615036 ], [ 3.983893163363158, 36.734688453615036 ], [ 3.983893163363158, 36.734229361647174 ], [ 3.984633379330667, 36.734229361647174 ], [ 3.984633379330667, 36.733770266933959 ], [ 3.985373595298175, 36.733770266933959 ], [ 3.985373595298175, 36.732392966322408 ], [ 3.984633379330667, 36.732392966322408 ], [ 3.984633379330667, 36.728720043899735 ], [ 3.983893163363158, 36.728720043899735 ], [ 3.983893163363158, 36.727342652695285 ], [ 3.982412731428141, 36.727342652695285 ], [ 3.982412731428141, 36.726883516803483 ], [ 3.981672515460633, 36.726883516803483 ], [ 3.981672515460633, 36.726424378166556 ], [ 3.980932299493125, 36.726424378166556 ], [ 3.980932299493125, 36.725965236784504 ], [ 3.979451867558108, 36.725965236784504 ], [ 3.979451867558108, 36.725506092657341 ], [ 3.975010571753058, 36.725506092657341 ], [ 3.975010571753058, 36.725965236784504 ], [ 3.971309491915517, 36.725965236784504 ], [ 3.971309491915517, 36.726424378166556 ], [ 3.970569275948008, 36.726424378166556 ], [ 3.970569275948008, 36.726883516803483 ], [ 3.9698290599805, 36.726883516803483 ], [ 3.9698290599805, 36.727801785841926 ], [ 3.969088844012992, 36.727801785841926 ], [ 3.969088844012992, 36.728260916243428 ], [ 3.968348628045482, 36.728260916243428 ], [ 3.968348628045482, 36.729179168810866 ], [ 3.967608412077974, 36.729179168810866 ], [ 3.967608412077974, 36.730097410397498 ], [ 3.968348628045482, 36.730097410397498 ], [ 3.968348628045482, 36.736065713046429 ], [ 3.969088844012992, 36.736065713046429 ], [ 3.969088844012992, 36.73698387227374 ], [ 3.9698290599805, 36.73698387227374 ], [ 3.9698290599805, 36.737442947769267 ], [ 3.970569275948008, 36.737442947769267 ], [ 3.970569275948008, 36.738361090524002 ], [ 3.972049707883024, 36.738361090524002 ], [ 3.972049707883024, 36.738820157783188 ], [ 3.976491003688075, 36.738820157783188 ], [ 3.976491003688075, 36.739279222296886 ], [ 3.977971435623091, 36.739279222296886 ], [ 3.977971435623091, 36.738820157783188 ], [ 3.978711651590599, 36.738820157783188 ], [ 3.978711651590599, 36.738361090524002 ], [ 3.979451867558108, 36.738361090524002 ], [ 3.979451867558108, 36.737442947769267 ] ] ], [ [ [ 3.08527097880804, 36.754885782112567 ], [ 3.08527097880804, 36.754426810952772 ], [ 3.086751410743056, 36.754426810952772 ], [ 3.086751410743056, 36.753967837047014 ], [ 3.087491626710565, 36.753967837047014 ], [ 3.087491626710565, 36.753508860395392 ], [ 3.088231842678073, 36.753508860395392 ], [ 3.088231842678073, 36.752131913965158 ], [ 3.088972058645582, 36.752131913965158 ], [ 3.088972058645582, 36.750295946949642 ], [ 3.089712274613091, 36.750295946949642 ], [ 3.089712274613091, 36.749377946967037 ], [ 3.088972058645582, 36.749377946967037 ], [ 3.088972058645582, 36.74754191405264 ], [ 3.088231842678073, 36.74754191405264 ], [ 3.088231842678073, 36.746164860536709 ], [ 3.087491626710565, 36.746164860536709 ], [ 3.087491626710565, 36.744787782309629 ], [ 3.086751410743056, 36.744787782309629 ], [ 3.086751410743056, 36.743869716429998 ], [ 3.086011194775548, 36.743869716429998 ], [ 3.086011194775548, 36.743410679371763 ], [ 3.084530762840532, 36.743410679371763 ], [ 3.084530762840532, 36.742951639567913 ], [ 3.083050330905515, 36.742951639567913 ], [ 3.083050330905515, 36.742492597018455 ], [ 3.081569898970499, 36.742492597018455 ], [ 3.081569898970499, 36.742033551723452 ], [ 3.080089467035482, 36.742033551723452 ], [ 3.080089467035482, 36.741574503682855 ], [ 3.078609035100465, 36.741574503682855 ], [ 3.078609035100465, 36.742033551723452 ], [ 3.077128603165448, 36.742033551723452 ], [ 3.077128603165448, 36.742492597018455 ], [ 3.07638838719794, 36.742492597018455 ], [ 3.07638838719794, 36.742951639567913 ], [ 3.074907955262923, 36.742951639567913 ], [ 3.074907955262923, 36.744787782309629 ], [ 3.074167739295415, 36.744787782309629 ], [ 3.074167739295415, 36.74708289895969 ], [ 3.073427523327906, 36.74708289895969 ], [ 3.073427523327906, 36.749377946967037 ], [ 3.072687307360398, 36.749377946967037 ], [ 3.072687307360398, 36.750754942822262 ], [ 3.073427523327906, 36.750754942822262 ], [ 3.073427523327906, 36.752590898854436 ], [ 3.074167739295415, 36.752590898854436 ], [ 3.074167739295415, 36.753967837047014 ], [ 3.074907955262923, 36.753967837047014 ], [ 3.074907955262923, 36.754426810952772 ], [ 3.07638838719794, 36.754426810952772 ], [ 3.07638838719794, 36.754885782112567 ], [ 3.077868819132957, 36.754885782112567 ], [ 3.077868819132957, 36.755344750526469 ], [ 3.078609035100465, 36.755344750526469 ], [ 3.078609035100465, 36.755803716194414 ], [ 3.080089467035482, 36.755803716194414 ], [ 3.080089467035482, 36.756262679116404 ], [ 3.083050330905515, 36.756262679116404 ], [ 3.083050330905515, 36.755803716194414 ], [ 3.083790546873024, 36.755803716194414 ], [ 3.083790546873024, 36.755344750526469 ], [ 3.084530762840532, 36.755344750526469 ], [ 3.084530762840532, 36.754885782112567 ], [ 3.08527097880804, 36.754885782112567 ] ] ], [ [ [ -1.571427672786891, 37.616512549771585 ], [ -1.571427672786891, 37.615605017968704 ], [ -1.570687456819382, 37.615605017968704 ], [ -1.570687456819382, 37.614697475089372 ], [ -1.569947240851874, 37.614697475089372 ], [ -1.569947240851874, 37.61061339506395 ], [ -1.570687456819382, 37.61061339506395 ], [ -1.570687456819382, 37.60970579126586 ], [ -1.571427672786891, 37.60970579126586 ], [ -1.571427672786891, 37.608344364801546 ], [ -1.572167888754399, 37.608344364801546 ], [ -1.572167888754399, 37.607436733314024 ], [ -1.572908104721908, 37.607436733314024 ], [ -1.572908104721908, 37.60652909075089 ], [ -1.573648320689416, 37.60652909075089 ], [ -1.573648320689416, 37.605621437112248 ], [ -1.574388536656924, 37.605621437112248 ], [ -1.574388536656924, 37.604259935887903 ], [ -1.575128752624432, 37.604259935887903 ], [ -1.575128752624432, 37.603806096608785 ], [ -1.580310264396991, 37.603806096608785 ], [ -1.580310264396991, 37.604713772398178 ], [ -1.581050480364499, 37.604713772398178 ], [ -1.581050480364499, 37.605167606139638 ], [ -1.581790696332007, 37.605167606139638 ], [ -1.581790696332007, 37.606075265316001 ], [ -1.582530912299516, 37.606075265316001 ], [ -1.582530912299516, 37.6069829134169 ], [ -1.583271128267024, 37.6069829134169 ], [ -1.583271128267024, 37.607890550442235 ], [ -1.584011344234532, 37.607890550442235 ], [ -1.584011344234532, 37.608344364801546 ], [ -1.584751560202041, 37.608344364801546 ], [ -1.584751560202041, 37.609251985213362 ], [ -1.585491776169549, 37.609251985213362 ], [ -1.585491776169549, 37.610159594549387 ], [ -1.586231992137058, 37.610159594549387 ], [ -1.586231992137058, 37.614697475089372 ], [ -1.585491776169549, 37.614697475089372 ], [ -1.585491776169549, 37.615605017968704 ], [ -1.584751560202041, 37.615605017968704 ], [ -1.584751560202041, 37.616512549771585 ], [ -1.584011344234532, 37.616512549771585 ], [ -1.584011344234532, 37.616966311519334 ], [ -1.583271128267024, 37.616966311519334 ], [ -1.583271128267024, 37.617420070497936 ], [ -1.578089616494466, 37.617420070497936 ], [ -1.578089616494466, 37.617873826707381 ], [ -1.572908104721908, 37.617873826707381 ], [ -1.572908104721908, 37.616966311519334 ], [ -1.572167888754399, 37.616966311519334 ], [ -1.572167888754399, 37.616512549771585 ], [ -1.571427672786891, 37.616512549771585 ] ] ], [ [ [ 1.664796537159547, 41.319116189662658 ], [ 1.666276969094563, 41.319116189662658 ], [ 1.666276969094563, 41.318685952030009 ], [ 1.667017185062072, 41.318685952030009 ], [ 1.667017185062072, 41.318255711557249 ], [ 1.66775740102958, 41.318255711557249 ], [ 1.66775740102958, 41.316964973098372 ], [ 1.668497616997088, 41.316964973098372 ], [ 1.668497616997088, 41.315243948725325 ], [ 1.669237832964597, 41.315243948725325 ], [ 1.669237832964597, 41.313522878911229 ], [ 1.669978048932105, 41.313522878911229 ], [ 1.669978048932105, 41.310941188988927 ], [ 1.669237832964597, 41.310941188988927 ], [ 1.669237832964597, 41.309220005573778 ], [ 1.668497616997088, 41.309220005573778 ], [ 1.668497616997088, 41.308359396826262 ], [ 1.66775740102958, 41.308359396826262 ], [ 1.66775740102958, 41.30749877671883 ], [ 1.667017185062072, 41.30749877671883 ], [ 1.667017185062072, 41.307068462405169 ], [ 1.666276969094563, 41.307068462405169 ], [ 1.666276969094563, 41.306638145251547 ], [ 1.665536753127055, 41.306638145251547 ], [ 1.665536753127055, 41.306207825257957 ], [ 1.664796537159547, 41.306207825257957 ], [ 1.664796537159547, 41.305777502424441 ], [ 1.664056321192039, 41.305777502424441 ], [ 1.664056321192039, 41.305347176750963 ], [ 1.66331610522453, 41.305347176750963 ], [ 1.66331610522453, 41.304916848237561 ], [ 1.662575889257022, 41.304916848237561 ], [ 1.662575889257022, 41.304486516884211 ], [ 1.657394377484463, 41.304486516884211 ], [ 1.657394377484463, 41.305347176750963 ], [ 1.656654161516955, 41.305347176750963 ], [ 1.656654161516955, 41.306638145251547 ], [ 1.655913945549446, 41.306638145251547 ], [ 1.655913945549446, 41.307929088192537 ], [ 1.655173729581938, 41.307929088192537 ], [ 1.655173729581938, 41.308789702620011 ], [ 1.65443351361443, 41.308789702620011 ], [ 1.65443351361443, 41.310941188988927 ], [ 1.655173729581938, 41.310941188988927 ], [ 1.655173729581938, 41.313522878911229 ], [ 1.655913945549446, 41.313522878911229 ], [ 1.655913945549446, 41.316104466591995 ], [ 1.656654161516955, 41.316104466591995 ], [ 1.656654161516955, 41.317825468244379 ], [ 1.657394377484463, 41.317825468244379 ], [ 1.657394377484463, 41.318255711557249 ], [ 1.65887480941948, 41.318255711557249 ], [ 1.65887480941948, 41.318685952030009 ], [ 1.660355241354497, 41.318685952030009 ], [ 1.660355241354497, 41.319116189662658 ], [ 1.661835673289513, 41.319116189662658 ], [ 1.661835673289513, 41.319546424455204 ], [ 1.662575889257022, 41.319546424455204 ], [ 1.662575889257022, 41.319976656407619 ], [ 1.664056321192039, 41.319976656407619 ], [ 1.664056321192039, 41.319546424455204 ], [ 1.664796537159547, 41.319546424455204 ], [ 1.664796537159547, 41.319116189662658 ] ] ], [ [ [ 1.979388323350589, 41.464373761387826 ], [ 1.979388323350589, 41.463944484023486 ], [ 1.980128539318097, 41.463944484023486 ], [ 1.980128539318097, 41.463085920768989 ], [ 1.980868755285605, 41.463085920768989 ], [ 1.980868755285605, 41.462656634878854 ], [ 1.981608971253114, 41.462656634878854 ], [ 1.981608971253114, 41.462227346146804 ], [ 1.982349187220622, 41.462227346146804 ], [ 1.982349187220622, 41.461798054572846 ], [ 1.98308940318813, 41.461798054572846 ], [ 1.98308940318813, 41.460939462899212 ], [ 1.983829619155639, 41.460939462899212 ], [ 1.983829619155639, 41.460510162799537 ], [ 1.984569835123147, 41.460510162799537 ], [ 1.984569835123147, 41.460080859857975 ], [ 1.985310051090655, 41.460080859857975 ], [ 1.985310051090655, 41.459222245449205 ], [ 1.986050267058164, 41.459222245449205 ], [ 1.986050267058164, 41.457504982529208 ], [ 1.986790483025672, 41.457504982529208 ], [ 1.986790483025672, 41.455787674139529 ], [ 1.98753069899318, 41.455787674139529 ], [ 1.98753069899318, 41.454929002893678 ], [ 1.986790483025672, 41.454929002893678 ], [ 1.986790483025672, 41.453640974711249 ], [ 1.986050267058164, 41.453640974711249 ], [ 1.986050267058164, 41.452782275047241 ], [ 1.985310051090655, 41.452782275047241 ], [ 1.985310051090655, 41.451923564016063 ], [ 1.984569835123147, 41.451923564016063 ], [ 1.984569835123147, 41.451064841617743 ], [ 1.983829619155639, 41.451064841617743 ], [ 1.983829619155639, 41.449776736706959 ], [ 1.98308940318813, 41.449776736706959 ], [ 1.98308940318813, 41.449347362719848 ], [ 1.981608971253114, 41.449347362719848 ], [ 1.981608971253114, 41.448917985890979 ], [ 1.980128539318097, 41.448917985890979 ], [ 1.980128539318097, 41.448488606220351 ], [ 1.977907891415572, 41.448488606220351 ], [ 1.977907891415572, 41.448059223707993 ], [ 1.975687243513047, 41.448059223707993 ], [ 1.975687243513047, 41.448488606220351 ], [ 1.974947027545539, 41.448488606220351 ], [ 1.974947027545539, 41.449347362719848 ], [ 1.97420681157803, 41.449347362719848 ], [ 1.97420681157803, 41.450206107852324 ], [ 1.973466595610522, 41.450206107852324 ], [ 1.973466595610522, 41.450635476155917 ], [ 1.972726379643014, 41.450635476155917 ], [ 1.972726379643014, 41.451494204237804 ], [ 1.971986163675505, 41.451494204237804 ], [ 1.971986163675505, 41.461368760156972 ], [ 1.972726379643014, 41.461368760156972 ], [ 1.972726379643014, 41.463085920768989 ], [ 1.973466595610522, 41.463085920768989 ], [ 1.973466595610522, 41.463944484023486 ], [ 1.97420681157803, 41.463944484023486 ], [ 1.97420681157803, 41.464373761387826 ], [ 1.975687243513047, 41.464373761387826 ], [ 1.975687243513047, 41.464803035910236 ], [ 1.976427459480555, 41.464803035910236 ], [ 1.976427459480555, 41.465232307590696 ], [ 1.977907891415572, 41.465232307590696 ], [ 1.977907891415572, 41.464803035910236 ], [ 1.978648107383081, 41.464803035910236 ], [ 1.978648107383081, 41.464373761387826 ], [ 1.979388323350589, 41.464373761387826 ] ] ], [ [ [ -2.216895996454158, 43.045344248849148 ], [ -2.215415564519142, 43.045344248849148 ], [ -2.215415564519142, 43.044925600070989 ], [ -2.213194916616617, 43.044925600070989 ], [ -2.213194916616617, 43.044506948435782 ], [ -2.212454700649109, 43.044506948435782 ], [ -2.212454700649109, 43.043250976387839 ], [ -2.2117144846816, 43.043250976387839 ], [ -2.2117144846816, 43.040320274946268 ], [ -2.210974268714092, 43.040320274946268 ], [ -2.210974268714092, 43.035295889632046 ], [ -2.2117144846816, 43.035295889632046 ], [ -2.2117144846816, 43.031946070863157 ], [ -2.212454700649109, 43.031946070863157 ], [ -2.212454700649109, 43.029433586793843 ], [ -2.213194916616617, 43.029433586793843 ], [ -2.213194916616617, 43.029014829449622 ], [ -2.213935132584125, 43.029014829449622 ], [ -2.213935132584125, 43.028596069248458 ], [ -2.215415564519142, 43.028596069248458 ], [ -2.215415564519142, 43.028177306190337 ], [ -2.21615578048665, 43.028177306190337 ], [ -2.21615578048665, 43.027758540275293 ], [ -2.218376428389175, 43.027758540275293 ], [ -2.218376428389175, 43.028177306190337 ], [ -2.2205970762917, 43.028177306190337 ], [ -2.2205970762917, 43.028596069248458 ], [ -2.222817724194225, 43.028596069248458 ], [ -2.222817724194225, 43.029014829449622 ], [ -2.22503837209675, 43.029014829449622 ], [ -2.22503837209675, 43.029433586793843 ], [ -2.225778588064259, 43.029433586793843 ], [ -2.225778588064259, 43.030689841684811 ], [ -2.226518804031767, 43.030689841684811 ], [ -2.226518804031767, 43.031527330660673 ], [ -2.227259019999275, 43.031527330660673 ], [ -2.227259019999275, 43.032783542697238 ], [ -2.227999235966783, 43.032783542697238 ], [ -2.227999235966783, 43.033621003103427 ], [ -2.228739451934292, 43.033621003103427 ], [ -2.228739451934292, 43.03487717228537 ], [ -2.2294796679018, 43.03487717228537 ], [ -2.2294796679018, 43.036133315754434 ], [ -2.230219883869309, 43.036133315754434 ], [ -2.230219883869309, 43.036970730448857 ], [ -2.230960099836817, 43.036970730448857 ], [ -2.230960099836817, 43.038226831062964 ], [ -2.230219883869309, 43.038226831062964 ], [ -2.230219883869309, 43.041994978626512 ], [ -2.2294796679018, 43.041994978626512 ], [ -2.2294796679018, 43.043250976387839 ], [ -2.228739451934292, 43.043250976387839 ], [ -2.228739451934292, 43.043669636594203 ], [ -2.227999235966783, 43.043669636594203 ], [ -2.227999235966783, 43.04408829394351 ], [ -2.227259019999275, 43.04408829394351 ], [ -2.227259019999275, 43.044506948435782 ], [ -2.225778588064259, 43.044506948435782 ], [ -2.225778588064259, 43.044925600070989 ], [ -2.22503837209675, 43.044925600070989 ], [ -2.22503837209675, 43.045344248849148 ], [ -2.224298156129242, 43.045344248849148 ], [ -2.224298156129242, 43.045762894770256 ], [ -2.223557940161733, 43.045762894770256 ], [ -2.223557940161733, 43.0461815378343 ], [ -2.222817724194225, 43.0461815378343 ], [ -2.222817724194225, 43.046600178041274 ], [ -2.2205970762917, 43.046600178041274 ], [ -2.2205970762917, 43.0461815378343 ], [ -2.218376428389175, 43.0461815378343 ], [ -2.218376428389175, 43.045762894770256 ], [ -2.216895996454158, 43.045762894770256 ], [ -2.216895996454158, 43.045344248849148 ] ] ] ] } }
]
}
