{
"type": "FeatureCollection",
"name": "spain_fires_modis_ba",
"crs": { "type": "name", "properties": { "name": "urn:ogc:def:crs:OGC:1.3:CRS84" } },
"features": [
{ "type": "Feature", "properties": { }, "geometry": { "type": "Polygon", "coordinates": [ [ [ -5.110400213444238, 36.657982051751489 ], [ -5.108179565541714, 36.657982051751489 ], [ -5.108179565541714, 36.657522501492807 ], [ -5.107439349574205, 36.657522501492807 ], [ -5.107439349574205, 36.65568427302675 ], [ -5.106699133606696, 36.65568427302675 ], [ -5.106699133606696, 36.654765142335052 ], [ -5.105958917639189, 36.654765142335052 ], [ -5.105958917639189, 36.653846000671066 ], [ -5.10521870167168, 36.653846000671066 ], [ -5.10521870167168, 36.653386425724513 ], [ -5.104478485704171, 36.653386425724513 ], [ -5.104478485704171, 36.652467267602283 ], [ -5.103738269736664, 36.652467267602283 ], [ -5.103738269736664, 36.651548098508044 ], [ -5.102998053769155, 36.651548098508044 ], [ -5.102998053769155, 36.651088509846439 ], [ -5.101517621834138, 36.651088509846439 ], [ -5.101517621834138, 36.650628918441868 ], [ -5.100777405866629, 36.650628918441868 ], [ -5.100777405866629, 36.650169324294353 ], [ -5.100037189899121, 36.650169324294353 ], [ -5.100037189899121, 36.649709727403888 ], [ -5.099296973931613, 36.649709727403888 ], [ -5.099296973931613, 36.649250127770507 ], [ -5.097076326029088, 36.649250127770507 ], [ -5.097076326029088, 36.648790525394197 ], [ -5.095595894094072, 36.648790525394197 ], [ -5.095595894094072, 36.648330920274987 ], [ -5.094855678126563, 36.648330920274987 ], [ -5.094855678126563, 36.647871312412889 ], [ -5.093375246191546, 36.647871312412889 ], [ -5.093375246191546, 36.647411701807911 ], [ -5.092635030224037, 36.647411701807911 ], [ -5.092635030224037, 36.64695208846009 ], [ -5.09189481425653, 36.64695208846009 ], [ -5.09189481425653, 36.646492472369403 ], [ -5.091154598289021, 36.646492472369403 ], [ -5.091154598289021, 36.644194350773731 ], [ -5.090414382321512, 36.644194350773731 ], [ -5.090414382321512, 36.641896160608837 ], [ -5.091154598289021, 36.641896160608837 ], [ -5.091154598289021, 36.640976865343859 ], [ -5.09189481425653, 36.640976865343859 ], [ -5.09189481425653, 36.635001178715243 ], [ -5.093375246191546, 36.635001178715243 ], [ -5.093375246191546, 36.634541491315147 ], [ -5.094115462159055, 36.634541491315147 ], [ -5.094115462159055, 36.634081801172542 ], [ -5.097816541996597, 36.634081801172542 ], [ -5.097816541996597, 36.633622108287483 ], [ -5.098556757964105, 36.633622108287483 ], [ -5.098556757964105, 36.633162412659935 ], [ -5.100037189899121, 36.633162412659935 ], [ -5.100037189899121, 36.632702714289934 ], [ -5.100777405866629, 36.632702714289934 ], [ -5.100777405866629, 36.633622108287483 ], [ -5.101517621834138, 36.633622108287483 ], [ -5.101517621834138, 36.634541491315147 ], [ -5.102998053769155, 36.634541491315147 ], [ -5.102998053769155, 36.635001178715243 ], [ -5.103738269736664, 36.635001178715243 ], [ -5.103738269736664, 36.635460863372849 ], [ -5.10521870167168, 36.635460863372849 ], [ -5.10521870167168, 36.635920545287931 ], [ -5.106699133606696, 36.635920545287931 ], [ -5.106699133606696, 36.635460863372849 ], [ -5.107439349574205, 36.635460863372849 ], [ -5.107439349574205, 36.635001178715243 ], [ -5.108179565541714, 36.635001178715243 ], [ -5.108179565541714, 36.634541491315147 ], [ -5.113361077314271, 36.634541491315147 ], [ -5.113361077314271, 36.634081801172542 ], [ -5.114841509249288, 36.634081801172542 ], [ -5.114841509249288, 36.634541491315147 ], [ -5.117062157151813, 36.634541491315147 ], [ -5.117062157151813, 36.635460863372849 ], [ -5.116321941184305, 36.635460863372849 ], [ -5.116321941184305, 36.636380224460474 ], [ -5.115581725216797, 36.636380224460474 ], [ -5.115581725216797, 36.639138241901897 ], [ -5.116321941184305, 36.639138241901897 ], [ -5.116321941184305, 36.640517213597342 ], [ -5.115581725216797, 36.640517213597342 ], [ -5.115581725216797, 36.640976865343859 ], [ -5.116321941184305, 36.640976865343859 ], [ -5.116321941184305, 36.641896160608837 ], [ -5.117062157151813, 36.641896160608837 ], [ -5.117062157151813, 36.64235580412727 ], [ -5.117802373119321, 36.64235580412727 ], [ -5.117802373119321, 36.643275082935993 ], [ -5.11410129328178, 36.643275082935993 ], [ -5.11410129328178, 36.643734718226249 ], [ -5.113361077314271, 36.643734718226249 ], [ -5.113361077314271, 36.64511360764039 ], [ -5.112620861346763, 36.64511360764039 ], [ -5.112620861346763, 36.645573231959546 ], [ -5.111140429411746, 36.645573231959546 ], [ -5.111140429411746, 36.646032853535878 ], [ -5.110400213444238, 36.646032853535878 ], [ -5.110400213444238, 36.64695208846009 ], [ -5.109659997476729, 36.64695208846009 ], [ -5.109659997476729, 36.647871312412889 ], [ -5.108919781509222, 36.647871312412889 ], [ -5.108919781509222, 36.648330920274987 ], [ -5.108179565541714, 36.648330920274987 ], [ -5.108179565541714, 36.648790525394197 ], [ -5.107439349574205, 36.648790525394197 ], [ -5.107439349574205, 36.649250127770507 ], [ -5.106699133606696, 36.649250127770507 ], [ -5.106699133606696, 36.650169324294353 ], [ -5.105958917639189, 36.650169324294353 ], [ -5.105958917639189, 36.651088509846439 ], [ -5.106699133606696, 36.651088509846439 ], [ -5.106699133606696, 36.652007684426664 ], [ -5.107439349574205, 36.652007684426664 ], [ -5.107439349574205, 36.652467267602283 ], [ -5.108919781509222, 36.652467267602283 ], [ -5.108919781509222, 36.654765142335052 ], [ -5.109659997476729, 36.654765142335052 ], [ -5.109659997476729, 36.65568427302675 ], [ -5.110400213444238, 36.65568427302675 ], [ -5.110400213444238, 36.656143834257939 ], [ -5.111140429411746, 36.656143834257939 ], [ -5.111140429411746, 36.657522501492807 ], [ -5.110400213444238, 36.657522501492807 ], [ -5.110400213444238, 36.657982051751489 ] ] ] } }
]
}
