{
"type": "FeatureCollection",
"name": "spain_fires_nrt_ba",
"crs": { "type": "name", "properties": { "name": "urn:ogc:def:crs:OGC:1.3:CRS84" } },
"features": [
{ "type": "Feature", "properties": { }, "geometry": { "type": "MultiPolygon", "coordinates": [ [ [ [ -1.347142234631865, 35.31848552382354 ], [ -1.343441154794324, 35.31848552382354 ], [ -1.343441154794324, 35.318018104095017 ], [ -1.339740074956782, 35.318018104095017 ], [ -1.339740074956782, 35.31755068166477 ], [ -1.338999858989274, 35.31755068166477 ], [ -1.338999858989274, 35.31661582869917 ], [ -1.338259643021765, 35.31661582869917 ], [ -1.338259643021765, 35.315680964926855 ], [ -1.337519427054257, 35.315680964926855 ], [ -1.337519427054257, 35.314746090347946 ], [ -1.336779211086749, 35.314746090347946 ], [ -1.336779211086749, 35.313811204962576 ], [ -1.33603899511924, 35.313811204962576 ], [ -1.33603899511924, 35.312876308770875 ], [ -1.335298779151732, 35.312876308770875 ], [ -1.335298779151732, 35.307266704694499 ], [ -1.33603899511924, 35.307266704694499 ], [ -1.33603899511924, 35.306331732861899 ], [ -1.336779211086749, 35.306331732861899 ], [ -1.336779211086749, 35.305864242893584 ], [ -1.337519427054257, 35.305864242893584 ], [ -1.337519427054257, 35.305396750223949 ], [ -1.338259643021765, 35.305396750223949 ], [ -1.338259643021765, 35.304929254853015 ], [ -1.338999858989274, 35.304929254853015 ], [ -1.338999858989274, 35.303994256007286 ], [ -1.339740074956782, 35.303994256007286 ], [ -1.339740074956782, 35.30352675253252 ], [ -1.343441154794324, 35.30352675253252 ], [ -1.343441154794324, 35.303994256007286 ], [ -1.347882450599374, 35.303994256007286 ], [ -1.347882450599374, 35.304461756780782 ], [ -1.348622666566882, 35.304461756780782 ], [ -1.348622666566882, 35.305396750223949 ], [ -1.34936288253439, 35.305396750223949 ], [ -1.34936288253439, 35.305864242893584 ], [ -1.350103098501899, 35.305864242893584 ], [ -1.350103098501899, 35.306799220128873 ], [ -1.350843314469407, 35.306799220128873 ], [ -1.350843314469407, 35.316148398163833 ], [ -1.350103098501899, 35.316148398163833 ], [ -1.350103098501899, 35.31661582869917 ], [ -1.34936288253439, 35.31661582869917 ], [ -1.34936288253439, 35.31755068166477 ], [ -1.348622666566882, 35.31755068166477 ], [ -1.348622666566882, 35.31848552382354 ], [ -1.347882450599374, 35.31848552382354 ], [ -1.347882450599374, 35.31895294085033 ], [ -1.347142234631865, 35.31895294085033 ], [ -1.347142234631865, 35.31848552382354 ] ] ], [ [ [ -0.277530161582322, 35.824969885320684 ], [ -0.276789945614814, 35.824969885320684 ], [ -0.276789945614814, 35.824505411354338 ], [ -0.276049729647306, 35.824505411354338 ], [ -0.276049729647306, 35.824040934669902 ], [ -0.273088865777272, 35.824040934669902 ], [ -0.273088865777272, 35.8235764552674 ], [ -0.268647569972222, 35.8235764552674 ], [ -0.268647569972222, 35.82311197314683 ], [ -0.264946490134681, 35.82311197314683 ], [ -0.264946490134681, 35.822647488308213 ], [ -0.264206274167172, 35.822647488308213 ], [ -0.264206274167172, 35.822183000751579 ], [ -0.262725842232156, 35.822183000751579 ], [ -0.262725842232156, 35.821718510476927 ], [ -0.261245410297139, 35.821718510476927 ], [ -0.261245410297139, 35.821254017484272 ], [ -0.260505194329631, 35.821254017484272 ], [ -0.260505194329631, 35.820789521773627 ], [ -0.259024762394614, 35.820789521773627 ], [ -0.259024762394614, 35.820325023345006 ], [ -0.257544330459597, 35.820325023345006 ], [ -0.257544330459597, 35.819860522198454 ], [ -0.256804114492089, 35.819860522198454 ], [ -0.256804114492089, 35.81939601833394 ], [ -0.255323682557072, 35.81939601833394 ], [ -0.255323682557072, 35.818931511751508 ], [ -0.253843250622056, 35.818931511751508 ], [ -0.253843250622056, 35.818467002451158 ], [ -0.253103034654547, 35.818467002451158 ], [ -0.253103034654547, 35.818002490432896 ], [ -0.251622602719531, 35.818002490432896 ], [ -0.251622602719531, 35.81753797569678 ], [ -0.250142170784514, 35.81753797569678 ], [ -0.250142170784514, 35.817073458242774 ], [ -0.249401954817006, 35.817073458242774 ], [ -0.249401954817006, 35.816608938070921 ], [ -0.247921522881989, 35.816608938070921 ], [ -0.247921522881989, 35.817073458242774 ], [ -0.247181306914481, 35.817073458242774 ], [ -0.247181306914481, 35.81753797569678 ], [ -0.245700874979464, 35.81753797569678 ], [ -0.245700874979464, 35.818002490432896 ], [ -0.244960659011956, 35.818002490432896 ], [ -0.244960659011956, 35.818467002451158 ], [ -0.244220443044447, 35.818467002451158 ], [ -0.244220443044447, 35.818931511751508 ], [ -0.242740011109431, 35.818931511751508 ], [ -0.242740011109431, 35.81939601833394 ], [ -0.239779147239397, 35.81939601833394 ], [ -0.239779147239397, 35.818931511751508 ], [ -0.237558499336872, 35.818931511751508 ], [ -0.237558499336872, 35.818467002451158 ], [ -0.236078067401856, 35.818467002451158 ], [ -0.236078067401856, 35.818002490432896 ], [ -0.234597635466839, 35.818002490432896 ], [ -0.234597635466839, 35.81753797569678 ], [ -0.232376987564314, 35.81753797569678 ], [ -0.232376987564314, 35.817073458242774 ], [ -0.231636771596806, 35.817073458242774 ], [ -0.231636771596806, 35.816144415181228 ], [ -0.230896555629297, 35.816144415181228 ], [ -0.230896555629297, 35.815215361248384 ], [ -0.230156339661789, 35.815215361248384 ], [ -0.230156339661789, 35.814286296444358 ], [ -0.229416123694281, 35.814286296444358 ], [ -0.229416123694281, 35.813821759965677 ], [ -0.228675907726772, 35.813821759965677 ], [ -0.228675907726772, 35.813357220769255 ], [ -0.227195475791756, 35.813357220769255 ], [ -0.227195475791756, 35.812892678855093 ], [ -0.225715043856739, 35.812892678855093 ], [ -0.225715043856739, 35.812428134223211 ], [ -0.224234611921722, 35.812428134223211 ], [ -0.224234611921722, 35.810569928518746 ], [ -0.223494395954214, 35.810569928518746 ], [ -0.223494395954214, 35.805924224024189 ], [ -0.224234611921722, 35.805924224024189 ], [ -0.224234611921722, 35.803601269869652 ], [ -0.224974827889231, 35.803601269869652 ], [ -0.224974827889231, 35.803136670886389 ], [ -0.225715043856739, 35.803136670886389 ], [ -0.225715043856739, 35.80220746476764 ], [ -0.226455259824247, 35.80220746476764 ], [ -0.226455259824247, 35.801742857632192 ], [ -0.227195475791756, 35.801742857632192 ], [ -0.227195475791756, 35.801278247779365 ], [ -0.227935691759264, 35.801278247779365 ], [ -0.227935691759264, 35.800813635209181 ], [ -0.230896555629297, 35.800813635209181 ], [ -0.230896555629297, 35.800349019921647 ], [ -0.233117203531822, 35.800349019921647 ], [ -0.233117203531822, 35.799884401916799 ], [ -0.234597635466839, 35.799884401916799 ], [ -0.234597635466839, 35.800349019921647 ], [ -0.235337851434347, 35.800349019921647 ], [ -0.235337851434347, 35.800813635209181 ], [ -0.236078067401856, 35.800813635209181 ], [ -0.236078067401856, 35.801278247779365 ], [ -0.236818283369364, 35.801278247779365 ], [ -0.236818283369364, 35.801742857632192 ], [ -0.237558499336872, 35.801742857632192 ], [ -0.237558499336872, 35.80220746476764 ], [ -0.238298715304381, 35.80220746476764 ], [ -0.238298715304381, 35.800813635209181 ], [ -0.239038931271889, 35.800813635209181 ], [ -0.239038931271889, 35.799884401916799 ], [ -0.239779147239397, 35.799884401916799 ], [ -0.239779147239397, 35.798955157755167 ], [ -0.240519363206906, 35.798955157755167 ], [ -0.240519363206906, 35.798025902724412 ], [ -0.241259579174414, 35.798025902724412 ], [ -0.241259579174414, 35.797561271133148 ], [ -0.244220443044447, 35.797561271133148 ], [ -0.244220443044447, 35.798025902724412 ], [ -0.245700874979464, 35.798025902724412 ], [ -0.245700874979464, 35.798490531598425 ], [ -0.247181306914481, 35.798490531598425 ], [ -0.247181306914481, 35.798955157755167 ], [ -0.249401954817006, 35.798955157755167 ], [ -0.249401954817006, 35.798025902724412 ], [ -0.250142170784514, 35.798025902724412 ], [ -0.250142170784514, 35.797561271133148 ], [ -0.250882386752022, 35.797561271133148 ], [ -0.250882386752022, 35.797096636824634 ], [ -0.251622602719531, 35.797096636824634 ], [ -0.251622602719531, 35.796631999798905 ], [ -0.252362818687039, 35.796631999798905 ], [ -0.252362818687039, 35.796167360055968 ], [ -0.253103034654547, 35.796167360055968 ], [ -0.253103034654547, 35.79570271759583 ], [ -0.254583466589564, 35.79570271759583 ], [ -0.254583466589564, 35.796167360055968 ], [ -0.255323682557072, 35.796167360055968 ], [ -0.255323682557072, 35.796631999798905 ], [ -0.256804114492089, 35.796631999798905 ], [ -0.256804114492089, 35.797096636824634 ], [ -0.259764978362122, 35.797096636824634 ], [ -0.259764978362122, 35.796631999798905 ], [ -0.263466058199664, 35.796631999798905 ], [ -0.263466058199664, 35.797096636824634 ], [ -0.264206274167172, 35.797096636824634 ], [ -0.264206274167172, 35.797561271133148 ], [ -0.264946490134681, 35.797561271133148 ], [ -0.264946490134681, 35.798490531598425 ], [ -0.265686706102189, 35.798490531598425 ], [ -0.265686706102189, 35.798955157755167 ], [ -0.266426922069697, 35.798955157755167 ], [ -0.266426922069697, 35.799419781194644 ], [ -0.267167138037206, 35.799419781194644 ], [ -0.267167138037206, 35.799884401916799 ], [ -0.267907354004714, 35.799884401916799 ], [ -0.267907354004714, 35.800349019921647 ], [ -0.268647569972222, 35.800349019921647 ], [ -0.268647569972222, 35.800813635209181 ], [ -0.269387785939731, 35.800813635209181 ], [ -0.269387785939731, 35.801742857632192 ], [ -0.270128001907239, 35.801742857632192 ], [ -0.270128001907239, 35.80220746476764 ], [ -0.270868217874747, 35.80220746476764 ], [ -0.270868217874747, 35.802672069185711 ], [ -0.271608433842256, 35.802672069185711 ], [ -0.271608433842256, 35.803136670886389 ], [ -0.272348649809764, 35.803136670886389 ], [ -0.272348649809764, 35.803601269869652 ], [ -0.273088865777272, 35.803601269869652 ], [ -0.273088865777272, 35.804530459683846 ], [ -0.274569297712289, 35.804530459683846 ], [ -0.274569297712289, 35.804065866135467 ], [ -0.275309513679797, 35.804065866135467 ], [ -0.275309513679797, 35.803136670886389 ], [ -0.276049729647306, 35.803136670886389 ], [ -0.276049729647306, 35.80220746476764 ], [ -0.276789945614814, 35.80220746476764 ], [ -0.276789945614814, 35.801278247779365 ], [ -0.277530161582322, 35.801278247779365 ], [ -0.277530161582322, 35.800813635209181 ], [ -0.282711673354881, 35.800813635209181 ], [ -0.282711673354881, 35.801742857632192 ], [ -0.283451889322389, 35.801742857632192 ], [ -0.283451889322389, 35.802672069185711 ], [ -0.284192105289897, 35.802672069185711 ], [ -0.284192105289897, 35.803136670886389 ], [ -0.284932321257406, 35.803136670886389 ], [ -0.284932321257406, 35.804995050514783 ], [ -0.285672537224914, 35.804995050514783 ], [ -0.285672537224914, 35.811499036806339 ], [ -0.286412753192422, 35.811499036806339 ], [ -0.286412753192422, 35.81753797569678 ], [ -0.287152969159931, 35.81753797569678 ], [ -0.287152969159931, 35.821254017484272 ], [ -0.286412753192422, 35.821254017484272 ], [ -0.286412753192422, 35.822183000751579 ], [ -0.285672537224914, 35.822183000751579 ], [ -0.285672537224914, 35.822647488308213 ], [ -0.284932321257406, 35.822647488308213 ], [ -0.284932321257406, 35.82311197314683 ], [ -0.284192105289897, 35.82311197314683 ], [ -0.284192105289897, 35.8235764552674 ], [ -0.283451889322389, 35.8235764552674 ], [ -0.283451889322389, 35.824040934669902 ], [ -0.282711673354881, 35.824040934669902 ], [ -0.282711673354881, 35.824505411354338 ], [ -0.281971457387372, 35.824505411354338 ], [ -0.281971457387372, 35.824969885320684 ], [ -0.281231241419864, 35.824969885320684 ], [ -0.281231241419864, 35.82543435656892 ], [ -0.280491025452356, 35.82543435656892 ], [ -0.280491025452356, 35.825898825099053 ], [ -0.278270377549831, 35.825898825099053 ], [ -0.278270377549831, 35.82543435656892 ], [ -0.277530161582322, 35.82543435656892 ], [ -0.277530161582322, 35.824969885320684 ] ] ], [ [ [ 1.239912571809763, 36.136018374912496 ], [ 1.242133219712288, 36.136018374912496 ], [ 1.242133219712288, 36.135555728038689 ], [ 1.243613651647304, 36.135555728038689 ], [ 1.243613651647304, 36.135093078437173 ], [ 1.245094083582321, 36.135093078437173 ], [ 1.245094083582321, 36.13463042610794 ], [ 1.245834299549829, 36.13463042610794 ], [ 1.245834299549829, 36.134167771051025 ], [ 1.246574515517338, 36.134167771051025 ], [ 1.246574515517338, 36.133242452754182 ], [ 1.247314731484846, 36.133242452754182 ], [ 1.247314731484846, 36.132779789514281 ], [ 1.248054947452355, 36.132779789514281 ], [ 1.248054947452355, 36.131854454851599 ], [ 1.248795163419863, 36.131854454851599 ], [ 1.248795163419863, 36.130929109278505 ], [ 1.249535379387371, 36.130929109278505 ], [ 1.249535379387371, 36.130466432400581 ], [ 1.25027559535488, 36.130466432400581 ], [ 1.25027559535488, 36.128615697613419 ], [ 1.251015811322388, 36.128615697613419 ], [ 1.251015811322388, 36.126302217760696 ], [ 1.251756027289896, 36.126302217760696 ], [ 1.251756027289896, 36.123525951932208 ], [ 1.251015811322388, 36.123525951932208 ], [ 1.251015811322388, 36.121675053499345 ], [ 1.25027559535488, 36.121675053499345 ], [ 1.25027559535488, 36.120749587919107 ], [ 1.249535379387371, 36.120749587919107 ], [ 1.249535379387371, 36.120286851038067 ], [ 1.248054947452355, 36.120286851038067 ], [ 1.248054947452355, 36.119824111429786 ], [ 1.247314731484846, 36.119824111429786 ], [ 1.247314731484846, 36.119361369094264 ], [ 1.242873435679796, 36.119361369094264 ], [ 1.242873435679796, 36.119824111429786 ], [ 1.239172355842254, 36.119824111429786 ], [ 1.239172355842254, 36.120286851038067 ], [ 1.236951707939729, 36.120286851038067 ], [ 1.236951707939729, 36.120749587919107 ], [ 1.236211491972221, 36.120749587919107 ], [ 1.236211491972221, 36.121212322072857 ], [ 1.235471276004713, 36.121212322072857 ], [ 1.235471276004713, 36.121675053499345 ], [ 1.234731060037205, 36.121675053499345 ], [ 1.234731060037205, 36.122137782198543 ], [ 1.233990844069696, 36.122137782198543 ], [ 1.233990844069696, 36.122600508170429 ], [ 1.233250628102188, 36.122600508170429 ], [ 1.233250628102188, 36.123063231414996 ], [ 1.232510412134679, 36.123063231414996 ], [ 1.232510412134679, 36.123525951932208 ], [ 1.231770196167171, 36.123525951932208 ], [ 1.231770196167171, 36.123988669722088 ], [ 1.231029980199663, 36.123988669722088 ], [ 1.231029980199663, 36.124451384784592 ], [ 1.230289764232154, 36.124451384784592 ], [ 1.230289764232154, 36.124914097119721 ], [ 1.229549548264646, 36.124914097119721 ], [ 1.229549548264646, 36.127227617884188 ], [ 1.228809332297138, 36.127227617884188 ], [ 1.228809332297138, 36.129078385401499 ], [ 1.22806911632963, 36.129078385401499 ], [ 1.22806911632963, 36.132317123546741 ], [ 1.228809332297138, 36.132317123546741 ], [ 1.228809332297138, 36.13370511326643 ], [ 1.229549548264646, 36.13370511326643 ], [ 1.229549548264646, 36.13463042610794 ], [ 1.230289764232154, 36.13463042610794 ], [ 1.230289764232154, 36.135093078437173 ], [ 1.231770196167171, 36.135093078437173 ], [ 1.231770196167171, 36.135555728038689 ], [ 1.232510412134679, 36.135555728038689 ], [ 1.232510412134679, 36.136018374912496 ], [ 1.233990844069696, 36.136018374912496 ], [ 1.233990844069696, 36.136481019058579 ], [ 1.235471276004713, 36.136481019058579 ], [ 1.235471276004713, 36.136943660476909 ], [ 1.238432139874746, 36.136943660476909 ], [ 1.238432139874746, 36.136481019058579 ], [ 1.239912571809763, 36.136481019058579 ], [ 1.239912571809763, 36.136018374912496 ] ] ], [ [ [ 3.123762209118474, 36.689225033185046 ], [ 3.123762209118474, 36.688765669491623 ], [ 3.12524264105349, 36.688765669491623 ], [ 3.12524264105349, 36.688306303054155 ], [ 3.127463288956015, 36.688306303054155 ], [ 3.127463288956015, 36.687846933872635 ], [ 3.128943720891032, 36.687846933872635 ], [ 3.128943720891032, 36.686468809864046 ], [ 3.12968393685854, 36.686468809864046 ], [ 3.12968393685854, 36.685550046805048 ], [ 3.130424152826048, 36.685550046805048 ], [ 3.130424152826048, 36.684171881636921 ], [ 3.131164368793557, 36.684171881636921 ], [ 3.131164368793557, 36.683253091138575 ], [ 3.131904584761065, 36.683253091138575 ], [ 3.131904584761065, 36.681874884811897 ], [ 3.132644800728573, 36.681874884811897 ], [ 3.132644800728573, 36.680956066874856 ], [ 3.133385016696082, 36.680956066874856 ], [ 3.133385016696082, 36.679577819390644 ], [ 3.13412523266359, 36.679577819390644 ], [ 3.13412523266359, 36.676361812562291 ], [ 3.133385016696082, 36.676361812562291 ], [ 3.133385016696082, 36.67452403401316 ], [ 3.132644800728573, 36.67452403401316 ], [ 3.132644800728573, 36.674064582516735 ], [ 3.131164368793557, 36.674064582516735 ], [ 3.131164368793557, 36.673605128276698 ], [ 3.12968393685854, 36.673605128276698 ], [ 3.12968393685854, 36.673145671293035 ], [ 3.128943720891032, 36.673145671293035 ], [ 3.128943720891032, 36.672686211565782 ], [ 3.127463288956015, 36.672686211565782 ], [ 3.127463288956015, 36.672226749094932 ], [ 3.125982857020999, 36.672226749094932 ], [ 3.125982857020999, 36.671767283880513 ], [ 3.120061129280932, 36.671767283880513 ], [ 3.120061129280932, 36.672226749094932 ], [ 3.119320913313424, 36.672226749094932 ], [ 3.119320913313424, 36.672686211565782 ], [ 3.118580697345915, 36.672686211565782 ], [ 3.118580697345915, 36.673145671293035 ], [ 3.117840481378407, 36.673145671293035 ], [ 3.117840481378407, 36.674064582516735 ], [ 3.117100265410898, 36.674064582516735 ], [ 3.117100265410898, 36.67452403401316 ], [ 3.11636004944339, 36.67452403401316 ], [ 3.11636004944339, 36.674983482765938 ], [ 3.115619833475882, 36.674983482765938 ], [ 3.115619833475882, 36.675902372040525 ], [ 3.114879617508374, 36.675902372040525 ], [ 3.114879617508374, 36.676361812562291 ], [ 3.114139401540865, 36.676361812562291 ], [ 3.114139401540865, 36.676821250340389 ], [ 3.113399185573357, 36.676821250340389 ], [ 3.113399185573357, 36.677280685374775 ], [ 3.112658969605848, 36.677280685374775 ], [ 3.112658969605848, 36.678199547212365 ], [ 3.11191875363834, 36.678199547212365 ], [ 3.11191875363834, 36.678658974015555 ], [ 3.111178537670832, 36.678658974015555 ], [ 3.111178537670832, 36.679118398074984 ], [ 3.110438321703324, 36.679118398074984 ], [ 3.110438321703324, 36.684171881636921 ], [ 3.111178537670832, 36.684171881636921 ], [ 3.111178537670832, 36.684631272770233 ], [ 3.11191875363834, 36.684631272770233 ], [ 3.11191875363834, 36.685090661159613 ], [ 3.112658969605848, 36.685090661159613 ], [ 3.112658969605848, 36.685550046805048 ], [ 3.113399185573357, 36.685550046805048 ], [ 3.113399185573357, 36.68600942970653 ], [ 3.114139401540865, 36.68600942970653 ], [ 3.114139401540865, 36.686468809864046 ], [ 3.114879617508374, 36.686468809864046 ], [ 3.114879617508374, 36.68692818727758 ], [ 3.115619833475882, 36.68692818727758 ], [ 3.115619833475882, 36.687387561947112 ], [ 3.11636004944339, 36.687387561947112 ], [ 3.11636004944339, 36.687846933872635 ], [ 3.117100265410898, 36.687846933872635 ], [ 3.117100265410898, 36.688306303054155 ], [ 3.117840481378407, 36.688306303054155 ], [ 3.117840481378407, 36.688765669491623 ], [ 3.118580697345915, 36.688765669491623 ], [ 3.118580697345915, 36.689225033185046 ], [ 3.119320913313424, 36.689225033185046 ], [ 3.119320913313424, 36.689684394134424 ], [ 3.122281777183456, 36.689684394134424 ], [ 3.122281777183456, 36.689225033185046 ], [ 3.123762209118474, 36.689225033185046 ] ] ], [ [ [ -8.904747262891961, 39.691545623518266 ], [ -8.904007046924452, 39.691545623518266 ], [ -8.904007046924452, 39.691104816848117 ], [ -8.903266830956944, 39.691104816848117 ], [ -8.903266830956944, 39.690664007363281 ], [ -8.901786399021928, 39.690664007363281 ], [ -8.901786399021928, 39.690223195063759 ], [ -8.901046183054419, 39.690223195063759 ], [ -8.901046183054419, 39.68978237994957 ], [ -8.90030596708691, 39.68978237994957 ], [ -8.90030596708691, 39.686696595340081 ], [ -8.8995657511194, 39.686696595340081 ], [ -8.8995657511194, 39.683169815481513 ], [ -8.90030596708691, 39.683169815481513 ], [ -8.90030596708691, 39.682288092371302 ], [ -8.901046183054419, 39.682288092371302 ], [ -8.901046183054419, 39.681406358002967 ], [ -8.901786399021928, 39.681406358002967 ], [ -8.901786399021928, 39.680524612376594 ], [ -8.902526614989435, 39.680524612376594 ], [ -8.902526614989435, 39.679642855492247 ], [ -8.904007046924452, 39.679642855492247 ], [ -8.904007046924452, 39.680083735341661 ], [ -8.906227694826978, 39.680083735341661 ], [ -8.906227694826978, 39.680524612376594 ], [ -8.908448342729502, 39.680524612376594 ], [ -8.908448342729502, 39.680965486597032 ], [ -8.910668990632026, 39.680965486597032 ], [ -8.910668990632026, 39.681406358002967 ], [ -8.912889638534551, 39.681406358002967 ], [ -8.912889638534551, 39.681847226594385 ], [ -8.91362985450206, 39.681847226594385 ], [ -8.91362985450206, 39.683610672814829 ], [ -8.914370070469568, 39.683610672814829 ], [ -8.914370070469568, 39.685374074002453 ], [ -8.915110286437075, 39.685374074002453 ], [ -8.915110286437075, 39.685814917262924 ], [ -8.914370070469568, 39.685814917262924 ], [ -8.914370070469568, 39.687137430156746 ], [ -8.91362985450206, 39.687137430156746 ], [ -8.91362985450206, 39.688900741277202 ], [ -8.912889638534551, 39.688900741277202 ], [ -8.912889638534551, 39.690223195063759 ], [ -8.912149422567044, 39.690223195063759 ], [ -8.912149422567044, 39.690664007363281 ], [ -8.911409206599535, 39.690664007363281 ], [ -8.911409206599535, 39.691104816848117 ], [ -8.910668990632026, 39.691104816848117 ], [ -8.910668990632026, 39.691545623518266 ], [ -8.909188558697011, 39.691545623518266 ], [ -8.909188558697011, 39.69198642737372 ], [ -8.908448342729502, 39.69198642737372 ], [ -8.908448342729502, 39.692427228414473 ], [ -8.90548747885947, 39.692427228414473 ], [ -8.90548747885947, 39.69198642737372 ], [ -8.904747262891961, 39.69198642737372 ], [ -8.904747262891961, 39.691545623518266 ] ] ], [ [ [ -3.476743573153344, 40.253904997399822 ], [ -3.476743573153344, 40.253467802761868 ], [ -3.475263141218327, 40.253467802761868 ], [ -3.475263141218327, 40.253030605299436 ], [ -3.47378270928331, 40.253030605299436 ], [ -3.47378270928331, 40.252593405012497 ], [ -3.473042493315802, 40.252593405012497 ], [ -3.473042493315802, 40.252156201901066 ], [ -3.471562061380785, 40.252156201901066 ], [ -3.471562061380785, 40.251718995965156 ], [ -3.470081629445768, 40.251718995965156 ], [ -3.470081629445768, 40.251281787204768 ], [ -3.468601197510752, 40.251281787204768 ], [ -3.468601197510752, 40.250844575619915 ], [ -3.467860981543244, 40.250844575619915 ], [ -3.467860981543244, 40.249970143976832 ], [ -3.467120765575736, 40.249970143976832 ], [ -3.467120765575736, 40.248658475328888 ], [ -3.466380549608227, 40.248658475328888 ], [ -3.466380549608227, 40.246909544256376 ], [ -3.465640333640719, 40.246909544256376 ], [ -3.465640333640719, 40.24559781629582 ], [ -3.46490011767321, 40.24559781629582 ], [ -3.46490011767321, 40.243848806140534 ], [ -3.464159901705703, 40.243848806140534 ], [ -3.464159901705703, 40.241662479898736 ], [ -3.46490011767321, 40.241662479898736 ], [ -3.46490011767321, 40.240350650261888 ], [ -3.465640333640719, 40.240350650261888 ], [ -3.465640333640719, 40.239476083049205 ], [ -3.466380549608227, 40.239476083049205 ], [ -3.466380549608227, 40.238164211048165 ], [ -3.467120765575736, 40.238164211048165 ], [ -3.467120765575736, 40.237726914732633 ], [ -3.467860981543244, 40.237726914732633 ], [ -3.467860981543244, 40.237289615592864 ], [ -3.470821845413277, 40.237289615592864 ], [ -3.470821845413277, 40.236852313628852 ], [ -3.474522925250819, 40.236852313628852 ], [ -3.474522925250819, 40.236415008840616 ], [ -3.477483789120852, 40.236415008840616 ], [ -3.477483789120852, 40.236852313628852 ], [ -3.478964221055869, 40.236852313628852 ], [ -3.478964221055869, 40.237289615592864 ], [ -3.481184868958394, 40.237289615592864 ], [ -3.481184868958394, 40.237726914732633 ], [ -3.482665300893411, 40.237726914732633 ], [ -3.482665300893411, 40.238164211048165 ], [ -3.483405516860918, 40.238164211048165 ], [ -3.483405516860918, 40.239476083049205 ], [ -3.484145732828428, 40.239476083049205 ], [ -3.484145732828428, 40.240350650261888 ], [ -3.484885948795936, 40.240350650261888 ], [ -3.484885948795936, 40.241662479898736 ], [ -3.485626164763444, 40.241662479898736 ], [ -3.485626164763444, 40.242537018868425 ], [ -3.486366380730952, 40.242537018868425 ], [ -3.486366380730952, 40.243411546540848 ], [ -3.485626164763444, 40.243411546540848 ], [ -3.485626164763444, 40.247346781261115 ], [ -3.484885948795936, 40.247346781261115 ], [ -3.484885948795936, 40.250844575619915 ], [ -3.484145732828428, 40.250844575619915 ], [ -3.484145732828428, 40.251281787204768 ], [ -3.483405516860918, 40.251281787204768 ], [ -3.483405516860918, 40.252156201901066 ], [ -3.482665300893411, 40.252156201901066 ], [ -3.482665300893411, 40.252593405012497 ], [ -3.481925084925902, 40.252593405012497 ], [ -3.481925084925902, 40.253030605299436 ], [ -3.481184868958394, 40.253030605299436 ], [ -3.481184868958394, 40.253467802761868 ], [ -3.480444652990886, 40.253467802761868 ], [ -3.480444652990886, 40.253904997399822 ], [ -3.479704437023377, 40.253904997399822 ], [ -3.479704437023377, 40.25434218921324 ], [ -3.47822400508836, 40.25434218921324 ], [ -3.47822400508836, 40.253904997399822 ], [ -3.476743573153344, 40.253904997399822 ] ] ], [ [ [ -8.417685156271476, 40.294551751827093 ], [ -8.416944940303967, 40.294551751827093 ], [ -8.416944940303967, 40.294114819899406 ], [ -8.415464508368952, 40.294114819899406 ], [ -8.415464508368952, 40.292367063937036 ], [ -8.414724292401443, 40.292367063937036 ], [ -8.414724292401443, 40.290619262772367 ], [ -8.413984076433936, 40.290619262772367 ], [ -8.413984076433936, 40.289308382235163 ], [ -8.414724292401443, 40.289308382235163 ], [ -8.414724292401443, 40.287123524838051 ], [ -8.415464508368952, 40.287123524838051 ], [ -8.415464508368952, 40.2853755880693 ], [ -8.41620472433646, 40.2853755880693 ], [ -8.41620472433646, 40.284938596814541 ], [ -8.416944940303967, 40.284938596814541 ], [ -8.416944940303967, 40.284501602734736 ], [ -8.417685156271476, 40.284501602734736 ], [ -8.417685156271476, 40.284064605829919 ], [ -8.418425372238985, 40.284064605829919 ], [ -8.418425372238985, 40.283627606100119 ], [ -8.419165588206493, 40.283627606100119 ], [ -8.419165588206493, 40.2831906035453 ], [ -8.419905804174, 40.2831906035453 ], [ -8.419905804174, 40.282753598165492 ], [ -8.422866668044033, 40.282753598165492 ], [ -8.422866668044033, 40.2831906035453 ], [ -8.423606884011543, 40.2831906035453 ], [ -8.423606884011543, 40.283627606100119 ], [ -8.42434709997905, 40.283627606100119 ], [ -8.42434709997905, 40.284064605829919 ], [ -8.425087315946559, 40.284064605829919 ], [ -8.425087315946559, 40.284501602734736 ], [ -8.426567747881576, 40.284501602734736 ], [ -8.426567747881576, 40.2853755880693 ], [ -8.427307963849083, 40.2853755880693 ], [ -8.427307963849083, 40.287123524838051 ], [ -8.428048179816592, 40.287123524838051 ], [ -8.428048179816592, 40.289745345239332 ], [ -8.427307963849083, 40.289745345239332 ], [ -8.427307963849083, 40.291056217301232 ], [ -8.426567747881576, 40.291056217301232 ], [ -8.426567747881576, 40.292367063937036 ], [ -8.425827531914068, 40.292367063937036 ], [ -8.425827531914068, 40.29367788514655 ], [ -8.425087315946559, 40.29367788514655 ], [ -8.425087315946559, 40.294114819899406 ], [ -8.42434709997905, 40.294114819899406 ], [ -8.42434709997905, 40.294551751827093 ], [ -8.422866668044033, 40.294551751827093 ], [ -8.422866668044033, 40.294988680929592 ], [ -8.422126452076526, 40.294988680929592 ], [ -8.422126452076526, 40.295425607206923 ], [ -8.419165588206493, 40.295425607206923 ], [ -8.419165588206493, 40.294988680929592 ], [ -8.417685156271476, 40.294988680929592 ], [ -8.417685156271476, 40.294551751827093 ] ] ] ] } }
]
}
