{
"type": "FeatureCollection",
"name": "spain_fires_nrt_ba",
"crs": { "type": "name", "properties": { "name": "urn:ogc:def:crs:OGC:1.3:CRS84" } },
"features": [
{ "type": "Feature", "properties": { }, "geometry": { "type": "MultiPolygon", "coordinates": [ [ [ [ -1.344181370761832, 35.318018104095017 ], [ -1.344181370761832, 35.31755068166477 ], [ -1.343441154794324, 35.31755068166477 ], [ -1.343441154794324, 35.317083256532818 ], [ -1.342700938826815, 35.317083256532818 ], [ -1.342700938826815, 35.31661582869917 ], [ -1.341960722859307, 35.31661582869917 ], [ -1.341960722859307, 35.316148398163833 ], [ -1.341220506891799, 35.316148398163833 ], [ -1.341220506891799, 35.315680964926855 ], [ -1.34048029092429, 35.315680964926855 ], [ -1.34048029092429, 35.315213528988217 ], [ -1.339740074956782, 35.315213528988217 ], [ -1.339740074956782, 35.314746090347946 ], [ -1.338999858989274, 35.314746090347946 ], [ -1.338999858989274, 35.312876308770875 ], [ -1.338259643021765, 35.312876308770875 ], [ -1.338259643021765, 35.30960408700178 ], [ -1.338999858989274, 35.30960408700178 ], [ -1.338999858989274, 35.308201665721619 ], [ -1.339740074956782, 35.308201665721619 ], [ -1.339740074956782, 35.306799220128873 ], [ -1.34048029092429, 35.306799220128873 ], [ -1.34048029092429, 35.306331732861899 ], [ -1.341220506891799, 35.306331732861899 ], [ -1.341220506891799, 35.305864242893584 ], [ -1.341960722859307, 35.305864242893584 ], [ -1.341960722859307, 35.305396750223949 ], [ -1.343441154794324, 35.305396750223949 ], [ -1.343441154794324, 35.304929254853015 ], [ -1.34492158672934, 35.304929254853015 ], [ -1.34492158672934, 35.304461756780782 ], [ -1.346402018664357, 35.304461756780782 ], [ -1.346402018664357, 35.304929254853015 ], [ -1.347882450599374, 35.304929254853015 ], [ -1.347882450599374, 35.305396750223949 ], [ -1.348622666566882, 35.305396750223949 ], [ -1.348622666566882, 35.305864242893584 ], [ -1.350103098501899, 35.305864242893584 ], [ -1.350103098501899, 35.307734186558754 ], [ -1.350843314469407, 35.307734186558754 ], [ -1.350843314469407, 35.30960408700178 ], [ -1.351583530436915, 35.30960408700178 ], [ -1.351583530436915, 35.311473944221703 ], [ -1.352323746404424, 35.311473944221703 ], [ -1.352323746404424, 35.313343758217513 ], [ -1.351583530436915, 35.313343758217513 ], [ -1.351583530436915, 35.314746090347946 ], [ -1.350843314469407, 35.314746090347946 ], [ -1.350843314469407, 35.316148398163833 ], [ -1.350103098501899, 35.316148398163833 ], [ -1.350103098501899, 35.31661582869917 ], [ -1.34936288253439, 35.31661582869917 ], [ -1.34936288253439, 35.317083256532818 ], [ -1.348622666566882, 35.317083256532818 ], [ -1.348622666566882, 35.31755068166477 ], [ -1.347142234631865, 35.31755068166477 ], [ -1.347142234631865, 35.318018104095017 ], [ -1.346402018664357, 35.318018104095017 ], [ -1.346402018664357, 35.31848552382354 ], [ -1.34492158672934, 35.31848552382354 ], [ -1.34492158672934, 35.318018104095017 ], [ -1.344181370761832, 35.318018104095017 ] ] ], [ [ [ -1.900823778328099, 36.972128759221675 ], [ -1.900823778328099, 36.971671091079031 ], [ -1.900083562360591, 36.971671091079031 ], [ -1.900083562360591, 36.970755746537762 ], [ -1.899343346393083, 36.970755746537762 ], [ -1.899343346393083, 36.96984039098858 ], [ -1.898603130425575, 36.96984039098858 ], [ -1.898603130425575, 36.96480573870619 ], [ -1.899343346393083, 36.96480573870619 ], [ -1.899343346393083, 36.963890311608054 ], [ -1.900083562360591, 36.963890311608054 ], [ -1.900083562360591, 36.962974873502759 ], [ -1.900823778328099, 36.962974873502759 ], [ -1.900823778328099, 36.962059424390425 ], [ -1.901563994295608, 36.962059424390425 ], [ -1.901563994295608, 36.961143964271145 ], [ -1.902304210263116, 36.961143964271145 ], [ -1.902304210263116, 36.960228493144996 ], [ -1.904524858165641, 36.960228493144996 ], [ -1.904524858165641, 36.959770753454407 ], [ -1.906745506068166, 36.959770753454407 ], [ -1.906745506068166, 36.959313011012128 ], [ -1.908966153970691, 36.959313011012128 ], [ -1.908966153970691, 36.959770753454407 ], [ -1.9097063699382, 36.959770753454407 ], [ -1.9097063699382, 36.960228493144996 ], [ -1.910446585905708, 36.960228493144996 ], [ -1.910446585905708, 36.961143964271145 ], [ -1.911186801873216, 36.961143964271145 ], [ -1.911186801873216, 36.961601695706641 ], [ -1.911927017840724, 36.961601695706641 ], [ -1.911927017840724, 36.962059424390425 ], [ -1.912667233808233, 36.962059424390425 ], [ -1.912667233808233, 36.970298070139158 ], [ -1.911927017840724, 36.970298070139158 ], [ -1.911927017840724, 36.971213420184398 ], [ -1.911186801873216, 36.971213420184398 ], [ -1.911186801873216, 36.972128759221675 ], [ -1.910446585905708, 36.972128759221675 ], [ -1.910446585905708, 36.972586424612288 ], [ -1.9097063699382, 36.972586424612288 ], [ -1.9097063699382, 36.973044087250884 ], [ -1.90526507413315, 36.973044087250884 ], [ -1.90526507413315, 36.972586424612288 ], [ -1.901563994295608, 36.972586424612288 ], [ -1.901563994295608, 36.972128759221675 ], [ -1.900823778328099, 36.972128759221675 ] ] ], [ [ [ -4.043749004264727, 38.671160458825334 ], [ -4.04300878829722, 38.671160458825334 ], [ -4.04300878829722, 38.670265952167078 ], [ -4.042268572329712, 38.670265952167078 ], [ -4.042268572329712, 38.665345965770399 ], [ -4.04300878829722, 38.665345965770399 ], [ -4.04300878829722, 38.66489867751563 ], [ -4.043749004264727, 38.66489867751563 ], [ -4.043749004264727, 38.664004092624126 ], [ -4.044489220232236, 38.664004092624126 ], [ -4.044489220232236, 38.663556795987432 ], [ -4.045229436199745, 38.663556795987432 ], [ -4.045229436199745, 38.663109496556771 ], [ -4.045969652167253, 38.663109496556771 ], [ -4.045969652167253, 38.662214889313624 ], [ -4.046709868134761, 38.662214889313624 ], [ -4.046709868134761, 38.661767581501152 ], [ -4.04745008410227, 38.661767581501152 ], [ -4.04745008410227, 38.660872957494476 ], [ -4.048190300069779, 38.660872957494476 ], [ -4.048190300069779, 38.660425641300293 ], [ -4.048930516037286, 38.660425641300293 ], [ -4.048930516037286, 38.659978322312213 ], [ -4.054112027809845, 38.659978322312213 ], [ -4.054112027809845, 38.660425641300293 ], [ -4.054852243777353, 38.660425641300293 ], [ -4.054852243777353, 38.660872957494476 ], [ -4.055592459744862, 38.660872957494476 ], [ -4.055592459744862, 38.66132027089477 ], [ -4.05633267571237, 38.66132027089477 ], [ -4.05633267571237, 38.661767581501152 ], [ -4.057072891679878, 38.661767581501152 ], [ -4.057072891679878, 38.662214889313624 ], [ -4.057813107647386, 38.662214889313624 ], [ -4.057813107647386, 38.664004092624126 ], [ -4.058553323614895, 38.664004092624126 ], [ -4.058553323614895, 38.667582365134152 ], [ -4.059293539582403, 38.667582365134152 ], [ -4.059293539582403, 38.668029636624809 ], [ -4.058553323614895, 38.668029636624809 ], [ -4.058553323614895, 38.668924171223956 ], [ -4.057813107647386, 38.668924171223956 ], [ -4.057813107647386, 38.6698186946468 ], [ -4.057072891679878, 38.6698186946468 ], [ -4.057072891679878, 38.670713206893261 ], [ -4.05633267571237, 38.670713206893261 ], [ -4.05633267571237, 38.671160458825334 ], [ -4.054852243777353, 38.671160458825334 ], [ -4.054852243777353, 38.671607707963283 ], [ -4.052631595874828, 38.671607707963283 ], [ -4.052631595874828, 38.6720549543071 ], [ -4.049670732004794, 38.6720549543071 ], [ -4.049670732004794, 38.672502197856772 ], [ -4.04745008410227, 38.672502197856772 ], [ -4.04745008410227, 38.672949438612285 ], [ -4.045229436199745, 38.672949438612285 ], [ -4.045229436199745, 38.672502197856772 ], [ -4.044489220232236, 38.672502197856772 ], [ -4.044489220232236, 38.6720549543071 ], [ -4.043749004264727, 38.6720549543071 ], [ -4.043749004264727, 38.671160458825334 ] ] ], [ [ [ -3.970467623481403, 38.678316109731114 ], [ -3.969727407513894, 38.678316109731114 ], [ -3.969727407513894, 38.677868902506191 ], [ -3.968987191546386, 38.677868902506191 ], [ -3.968987191546386, 38.675632824467677 ], [ -3.968246975578877, 38.675632824467677 ], [ -3.968246975578877, 38.67339667657366 ], [ -3.96750675961137, 38.67339667657366 ], [ -3.96750675961137, 38.671607707963283 ], [ -3.966766543643861, 38.671607707963283 ], [ -3.966766543643861, 38.670265952167078 ], [ -3.96750675961137, 38.670265952167078 ], [ -3.96750675961137, 38.668476905321405 ], [ -3.968246975578877, 38.668476905321405 ], [ -3.968246975578877, 38.667135090849449 ], [ -3.968987191546386, 38.667135090849449 ], [ -3.968987191546386, 38.666687813770714 ], [ -3.970467623481403, 38.666687813770714 ], [ -3.970467623481403, 38.666240533897948 ], [ -3.972688271383928, 38.666240533897948 ], [ -3.972688271383928, 38.665793251231186 ], [ -3.974168703318945, 38.665793251231186 ], [ -3.974168703318945, 38.665345965770399 ], [ -3.976389351221469, 38.665345965770399 ], [ -3.976389351221469, 38.66489867751563 ], [ -3.977869783156486, 38.66489867751563 ], [ -3.977869783156486, 38.664451386466865 ], [ -3.980090431059011, 38.664451386466865 ], [ -3.980090431059011, 38.664004092624126 ], [ -3.983051294929045, 38.664004092624126 ], [ -3.983051294929045, 38.664451386466865 ], [ -3.983791510896553, 38.664451386466865 ], [ -3.983791510896553, 38.66489867751563 ], [ -3.984531726864061, 38.66489867751563 ], [ -3.984531726864061, 38.665345965770399 ], [ -3.98527194283157, 38.665345965770399 ], [ -3.98527194283157, 38.665793251231186 ], [ -3.986012158799078, 38.665793251231186 ], [ -3.986012158799078, 38.666240533897948 ], [ -3.986752374766586, 38.666240533897948 ], [ -3.986752374766586, 38.667135090849449 ], [ -3.987492590734095, 38.667135090849449 ], [ -3.987492590734095, 38.669371434332412 ], [ -3.988232806701603, 38.669371434332412 ], [ -3.988232806701603, 38.674291144113845 ], [ -3.987492590734095, 38.674291144113845 ], [ -3.987492590734095, 38.676080045663852 ], [ -3.986752374766586, 38.676080045663852 ], [ -3.986752374766586, 38.676527264065811 ], [ -3.986012158799078, 38.676527264065811 ], [ -3.986012158799078, 38.676974479673518 ], [ -3.983791510896553, 38.676974479673518 ], [ -3.983791510896553, 38.677421692486988 ], [ -3.982311078961537, 38.677421692486988 ], [ -3.982311078961537, 38.677868902506191 ], [ -3.980090431059011, 38.677868902506191 ], [ -3.980090431059011, 38.678316109731114 ], [ -3.978609999123995, 38.678316109731114 ], [ -3.978609999123995, 38.67876331416177 ], [ -3.976389351221469, 38.67876331416177 ], [ -3.976389351221469, 38.679210515798125 ], [ -3.974908919286453, 38.679210515798125 ], [ -3.974908919286453, 38.679657714640193 ], [ -3.972688271383928, 38.679657714640193 ], [ -3.972688271383928, 38.679210515798125 ], [ -3.971948055416419, 38.679210515798125 ], [ -3.971948055416419, 38.67876331416177 ], [ -3.970467623481403, 38.67876331416177 ], [ -3.970467623481403, 38.678316109731114 ] ] ], [ [ [ -3.743961537423853, 39.943664714484513 ], [ -3.743961537423853, 39.943225521943617 ], [ -3.743221321456344, 39.943225521943617 ], [ -3.743221321456344, 39.942786326583487 ], [ -3.741740889521328, 39.942786326583487 ], [ -3.741740889521328, 39.942347128404151 ], [ -3.741000673553819, 39.942347128404151 ], [ -3.741000673553819, 39.941907927405616 ], [ -3.740260457586311, 39.941907927405616 ], [ -3.740260457586311, 39.940151095219512 ], [ -3.739520241618802, 39.940151095219512 ], [ -3.739520241618802, 39.937515762365443 ], [ -3.738780025651294, 39.937515762365443 ], [ -3.738780025651294, 39.93400182735607 ], [ -3.739520241618802, 39.93400182735607 ], [ -3.739520241618802, 39.932244792193679 ], [ -3.740260457586311, 39.932244792193679 ], [ -3.740260457586311, 39.931805526355475 ], [ -3.741000673553819, 39.931805526355475 ], [ -3.741000673553819, 39.931366257698258 ], [ -3.742481105488836, 39.931366257698258 ], [ -3.742481105488836, 39.930926986222019 ], [ -3.743221321456344, 39.930926986222019 ], [ -3.743221321456344, 39.93048771192678 ], [ -3.744701753391361, 39.93048771192678 ], [ -3.744701753391361, 39.930048434812555 ], [ -3.746922401293885, 39.930048434812555 ], [ -3.746922401293885, 39.93048771192678 ], [ -3.748402833228903, 39.93048771192678 ], [ -3.748402833228903, 39.930926986222019 ], [ -3.749143049196411, 39.930926986222019 ], [ -3.749143049196411, 39.931366257698258 ], [ -3.749883265163919, 39.931366257698258 ], [ -3.749883265163919, 39.931805526355475 ], [ -3.750623481131427, 39.931805526355475 ], [ -3.750623481131427, 39.93400182735607 ], [ -3.751363697098936, 39.93400182735607 ], [ -3.751363697098936, 39.936198057880134 ], [ -3.752103913066444, 39.936198057880134 ], [ -3.752103913066444, 39.938833441478643 ], [ -3.752844129033953, 39.938833441478643 ], [ -3.752844129033953, 39.939711880125053 ], [ -3.752103913066444, 39.939711880125053 ], [ -3.752103913066444, 39.941468723587867 ], [ -3.751363697098936, 39.941468723587867 ], [ -3.751363697098936, 39.942786326583487 ], [ -3.750623481131427, 39.942786326583487 ], [ -3.750623481131427, 39.943225521943617 ], [ -3.749883265163919, 39.943225521943617 ], [ -3.749883265163919, 39.943664714484513 ], [ -3.749143049196411, 39.943664714484513 ], [ -3.749143049196411, 39.944103904206173 ], [ -3.747662617261394, 39.944103904206173 ], [ -3.747662617261394, 39.944543091108599 ], [ -3.746182185326378, 39.944543091108599 ], [ -3.746182185326378, 39.944103904206173 ], [ -3.744701753391361, 39.944103904206173 ], [ -3.744701753391361, 39.943664714484513 ], [ -3.743961537423853, 39.943664714484513 ] ] ], [ [ [ -3.471562061380785, 40.253467802761868 ], [ -3.471562061380785, 40.253030605299436 ], [ -3.470821845413277, 40.253030605299436 ], [ -3.470821845413277, 40.252593405012497 ], [ -3.470081629445768, 40.252593405012497 ], [ -3.470081629445768, 40.252156201901066 ], [ -3.469341413478261, 40.252156201901066 ], [ -3.469341413478261, 40.251281787204768 ], [ -3.468601197510752, 40.251281787204768 ], [ -3.468601197510752, 40.250844575619915 ], [ -3.467860981543244, 40.250844575619915 ], [ -3.467860981543244, 40.249970143976832 ], [ -3.467120765575736, 40.249970143976832 ], [ -3.467120765575736, 40.248658475328888 ], [ -3.466380549608227, 40.248658475328888 ], [ -3.466380549608227, 40.246909544256376 ], [ -3.465640333640719, 40.246909544256376 ], [ -3.465640333640719, 40.24559781629582 ], [ -3.46490011767321, 40.24559781629582 ], [ -3.46490011767321, 40.243848806140534 ], [ -3.464159901705703, 40.243848806140534 ], [ -3.464159901705703, 40.241662479898736 ], [ -3.46490011767321, 40.241662479898736 ], [ -3.46490011767321, 40.240350650261888 ], [ -3.465640333640719, 40.240350650261888 ], [ -3.465640333640719, 40.239476083049205 ], [ -3.466380549608227, 40.239476083049205 ], [ -3.466380549608227, 40.238164211048165 ], [ -3.467120765575736, 40.238164211048165 ], [ -3.467120765575736, 40.237726914732633 ], [ -3.467860981543244, 40.237726914732633 ], [ -3.467860981543244, 40.237289615592864 ], [ -3.470081629445768, 40.237289615592864 ], [ -3.470081629445768, 40.236852313628852 ], [ -3.472302277348294, 40.236852313628852 ], [ -3.472302277348294, 40.236415008840616 ], [ -3.476003357185836, 40.236415008840616 ], [ -3.476003357185836, 40.236852313628852 ], [ -3.47822400508836, 40.236852313628852 ], [ -3.47822400508836, 40.237289615592864 ], [ -3.480444652990886, 40.237289615592864 ], [ -3.480444652990886, 40.237726914732633 ], [ -3.482665300893411, 40.237726914732633 ], [ -3.482665300893411, 40.238164211048165 ], [ -3.483405516860918, 40.238164211048165 ], [ -3.483405516860918, 40.239038795206454 ], [ -3.484145732828428, 40.239038795206454 ], [ -3.484145732828428, 40.240350650261888 ], [ -3.484885948795936, 40.240350650261888 ], [ -3.484885948795936, 40.241225206177418 ], [ -3.485626164763444, 40.241225206177418 ], [ -3.485626164763444, 40.242099750795745 ], [ -3.486366380730952, 40.242099750795745 ], [ -3.486366380730952, 40.248221246797378 ], [ -3.485626164763444, 40.248221246797378 ], [ -3.485626164763444, 40.249532923918622 ], [ -3.484885948795936, 40.249532923918622 ], [ -3.484885948795936, 40.250844575619915 ], [ -3.484145732828428, 40.250844575619915 ], [ -3.484145732828428, 40.251281787204768 ], [ -3.483405516860918, 40.251281787204768 ], [ -3.483405516860918, 40.252156201901066 ], [ -3.482665300893411, 40.252156201901066 ], [ -3.482665300893411, 40.252593405012497 ], [ -3.481925084925902, 40.252593405012497 ], [ -3.481925084925902, 40.253030605299436 ], [ -3.481184868958394, 40.253030605299436 ], [ -3.481184868958394, 40.253467802761868 ], [ -3.480444652990886, 40.253467802761868 ], [ -3.480444652990886, 40.253904997399822 ], [ -3.479704437023377, 40.253904997399822 ], [ -3.479704437023377, 40.25434218921324 ], [ -3.477483789120852, 40.25434218921324 ], [ -3.477483789120852, 40.253904997399822 ], [ -3.474522925250819, 40.253904997399822 ], [ -3.474522925250819, 40.253467802761868 ], [ -3.471562061380785, 40.253467802761868 ] ] ], [ [ [ -5.724039250508648, 43.535697187634213 ], [ -5.724039250508648, 43.534866610620547 ], [ -5.723299034541139, 43.534866610620547 ], [ -5.723299034541139, 43.53403602216698 ], [ -5.72255881857363, 43.53403602216698 ], [ -5.72255881857363, 43.533205422273518 ], [ -5.721818602606122, 43.533205422273518 ], [ -5.721818602606122, 43.531959500983589 ], [ -5.721078386638613, 43.531959500983589 ], [ -5.721078386638613, 43.531128872490477 ], [ -5.720338170671106, 43.531128872490477 ], [ -5.720338170671106, 43.521991204041377 ], [ -5.721078386638613, 43.521991204041377 ], [ -5.721078386638613, 43.520745051096618 ], [ -5.721818602606122, 43.520745051096618 ], [ -5.721818602606122, 43.519914268167263 ], [ -5.72255881857363, 43.519914268167263 ], [ -5.72255881857363, 43.519083473798304 ], [ -5.723299034541139, 43.519083473798304 ], [ -5.723299034541139, 43.517837260795666 ], [ -5.724039250508648, 43.517837260795666 ], [ -5.724039250508648, 43.51742185074167 ], [ -5.724779466476156, 43.51742185074167 ], [ -5.724779466476156, 43.517006437827789 ], [ -5.737363137923798, 43.517006437827789 ], [ -5.737363137923798, 43.51742185074167 ], [ -5.738103353891305, 43.51742185074167 ], [ -5.738103353891305, 43.517837260795666 ], [ -5.738843569858814, 43.517837260795666 ], [ -5.738843569858814, 43.518252667989771 ], [ -5.739583785826321, 43.518252667989771 ], [ -5.739583785826321, 43.518668072323983 ], [ -5.74032400179383, 43.518668072323983 ], [ -5.74032400179383, 43.520745051096618 ], [ -5.741064217761339, 43.520745051096618 ], [ -5.741064217761339, 43.523652701262279 ], [ -5.741804433728848, 43.523652701262279 ], [ -5.741804433728848, 43.526560211291923 ], [ -5.742544649696356, 43.526560211291923 ], [ -5.742544649696356, 43.529467581184797 ], [ -5.741804433728848, 43.529467581184797 ], [ -5.741804433728848, 43.530298232557548 ], [ -5.741064217761339, 43.530298232557548 ], [ -5.741064217761339, 43.531128872490477 ], [ -5.74032400179383, 43.531128872490477 ], [ -5.74032400179383, 43.531959500983589 ], [ -5.73662292195629, 43.531959500983589 ], [ -5.73662292195629, 43.53237481094019 ], [ -5.73588270598878, 43.53237481094019 ], [ -5.73588270598878, 43.533620723650237 ], [ -5.735142490021273, 43.533620723650237 ], [ -5.735142490021273, 43.534451317823752 ], [ -5.734402274053765, 43.534451317823752 ], [ -5.734402274053765, 43.535281900557365 ], [ -5.733662058086256, 43.535281900557365 ], [ -5.733662058086256, 43.536112471851069 ], [ -5.732921842118747, 43.536112471851069 ], [ -5.732921842118747, 43.536527753207956 ], [ -5.727000114378681, 43.536527753207956 ], [ -5.727000114378681, 43.536943031704851 ], [ -5.725519682443664, 43.536943031704851 ], [ -5.725519682443664, 43.536527753207956 ], [ -5.724779466476156, 43.536527753207956 ], [ -5.724779466476156, 43.535697187634213 ], [ -5.724039250508648, 43.535697187634213 ] ] ], [ [ [ -5.826189054024797, 43.547324064625933 ], [ -5.826189054024797, 43.546908857629347 ], [ -5.82544883805729, 43.546908857629347 ], [ -5.82544883805729, 43.546493647772721 ], [ -5.824708622089781, 43.546493647772721 ], [ -5.824708622089781, 43.545663219479366 ], [ -5.823968406122273, 43.545663219479366 ], [ -5.823968406122273, 43.544832779745889 ], [ -5.823228190154764, 43.544832779745889 ], [ -5.823228190154764, 43.536527753207956 ], [ -5.822487974187256, 43.536527753207956 ], [ -5.822487974187256, 43.534451317823752 ], [ -5.823228190154764, 43.534451317823752 ], [ -5.823228190154764, 43.533620723650237 ], [ -5.823968406122273, 43.533620723650237 ], [ -5.823968406122273, 43.532790118036843 ], [ -5.824708622089781, 43.532790118036843 ], [ -5.824708622089781, 43.53237481094019 ], [ -5.82544883805729, 43.53237481094019 ], [ -5.82544883805729, 43.531544188167018 ], [ -5.829890133862339, 43.531544188167018 ], [ -5.829890133862339, 43.531959500983589 ], [ -5.835811861602406, 43.531959500983589 ], [ -5.835811861602406, 43.53237481094019 ], [ -5.836552077569914, 43.53237481094019 ], [ -5.836552077569914, 43.533205422273518 ], [ -5.837292293537423, 43.533205422273518 ], [ -5.837292293537423, 43.534866610620547 ], [ -5.838032509504931, 43.534866610620547 ], [ -5.838032509504931, 43.536112471851069 ], [ -5.83877272547244, 43.536112471851069 ], [ -5.83877272547244, 43.537358307341755 ], [ -5.839512941439948, 43.537358307341755 ], [ -5.839512941439948, 43.54192615058799 ], [ -5.83877272547244, 43.54192615058799 ], [ -5.83877272547244, 43.545663219479366 ], [ -5.838032509504931, 43.545663219479366 ], [ -5.838032509504931, 43.546493647772721 ], [ -5.837292293537423, 43.546493647772721 ], [ -5.837292293537423, 43.547324064625933 ], [ -5.836552077569914, 43.547324064625933 ], [ -5.836552077569914, 43.54815447003898 ], [ -5.832110781764865, 43.54815447003898 ], [ -5.832110781764865, 43.54773926876247 ], [ -5.828409701927322, 43.54773926876247 ], [ -5.828409701927322, 43.547324064625933 ], [ -5.826189054024797, 43.547324064625933 ] ] ], [ [ [ -0.271608433842256, 35.536941188629832 ], [ -0.270868217874747, 35.536941188629832 ], [ -0.270868217874747, 35.536008878650335 ], [ -0.270128001907239, 35.536008878650335 ], [ -0.270128001907239, 35.534144226185013 ], [ -0.269387785939731, 35.534144226185013 ], [ -0.269387785939731, 35.532279530378716 ], [ -0.268647569972222, 35.532279530378716 ], [ -0.268647569972222, 35.530414791232431 ], [ -0.267907354004714, 35.530414791232431 ], [ -0.267907354004714, 35.529482405407087 ], [ -0.268647569972222, 35.529482405407087 ], [ -0.268647569972222, 35.527617601252622 ], [ -0.269387785939731, 35.527617601252622 ], [ -0.269387785939731, 35.52621896969643 ], [ -0.270128001907239, 35.52621896969643 ], [ -0.270128001907239, 35.525752753760564 ], [ -0.270868217874747, 35.525752753760564 ], [ -0.270868217874747, 35.524820313763243 ], [ -0.271608433842256, 35.524820313763243 ], [ -0.271608433842256, 35.524354089701824 ], [ -0.272348649809764, 35.524354089701824 ], [ -0.272348649809764, 35.523887862931907 ], [ -0.273088865777272, 35.523887862931907 ], [ -0.273088865777272, 35.522955401266628 ], [ -0.273829081744781, 35.522955401266628 ], [ -0.273829081744781, 35.522489166371336 ], [ -0.282711673354881, 35.522489166371336 ], [ -0.282711673354881, 35.523421633453495 ], [ -0.283451889322389, 35.523421633453495 ], [ -0.283451889322389, 35.524354089701824 ], [ -0.284192105289897, 35.524354089701824 ], [ -0.284192105289897, 35.525286535116166 ], [ -0.284932321257406, 35.525286535116166 ], [ -0.284932321257406, 35.526685182923728 ], [ -0.285672537224914, 35.526685182923728 ], [ -0.285672537224914, 35.528550008747118 ], [ -0.284932321257406, 35.528550008747118 ], [ -0.284932321257406, 35.5299485996741 ], [ -0.284192105289897, 35.5299485996741 ], [ -0.284192105289897, 35.531347166223014 ], [ -0.283451889322389, 35.531347166223014 ], [ -0.283451889322389, 35.532745708393463 ], [ -0.282711673354881, 35.532745708393463 ], [ -0.282711673354881, 35.534144226185013 ], [ -0.281971457387372, 35.534144226185013 ], [ -0.281971457387372, 35.535542719597274 ], [ -0.281231241419864, 35.535542719597274 ], [ -0.281231241419864, 35.536941188629832 ], [ -0.279750809484847, 35.536941188629832 ], [ -0.279750809484847, 35.537407339556246 ], [ -0.278270377549831, 35.537407339556246 ], [ -0.278270377549831, 35.537873487773723 ], [ -0.276049729647306, 35.537873487773723 ], [ -0.276049729647306, 35.538339633282277 ], [ -0.273829081744781, 35.538339633282277 ], [ -0.273829081744781, 35.537873487773723 ], [ -0.273088865777272, 35.537873487773723 ], [ -0.273088865777272, 35.537407339556246 ], [ -0.271608433842256, 35.537407339556246 ], [ -0.271608433842256, 35.536941188629832 ] ] ], [ [ [ -0.257544330459597, 35.774790994830965 ], [ -0.256804114492089, 35.774790994830965 ], [ -0.256804114492089, 35.773861457243981 ], [ -0.256063898524581, 35.773861457243981 ], [ -0.256063898524581, 35.773396684375754 ], [ -0.255323682557072, 35.773396684375754 ], [ -0.255323682557072, 35.772467130489886 ], [ -0.254583466589564, 35.772467130489886 ], [ -0.254583466589564, 35.770607990120908 ], [ -0.253843250622056, 35.770607990120908 ], [ -0.253843250622056, 35.766889578997329 ], [ -0.253103034654547, 35.766889578997329 ], [ -0.253103034654547, 35.762706158689063 ], [ -0.253843250622056, 35.762706158689063 ], [ -0.253843250622056, 35.762241320629499 ], [ -0.254583466589564, 35.762241320629499 ], [ -0.254583466589564, 35.7617764798538 ], [ -0.255323682557072, 35.7617764798538 ], [ -0.255323682557072, 35.760846790154098 ], [ -0.256063898524581, 35.760846790154098 ], [ -0.256063898524581, 35.760381941230115 ], [ -0.256804114492089, 35.760381941230115 ], [ -0.256804114492089, 35.759917089590083 ], [ -0.257544330459597, 35.759917089590083 ], [ -0.257544330459597, 35.759452235233987 ], [ -0.258284546427106, 35.759452235233987 ], [ -0.258284546427106, 35.758987378161876 ], [ -0.259024762394614, 35.758987378161876 ], [ -0.259024762394614, 35.759452235233987 ], [ -0.259764978362122, 35.759452235233987 ], [ -0.259764978362122, 35.759917089590083 ], [ -0.260505194329631, 35.759917089590083 ], [ -0.260505194329631, 35.760381941230115 ], [ -0.261245410297139, 35.760381941230115 ], [ -0.261245410297139, 35.760846790154098 ], [ -0.261985626264647, 35.760846790154098 ], [ -0.261985626264647, 35.761311636361988 ], [ -0.262725842232156, 35.761311636361988 ], [ -0.262725842232156, 35.7617764798538 ], [ -0.263466058199664, 35.7617764798538 ], [ -0.263466058199664, 35.762241320629499 ], [ -0.264206274167172, 35.762241320629499 ], [ -0.264206274167172, 35.759452235233987 ], [ -0.264946490134681, 35.759452235233987 ], [ -0.264946490134681, 35.758987378161876 ], [ -0.265686706102189, 35.758987378161876 ], [ -0.265686706102189, 35.758057655869585 ], [ -0.266426922069697, 35.758057655869585 ], [ -0.266426922069697, 35.757592790649454 ], [ -0.267167138037206, 35.757592790649454 ], [ -0.267167138037206, 35.757127922713345 ], [ -0.267907354004714, 35.757127922713345 ], [ -0.267907354004714, 35.756663052061278 ], [ -0.272348649809764, 35.756663052061278 ], [ -0.272348649809764, 35.757127922713345 ], [ -0.273088865777272, 35.757127922713345 ], [ -0.273088865777272, 35.757592790649454 ], [ -0.273829081744781, 35.757592790649454 ], [ -0.273829081744781, 35.758522518373731 ], [ -0.274569297712289, 35.758522518373731 ], [ -0.274569297712289, 35.758987378161876 ], [ -0.275309513679797, 35.758987378161876 ], [ -0.275309513679797, 35.759452235233987 ], [ -0.276049729647306, 35.759452235233987 ], [ -0.276049729647306, 35.760381941230115 ], [ -0.276789945614814, 35.760381941230115 ], [ -0.276789945614814, 35.760846790154098 ], [ -0.277530161582322, 35.760846790154098 ], [ -0.277530161582322, 35.766424765383512 ], [ -0.276789945614814, 35.766424765383512 ], [ -0.276789945614814, 35.766889578997329 ], [ -0.276049729647306, 35.766889578997329 ], [ -0.276049729647306, 35.76781919807614 ], [ -0.275309513679797, 35.76781919807614 ], [ -0.275309513679797, 35.768284003541098 ], [ -0.274569297712289, 35.768284003541098 ], [ -0.274569297712289, 35.772467130489886 ], [ -0.273829081744781, 35.772467130489886 ], [ -0.273829081744781, 35.772931908791044 ], [ -0.273088865777272, 35.772931908791044 ], [ -0.273088865777272, 35.773396684375754 ], [ -0.272348649809764, 35.773396684375754 ], [ -0.272348649809764, 35.773861457243981 ], [ -0.271608433842256, 35.773861457243981 ], [ -0.271608433842256, 35.774326227395719 ], [ -0.270868217874747, 35.774326227395719 ], [ -0.270868217874747, 35.774790994830965 ], [ -0.270128001907239, 35.774790994830965 ], [ -0.270128001907239, 35.775255759549673 ], [ -0.269387785939731, 35.775255759549673 ], [ -0.269387785939731, 35.775720521551847 ], [ -0.268647569972222, 35.775720521551847 ], [ -0.268647569972222, 35.776185280837481 ], [ -0.265686706102189, 35.776185280837481 ], [ -0.265686706102189, 35.775720521551847 ], [ -0.261985626264647, 35.775720521551847 ], [ -0.261985626264647, 35.775255759549673 ], [ -0.257544330459597, 35.775255759549673 ], [ -0.257544330459597, 35.774790994830965 ] ] ], [ [ [ -0.276789945614814, 35.824505411354338 ], [ -0.276049729647306, 35.824505411354338 ], [ -0.276049729647306, 35.824040934669902 ], [ -0.273088865777272, 35.824040934669902 ], [ -0.273088865777272, 35.8235764552674 ], [ -0.268647569972222, 35.8235764552674 ], [ -0.268647569972222, 35.82311197314683 ], [ -0.264946490134681, 35.82311197314683 ], [ -0.264946490134681, 35.822647488308213 ], [ -0.264206274167172, 35.822647488308213 ], [ -0.264206274167172, 35.822183000751579 ], [ -0.262725842232156, 35.822183000751579 ], [ -0.262725842232156, 35.821718510476927 ], [ -0.261245410297139, 35.821718510476927 ], [ -0.261245410297139, 35.821254017484272 ], [ -0.260505194329631, 35.821254017484272 ], [ -0.260505194329631, 35.820789521773627 ], [ -0.259024762394614, 35.820789521773627 ], [ -0.259024762394614, 35.820325023345006 ], [ -0.257544330459597, 35.820325023345006 ], [ -0.257544330459597, 35.819860522198454 ], [ -0.256804114492089, 35.819860522198454 ], [ -0.256804114492089, 35.81939601833394 ], [ -0.255323682557072, 35.81939601833394 ], [ -0.255323682557072, 35.818931511751508 ], [ -0.253843250622056, 35.818931511751508 ], [ -0.253843250622056, 35.818467002451158 ], [ -0.253103034654547, 35.818467002451158 ], [ -0.253103034654547, 35.818002490432896 ], [ -0.251622602719531, 35.818002490432896 ], [ -0.251622602719531, 35.81753797569678 ], [ -0.250142170784514, 35.81753797569678 ], [ -0.250142170784514, 35.817073458242774 ], [ -0.249401954817006, 35.817073458242774 ], [ -0.249401954817006, 35.816608938070921 ], [ -0.247921522881989, 35.816608938070921 ], [ -0.247921522881989, 35.817073458242774 ], [ -0.247181306914481, 35.817073458242774 ], [ -0.247181306914481, 35.81753797569678 ], [ -0.245700874979464, 35.81753797569678 ], [ -0.245700874979464, 35.818002490432896 ], [ -0.244960659011956, 35.818002490432896 ], [ -0.244960659011956, 35.818467002451158 ], [ -0.244220443044447, 35.818467002451158 ], [ -0.244220443044447, 35.818931511751508 ], [ -0.242740011109431, 35.818931511751508 ], [ -0.242740011109431, 35.81939601833394 ], [ -0.239779147239397, 35.81939601833394 ], [ -0.239779147239397, 35.818931511751508 ], [ -0.237558499336872, 35.818931511751508 ], [ -0.237558499336872, 35.818467002451158 ], [ -0.236078067401856, 35.818467002451158 ], [ -0.236078067401856, 35.818002490432896 ], [ -0.234597635466839, 35.818002490432896 ], [ -0.234597635466839, 35.81753797569678 ], [ -0.232376987564314, 35.81753797569678 ], [ -0.232376987564314, 35.817073458242774 ], [ -0.231636771596806, 35.817073458242774 ], [ -0.231636771596806, 35.816144415181228 ], [ -0.230896555629297, 35.816144415181228 ], [ -0.230896555629297, 35.815215361248384 ], [ -0.230156339661789, 35.815215361248384 ], [ -0.230156339661789, 35.814286296444358 ], [ -0.229416123694281, 35.814286296444358 ], [ -0.229416123694281, 35.813821759965677 ], [ -0.228675907726772, 35.813821759965677 ], [ -0.228675907726772, 35.813357220769255 ], [ -0.227195475791756, 35.813357220769255 ], [ -0.227195475791756, 35.812892678855093 ], [ -0.225715043856739, 35.812892678855093 ], [ -0.225715043856739, 35.812428134223211 ], [ -0.224234611921722, 35.812428134223211 ], [ -0.224234611921722, 35.810569928518746 ], [ -0.223494395954214, 35.810569928518746 ], [ -0.223494395954214, 35.805924224024189 ], [ -0.224234611921722, 35.805924224024189 ], [ -0.224234611921722, 35.803601269869652 ], [ -0.224974827889231, 35.803601269869652 ], [ -0.224974827889231, 35.803136670886389 ], [ -0.225715043856739, 35.803136670886389 ], [ -0.225715043856739, 35.80220746476764 ], [ -0.226455259824247, 35.80220746476764 ], [ -0.226455259824247, 35.801742857632192 ], [ -0.227195475791756, 35.801742857632192 ], [ -0.227195475791756, 35.801278247779365 ], [ -0.227935691759264, 35.801278247779365 ], [ -0.227935691759264, 35.800813635209181 ], [ -0.230896555629297, 35.800813635209181 ], [ -0.230896555629297, 35.800349019921647 ], [ -0.233117203531822, 35.800349019921647 ], [ -0.233117203531822, 35.799884401916799 ], [ -0.234597635466839, 35.799884401916799 ], [ -0.234597635466839, 35.800349019921647 ], [ -0.235337851434347, 35.800349019921647 ], [ -0.235337851434347, 35.800813635209181 ], [ -0.236078067401856, 35.800813635209181 ], [ -0.236078067401856, 35.801278247779365 ], [ -0.236818283369364, 35.801278247779365 ], [ -0.236818283369364, 35.801742857632192 ], [ -0.238298715304381, 35.801742857632192 ], [ -0.238298715304381, 35.800813635209181 ], [ -0.239038931271889, 35.800813635209181 ], [ -0.239038931271889, 35.799419781194644 ], [ -0.239779147239397, 35.799419781194644 ], [ -0.239779147239397, 35.798025902724412 ], [ -0.240519363206906, 35.798025902724412 ], [ -0.240519363206906, 35.797561271133148 ], [ -0.243480227076939, 35.797561271133148 ], [ -0.243480227076939, 35.798025902724412 ], [ -0.245700874979464, 35.798025902724412 ], [ -0.245700874979464, 35.798490531598425 ], [ -0.247921522881989, 35.798490531598425 ], [ -0.247921522881989, 35.798955157755167 ], [ -0.248661738849497, 35.798955157755167 ], [ -0.248661738849497, 35.798490531598425 ], [ -0.249401954817006, 35.798490531598425 ], [ -0.249401954817006, 35.798025902724412 ], [ -0.250142170784514, 35.798025902724412 ], [ -0.250142170784514, 35.797561271133148 ], [ -0.250882386752022, 35.797561271133148 ], [ -0.250882386752022, 35.797096636824634 ], [ -0.251622602719531, 35.797096636824634 ], [ -0.251622602719531, 35.796631999798905 ], [ -0.252362818687039, 35.796631999798905 ], [ -0.252362818687039, 35.796167360055968 ], [ -0.253103034654547, 35.796167360055968 ], [ -0.253103034654547, 35.79570271759583 ], [ -0.254583466589564, 35.79570271759583 ], [ -0.254583466589564, 35.796167360055968 ], [ -0.255323682557072, 35.796167360055968 ], [ -0.255323682557072, 35.796631999798905 ], [ -0.256804114492089, 35.796631999798905 ], [ -0.256804114492089, 35.797096636824634 ], [ -0.259764978362122, 35.797096636824634 ], [ -0.259764978362122, 35.796631999798905 ], [ -0.263466058199664, 35.796631999798905 ], [ -0.263466058199664, 35.797096636824634 ], [ -0.264206274167172, 35.797096636824634 ], [ -0.264206274167172, 35.797561271133148 ], [ -0.264946490134681, 35.797561271133148 ], [ -0.264946490134681, 35.798490531598425 ], [ -0.265686706102189, 35.798490531598425 ], [ -0.265686706102189, 35.798955157755167 ], [ -0.266426922069697, 35.798955157755167 ], [ -0.266426922069697, 35.799419781194644 ], [ -0.267167138037206, 35.799419781194644 ], [ -0.267167138037206, 35.799884401916799 ], [ -0.267907354004714, 35.799884401916799 ], [ -0.267907354004714, 35.800349019921647 ], [ -0.268647569972222, 35.800349019921647 ], [ -0.268647569972222, 35.800813635209181 ], [ -0.269387785939731, 35.800813635209181 ], [ -0.269387785939731, 35.801742857632192 ], [ -0.270128001907239, 35.801742857632192 ], [ -0.270128001907239, 35.80220746476764 ], [ -0.270868217874747, 35.80220746476764 ], [ -0.270868217874747, 35.802672069185711 ], [ -0.271608433842256, 35.802672069185711 ], [ -0.271608433842256, 35.803136670886389 ], [ -0.272348649809764, 35.803136670886389 ], [ -0.272348649809764, 35.803601269869652 ], [ -0.273088865777272, 35.803601269869652 ], [ -0.273088865777272, 35.804530459683846 ], [ -0.274569297712289, 35.804530459683846 ], [ -0.274569297712289, 35.804065866135467 ], [ -0.275309513679797, 35.804065866135467 ], [ -0.275309513679797, 35.803136670886389 ], [ -0.276049729647306, 35.803136670886389 ], [ -0.276049729647306, 35.80220746476764 ], [ -0.276789945614814, 35.80220746476764 ], [ -0.276789945614814, 35.801278247779365 ], [ -0.277530161582322, 35.801278247779365 ], [ -0.277530161582322, 35.800813635209181 ], [ -0.282711673354881, 35.800813635209181 ], [ -0.282711673354881, 35.801742857632192 ], [ -0.283451889322389, 35.801742857632192 ], [ -0.283451889322389, 35.802672069185711 ], [ -0.284192105289897, 35.802672069185711 ], [ -0.284192105289897, 35.803136670886389 ], [ -0.284932321257406, 35.803136670886389 ], [ -0.284932321257406, 35.804995050514783 ], [ -0.285672537224914, 35.804995050514783 ], [ -0.285672537224914, 35.811499036806339 ], [ -0.286412753192422, 35.811499036806339 ], [ -0.286412753192422, 35.81753797569678 ], [ -0.287152969159931, 35.81753797569678 ], [ -0.287152969159931, 35.821254017484272 ], [ -0.286412753192422, 35.821254017484272 ], [ -0.286412753192422, 35.822183000751579 ], [ -0.285672537224914, 35.822183000751579 ], [ -0.285672537224914, 35.822647488308213 ], [ -0.284932321257406, 35.822647488308213 ], [ -0.284932321257406, 35.82311197314683 ], [ -0.284192105289897, 35.82311197314683 ], [ -0.284192105289897, 35.8235764552674 ], [ -0.283451889322389, 35.8235764552674 ], [ -0.283451889322389, 35.824040934669902 ], [ -0.282711673354881, 35.824040934669902 ], [ -0.282711673354881, 35.824505411354338 ], [ -0.281971457387372, 35.824505411354338 ], [ -0.281971457387372, 35.824969885320684 ], [ -0.281231241419864, 35.824969885320684 ], [ -0.281231241419864, 35.82543435656892 ], [ -0.280491025452356, 35.82543435656892 ], [ -0.280491025452356, 35.825898825099053 ], [ -0.278270377549831, 35.825898825099053 ], [ -0.278270377549831, 35.82543435656892 ], [ -0.277530161582322, 35.82543435656892 ], [ -0.277530161582322, 35.824969885320684 ], [ -0.276789945614814, 35.824969885320684 ], [ -0.276789945614814, 35.824505411354338 ] ] ], [ [ [ 1.243613651647304, 36.136018374912496 ], [ 1.245834299549829, 36.136018374912496 ], [ 1.245834299549829, 36.135555728038689 ], [ 1.248054947452355, 36.135555728038689 ], [ 1.248054947452355, 36.135093078437173 ], [ 1.249535379387371, 36.135093078437173 ], [ 1.249535379387371, 36.13463042610794 ], [ 1.25027559535488, 36.13463042610794 ], [ 1.25027559535488, 36.131391783428839 ], [ 1.251015811322388, 36.131391783428839 ], [ 1.251015811322388, 36.127227617884188 ], [ 1.251756027289896, 36.127227617884188 ], [ 1.251756027289896, 36.123525951932208 ], [ 1.251015811322388, 36.123525951932208 ], [ 1.251015811322388, 36.121675053499345 ], [ 1.25027559535488, 36.121675053499345 ], [ 1.25027559535488, 36.120749587919107 ], [ 1.249535379387371, 36.120749587919107 ], [ 1.249535379387371, 36.120286851038067 ], [ 1.247314731484846, 36.120286851038067 ], [ 1.247314731484846, 36.119824111429786 ], [ 1.245834299549829, 36.119824111429786 ], [ 1.245834299549829, 36.119361369094264 ], [ 1.243613651647304, 36.119361369094264 ], [ 1.243613651647304, 36.118898624031523 ], [ 1.24139300374478, 36.118898624031523 ], [ 1.24139300374478, 36.119361369094264 ], [ 1.239912571809763, 36.119361369094264 ], [ 1.239912571809763, 36.119824111429786 ], [ 1.239172355842254, 36.119824111429786 ], [ 1.239172355842254, 36.120286851038067 ], [ 1.237691923907238, 36.120286851038067 ], [ 1.237691923907238, 36.120749587919107 ], [ 1.236211491972221, 36.120749587919107 ], [ 1.236211491972221, 36.121212322072857 ], [ 1.235471276004713, 36.121212322072857 ], [ 1.235471276004713, 36.121675053499345 ], [ 1.234731060037205, 36.121675053499345 ], [ 1.234731060037205, 36.122137782198543 ], [ 1.233990844069696, 36.122137782198543 ], [ 1.233990844069696, 36.122600508170429 ], [ 1.233250628102188, 36.122600508170429 ], [ 1.233250628102188, 36.123525951932208 ], [ 1.232510412134679, 36.123525951932208 ], [ 1.232510412134679, 36.123988669722088 ], [ 1.231770196167171, 36.123988669722088 ], [ 1.231770196167171, 36.124451384784592 ], [ 1.231029980199663, 36.124451384784592 ], [ 1.231029980199663, 36.124914097119721 ], [ 1.230289764232154, 36.124914097119721 ], [ 1.230289764232154, 36.125839513607794 ], [ 1.229549548264646, 36.125839513607794 ], [ 1.229549548264646, 36.126302217760696 ], [ 1.228809332297138, 36.126302217760696 ], [ 1.228809332297138, 36.128153007097822 ], [ 1.22806911632963, 36.128153007097822 ], [ 1.22806911632963, 36.132317123546741 ], [ 1.228809332297138, 36.132317123546741 ], [ 1.228809332297138, 36.13370511326643 ], [ 1.229549548264646, 36.13370511326643 ], [ 1.229549548264646, 36.13463042610794 ], [ 1.230289764232154, 36.13463042610794 ], [ 1.230289764232154, 36.135093078437173 ], [ 1.232510412134679, 36.135093078437173 ], [ 1.232510412134679, 36.135555728038689 ], [ 1.233990844069696, 36.135555728038689 ], [ 1.233990844069696, 36.136018374912496 ], [ 1.235471276004713, 36.136018374912496 ], [ 1.235471276004713, 36.136481019058579 ], [ 1.236951707939729, 36.136481019058579 ], [ 1.236951707939729, 36.136943660476909 ], [ 1.238432139874746, 36.136943660476909 ], [ 1.238432139874746, 36.13740629916748 ], [ 1.239912571809763, 36.13740629916748 ], [ 1.239912571809763, 36.136943660476909 ], [ 1.24139300374478, 36.136943660476909 ], [ 1.24139300374478, 36.136481019058579 ], [ 1.243613651647304, 36.136481019058579 ], [ 1.243613651647304, 36.136018374912496 ] ] ], [ [ [ 3.127463288956015, 36.687387561947112 ], [ 3.128203504923524, 36.687387561947112 ], [ 3.128203504923524, 36.68692818727758 ], [ 3.128943720891032, 36.68692818727758 ], [ 3.128943720891032, 36.68600942970653 ], [ 3.12968393685854, 36.68600942970653 ], [ 3.12968393685854, 36.685090661159613 ], [ 3.130424152826048, 36.685090661159613 ], [ 3.130424152826048, 36.684171881636921 ], [ 3.131164368793557, 36.684171881636921 ], [ 3.131164368793557, 36.683253091138575 ], [ 3.131904584761065, 36.683253091138575 ], [ 3.131904584761065, 36.682334289664659 ], [ 3.132644800728573, 36.682334289664659 ], [ 3.132644800728573, 36.681415477215303 ], [ 3.133385016696082, 36.681415477215303 ], [ 3.133385016696082, 36.680956066874856 ], [ 3.13412523266359, 36.680956066874856 ], [ 3.13412523266359, 36.675902372040525 ], [ 3.133385016696082, 36.675902372040525 ], [ 3.133385016696082, 36.674983482765938 ], [ 3.132644800728573, 36.674983482765938 ], [ 3.132644800728573, 36.67452403401316 ], [ 3.131904584761065, 36.67452403401316 ], [ 3.131904584761065, 36.673605128276698 ], [ 3.131164368793557, 36.673605128276698 ], [ 3.131164368793557, 36.673145671293035 ], [ 3.128943720891032, 36.673145671293035 ], [ 3.128943720891032, 36.672686211565782 ], [ 3.126723072988507, 36.672686211565782 ], [ 3.126723072988507, 36.672226749094932 ], [ 3.124502425085982, 36.672226749094932 ], [ 3.124502425085982, 36.671767283880513 ], [ 3.120801345248441, 36.671767283880513 ], [ 3.120801345248441, 36.672226749094932 ], [ 3.119320913313424, 36.672226749094932 ], [ 3.119320913313424, 36.672686211565782 ], [ 3.118580697345915, 36.672686211565782 ], [ 3.118580697345915, 36.673145671293035 ], [ 3.117100265410898, 36.673145671293035 ], [ 3.117100265410898, 36.673605128276698 ], [ 3.11636004944339, 36.673605128276698 ], [ 3.11636004944339, 36.674064582516735 ], [ 3.114879617508374, 36.674064582516735 ], [ 3.114879617508374, 36.67452403401316 ], [ 3.114139401540865, 36.67452403401316 ], [ 3.114139401540865, 36.674983482765938 ], [ 3.112658969605848, 36.674983482765938 ], [ 3.112658969605848, 36.675442928775055 ], [ 3.11191875363834, 36.675442928775055 ], [ 3.11191875363834, 36.675902372040525 ], [ 3.111178537670832, 36.675902372040525 ], [ 3.111178537670832, 36.677280685374775 ], [ 3.110438321703324, 36.677280685374775 ], [ 3.110438321703324, 36.679118398074984 ], [ 3.109698105735816, 36.679118398074984 ], [ 3.109698105735816, 36.680037237962523 ], [ 3.110438321703324, 36.680037237962523 ], [ 3.110438321703324, 36.682793691773554 ], [ 3.111178537670832, 36.682793691773554 ], [ 3.111178537670832, 36.685550046805048 ], [ 3.11191875363834, 36.685550046805048 ], [ 3.11191875363834, 36.68600942970653 ], [ 3.112658969605848, 36.68600942970653 ], [ 3.112658969605848, 36.686468809864046 ], [ 3.113399185573357, 36.686468809864046 ], [ 3.113399185573357, 36.68692818727758 ], [ 3.114139401540865, 36.68692818727758 ], [ 3.114139401540865, 36.687387561947112 ], [ 3.114879617508374, 36.687387561947112 ], [ 3.114879617508374, 36.687846933872635 ], [ 3.115619833475882, 36.687846933872635 ], [ 3.115619833475882, 36.688306303054155 ], [ 3.11636004944339, 36.688306303054155 ], [ 3.11636004944339, 36.688765669491623 ], [ 3.117100265410898, 36.688765669491623 ], [ 3.117100265410898, 36.689225033185046 ], [ 3.126723072988507, 36.689225033185046 ], [ 3.126723072988507, 36.688306303054155 ], [ 3.127463288956015, 36.688306303054155 ], [ 3.127463288956015, 36.687387561947112 ] ] ], [ [ [ -0.373758237358406, 41.010771671934485 ], [ -0.373758237358406, 41.010339405071825 ], [ -0.373018021390898, 41.010339405071825 ], [ -0.373018021390898, 41.009907135373169 ], [ -0.372277805423389, 41.009907135373169 ], [ -0.372277805423389, 41.009474862838523 ], [ -0.371537589455881, 41.009474862838523 ], [ -0.371537589455881, 41.009042587467896 ], [ -0.370797373488372, 41.009042587467896 ], [ -0.370797373488372, 41.008610309261279 ], [ -0.370057157520864, 41.008610309261279 ], [ -0.370057157520864, 41.008178028218708 ], [ -0.369316941553356, 41.008178028218708 ], [ -0.369316941553356, 41.007745744340163 ], [ -0.368576725585847, 41.007745744340163 ], [ -0.368576725585847, 41.007313457625671 ], [ -0.367836509618339, 41.007313457625671 ], [ -0.367836509618339, 41.006881168075203 ], [ -0.367096293650831, 41.006881168075203 ], [ -0.367096293650831, 41.006448875688804 ], [ -0.366356077683322, 41.006448875688804 ], [ -0.366356077683322, 41.003422749577986 ], [ -0.365615861715814, 41.003422749577986 ], [ -0.365615861715814, 40.999099471225946 ], [ -0.366356077683322, 40.999099471225946 ], [ -0.366356077683322, 40.997370080481296 ], [ -0.367096293650831, 40.997370080481296 ], [ -0.367096293650831, 40.996937725705592 ], [ -0.367836509618339, 40.996937725705592 ], [ -0.367836509618339, 40.99650536809407 ], [ -0.369316941553356, 40.99650536809407 ], [ -0.369316941553356, 40.99607300764675 ], [ -0.371537589455881, 40.99607300764675 ], [ -0.371537589455881, 40.995640644363633 ], [ -0.373018021390898, 40.995640644363633 ], [ -0.373018021390898, 40.995208278244718 ], [ -0.374498453325914, 40.995208278244718 ], [ -0.374498453325914, 40.994775909290027 ], [ -0.376719101228439, 40.994775909290027 ], [ -0.376719101228439, 40.995208278244718 ], [ -0.377459317195947, 40.995208278244718 ], [ -0.377459317195947, 40.995640644363633 ], [ -0.378199533163456, 40.995640644363633 ], [ -0.378199533163456, 40.99607300764675 ], [ -0.378939749130964, 40.99607300764675 ], [ -0.378939749130964, 40.99650536809407 ], [ -0.379679965098472, 40.99650536809407 ], [ -0.379679965098472, 40.996937725705592 ], [ -0.380420181065981, 40.996937725705592 ], [ -0.380420181065981, 40.997370080481296 ], [ -0.384121260903523, 40.997370080481296 ], [ -0.384121260903523, 40.997802432421196 ], [ -0.384861476871031, 40.997802432421196 ], [ -0.384861476871031, 40.998667127793524 ], [ -0.385601692838539, 40.998667127793524 ], [ -0.385601692838539, 40.999531811822514 ], [ -0.386341908806048, 40.999531811822514 ], [ -0.386341908806048, 41.00039648450813 ], [ -0.387082124773556, 41.00039648450813 ], [ -0.387082124773556, 41.002125795849039 ], [ -0.387822340741064, 41.002125795849039 ], [ -0.387822340741064, 41.005151981513983 ], [ -0.388562556708572, 41.005151981513983 ], [ -0.388562556708572, 41.006448875688804 ], [ -0.387822340741064, 41.006448875688804 ], [ -0.387822340741064, 41.007745744340163 ], [ -0.387082124773556, 41.007745744340163 ], [ -0.387082124773556, 41.008610309261279 ], [ -0.386341908806048, 41.008610309261279 ], [ -0.386341908806048, 41.009907135373169 ], [ -0.385601692838539, 41.009907135373169 ], [ -0.385601692838539, 41.010771671934485 ], [ -0.384861476871031, 41.010771671934485 ], [ -0.384861476871031, 41.011203935961149 ], [ -0.380420181065981, 41.011203935961149 ], [ -0.380420181065981, 41.011636197151809 ], [ -0.375238669293423, 41.011636197151809 ], [ -0.375238669293423, 41.011203935961149 ], [ -0.374498453325914, 41.011203935961149 ], [ -0.374498453325914, 41.010771671934485 ], [ -0.373758237358406, 41.010771671934485 ] ] ], [ [ [ 0.695853835691137, 41.741947667339467 ], [ 0.695853835691137, 41.74109279507222 ], [ 0.696594051658645, 41.74109279507222 ], [ 0.696594051658645, 41.740237911424124 ], [ 0.697334267626154, 41.740237911424124 ], [ 0.697334267626154, 41.739383016395223 ], [ 0.698074483593662, 41.739383016395223 ], [ 0.698074483593662, 41.738528109985552 ], [ 0.698814699561171, 41.738528109985552 ], [ 0.698814699561171, 41.73126094601033 ], [ 0.698074483593662, 41.73126094601033 ], [ 0.698074483593662, 41.730405931485301 ], [ 0.697334267626154, 41.730405931485301 ], [ 0.697334267626154, 41.729550905579913 ], [ 0.696594051658645, 41.729550905579913 ], [ 0.696594051658645, 41.728695868294203 ], [ 0.693633187788612, 41.728695868294203 ], [ 0.693633187788612, 41.729123388359596 ], [ 0.689191891983562, 41.729123388359596 ], [ 0.689191891983562, 41.729550905579913 ], [ 0.688451676016054, 41.729550905579913 ], [ 0.688451676016054, 41.730405931485301 ], [ 0.687711460048546, 41.730405931485301 ], [ 0.687711460048546, 41.730833440170365 ], [ 0.686971244081037, 41.730833440170365 ], [ 0.686971244081037, 41.731688449005198 ], [ 0.686231028113529, 41.731688449005198 ], [ 0.686231028113529, 41.732115949154959 ], [ 0.68549081214602, 41.732115949154959 ], [ 0.68549081214602, 41.738100652512934 ], [ 0.686231028113529, 41.738100652512934 ], [ 0.686231028113529, 41.739383016395223 ], [ 0.686971244081037, 41.739383016395223 ], [ 0.686971244081037, 41.74109279507222 ], [ 0.687711460048546, 41.74109279507222 ], [ 0.687711460048546, 41.741947667339467 ], [ 0.688451676016054, 41.741947667339467 ], [ 0.688451676016054, 41.742375099205269 ], [ 0.690672323918579, 41.742375099205269 ], [ 0.690672323918579, 41.742802528225845 ], [ 0.692892971821104, 41.742802528225845 ], [ 0.692892971821104, 41.74322995440118 ], [ 0.694373403756121, 41.74322995440118 ], [ 0.694373403756121, 41.742802528225845 ], [ 0.695113619723629, 41.742802528225845 ], [ 0.695113619723629, 41.741947667339467 ], [ 0.695853835691137, 41.741947667339467 ] ] ] ] } }
]
}
