{
"type": "FeatureCollection",
"name": "spain_fires_modis_ba",
"crs": { "type": "name", "properties": { "name": "urn:ogc:def:crs:OGC:1.3:CRS84" } },
"features": [
{ "type": "Feature", "properties": { }, "geometry": { "type": "MultiPolygon", "coordinates": [ [ [ [ 3.957985604500367, 36.479931340020059 ], [ 3.957985604500367, 36.47947072915418 ], [ 3.958725820467875, 36.47947072915418 ], [ 3.958725820467875, 36.478549499208498 ], [ 3.959466036435383, 36.478549499208498 ], [ 3.959466036435383, 36.475325108153477 ], [ 3.960206252402891, 36.475325108153477 ], [ 3.960206252402891, 36.470718602500156 ], [ 3.9609464683704, 36.470718602500156 ], [ 3.9609464683704, 36.469336597417758 ], [ 3.961686684337908, 36.469336597417758 ], [ 3.961686684337908, 36.468415247007677 ], [ 3.962426900305416, 36.468415247007677 ], [ 3.962426900305416, 36.467493885646938 ], [ 3.963167116272925, 36.467493885646938 ], [ 3.963167116272925, 36.466572513335642 ], [ 3.963907332240433, 36.466572513335642 ], [ 3.963907332240433, 36.466111823073575 ], [ 3.964647548207941, 36.466111823073575 ], [ 3.964647548207941, 36.465651130073901 ], [ 3.965387764175449, 36.465651130073901 ], [ 3.965387764175449, 36.465190434336655 ], [ 3.966127980142958, 36.465190434336655 ], [ 3.966127980142958, 36.46472973586183 ], [ 3.966868196110467, 36.46472973586183 ], [ 3.966868196110467, 36.464269034649448 ], [ 3.967608412077974, 36.464269034649448 ], [ 3.967608412077974, 36.463808330699528 ], [ 3.968348628045482, 36.463808330699528 ], [ 3.968348628045482, 36.461504769887249 ], [ 3.967608412077974, 36.461504769887249 ], [ 3.967608412077974, 36.461044049512353 ], [ 3.966868196110467, 36.461044049512353 ], [ 3.966868196110467, 36.460583326400005 ], [ 3.965387764175449, 36.460583326400005 ], [ 3.965387764175449, 36.460122600550228 ], [ 3.963907332240433, 36.460122600550228 ], [ 3.963907332240433, 36.459661871963021 ], [ 3.963167116272925, 36.459661871963021 ], [ 3.963167116272925, 36.459201140638406 ], [ 3.962426900305416, 36.459201140638406 ], [ 3.962426900305416, 36.458740406576403 ], [ 3.961686684337908, 36.458740406576403 ], [ 3.961686684337908, 36.458279669777021 ], [ 3.9609464683704, 36.458279669777021 ], [ 3.9609464683704, 36.457818930240265 ], [ 3.960206252402891, 36.457818930240265 ], [ 3.960206252402891, 36.457358187966165 ], [ 3.959466036435383, 36.457358187966165 ], [ 3.959466036435383, 36.45643669520593 ], [ 3.958725820467875, 36.45643669520593 ], [ 3.958725820467875, 36.455975944719846 ], [ 3.957985604500367, 36.455975944719846 ], [ 3.957985604500367, 36.455515191496453 ], [ 3.955024740630333, 36.455515191496453 ], [ 3.955024740630333, 36.455975944719846 ], [ 3.954284524662825, 36.455975944719846 ], [ 3.954284524662825, 36.45643669520593 ], [ 3.953544308695316, 36.45643669520593 ], [ 3.953544308695316, 36.456897442954713 ], [ 3.952804092727808, 36.456897442954713 ], [ 3.952804092727808, 36.459661871963021 ], [ 3.952063876760299, 36.459661871963021 ], [ 3.952063876760299, 36.460122600550228 ], [ 3.951323660792791, 36.460122600550228 ], [ 3.951323660792791, 36.461044049512353 ], [ 3.950583444825283, 36.461044049512353 ], [ 3.950583444825283, 36.462426202424652 ], [ 3.949843228857775, 36.462426202424652 ], [ 3.949843228857775, 36.462886914587123 ], [ 3.950583444825283, 36.462886914587123 ], [ 3.950583444825283, 36.46472973586183 ], [ 3.951323660792791, 36.46472973586183 ], [ 3.951323660792791, 36.465651130073901 ], [ 3.952063876760299, 36.465651130073901 ], [ 3.952063876760299, 36.467033200860101 ], [ 3.952804092727808, 36.467033200860101 ], [ 3.952804092727808, 36.467954567696125 ], [ 3.953544308695316, 36.467954567696125 ], [ 3.953544308695316, 36.471639925533111 ], [ 3.952804092727808, 36.471639925533111 ], [ 3.952804092727808, 36.473482538745799 ], [ 3.952063876760299, 36.473482538745799 ], [ 3.952063876760299, 36.474864469908333 ], [ 3.951323660792791, 36.474864469908333 ], [ 3.951323660792791, 36.476707006461673 ], [ 3.950583444825283, 36.476707006461673 ], [ 3.950583444825283, 36.478549499208498 ], [ 3.951323660792791, 36.478549499208498 ], [ 3.951323660792791, 36.47947072915418 ], [ 3.952804092727808, 36.47947072915418 ], [ 3.952804092727808, 36.479931340020059 ], [ 3.954284524662825, 36.479931340020059 ], [ 3.954284524662825, 36.480391948147911 ], [ 3.957245388532858, 36.480391948147911 ], [ 3.957245388532858, 36.479931340020059 ], [ 3.957985604500367, 36.479931340020059 ] ] ], [ [ [ 4.003878994485883, 36.483616128377768 ], [ 4.003878994485883, 36.483155539416302 ], [ 4.004619210453392, 36.483155539416302 ], [ 4.004619210453392, 36.482694947716737 ], [ 4.0053594264209, 36.482694947716737 ], [ 4.0053594264209, 36.480852553537773 ], [ 4.003878994485883, 36.480852553537773 ], [ 4.003878994485883, 36.480391948147911 ], [ 4.001658346583358, 36.480391948147911 ], [ 4.001658346583358, 36.479931340020059 ], [ 3.999437698680833, 36.479931340020059 ], [ 3.999437698680833, 36.47947072915418 ], [ 3.998697482713324, 36.47947072915418 ], [ 3.998697482713324, 36.479931340020059 ], [ 3.992035539005749, 36.479931340020059 ], [ 3.992035539005749, 36.47947072915418 ], [ 3.989814891103225, 36.47947072915418 ], [ 3.989814891103225, 36.479010115550324 ], [ 3.988334459168208, 36.479010115550324 ], [ 3.988334459168208, 36.478549499208498 ], [ 3.986113811265682, 36.478549499208498 ], [ 3.986113811265682, 36.478088880128702 ], [ 3.983893163363158, 36.478088880128702 ], [ 3.983893163363158, 36.477628258310958 ], [ 3.980932299493125, 36.477628258310958 ], [ 3.980932299493125, 36.478088880128702 ], [ 3.980192083525616, 36.478088880128702 ], [ 3.980192083525616, 36.480852553537773 ], [ 3.981672515460633, 36.480852553537773 ], [ 3.981672515460633, 36.481313156189586 ], [ 3.982412731428141, 36.481313156189586 ], [ 3.982412731428141, 36.481773756103365 ], [ 3.98315294739565, 36.481773756103365 ], [ 3.98315294739565, 36.482234353279082 ], [ 3.983893163363158, 36.482234353279082 ], [ 3.983893163363158, 36.483155539416302 ], [ 3.984633379330667, 36.483155539416302 ], [ 3.984633379330667, 36.483616128377768 ], [ 3.986113811265682, 36.483616128377768 ], [ 3.986113811265682, 36.484076714601137 ], [ 4.001658346583358, 36.484076714601137 ], [ 4.001658346583358, 36.483616128377768 ], [ 4.003878994485883, 36.483616128377768 ] ] ], [ [ [ 4.518329091904175, 36.648790525394197 ], [ 4.518329091904175, 36.647871312412889 ], [ 4.519069307871684, 36.647871312412889 ], [ 4.519069307871684, 36.646492472369403 ], [ 4.519809523839192, 36.646492472369403 ], [ 4.519809523839192, 36.644194350773731 ], [ 4.5205497398067, 36.644194350773731 ], [ 4.5205497398067, 36.638678579184806 ], [ 4.519809523839192, 36.638678579184806 ], [ 4.519809523839192, 36.637759245522808 ], [ 4.519069307871684, 36.637759245522808 ], [ 4.519069307871684, 36.636839900890493 ], [ 4.518329091904175, 36.636839900890493 ], [ 4.518329091904175, 36.635920545287931 ], [ 4.519069307871684, 36.635920545287931 ], [ 4.519069307871684, 36.634541491315147 ], [ 4.519809523839192, 36.634541491315147 ], [ 4.519809523839192, 36.631323602725388 ], [ 4.519069307871684, 36.631323602725388 ], [ 4.519069307871684, 36.62994446647923 ], [ 4.518329091904175, 36.62994446647923 ], [ 4.518329091904175, 36.629025028603316 ], [ 4.517588875936666, 36.629025028603316 ], [ 4.517588875936666, 36.627645851221985 ], [ 4.516848659969158, 36.627645851221985 ], [ 4.516848659969158, 36.627186119943595 ], [ 4.51610844400165, 36.627186119943595 ], [ 4.51610844400165, 36.626266649159994 ], [ 4.515368228034141, 36.626266649159994 ], [ 4.515368228034141, 36.625347167407384 ], [ 4.514628012066634, 36.625347167407384 ], [ 4.514628012066634, 36.624427674685869 ], [ 4.513887796099125, 36.624427674685869 ], [ 4.513887796099125, 36.623508170995557 ], [ 4.513147580131617, 36.623508170995557 ], [ 4.513147580131617, 36.622588656336532 ], [ 4.512407364164109, 36.622588656336532 ], [ 4.512407364164109, 36.621669130708945 ], [ 4.5116671481966, 36.621669130708945 ], [ 4.5116671481966, 36.621209363781951 ], [ 4.510926932229093, 36.621209363781951 ], [ 4.510926932229093, 36.620289821701661 ], [ 4.510186716261583, 36.620289821701661 ], [ 4.510186716261583, 36.619370268653043 ], [ 4.509446500294075, 36.619370268653043 ], [ 4.509446500294075, 36.618910488015651 ], [ 4.508706284326567, 36.618910488015651 ], [ 4.508706284326567, 36.617990918514735 ], [ 4.507966068359059, 36.617990918514735 ], [ 4.507966068359059, 36.617071338045776 ], [ 4.50722585239155, 36.617071338045776 ], [ 4.50722585239155, 36.615691946777453 ], [ 4.506485636424041, 36.615691946777453 ], [ 4.506485636424041, 36.613852720032469 ], [ 4.505745420456534, 36.613852720032469 ], [ 4.505745420456534, 36.612473271183767 ], [ 4.505005204489025, 36.612473271183767 ], [ 4.505005204489025, 36.612013449417155 ], [ 4.504264988521517, 36.612013449417155 ], [ 4.504264988521517, 36.611553624908673 ], [ 4.503524772554009, 36.611553624908673 ], [ 4.503524772554009, 36.611093797658391 ], [ 4.502784556586501, 36.611093797658391 ], [ 4.502784556586501, 36.610633967666281 ], [ 4.500563908683975, 36.610633967666281 ], [ 4.500563908683975, 36.61017413493235 ], [ 4.49834326078145, 36.61017413493235 ], [ 4.49834326078145, 36.609714299456655 ], [ 4.48946066917135, 36.609714299456655 ], [ 4.48946066917135, 36.61017413493235 ], [ 4.487980237236333, 36.61017413493235 ], [ 4.487980237236333, 36.610633967666281 ], [ 4.487240021268826, 36.610633967666281 ], [ 4.487240021268826, 36.611093797658391 ], [ 4.486499805301317, 36.611093797658391 ], [ 4.486499805301317, 36.612013449417155 ], [ 4.485759589333809, 36.612013449417155 ], [ 4.485759589333809, 36.616611543698312 ], [ 4.486499805301317, 36.616611543698312 ], [ 4.486499805301317, 36.617531129651262 ], [ 4.487240021268826, 36.617531129651262 ], [ 4.487240021268826, 36.61845070463621 ], [ 4.487980237236333, 36.61845070463621 ], [ 4.487980237236333, 36.619370268653043 ], [ 4.488720453203842, 36.619370268653043 ], [ 4.488720453203842, 36.620289821701661 ], [ 4.48946066917135, 36.620289821701661 ], [ 4.48946066917135, 36.621209363781951 ], [ 4.490200885138858, 36.621209363781951 ], [ 4.490200885138858, 36.622128894893805 ], [ 4.490941101106367, 36.622128894893805 ], [ 4.490941101106367, 36.623048415037132 ], [ 4.491681317073875, 36.623048415037132 ], [ 4.491681317073875, 36.624427674685869 ], [ 4.492421533041384, 36.624427674685869 ], [ 4.492421533041384, 36.626266649159994 ], [ 4.493161749008892, 36.626266649159994 ], [ 4.493161749008892, 36.630863893385722 ], [ 4.4939019649764, 36.630863893385722 ], [ 4.4939019649764, 36.631323602725388 ], [ 4.494642180943909, 36.631323602725388 ], [ 4.494642180943909, 36.63178330932265 ], [ 4.495382396911417, 36.63178330932265 ], [ 4.495382396911417, 36.632243013177515 ], [ 4.496122612878925, 36.632243013177515 ], [ 4.496122612878925, 36.632702714289934 ], [ 4.496862828846433, 36.632702714289934 ], [ 4.496862828846433, 36.633162412659935 ], [ 4.497603044813942, 36.633162412659935 ], [ 4.497603044813942, 36.633622108287483 ], [ 4.49834326078145, 36.633622108287483 ], [ 4.49834326078145, 36.634081801172542 ], [ 4.499083476748958, 36.634081801172542 ], [ 4.499083476748958, 36.635001178715243 ], [ 4.499823692716467, 36.635001178715243 ], [ 4.499823692716467, 36.635460863372849 ], [ 4.500563908683975, 36.635460863372849 ], [ 4.500563908683975, 36.636380224460474 ], [ 4.501304124651484, 36.636380224460474 ], [ 4.501304124651484, 36.637759245522808 ], [ 4.502044340618992, 36.637759245522808 ], [ 4.502044340618992, 36.640517213597342 ], [ 4.502784556586501, 36.640517213597342 ], [ 4.502784556586501, 36.643275082935993 ], [ 4.503524772554009, 36.643275082935993 ], [ 4.503524772554009, 36.644194350773731 ], [ 4.504264988521517, 36.644194350773731 ], [ 4.504264988521517, 36.64511360764039 ], [ 4.505005204489025, 36.64511360764039 ], [ 4.505005204489025, 36.646032853535878 ], [ 4.505745420456534, 36.646032853535878 ], [ 4.505745420456534, 36.646492472369403 ], [ 4.506485636424041, 36.646492472369403 ], [ 4.506485636424041, 36.64695208846009 ], [ 4.50722585239155, 36.64695208846009 ], [ 4.50722585239155, 36.647411701807911 ], [ 4.507966068359059, 36.647411701807911 ], [ 4.507966068359059, 36.647871312412889 ], [ 4.508706284326567, 36.647871312412889 ], [ 4.508706284326567, 36.648330920274987 ], [ 4.510186716261583, 36.648330920274987 ], [ 4.510186716261583, 36.648790525394197 ], [ 4.5116671481966, 36.648790525394197 ], [ 4.5116671481966, 36.649250127770507 ], [ 4.516848659969158, 36.649250127770507 ], [ 4.516848659969158, 36.648790525394197 ], [ 4.518329091904175, 36.648790525394197 ] ] ], [ [ [ 4.047551736568876, 36.64235580412727 ], [ 4.048291952536383, 36.64235580412727 ], [ 4.048291952536383, 36.641436514347689 ], [ 4.049032168503891, 36.641436514347689 ], [ 4.049032168503891, 36.636380224460474 ], [ 4.048291952536383, 36.636380224460474 ], [ 4.048291952536383, 36.633622108287483 ], [ 4.047551736568876, 36.633622108287483 ], [ 4.047551736568876, 36.631323602725388 ], [ 4.046811520601366, 36.631323602725388 ], [ 4.046811520601366, 36.62994446647923 ], [ 4.046071304633857, 36.62994446647923 ], [ 4.046071304633857, 36.628105579758056 ], [ 4.045331088666349, 36.628105579758056 ], [ 4.045331088666349, 36.627645851221985 ], [ 4.044590872698842, 36.627645851221985 ], [ 4.044590872698842, 36.626726385922929 ], [ 4.043110440763824, 36.626726385922929 ], [ 4.043110440763824, 36.626266649159994 ], [ 4.040149576893792, 36.626266649159994 ], [ 4.040149576893792, 36.626726385922929 ], [ 4.039409360926284, 36.626726385922929 ], [ 4.039409360926284, 36.627645851221985 ], [ 4.038669144958775, 36.627645851221985 ], [ 4.038669144958775, 36.628565305551845 ], [ 4.037928928991266, 36.628565305551845 ], [ 4.037928928991266, 36.630404181303668 ], [ 4.037188713023758, 36.630404181303668 ], [ 4.037188713023758, 36.632243013177515 ], [ 4.037928928991266, 36.632243013177515 ], [ 4.037928928991266, 36.633622108287483 ], [ 4.037188713023758, 36.633622108287483 ], [ 4.037188713023758, 36.635920545287931 ], [ 4.03644849705625, 36.635920545287931 ], [ 4.03644849705625, 36.63959790187635 ], [ 4.037188713023758, 36.63959790187635 ], [ 4.037188713023758, 36.640517213597342 ], [ 4.037928928991266, 36.640517213597342 ], [ 4.037928928991266, 36.640976865343859 ], [ 4.038669144958775, 36.640976865343859 ], [ 4.038669144958775, 36.641436514347689 ], [ 4.039409360926284, 36.641436514347689 ], [ 4.039409360926284, 36.641896160608837 ], [ 4.040149576893792, 36.641896160608837 ], [ 4.040149576893792, 36.64235580412727 ], [ 4.042370224796317, 36.64235580412727 ], [ 4.042370224796317, 36.642815444902993 ], [ 4.045331088666349, 36.642815444902993 ], [ 4.045331088666349, 36.643275082935993 ], [ 4.046811520601366, 36.643275082935993 ], [ 4.046811520601366, 36.642815444902993 ], [ 4.047551736568876, 36.642815444902993 ], [ 4.047551736568876, 36.64235580412727 ] ] ], [ [ [ 4.7870274881097, 36.655224709052433 ], [ 4.786287272142192, 36.655224709052433 ], [ 4.786287272142192, 36.656603392746028 ], [ 4.78776770407721, 36.656603392746028 ], [ 4.78776770407721, 36.65568427302675 ], [ 4.7870274881097, 36.65568427302675 ], [ 4.7870274881097, 36.655224709052433 ] ] ], [ [ [ 4.829960014225183, 36.739279222296886 ], [ 4.829960014225183, 36.738820157783188 ], [ 4.826258934387642, 36.738820157783188 ], [ 4.826258934387642, 36.739279222296886 ], [ 4.824778502452626, 36.739279222296886 ], [ 4.824778502452626, 36.739738284065112 ], [ 4.823298070517608, 36.739738284065112 ], [ 4.823298070517608, 36.740197343087821 ], [ 4.822557854550101, 36.740197343087821 ], [ 4.822557854550101, 36.740656399365044 ], [ 4.821817638582591, 36.740656399365044 ], [ 4.821817638582591, 36.741115452896715 ], [ 4.821077422615085, 36.741115452896715 ], [ 4.821077422615085, 36.741574503682855 ], [ 4.820337206647576, 36.741574503682855 ], [ 4.820337206647576, 36.742033551723452 ], [ 4.819596990680067, 36.742033551723452 ], [ 4.819596990680067, 36.742492597018455 ], [ 4.818116558745051, 36.742492597018455 ], [ 4.818116558745051, 36.742951639567913 ], [ 4.816636126810034, 36.742951639567913 ], [ 4.816636126810034, 36.743410679371763 ], [ 4.815155694875017, 36.743410679371763 ], [ 4.815155694875017, 36.743869716429998 ], [ 4.814415478907509, 36.743869716429998 ], [ 4.814415478907509, 36.744328750742632 ], [ 4.813675262939999, 36.744328750742632 ], [ 4.813675262939999, 36.744787782309629 ], [ 4.812935046972492, 36.744787782309629 ], [ 4.812935046972492, 36.74754191405264 ], [ 4.813675262939999, 36.74754191405264 ], [ 4.813675262939999, 36.748918942857074 ], [ 4.814415478907509, 36.748918942857074 ], [ 4.814415478907509, 36.749836948331236 ], [ 4.815155694875017, 36.749836948331236 ], [ 4.815155694875017, 36.750754942822262 ], [ 4.815895910842525, 36.750754942822262 ], [ 4.815895910842525, 36.751672926330023 ], [ 4.816636126810034, 36.751672926330023 ], [ 4.816636126810034, 36.752131913965158 ], [ 4.817376342777543, 36.752131913965158 ], [ 4.817376342777543, 36.752590898854436 ], [ 4.818116558745051, 36.752590898854436 ], [ 4.818116558745051, 36.753508860395392 ], [ 4.818856774712559, 36.753508860395392 ], [ 4.818856774712559, 36.754885782112567 ], [ 4.819596990680067, 36.754885782112567 ], [ 4.819596990680067, 36.756262679116404 ], [ 4.820337206647576, 36.756262679116404 ], [ 4.820337206647576, 36.758098503344534 ], [ 4.821077422615085, 36.758098503344534 ], [ 4.821077422615085, 36.760393221844112 ], [ 4.821817638582591, 36.760393221844112 ], [ 4.821817638582591, 36.761770019990927 ], [ 4.822557854550101, 36.761770019990927 ], [ 4.822557854550101, 36.762687871691519 ], [ 4.823298070517608, 36.762687871691519 ], [ 4.823298070517608, 36.7631467934226 ], [ 4.824038286485117, 36.7631467934226 ], [ 4.824038286485117, 36.764064628646246 ], [ 4.824778502452626, 36.764064628646246 ], [ 4.824778502452626, 36.764982452885121 ], [ 4.825518718420135, 36.764982452885121 ], [ 4.825518718420135, 36.765900266139141 ], [ 4.826258934387642, 36.765900266139141 ], [ 4.826258934387642, 36.767735859692152 ], [ 4.826999150355151, 36.767735859692152 ], [ 4.826999150355151, 36.770948042677077 ], [ 4.826258934387642, 36.770948042677077 ], [ 4.826258934387642, 36.77645432898931 ], [ 4.826999150355151, 36.77645432898931 ], [ 4.826999150355151, 36.77783083877106 ], [ 4.82773936632266, 36.77783083877106 ], [ 4.82773936632266, 36.778289669871839 ], [ 4.828479582290167, 36.778289669871839 ], [ 4.828479582290167, 36.778748498226008 ], [ 4.829219798257676, 36.778748498226008 ], [ 4.829219798257676, 36.779207323833582 ], [ 4.829960014225183, 36.779207323833582 ], [ 4.829960014225183, 36.779666146694531 ], [ 4.830700230192692, 36.779666146694531 ], [ 4.830700230192692, 36.739279222296886 ], [ 4.829960014225183, 36.739279222296886 ] ] ], [ [ [ 4.137117868637383, 36.839289726296961 ], [ 4.137117868637383, 36.838831260606817 ], [ 4.137858084604892, 36.838831260606817 ], [ 4.137858084604892, 36.838372792168386 ], [ 4.1385983005724, 36.838372792168386 ], [ 4.1385983005724, 36.837455847046662 ], [ 4.139338516539908, 36.837455847046662 ], [ 4.139338516539908, 36.836997370363399 ], [ 4.140078732507416, 36.836997370363399 ], [ 4.140078732507416, 36.836080408752146 ], [ 4.140818948474925, 36.836080408752146 ], [ 4.140818948474925, 36.834704945723615 ], [ 4.140078732507416, 36.834704945723615 ], [ 4.140078732507416, 36.83378795663031 ], [ 4.139338516539908, 36.83378795663031 ], [ 4.139338516539908, 36.833329457961419 ], [ 4.134897220734858, 36.833329457961419 ], [ 4.134897220734858, 36.834246452551042 ], [ 4.13415700476735, 36.834246452551042 ], [ 4.13415700476735, 36.834704945723615 ], [ 4.133416788799841, 36.834704945723615 ], [ 4.133416788799841, 36.836538890931884 ], [ 4.13415700476735, 36.836538890931884 ], [ 4.13415700476735, 36.837455847046662 ], [ 4.134897220734858, 36.837455847046662 ], [ 4.134897220734858, 36.839748189238776 ], [ 4.136377652669875, 36.839748189238776 ], [ 4.136377652669875, 36.839289726296961 ], [ 4.137117868637383, 36.839289726296961 ] ] ], [ [ [ 4.185972122492933, 36.863584474718145 ], [ 4.185972122492933, 36.8626678319456 ], [ 4.186712338460442, 36.8626678319456 ], [ 4.186712338460442, 36.861751178177173 ], [ 4.18745255442795, 36.861751178177173 ], [ 4.18745255442795, 36.861292847169537 ], [ 4.188192770395458, 36.861292847169537 ], [ 4.188192770395458, 36.860376176907472 ], [ 4.188932986362967, 36.860376176907472 ], [ 4.188932986362967, 36.859917837653079 ], [ 4.189673202330475, 36.859917837653079 ], [ 4.189673202330475, 36.857167744400442 ], [ 4.188932986362967, 36.857167744400442 ], [ 4.188932986362967, 36.856709385904075 ], [ 4.188192770395458, 36.856709385904075 ], [ 4.188192770395458, 36.855792660664946 ], [ 4.18745255442795, 36.855792660664946 ], [ 4.18745255442795, 36.855334293922205 ], [ 4.186712338460442, 36.855334293922205 ], [ 4.186712338460442, 36.854875924430708 ], [ 4.185972122492933, 36.854875924430708 ], [ 4.185972122492933, 36.854417552190448 ], [ 4.185231906525424, 36.854417552190448 ], [ 4.185231906525424, 36.853959177201467 ], [ 4.184491690557916, 36.853959177201467 ], [ 4.184491690557916, 36.853500799463745 ], [ 4.183751474590408, 36.853500799463745 ], [ 4.183751474590408, 36.85258403574219 ], [ 4.1830112586229, 36.85258403574219 ], [ 4.1830112586229, 36.851667261025895 ], [ 4.182271042655391, 36.851667261025895 ], [ 4.182271042655391, 36.849833678609457 ], [ 4.1830112586229, 36.849833678609457 ], [ 4.1830112586229, 36.848458462936684 ], [ 4.182271042655391, 36.848458462936684 ], [ 4.182271042655391, 36.847541638745291 ], [ 4.181530826687883, 36.847541638745291 ], [ 4.181530826687883, 36.847083222526777 ], [ 4.180790610720375, 36.847083222526777 ], [ 4.180790610720375, 36.846166381844149 ], [ 4.180050394752866, 36.846166381844149 ], [ 4.180050394752866, 36.845249530167493 ], [ 4.179310178785359, 36.845249530167493 ], [ 4.179310178785359, 36.844332667496914 ], [ 4.17856996281785, 36.844332667496914 ], [ 4.17856996281785, 36.843415793832506 ], [ 4.177829746850342, 36.843415793832506 ], [ 4.177829746850342, 36.842957352877669 ], [ 4.177089530882832, 36.842957352877669 ], [ 4.177089530882832, 36.842498909174395 ], [ 4.175609098947817, 36.842498909174395 ], [ 4.175609098947817, 36.842040462722721 ], [ 4.172648235077784, 36.842040462722721 ], [ 4.172648235077784, 36.842498909174395 ], [ 4.171167803142766, 36.842498909174395 ], [ 4.171167803142766, 36.842957352877669 ], [ 4.170427587175259, 36.842957352877669 ], [ 4.170427587175259, 36.843415793832506 ], [ 4.16968737120775, 36.843415793832506 ], [ 4.16968737120775, 36.843874232038935 ], [ 4.168947155240241, 36.843874232038935 ], [ 4.168947155240241, 36.844332667496914 ], [ 4.168206939272733, 36.844332667496914 ], [ 4.168206939272733, 36.844791100206436 ], [ 4.167466723305225, 36.844791100206436 ], [ 4.167466723305225, 36.845249530167493 ], [ 4.166726507337716, 36.845249530167493 ], [ 4.166726507337716, 36.846166381844149 ], [ 4.165986291370208, 36.846166381844149 ], [ 4.165986291370208, 36.847541638745291 ], [ 4.1652460754027, 36.847541638745291 ], [ 4.1652460754027, 36.848458462936684 ], [ 4.165986291370208, 36.848458462936684 ], [ 4.165986291370208, 36.849375276133784 ], [ 4.166726507337716, 36.849375276133784 ], [ 4.166726507337716, 36.849833678609457 ], [ 4.167466723305225, 36.849833678609457 ], [ 4.167466723305225, 36.850292078336508 ], [ 4.170427587175259, 36.850292078336508 ], [ 4.170427587175259, 36.850750475314946 ], [ 4.172648235077784, 36.850750475314946 ], [ 4.172648235077784, 36.851208869544735 ], [ 4.173388451045291, 36.851208869544735 ], [ 4.173388451045291, 36.851667261025895 ], [ 4.1741286670128, 36.851667261025895 ], [ 4.1741286670128, 36.852125649758378 ], [ 4.174868882980308, 36.852125649758378 ], [ 4.174868882980308, 36.85258403574219 ], [ 4.175609098947817, 36.85258403574219 ], [ 4.175609098947817, 36.853500799463745 ], [ 4.176349314915324, 36.853500799463745 ], [ 4.176349314915324, 36.856709385904075 ], [ 4.177089530882832, 36.856709385904075 ], [ 4.177089530882832, 36.857626100147996 ], [ 4.177829746850342, 36.857626100147996 ], [ 4.177829746850342, 36.858084453146724 ], [ 4.17856996281785, 36.858084453146724 ], [ 4.17856996281785, 36.859001150897633 ], [ 4.179310178785359, 36.859001150897633 ], [ 4.179310178785359, 36.860376176907472 ], [ 4.180050394752866, 36.860376176907472 ], [ 4.180050394752866, 36.861292847169537 ], [ 4.180790610720375, 36.861292847169537 ], [ 4.180790610720375, 36.862209506435853 ], [ 4.181530826687883, 36.862209506435853 ], [ 4.181530826687883, 36.863126154706357 ], [ 4.182271042655391, 36.863126154706357 ], [ 4.182271042655391, 36.864042791980943 ], [ 4.184491690557916, 36.864042791980943 ], [ 4.184491690557916, 36.863584474718145 ], [ 4.185972122492933, 36.863584474718145 ] ] ], [ [ [ 4.142299380409941, 36.864501106494714 ], [ 4.140818948474925, 36.864501106494714 ], [ 4.140818948474925, 36.865417727275201 ], [ 4.140078732507416, 36.865417727275201 ], [ 4.140078732507416, 36.866792637828048 ], [ 4.140818948474925, 36.866792637828048 ], [ 4.140818948474925, 36.867250935847522 ], [ 4.14303959637745, 36.867250935847522 ], [ 4.14303959637745, 36.865417727275201 ], [ 4.142299380409941, 36.865417727275201 ], [ 4.142299380409941, 36.864501106494714 ] ] ], [ [ [ 4.066797351724091, 36.870917221034638 ], [ 4.066057135756584, 36.870917221034638 ], [ 4.066057135756584, 36.870000666232805 ], [ 4.065316919789075, 36.870000666232805 ], [ 4.065316919789075, 36.871375494311756 ], [ 4.064576703821567, 36.871375494311756 ], [ 4.064576703821567, 36.874125076240574 ], [ 4.065316919789075, 36.874125076240574 ], [ 4.065316919789075, 36.87458333027292 ], [ 4.066057135756584, 36.87458333027292 ], [ 4.066057135756584, 36.874125076240574 ], [ 4.066797351724091, 36.874125076240574 ], [ 4.066797351724091, 36.870917221034638 ] ] ] ] } }
]
}
