{
"type": "FeatureCollection",
"name": "spain_fires_modis_ba",
"crs": { "type": "name", "properties": { "name": "urn:ogc:def:crs:OGC:1.3:CRS84" } },
"features": [
{ "type": "Feature", "properties": { }, "geometry": { "type": "MultiPolygon", "coordinates": [ [ [ [ -8.652333617971617, 41.716724151382444 ], [ -8.652333617971617, 41.716296548811982 ], [ -8.650853186036601, 41.716296548811982 ], [ -8.650853186036601, 41.71544133513629 ], [ -8.650112970069092, 41.71544133513629 ], [ -8.650112970069092, 41.714586110080923 ], [ -8.649372754101584, 41.714586110080923 ], [ -8.649372754101584, 41.712447997656668 ], [ -8.648632538134077, 41.712447997656668 ], [ -8.648632538134077, 41.711165096063461 ], [ -8.647892322166568, 41.711165096063461 ], [ -8.647892322166568, 41.709882168866415 ], [ -8.64715210619906, 41.709882168866415 ], [ -8.64715210619906, 41.70731623766136 ], [ -8.646411890231551, 41.70731623766136 ], [ -8.646411890231551, 41.705177883424398 ], [ -8.645671674264044, 41.705177883424398 ], [ -8.645671674264044, 41.702611764461622 ], [ -8.644931458296535, 41.702611764461622 ], [ -8.644931458296535, 41.69919011320421 ], [ -8.645671674264044, 41.69919011320421 ], [ -8.645671674264044, 41.698334671942419 ], [ -8.646411890231551, 41.698334671942419 ], [ -8.646411890231551, 41.697906947044451 ], [ -8.64715210619906, 41.697906947044451 ], [ -8.64715210619906, 41.697479219301755 ], [ -8.647892322166568, 41.697479219301755 ], [ -8.647892322166568, 41.697051488714337 ], [ -8.650112970069092, 41.697051488714337 ], [ -8.650112970069092, 41.697479219301755 ], [ -8.650853186036601, 41.697479219301755 ], [ -8.650853186036601, 41.697906947044451 ], [ -8.651593402004108, 41.697906947044451 ], [ -8.651593402004108, 41.698334671942419 ], [ -8.652333617971617, 41.698334671942419 ], [ -8.652333617971617, 41.69919011320421 ], [ -8.653073833939127, 41.69919011320421 ], [ -8.653073833939127, 41.700045543087057 ], [ -8.653814049906634, 41.700045543087057 ], [ -8.653814049906634, 41.701328666575741 ], [ -8.654554265874141, 41.701328666575741 ], [ -8.654554265874141, 41.7021840680111 ], [ -8.655294481841651, 41.7021840680111 ], [ -8.655294481841651, 41.702611764461622 ], [ -8.65603469780916, 41.702611764461622 ], [ -8.65603469780916, 41.70303945806738 ], [ -8.656774913776669, 41.70303945806738 ], [ -8.656774913776669, 41.703467148828352 ], [ -8.657515129744178, 41.703467148828352 ], [ -8.657515129744178, 41.703894836744546 ], [ -8.658255345711686, 41.703894836744546 ], [ -8.658255345711686, 41.704322521815946 ], [ -8.658995561679193, 41.704322521815946 ], [ -8.658995561679193, 41.704750204042568 ], [ -8.659735777646702, 41.704750204042568 ], [ -8.659735777646702, 41.705605559961398 ], [ -8.66047599361421, 41.705605559961398 ], [ -8.66047599361421, 41.706033233653613 ], [ -8.661216209581719, 41.706033233653613 ], [ -8.661216209581719, 41.706888572503601 ], [ -8.661956425549226, 41.706888572503601 ], [ -8.661956425549226, 41.708599216065664 ], [ -8.662696641516735, 41.708599216065664 ], [ -8.662696641516735, 41.711165096063461 ], [ -8.661956425549226, 41.711165096063461 ], [ -8.661956425549226, 41.712020366637141 ], [ -8.661216209581719, 41.712020366637141 ], [ -8.661216209581719, 41.712875625831309 ], [ -8.66047599361421, 41.712875625831309 ], [ -8.66047599361421, 41.713303251161058 ], [ -8.659735777646702, 41.713303251161058 ], [ -8.659735777646702, 41.713730873645915 ], [ -8.658995561679193, 41.713730873645915 ], [ -8.658995561679193, 41.714586110080923 ], [ -8.658255345711686, 41.714586110080923 ], [ -8.658255345711686, 41.715013724031053 ], [ -8.657515129744178, 41.715013724031053 ], [ -8.657515129744178, 41.715868943396593 ], [ -8.656774913776669, 41.715868943396593 ], [ -8.656774913776669, 41.716296548811982 ], [ -8.655294481841651, 41.716296548811982 ], [ -8.655294481841651, 41.716724151382444 ], [ -8.652333617971617, 41.716724151382444 ] ] ], [ [ [ -7.620472559265001, 41.800479324805842 ], [ -7.620472559265001, 41.800052279935009 ], [ -7.615291047492441, 41.800052279935009 ], [ -7.615291047492441, 41.800479324805842 ], [ -7.612330183622409, 41.800479324805842 ], [ -7.612330183622409, 41.796635818517217 ], [ -7.613070399589917, 41.796635818517217 ], [ -7.613070399589917, 41.795781674704308 ], [ -7.613810615557426, 41.795781674704308 ], [ -7.613810615557426, 41.794927519508086 ], [ -7.614550831524934, 41.794927519508086 ], [ -7.614550831524934, 41.791510784890932 ], [ -7.613810615557426, 41.791510784890932 ], [ -7.613810615557426, 41.791083680257728 ], [ -7.613070399589917, 41.791083680257728 ], [ -7.613070399589917, 41.790229462454 ], [ -7.612330183622409, 41.790229462454 ], [ -7.612330183622409, 41.789802349283491 ], [ -7.611589967654901, 41.789802349283491 ], [ -7.611589967654901, 41.789375233267229 ], [ -7.610109535719883, 41.789375233267229 ], [ -7.610109535719883, 41.788948114405194 ], [ -7.609369319752376, 41.788948114405194 ], [ -7.609369319752376, 41.788520992697428 ], [ -7.608629103784867, 41.788520992697428 ], [ -7.608629103784867, 41.788093868143903 ], [ -7.607888887817359, 41.788093868143903 ], [ -7.607888887817359, 41.78766674074464 ], [ -7.60714867184985, 41.78766674074464 ], [ -7.60714867184985, 41.78723961049964 ], [ -7.606408455882341, 41.78723961049964 ], [ -7.606408455882341, 41.786812477408915 ], [ -7.605668239914835, 41.786812477408915 ], [ -7.605668239914835, 41.78638534147246 ], [ -7.604928023947326, 41.78638534147246 ], [ -7.604928023947326, 41.785958202690288 ], [ -7.604187807979817, 41.785958202690288 ], [ -7.604187807979817, 41.785103916588781 ], [ -7.6027073760448, 41.785103916588781 ], [ -7.6027073760448, 41.784676769269467 ], [ -7.59826608023975, 41.784676769269467 ], [ -7.59826608023975, 41.785103916588781 ], [ -7.595305216369718, 41.785103916588781 ], [ -7.595305216369718, 41.785531061062386 ], [ -7.594565000402209, 41.785531061062386 ], [ -7.594565000402209, 41.785958202690288 ], [ -7.593824784434701, 41.785958202690288 ], [ -7.593824784434701, 41.78638534147246 ], [ -7.592344352499683, 41.78638534147246 ], [ -7.592344352499683, 41.786812477408915 ], [ -7.591604136532175, 41.786812477408915 ], [ -7.591604136532175, 41.78723961049964 ], [ -7.589383488629649, 41.78723961049964 ], [ -7.589383488629649, 41.786812477408915 ], [ -7.588643272662142, 41.786812477408915 ], [ -7.588643272662142, 41.78638534147246 ], [ -7.587903056694633, 41.78638534147246 ], [ -7.587903056694633, 41.785103916588781 ], [ -7.587162840727125, 41.785103916588781 ], [ -7.587162840727125, 41.783395310237324 ], [ -7.587903056694633, 41.783395310237324 ], [ -7.587903056694633, 41.782968151535236 ], [ -7.588643272662142, 41.782968151535236 ], [ -7.588643272662142, 41.782540989987446 ], [ -7.590123704597159, 41.782540989987446 ], [ -7.590123704597159, 41.782113825593996 ], [ -7.591604136532175, 41.782113825593996 ], [ -7.591604136532175, 41.781686658354857 ], [ -7.593084568467192, 41.781686658354857 ], [ -7.593084568467192, 41.781259488270059 ], [ -7.593824784434701, 41.781259488270059 ], [ -7.593824784434701, 41.780832315339595 ], [ -7.594565000402209, 41.780832315339595 ], [ -7.594565000402209, 41.780405139563463 ], [ -7.595305216369718, 41.780405139563463 ], [ -7.595305216369718, 41.779977960941686 ], [ -7.596045432337224, 41.779977960941686 ], [ -7.596045432337224, 41.779123595161181 ], [ -7.596785648304733, 41.779123595161181 ], [ -7.596785648304733, 41.77869640800246 ], [ -7.597525864272242, 41.77869640800246 ], [ -7.597525864272242, 41.778269217998115 ], [ -7.599006296207259, 41.778269217998115 ], [ -7.599006296207259, 41.777842025148132 ], [ -7.599746512174766, 41.777842025148132 ], [ -7.599746512174766, 41.776560429524444 ], [ -7.600486728142275, 41.776560429524444 ], [ -7.600486728142275, 41.775706018213931 ], [ -7.604187807979817, 41.775706018213931 ], [ -7.604187807979817, 41.77527880829026 ], [ -7.604928023947326, 41.77527880829026 ], [ -7.604928023947326, 41.774851595521 ], [ -7.605668239914835, 41.774851595521 ], [ -7.605668239914835, 41.774424379906144 ], [ -7.60714867184985, 41.774424379906144 ], [ -7.60714867184985, 41.774851595521 ], [ -7.608629103784867, 41.774851595521 ], [ -7.608629103784867, 41.77527880829026 ], [ -7.612330183622409, 41.77527880829026 ], [ -7.612330183622409, 41.774851595521 ], [ -7.613070399589917, 41.774851595521 ], [ -7.613070399589917, 41.774424379906144 ], [ -7.613810615557426, 41.774424379906144 ], [ -7.613810615557426, 41.773997161445699 ], [ -7.614550831524934, 41.773997161445699 ], [ -7.614550831524934, 41.77527880829026 ], [ -7.615291047492441, 41.77527880829026 ], [ -7.615291047492441, 41.776560429524444 ], [ -7.61603126345995, 41.776560429524444 ], [ -7.61603126345995, 41.777414829452525 ], [ -7.616771479427458, 41.777414829452525 ], [ -7.616771479427458, 41.777842025148132 ], [ -7.617511695394967, 41.777842025148132 ], [ -7.617511695394967, 41.778269217998115 ], [ -7.618251911362474, 41.778269217998115 ], [ -7.618251911362474, 41.77869640800246 ], [ -7.618992127329983, 41.77869640800246 ], [ -7.618992127329983, 41.779123595161181 ], [ -7.620472559265001, 41.779123595161181 ], [ -7.620472559265001, 41.779550779474249 ], [ -7.622693207167525, 41.779550779474249 ], [ -7.622693207167525, 41.779977960941686 ], [ -7.623433423135034, 41.779977960941686 ], [ -7.623433423135034, 41.780832315339595 ], [ -7.624173639102543, 41.780832315339595 ], [ -7.624173639102543, 41.781259488270059 ], [ -7.624913855070049, 41.781259488270059 ], [ -7.624913855070049, 41.782113825593996 ], [ -7.625654071037558, 41.782113825593996 ], [ -7.625654071037558, 41.782540989987446 ], [ -7.626394287005067, 41.782540989987446 ], [ -7.626394287005067, 41.782968151535236 ], [ -7.627134502972575, 41.782968151535236 ], [ -7.627134502972575, 41.783395310237324 ], [ -7.627874718940084, 41.783395310237324 ], [ -7.627874718940084, 41.783822466093739 ], [ -7.628614934907592, 41.783822466093739 ], [ -7.628614934907592, 41.785103916588781 ], [ -7.629355150875099, 41.785103916588781 ], [ -7.629355150875099, 41.792792081715838 ], [ -7.628614934907592, 41.792792081715838 ], [ -7.628614934907592, 41.797062886154912 ], [ -7.627874718940084, 41.797062886154912 ], [ -7.627874718940084, 41.797489950946769 ], [ -7.627134502972575, 41.797489950946769 ], [ -7.627134502972575, 41.797917012892796 ], [ -7.626394287005067, 41.797917012892796 ], [ -7.626394287005067, 41.798771128247253 ], [ -7.624913855070049, 41.798771128247253 ], [ -7.624913855070049, 41.799198181655704 ], [ -7.624173639102543, 41.799198181655704 ], [ -7.624173639102543, 41.79962523221829 ], [ -7.623433423135034, 41.79962523221829 ], [ -7.623433423135034, 41.800052279935009 ], [ -7.621952991200017, 41.800052279935009 ], [ -7.621952991200017, 41.800479324805842 ], [ -7.620472559265001, 41.800479324805842 ] ] ] ] } }
]
}
