{
"type": "FeatureCollection",
"name": "spain_fires_modis_ba",
"crs": { "type": "name", "properties": { "name": "urn:ogc:def:crs:OGC:1.3:CRS84" } },
"features": [
{ "type": "Feature", "properties": { }, "geometry": { "type": "MultiPolygon", "coordinates": [ [ [ [ -6.858050112731416, 37.226165748519882 ], [ -6.858050112731416, 37.224797331967686 ], [ -6.857309896763907, 37.224797331967686 ], [ -6.857309896763907, 37.224341187599144 ], [ -6.858050112731416, 37.224341187599144 ], [ -6.858050112731416, 37.222972737940296 ], [ -6.858790328698924, 37.222972737940296 ], [ -6.858790328698924, 37.222516582536301 ], [ -6.860270760633941, 37.222516582536301 ], [ -6.860270760633941, 37.222972737940296 ], [ -6.86101097660145, 37.222972737940296 ], [ -6.86101097660145, 37.223428890585438 ], [ -6.861751192568958, 37.223428890585438 ], [ -6.861751192568958, 37.225253473577325 ], [ -6.86101097660145, 37.225253473577325 ], [ -6.86101097660145, 37.226165748519882 ], [ -6.858050112731416, 37.226165748519882 ] ] ], [ [ [ 0.780238455987087, 42.578464472643439 ], [ 0.780238455987087, 42.57804265158174 ], [ 0.778758024052071, 42.57804265158174 ], [ 0.778758024052071, 42.578464472643439 ], [ 0.780238455987087, 42.578464472643439 ] ] ] ] } }
]
}
