{
"type": "FeatureCollection",
"name": "spain_fires_nrt_ba",
"crs": { "type": "name", "properties": { "name": "urn:ogc:def:crs:OGC:1.3:CRS84" } },
"features": [
{ "type": "Feature", "properties": { }, "geometry": { "type": "MultiPolygon", "coordinates": [ [ [ [ -0.336007223015481, 35.814286296444358 ], [ -0.336007223015481, 35.813357220769255 ], [ -0.335267007047972, 35.813357220769255 ], [ -0.335267007047972, 35.812892678855093 ], [ -0.334526791080464, 35.812892678855093 ], [ -0.334526791080464, 35.811963586873631 ], [ -0.333786575112956, 35.811963586873631 ], [ -0.333786575112956, 35.811499036806339 ], [ -0.333046359145447, 35.811499036806339 ], [ -0.333046359145447, 35.809640809360559 ], [ -0.333786575112956, 35.809640809360559 ], [ -0.333786575112956, 35.805924224024189 ], [ -0.334526791080464, 35.805924224024189 ], [ -0.334526791080464, 35.80220746476764 ], [ -0.335267007047972, 35.80220746476764 ], [ -0.335267007047972, 35.801742857632192 ], [ -0.336007223015481, 35.801742857632192 ], [ -0.336007223015481, 35.801278247779365 ], [ -0.336747438982989, 35.801278247779365 ], [ -0.336747438982989, 35.800813635209181 ], [ -0.337487654950497, 35.800813635209181 ], [ -0.337487654950497, 35.800349019921647 ], [ -0.338227870918006, 35.800349019921647 ], [ -0.338227870918006, 35.799884401916799 ], [ -0.338968086885514, 35.799884401916799 ], [ -0.338968086885514, 35.799419781194644 ], [ -0.341928950755547, 35.799419781194644 ], [ -0.341928950755547, 35.799884401916799 ], [ -0.342669166723056, 35.799884401916799 ], [ -0.342669166723056, 35.800349019921647 ], [ -0.344149598658072, 35.800349019921647 ], [ -0.344149598658072, 35.800813635209181 ], [ -0.344889814625581, 35.800813635209181 ], [ -0.344889814625581, 35.801278247779365 ], [ -0.346370246560597, 35.801278247779365 ], [ -0.346370246560597, 35.801742857632192 ], [ -0.347110462528106, 35.801742857632192 ], [ -0.347110462528106, 35.80220746476764 ], [ -0.348590894463122, 35.80220746476764 ], [ -0.348590894463122, 35.802672069185711 ], [ -0.350811542365647, 35.802672069185711 ], [ -0.350811542365647, 35.80220746476764 ], [ -0.353032190268173, 35.80220746476764 ], [ -0.353032190268173, 35.801742857632192 ], [ -0.355252838170697, 35.801742857632192 ], [ -0.355252838170697, 35.802672069185711 ], [ -0.355993054138206, 35.802672069185711 ], [ -0.355993054138206, 35.803601269869652 ], [ -0.356733270105714, 35.803601269869652 ], [ -0.356733270105714, 35.804065866135467 ], [ -0.357473486073222, 35.804065866135467 ], [ -0.357473486073222, 35.809640809360559 ], [ -0.356733270105714, 35.809640809360559 ], [ -0.356733270105714, 35.810105370298473 ], [ -0.355993054138206, 35.810105370298473 ], [ -0.355993054138206, 35.811034484021377 ], [ -0.355252838170697, 35.811034484021377 ], [ -0.355252838170697, 35.811499036806339 ], [ -0.354512622203189, 35.811499036806339 ], [ -0.354512622203189, 35.811963586873631 ], [ -0.350811542365647, 35.811963586873631 ], [ -0.350811542365647, 35.812892678855093 ], [ -0.350071326398139, 35.812892678855093 ], [ -0.350071326398139, 35.813821759965677 ], [ -0.349331110430631, 35.813821759965677 ], [ -0.349331110430631, 35.814750830205249 ], [ -0.348590894463122, 35.814750830205249 ], [ -0.348590894463122, 35.815679889573708 ], [ -0.337487654950497, 35.815679889573708 ], [ -0.337487654950497, 35.814750830205249 ], [ -0.336747438982989, 35.814750830205249 ], [ -0.336747438982989, 35.814286296444358 ], [ -0.336007223015481, 35.814286296444358 ] ] ], [ [ [ -0.276789945614814, 35.824505411354338 ], [ -0.276049729647306, 35.824505411354338 ], [ -0.276049729647306, 35.824040934669902 ], [ -0.274569297712289, 35.824040934669902 ], [ -0.274569297712289, 35.8235764552674 ], [ -0.272348649809764, 35.8235764552674 ], [ -0.272348649809764, 35.82311197314683 ], [ -0.270128001907239, 35.82311197314683 ], [ -0.270128001907239, 35.822647488308213 ], [ -0.267167138037206, 35.822647488308213 ], [ -0.267167138037206, 35.822183000751579 ], [ -0.264946490134681, 35.822183000751579 ], [ -0.264946490134681, 35.821718510476927 ], [ -0.262725842232156, 35.821718510476927 ], [ -0.262725842232156, 35.821254017484272 ], [ -0.260505194329631, 35.821254017484272 ], [ -0.260505194329631, 35.820789521773627 ], [ -0.259764978362122, 35.820789521773627 ], [ -0.259764978362122, 35.819860522198454 ], [ -0.259024762394614, 35.819860522198454 ], [ -0.259024762394614, 35.81939601833394 ], [ -0.258284546427106, 35.81939601833394 ], [ -0.258284546427106, 35.818467002451158 ], [ -0.257544330459597, 35.818467002451158 ], [ -0.257544330459597, 35.818002490432896 ], [ -0.256804114492089, 35.818002490432896 ], [ -0.256804114492089, 35.81753797569678 ], [ -0.253843250622056, 35.81753797569678 ], [ -0.253843250622056, 35.817073458242774 ], [ -0.252362818687039, 35.817073458242774 ], [ -0.252362818687039, 35.816608938070921 ], [ -0.251622602719531, 35.816608938070921 ], [ -0.251622602719531, 35.816144415181228 ], [ -0.250882386752022, 35.816144415181228 ], [ -0.250882386752022, 35.815215361248384 ], [ -0.250142170784514, 35.815215361248384 ], [ -0.250142170784514, 35.814750830205249 ], [ -0.249401954817006, 35.814750830205249 ], [ -0.249401954817006, 35.814286296444358 ], [ -0.248661738849497, 35.814286296444358 ], [ -0.248661738849497, 35.813357220769255 ], [ -0.247921522881989, 35.813357220769255 ], [ -0.247921522881989, 35.812892678855093 ], [ -0.247181306914481, 35.812892678855093 ], [ -0.247181306914481, 35.812428134223211 ], [ -0.244220443044447, 35.812428134223211 ], [ -0.244220443044447, 35.811963586873631 ], [ -0.243480227076939, 35.811963586873631 ], [ -0.243480227076939, 35.812428134223211 ], [ -0.242740011109431, 35.812428134223211 ], [ -0.242740011109431, 35.813357220769255 ], [ -0.241999795141922, 35.813357220769255 ], [ -0.241999795141922, 35.814286296444358 ], [ -0.241259579174414, 35.814286296444358 ], [ -0.241259579174414, 35.814750830205249 ], [ -0.239779147239397, 35.814750830205249 ], [ -0.239779147239397, 35.815215361248384 ], [ -0.238298715304381, 35.815215361248384 ], [ -0.238298715304381, 35.815679889573708 ], [ -0.237558499336872, 35.815679889573708 ], [ -0.237558499336872, 35.816144415181228 ], [ -0.235337851434347, 35.816144415181228 ], [ -0.235337851434347, 35.815679889573708 ], [ -0.233117203531822, 35.815679889573708 ], [ -0.233117203531822, 35.815215361248384 ], [ -0.231636771596806, 35.815215361248384 ], [ -0.231636771596806, 35.814750830205249 ], [ -0.230896555629297, 35.814750830205249 ], [ -0.230896555629297, 35.813357220769255 ], [ -0.230156339661789, 35.813357220769255 ], [ -0.230156339661789, 35.812428134223211 ], [ -0.229416123694281, 35.812428134223211 ], [ -0.229416123694281, 35.811034484021377 ], [ -0.228675907726772, 35.811034484021377 ], [ -0.228675907726772, 35.810105370298473 ], [ -0.227935691759264, 35.810105370298473 ], [ -0.227935691759264, 35.809176245705025 ], [ -0.227195475791756, 35.809176245705025 ], [ -0.227195475791756, 35.80731796390701 ], [ -0.227935691759264, 35.80731796390701 ], [ -0.227935691759264, 35.805924224024189 ], [ -0.228675907726772, 35.805924224024189 ], [ -0.228675907726772, 35.804530459683846 ], [ -0.229416123694281, 35.804530459683846 ], [ -0.229416123694281, 35.803601269869652 ], [ -0.230156339661789, 35.803601269869652 ], [ -0.230156339661789, 35.803136670886389 ], [ -0.230896555629297, 35.803136670886389 ], [ -0.230896555629297, 35.802672069185711 ], [ -0.231636771596806, 35.802672069185711 ], [ -0.231636771596806, 35.80220746476764 ], [ -0.232376987564314, 35.80220746476764 ], [ -0.232376987564314, 35.801742857632192 ], [ -0.237558499336872, 35.801742857632192 ], [ -0.237558499336872, 35.80220746476764 ], [ -0.238298715304381, 35.80220746476764 ], [ -0.238298715304381, 35.802672069185711 ], [ -0.239038931271889, 35.802672069185711 ], [ -0.239038931271889, 35.800813635209181 ], [ -0.239779147239397, 35.800813635209181 ], [ -0.239779147239397, 35.799884401916799 ], [ -0.240519363206906, 35.799884401916799 ], [ -0.240519363206906, 35.799419781194644 ], [ -0.241259579174414, 35.799419781194644 ], [ -0.241259579174414, 35.798955157755167 ], [ -0.242740011109431, 35.798955157755167 ], [ -0.242740011109431, 35.798490531598425 ], [ -0.245700874979464, 35.798490531598425 ], [ -0.245700874979464, 35.798955157755167 ], [ -0.247921522881989, 35.798955157755167 ], [ -0.247921522881989, 35.799419781194644 ], [ -0.249401954817006, 35.799419781194644 ], [ -0.249401954817006, 35.799884401916799 ], [ -0.250882386752022, 35.799884401916799 ], [ -0.250882386752022, 35.799419781194644 ], [ -0.252362818687039, 35.799419781194644 ], [ -0.252362818687039, 35.798955157755167 ], [ -0.253843250622056, 35.798955157755167 ], [ -0.253843250622056, 35.798490531598425 ], [ -0.255323682557072, 35.798490531598425 ], [ -0.255323682557072, 35.798025902724412 ], [ -0.261245410297139, 35.798025902724412 ], [ -0.261245410297139, 35.798490531598425 ], [ -0.266426922069697, 35.798490531598425 ], [ -0.266426922069697, 35.799419781194644 ], [ -0.267167138037206, 35.799419781194644 ], [ -0.267167138037206, 35.799884401916799 ], [ -0.267907354004714, 35.799884401916799 ], [ -0.267907354004714, 35.800349019921647 ], [ -0.268647569972222, 35.800349019921647 ], [ -0.268647569972222, 35.801278247779365 ], [ -0.269387785939731, 35.801278247779365 ], [ -0.269387785939731, 35.801742857632192 ], [ -0.270128001907239, 35.801742857632192 ], [ -0.270128001907239, 35.80220746476764 ], [ -0.270868217874747, 35.80220746476764 ], [ -0.270868217874747, 35.803136670886389 ], [ -0.271608433842256, 35.803136670886389 ], [ -0.271608433842256, 35.803601269869652 ], [ -0.272348649809764, 35.803601269869652 ], [ -0.272348649809764, 35.804530459683846 ], [ -0.273088865777272, 35.804530459683846 ], [ -0.273088865777272, 35.804995050514783 ], [ -0.273829081744781, 35.804995050514783 ], [ -0.273829081744781, 35.804065866135467 ], [ -0.274569297712289, 35.804065866135467 ], [ -0.274569297712289, 35.803136670886389 ], [ -0.275309513679797, 35.803136670886389 ], [ -0.275309513679797, 35.80220746476764 ], [ -0.276049729647306, 35.80220746476764 ], [ -0.276049729647306, 35.801742857632192 ], [ -0.276789945614814, 35.801742857632192 ], [ -0.276789945614814, 35.801278247779365 ], [ -0.278270377549831, 35.801278247779365 ], [ -0.278270377549831, 35.800813635209181 ], [ -0.279010593517339, 35.800813635209181 ], [ -0.279010593517339, 35.800349019921647 ], [ -0.280491025452356, 35.800349019921647 ], [ -0.280491025452356, 35.800813635209181 ], [ -0.281231241419864, 35.800813635209181 ], [ -0.281231241419864, 35.801278247779365 ], [ -0.282711673354881, 35.801278247779365 ], [ -0.282711673354881, 35.801742857632192 ], [ -0.283451889322389, 35.801742857632192 ], [ -0.283451889322389, 35.80220746476764 ], [ -0.284192105289897, 35.80220746476764 ], [ -0.284192105289897, 35.804065866135467 ], [ -0.284932321257406, 35.804065866135467 ], [ -0.284932321257406, 35.806388806702657 ], [ -0.285672537224914, 35.806388806702657 ], [ -0.285672537224914, 35.808711679331893 ], [ -0.286412753192422, 35.808711679331893 ], [ -0.286412753192422, 35.811034484021377 ], [ -0.287152969159931, 35.811034484021377 ], [ -0.287152969159931, 35.821254017484272 ], [ -0.286412753192422, 35.821254017484272 ], [ -0.286412753192422, 35.822183000751579 ], [ -0.285672537224914, 35.822183000751579 ], [ -0.285672537224914, 35.822647488308213 ], [ -0.284932321257406, 35.822647488308213 ], [ -0.284932321257406, 35.82311197314683 ], [ -0.284192105289897, 35.82311197314683 ], [ -0.284192105289897, 35.8235764552674 ], [ -0.283451889322389, 35.8235764552674 ], [ -0.283451889322389, 35.824040934669902 ], [ -0.282711673354881, 35.824040934669902 ], [ -0.282711673354881, 35.824505411354338 ], [ -0.281971457387372, 35.824505411354338 ], [ -0.281971457387372, 35.824969885320684 ], [ -0.281231241419864, 35.824969885320684 ], [ -0.281231241419864, 35.82543435656892 ], [ -0.280491025452356, 35.82543435656892 ], [ -0.280491025452356, 35.825898825099053 ], [ -0.278270377549831, 35.825898825099053 ], [ -0.278270377549831, 35.82543435656892 ], [ -0.277530161582322, 35.82543435656892 ], [ -0.277530161582322, 35.824969885320684 ], [ -0.276789945614814, 35.824969885320684 ], [ -0.276789945614814, 35.824505411354338 ] ] ], [ [ [ 1.245094083582321, 36.13463042610794 ], [ 1.245834299549829, 36.13463042610794 ], [ 1.245834299549829, 36.134167771051025 ], [ 1.246574515517338, 36.134167771051025 ], [ 1.246574515517338, 36.13370511326643 ], [ 1.247314731484846, 36.13370511326643 ], [ 1.247314731484846, 36.133242452754182 ], [ 1.248054947452355, 36.133242452754182 ], [ 1.248054947452355, 36.132317123546741 ], [ 1.248795163419863, 36.132317123546741 ], [ 1.248795163419863, 36.130929109278505 ], [ 1.249535379387371, 36.130929109278505 ], [ 1.249535379387371, 36.127690313854742 ], [ 1.248795163419863, 36.127690313854742 ], [ 1.248795163419863, 36.125839513607794 ], [ 1.248054947452355, 36.125839513607794 ], [ 1.248054947452355, 36.124914097119721 ], [ 1.246574515517338, 36.124914097119721 ], [ 1.246574515517338, 36.124451384784592 ], [ 1.245834299549829, 36.124451384784592 ], [ 1.245834299549829, 36.123988669722088 ], [ 1.245094083582321, 36.123988669722088 ], [ 1.245094083582321, 36.123525951932208 ], [ 1.244353867614813, 36.123525951932208 ], [ 1.244353867614813, 36.123063231414996 ], [ 1.243613651647304, 36.123063231414996 ], [ 1.243613651647304, 36.122600508170429 ], [ 1.242873435679796, 36.122600508170429 ], [ 1.242873435679796, 36.122137782198543 ], [ 1.24139300374478, 36.122137782198543 ], [ 1.24139300374478, 36.121675053499345 ], [ 1.239172355842254, 36.121675053499345 ], [ 1.239172355842254, 36.122137782198543 ], [ 1.238432139874746, 36.122137782198543 ], [ 1.238432139874746, 36.122600508170429 ], [ 1.237691923907238, 36.122600508170429 ], [ 1.237691923907238, 36.123063231414996 ], [ 1.236951707939729, 36.123063231414996 ], [ 1.236951707939729, 36.123525951932208 ], [ 1.236211491972221, 36.123525951932208 ], [ 1.236211491972221, 36.123988669722088 ], [ 1.235471276004713, 36.123988669722088 ], [ 1.235471276004713, 36.124451384784592 ], [ 1.234731060037205, 36.124451384784592 ], [ 1.234731060037205, 36.126764919186158 ], [ 1.233990844069696, 36.126764919186158 ], [ 1.233990844069696, 36.130003752795091 ], [ 1.233250628102188, 36.130003752795091 ], [ 1.233250628102188, 36.130929109278505 ], [ 1.233990844069696, 36.130929109278505 ], [ 1.233990844069696, 36.131854454851599 ], [ 1.234731060037205, 36.131854454851599 ], [ 1.234731060037205, 36.133242452754182 ], [ 1.235471276004713, 36.133242452754182 ], [ 1.235471276004713, 36.134167771051025 ], [ 1.236211491972221, 36.134167771051025 ], [ 1.236211491972221, 36.135555728038689 ], [ 1.238432139874746, 36.135555728038689 ], [ 1.238432139874746, 36.136018374912496 ], [ 1.243613651647304, 36.136018374912496 ], [ 1.243613651647304, 36.135555728038689 ], [ 1.244353867614813, 36.135555728038689 ], [ 1.244353867614813, 36.135093078437173 ], [ 1.245094083582321, 36.135093078437173 ], [ 1.245094083582321, 36.13463042610794 ] ] ], [ [ [ -9.061673048003728, 38.604489118365379 ], [ -9.060192616068711, 38.604489118365379 ], [ -9.060192616068711, 38.604041450218908 ], [ -9.059452400101202, 38.604041450218908 ], [ -9.059452400101202, 38.603593779279791 ], [ -9.057971968166186, 38.603593779279791 ], [ -9.057971968166186, 38.603146105548042 ], [ -9.057231752198676, 38.603146105548042 ], [ -9.057231752198676, 38.602698429023668 ], [ -9.05575132026366, 38.602698429023668 ], [ -9.05575132026366, 38.602250749706677 ], [ -9.055011104296153, 38.602250749706677 ], [ -9.055011104296153, 38.601355382694891 ], [ -9.054270888328643, 38.601355382694891 ], [ -9.054270888328643, 38.599116916295358 ], [ -9.053530672361134, 38.599116916295358 ], [ -9.053530672361134, 38.596878380082423 ], [ -9.052790456393627, 38.596878380082423 ], [ -9.052790456393627, 38.593296576932957 ], [ -9.053530672361134, 38.593296576932957 ], [ -9.053530672361134, 38.591505608340142 ], [ -9.054270888328643, 38.591505608340142 ], [ -9.054270888328643, 38.591057859210991 ], [ -9.055011104296153, 38.591057859210991 ], [ -9.055011104296153, 38.590610107289493 ], [ -9.057231752198676, 38.590610107289493 ], [ -9.057231752198676, 38.590162352575632 ], [ -9.059452400101202, 38.590162352575632 ], [ -9.059452400101202, 38.589714595069445 ], [ -9.061673048003728, 38.589714595069445 ], [ -9.061673048003728, 38.589266834770932 ], [ -9.064633911873761, 38.589266834770932 ], [ -9.064633911873761, 38.588819071680099 ], [ -9.067594775743792, 38.588819071680099 ], [ -9.067594775743792, 38.589266834770932 ], [ -9.068334991711302, 38.589266834770932 ], [ -9.068334991711302, 38.590162352575632 ], [ -9.069075207678809, 38.590162352575632 ], [ -9.069075207678809, 38.591505608340142 ], [ -9.069815423646318, 38.591505608340142 ], [ -9.069815423646318, 38.592401098221323 ], [ -9.070555639613827, 38.592401098221323 ], [ -9.070555639613827, 38.595535224844745 ], [ -9.069815423646318, 38.595535224844745 ], [ -9.069815423646318, 38.597326092910016 ], [ -9.069075207678809, 38.597326092910016 ], [ -9.069075207678809, 38.599564615160368 ], [ -9.068334991711302, 38.599564615160368 ], [ -9.068334991711302, 38.601355382694891 ], [ -9.067594775743792, 38.601355382694891 ], [ -9.067594775743792, 38.603593779279791 ], [ -9.066854559776285, 38.603593779279791 ], [ -9.066854559776285, 38.604041450218908 ], [ -9.065374127841269, 38.604041450218908 ], [ -9.065374127841269, 38.604489118365379 ], [ -9.064633911873761, 38.604489118365379 ], [ -9.064633911873761, 38.604936783719197 ], [ -9.063153479938745, 38.604936783719197 ], [ -9.063153479938745, 38.605384446280347 ], [ -9.062413263971235, 38.605384446280347 ], [ -9.062413263971235, 38.604936783719197 ], [ -9.061673048003728, 38.604936783719197 ], [ -9.061673048003728, 38.604489118365379 ] ] ], [ [ [ 0.181403738272845, 41.92931664668108 ], [ 0.181403738272845, 41.928890461478971 ], [ 0.182143954240353, 41.928890461478971 ], [ 0.182143954240353, 41.928464273429555 ], [ 0.182884170207862, 41.928464273429555 ], [ 0.182884170207862, 41.928038082532858 ], [ 0.18362438617537, 41.928038082532858 ], [ 0.18362438617537, 41.92761188878891 ], [ 0.184364602142878, 41.92761188878891 ], [ 0.184364602142878, 41.927185692197682 ], [ 0.185845034077895, 41.927185692197682 ], [ 0.185845034077895, 41.926759492759189 ], [ 0.186585250045403, 41.926759492759189 ], [ 0.186585250045403, 41.926333290473444 ], [ 0.187325466012912, 41.926333290473444 ], [ 0.187325466012912, 41.925907085340441 ], [ 0.18806568198042, 41.925907085340441 ], [ 0.18806568198042, 41.924628452857952 ], [ 0.188805897947928, 41.924628452857952 ], [ 0.188805897947928, 41.922923569686702 ], [ 0.189546113915437, 41.922923569686702 ], [ 0.189546113915437, 41.921218640959964 ], [ 0.188805897947928, 41.921218640959964 ], [ 0.188805897947928, 41.919513666678057 ], [ 0.18806568198042, 41.919513666678057 ], [ 0.18806568198042, 41.917808646841237 ], [ 0.187325466012912, 41.917808646841237 ], [ 0.187325466012912, 41.916529852068429 ], [ 0.185845034077895, 41.916529852068429 ], [ 0.185845034077895, 41.916103581449839 ], [ 0.18362438617537, 41.916103581449839 ], [ 0.18362438617537, 41.915677307984119 ], [ 0.182143954240353, 41.915677307984119 ], [ 0.182143954240353, 41.915251031671261 ], [ 0.180663522305336, 41.915251031671261 ], [ 0.180663522305336, 41.915677307984119 ], [ 0.179923306337828, 41.915677307984119 ], [ 0.179923306337828, 41.916103581449839 ], [ 0.17918309037032, 41.916103581449839 ], [ 0.17918309037032, 41.916529852068429 ], [ 0.178442874402812, 41.916529852068429 ], [ 0.178442874402812, 41.916956119839853 ], [ 0.177702658435303, 41.916956119839853 ], [ 0.177702658435303, 41.917808646841237 ], [ 0.176962442467795, 41.917808646841237 ], [ 0.176962442467795, 41.918234906071213 ], [ 0.176222226500287, 41.918234906071213 ], [ 0.176222226500287, 41.918661162453994 ], [ 0.175482010532778, 41.918661162453994 ], [ 0.175482010532778, 41.919087415989608 ], [ 0.17474179456527, 41.919087415989608 ], [ 0.17474179456527, 41.919939914519318 ], [ 0.174001578597761, 41.919939914519318 ], [ 0.174001578597761, 41.921218640959964 ], [ 0.173261362630253, 41.921218640959964 ], [ 0.173261362630253, 41.92207111101775 ], [ 0.172521146662745, 41.92207111101775 ], [ 0.172521146662745, 41.922923569686702 ], [ 0.171780930695237, 41.922923569686702 ], [ 0.171780930695237, 41.923776016966784 ], [ 0.172521146662745, 41.923776016966784 ], [ 0.172521146662745, 41.927185692197682 ], [ 0.173261362630253, 41.927185692197682 ], [ 0.173261362630253, 41.928890461478971 ], [ 0.174001578597761, 41.928890461478971 ], [ 0.174001578597761, 41.92931664668108 ], [ 0.176222226500287, 41.92931664668108 ], [ 0.176222226500287, 41.929742829035931 ], [ 0.178442874402812, 41.929742829035931 ], [ 0.178442874402812, 41.930169008543487 ], [ 0.179923306337828, 41.930169008543487 ], [ 0.179923306337828, 41.929742829035931 ], [ 0.180663522305336, 41.929742829035931 ], [ 0.180663522305336, 41.92931664668108 ], [ 0.181403738272845, 41.92931664668108 ] ] ], [ [ [ -4.422739579628995, 41.991934896219995 ], [ -4.421999363661487, 41.991934896219995 ], [ -4.421999363661487, 41.991509129617434 ], [ -4.421259147693979, 41.991509129617434 ], [ -4.421259147693979, 41.990657587868476 ], [ -4.42051893172647, 41.990657587868476 ], [ -4.42051893172647, 41.990231812722101 ], [ -4.419778715758961, 41.990231812722101 ], [ -4.419778715758961, 41.989806034727778 ], [ -4.419038499791453, 41.989806034727778 ], [ -4.419038499791453, 41.988954470195374 ], [ -4.418298283823946, 41.988954470195374 ], [ -4.418298283823946, 41.9885286836573 ], [ -4.417558067856437, 41.9885286836573 ], [ -4.417558067856437, 41.988102894271307 ], [ -4.416817851888928, 41.988102894271307 ], [ -4.416817851888928, 41.987251306955599 ], [ -4.41607763592142, 41.987251306955599 ], [ -4.41607763592142, 41.986825509025898 ], [ -4.415337419953912, 41.986825509025898 ], [ -4.415337419953912, 41.982567373095364 ], [ -4.41607763592142, 41.982567373095364 ], [ -4.41607763592142, 41.981715711734914 ], [ -4.416817851888928, 41.981715711734914 ], [ -4.416817851888928, 41.980438198335428 ], [ -4.417558067856437, 41.980438198335428 ], [ -4.417558067856437, 41.979586508496631 ], [ -4.418298283823946, 41.979586508496631 ], [ -4.418298283823946, 41.978734807266555 ], [ -4.419038499791453, 41.978734807266555 ], [ -4.419038499791453, 41.977457234062875 ], [ -4.419778715758961, 41.977457234062875 ], [ -4.419778715758961, 41.976605504354772 ], [ -4.42051893172647, 41.976605504354772 ], [ -4.42051893172647, 41.975753763255511 ], [ -4.421259147693979, 41.975753763255511 ], [ -4.421259147693979, 41.975327888434215 ], [ -4.423479795596504, 41.975327888434215 ], [ -4.423479795596504, 41.974902010765142 ], [ -4.433102603174112, 41.974902010765142 ], [ -4.433102603174112, 41.975327888434215 ], [ -4.43384281914162, 41.975327888434215 ], [ -4.43384281914162, 41.976179635229038 ], [ -4.434583035109129, 41.976179635229038 ], [ -4.434583035109129, 41.977031370632723 ], [ -4.435323251076637, 41.977031370632723 ], [ -4.435323251076637, 41.977883094645236 ], [ -4.436063467044145, 41.977883094645236 ], [ -4.436063467044145, 41.977457234062875 ], [ -4.436803683011654, 41.977457234062875 ], [ -4.436803683011654, 41.977031370632723 ], [ -4.437543898979161, 41.977031370632723 ], [ -4.437543898979161, 41.976605504354772 ], [ -4.43828411494667, 41.976605504354772 ], [ -4.43828411494667, 41.975753763255511 ], [ -4.439024330914179, 41.975753763255511 ], [ -4.439024330914179, 41.975327888434215 ], [ -4.439764546881687, 41.975327888434215 ], [ -4.439764546881687, 41.974902010765142 ], [ -4.440504762849196, 41.974902010765142 ], [ -4.440504762849196, 41.974476130248298 ], [ -4.441244978816703, 41.974476130248298 ], [ -4.441244978816703, 41.974050246883685 ], [ -4.441985194784213, 41.974050246883685 ], [ -4.441985194784213, 41.973624360671323 ], [ -4.44716670655677, 41.973624360671323 ], [ -4.44716670655677, 41.974902010765142 ], [ -4.447906922524279, 41.974902010765142 ], [ -4.447906922524279, 41.975753763255511 ], [ -4.448647138491787, 41.975753763255511 ], [ -4.448647138491787, 41.977031370632723 ], [ -4.449387354459295, 41.977031370632723 ], [ -4.449387354459295, 41.978308952379805 ], [ -4.450127570426804, 41.978308952379805 ], [ -4.450127570426804, 41.979586508496631 ], [ -4.449387354459295, 41.979586508496631 ], [ -4.449387354459295, 41.981289876782917 ], [ -4.448647138491787, 41.981289876782917 ], [ -4.448647138491787, 41.982567373095364 ], [ -4.447906922524279, 41.982567373095364 ], [ -4.447906922524279, 41.982993199503817 ], [ -4.44716670655677, 41.982993199503817 ], [ -4.44716670655677, 41.983419023064414 ], [ -4.446426490589261, 41.983419023064414 ], [ -4.446426490589261, 41.983844843777156 ], [ -4.445686274621754, 41.983844843777156 ], [ -4.445686274621754, 41.984270661642022 ], [ -4.444946058654245, 41.984270661642022 ], [ -4.444946058654245, 41.984696476659032 ], [ -4.444205842686737, 41.984696476659032 ], [ -4.444205842686737, 41.985122288828173 ], [ -4.443465626719228, 41.985122288828173 ], [ -4.443465626719228, 41.98554809814943 ], [ -4.44272541075172, 41.98554809814943 ], [ -4.44272541075172, 41.98597390462281 ], [ -4.440504762849196, 41.98597390462281 ], [ -4.440504762849196, 41.98554809814943 ], [ -4.437543898979161, 41.98554809814943 ], [ -4.437543898979161, 41.987677102037409 ], [ -4.436803683011654, 41.987677102037409 ], [ -4.436803683011654, 41.988954470195374 ], [ -4.436063467044145, 41.988954470195374 ], [ -4.436063467044145, 41.989806034727778 ], [ -4.435323251076637, 41.989806034727778 ], [ -4.435323251076637, 41.990657587868476 ], [ -4.434583035109129, 41.990657587868476 ], [ -4.434583035109129, 41.991509129617434 ], [ -4.43384281914162, 41.991509129617434 ], [ -4.43384281914162, 41.992360659974615 ], [ -4.430141739304079, 41.992360659974615 ], [ -4.430141739304079, 41.992786420881281 ], [ -4.423479795596504, 41.992786420881281 ], [ -4.423479795596504, 41.992360659974615 ], [ -4.422739579628995, 41.992360659974615 ], [ -4.422739579628995, 41.991934896219995 ] ] ], [ [ [ -3.977129567188978, 42.201066584238532 ], [ -3.976389351221469, 42.201066584238532 ], [ -3.976389351221469, 42.200642219352446 ], [ -3.975649135253961, 42.200642219352446 ], [ -3.975649135253961, 42.199793481030106 ], [ -3.969727407513894, 42.199793481030106 ], [ -3.969727407513894, 42.200217851616301 ], [ -3.964545895741336, 42.200217851616301 ], [ -3.964545895741336, 42.199793481030106 ], [ -3.963805679773828, 42.199793481030106 ], [ -3.963805679773828, 42.198944731307563 ], [ -3.963065463806319, 42.198944731307563 ], [ -3.963065463806319, 42.198520352171222 ], [ -3.962325247838812, 42.198520352171222 ], [ -3.962325247838812, 42.197671585348431 ], [ -3.961585031871303, 42.197671585348431 ], [ -3.961585031871303, 42.192578745010273 ], [ -3.962325247838812, 42.192578745010273 ], [ -3.962325247838812, 42.191729898387329 ], [ -3.963065463806319, 42.191729898387329 ], [ -3.963065463806319, 42.190881040364488 ], [ -3.963805679773828, 42.190881040364488 ], [ -3.963805679773828, 42.190456607078112 ], [ -3.964545895741336, 42.190456607078112 ], [ -3.964545895741336, 42.189607731955505 ], [ -3.965286111708844, 42.189607731955505 ], [ -3.965286111708844, 42.188758845433078 ], [ -3.966026327676353, 42.188758845433078 ], [ -3.966026327676353, 42.188334397896945 ], [ -3.966766543643861, 42.188334397896945 ], [ -3.966766543643861, 42.187485494274874 ], [ -3.96750675961137, 42.187485494274874 ], [ -3.96750675961137, 42.187061038188943 ], [ -3.968246975578877, 42.187061038188943 ], [ -3.968246975578877, 42.186636579253083 ], [ -3.968987191546386, 42.186636579253083 ], [ -3.968987191546386, 42.186212117467306 ], [ -3.970467623481403, 42.186212117467306 ], [ -3.970467623481403, 42.1857876528316 ], [ -3.971948055416419, 42.1857876528316 ], [ -3.971948055416419, 42.185363185345985 ], [ -3.973428487351436, 42.185363185345985 ], [ -3.973428487351436, 42.18493871501046 ], [ -3.974908919286453, 42.18493871501046 ], [ -3.974908919286453, 42.185363185345985 ], [ -3.976389351221469, 42.185363185345985 ], [ -3.976389351221469, 42.1857876528316 ], [ -3.977869783156486, 42.1857876528316 ], [ -3.977869783156486, 42.186212117467306 ], [ -3.978609999123995, 42.186212117467306 ], [ -3.978609999123995, 42.186636579253083 ], [ -3.980090431059011, 42.186636579253083 ], [ -3.980090431059011, 42.187061038188943 ], [ -3.981570862994028, 42.187061038188943 ], [ -3.981570862994028, 42.187485494274874 ], [ -3.983051294929045, 42.187485494274874 ], [ -3.983051294929045, 42.187909947510882 ], [ -3.986012158799078, 42.187909947510882 ], [ -3.986012158799078, 42.187485494274874 ], [ -3.988232806701603, 42.187485494274874 ], [ -3.988232806701603, 42.187909947510882 ], [ -3.988973022669111, 42.187909947510882 ], [ -3.988973022669111, 42.18918329011926 ], [ -3.98971323863662, 42.18918329011926 ], [ -3.98971323863662, 42.190032170941791 ], [ -3.990453454604128, 42.190032170941791 ], [ -3.990453454604128, 42.191305470800884 ], [ -3.991193670571637, 42.191305470800884 ], [ -3.991193670571637, 42.194700811692918 ], [ -3.990453454604128, 42.194700811692918 ], [ -3.990453454604128, 42.196398413739026 ], [ -3.98971323863662, 42.196398413739026 ], [ -3.98971323863662, 42.196822807125521 ], [ -3.988232806701603, 42.196822807125521 ], [ -3.988232806701603, 42.197247197661987 ], [ -3.986752374766586, 42.197247197661987 ], [ -3.986752374766586, 42.197671585348431 ], [ -3.986012158799078, 42.197671585348431 ], [ -3.986012158799078, 42.198520352171222 ], [ -3.98527194283157, 42.198520352171222 ], [ -3.98527194283157, 42.19936910759386 ], [ -3.984531726864061, 42.19936910759386 ], [ -3.984531726864061, 42.200642219352446 ], [ -3.983791510896553, 42.200642219352446 ], [ -3.983791510896553, 42.201490946274554 ], [ -3.983051294929045, 42.201490946274554 ], [ -3.983051294929045, 42.202339661796387 ], [ -3.977869783156486, 42.202339661796387 ], [ -3.977869783156486, 42.201915305460496 ], [ -3.977129567188978, 42.201915305460496 ], [ -3.977129567188978, 42.201066584238532 ] ] ], [ [ [ -5.723299034541139, 43.536943031704851 ], [ -5.723299034541139, 43.536112471851069 ], [ -5.72255881857363, 43.536112471851069 ], [ -5.72255881857363, 43.535281900557365 ], [ -5.721818602606122, 43.535281900557365 ], [ -5.721818602606122, 43.533205422273518 ], [ -5.721078386638613, 43.533205422273518 ], [ -5.721078386638613, 43.527390902703871 ], [ -5.720338170671106, 43.527390902703871 ], [ -5.720338170671106, 43.521991204041377 ], [ -5.719597954703597, 43.521991204041377 ], [ -5.719597954703597, 43.520745051096618 ], [ -5.720338170671106, 43.520745051096618 ], [ -5.720338170671106, 43.520329661061893 ], [ -5.721078386638613, 43.520329661061893 ], [ -5.721078386638613, 43.519914268167263 ], [ -5.721818602606122, 43.519914268167263 ], [ -5.721818602606122, 43.519498872412733 ], [ -5.72255881857363, 43.519498872412733 ], [ -5.72255881857363, 43.518668072323983 ], [ -5.723299034541139, 43.518668072323983 ], [ -5.723299034541139, 43.518252667989771 ], [ -5.724039250508648, 43.518252667989771 ], [ -5.724039250508648, 43.517837260795666 ], [ -5.724779466476156, 43.517837260795666 ], [ -5.724779466476156, 43.51742185074167 ], [ -5.725519682443664, 43.51742185074167 ], [ -5.725519682443664, 43.517006437827789 ], [ -5.726259898411173, 43.517006437827789 ], [ -5.726259898411173, 43.516175603420372 ], [ -5.727000114378681, 43.516175603420372 ], [ -5.727000114378681, 43.515760181926844 ], [ -5.727740330346189, 43.515760181926844 ], [ -5.727740330346189, 43.51534475757343 ], [ -5.728480546313697, 43.51534475757343 ], [ -5.728480546313697, 43.514929330360154 ], [ -5.729960978248714, 43.514929330360154 ], [ -5.729960978248714, 43.51534475757343 ], [ -5.732181626151239, 43.51534475757343 ], [ -5.732181626151239, 43.515760181926844 ], [ -5.735142490021273, 43.515760181926844 ], [ -5.735142490021273, 43.516175603420372 ], [ -5.73662292195629, 43.516175603420372 ], [ -5.73662292195629, 43.516591022054023 ], [ -5.737363137923798, 43.516591022054023 ], [ -5.737363137923798, 43.517006437827789 ], [ -5.738103353891305, 43.517006437827789 ], [ -5.738103353891305, 43.51742185074167 ], [ -5.738843569858814, 43.51742185074167 ], [ -5.738843569858814, 43.517837260795666 ], [ -5.739583785826321, 43.517837260795666 ], [ -5.739583785826321, 43.518252667989771 ], [ -5.74032400179383, 43.518252667989771 ], [ -5.74032400179383, 43.518668072323983 ], [ -5.741064217761339, 43.518668072323983 ], [ -5.741064217761339, 43.519083473798304 ], [ -5.741804433728848, 43.519083473798304 ], [ -5.741804433728848, 43.519498872412733 ], [ -5.742544649696356, 43.519498872412733 ], [ -5.742544649696356, 43.520329661061893 ], [ -5.743284865663864, 43.520329661061893 ], [ -5.743284865663864, 43.522821958371658 ], [ -5.744025081631372, 43.522821958371658 ], [ -5.744025081631372, 43.526975558427864 ], [ -5.743284865663864, 43.526975558427864 ], [ -5.743284865663864, 43.527806244119944 ], [ -5.742544649696356, 43.527806244119944 ], [ -5.742544649696356, 43.528636918372264 ], [ -5.741804433728848, 43.528636918372264 ], [ -5.741804433728848, 43.529467581184797 ], [ -5.741064217761339, 43.529467581184797 ], [ -5.741064217761339, 43.530298232557548 ], [ -5.74032400179383, 43.530298232557548 ], [ -5.74032400179383, 43.531128872490477 ], [ -5.739583785826321, 43.531128872490477 ], [ -5.739583785826321, 43.53237481094019 ], [ -5.738843569858814, 43.53237481094019 ], [ -5.738843569858814, 43.533205422273518 ], [ -5.738103353891305, 43.533205422273518 ], [ -5.738103353891305, 43.53403602216698 ], [ -5.737363137923798, 43.53403602216698 ], [ -5.737363137923798, 43.534866610620547 ], [ -5.735142490021273, 43.534866610620547 ], [ -5.735142490021273, 43.535281900557365 ], [ -5.733662058086256, 43.535281900557365 ], [ -5.733662058086256, 43.535697187634213 ], [ -5.732181626151239, 43.535697187634213 ], [ -5.732181626151239, 43.536112471851069 ], [ -5.730701194216222, 43.536112471851069 ], [ -5.730701194216222, 43.536527753207956 ], [ -5.729220762281205, 43.536527753207956 ], [ -5.729220762281205, 43.536943031704851 ], [ -5.727740330346189, 43.536943031704851 ], [ -5.727740330346189, 43.537358307341755 ], [ -5.725519682443664, 43.537358307341755 ], [ -5.725519682443664, 43.537773580118674 ], [ -5.724779466476156, 43.537773580118674 ], [ -5.724779466476156, 43.537358307341755 ], [ -5.724039250508648, 43.537358307341755 ], [ -5.724039250508648, 43.536943031704851 ], [ -5.723299034541139, 43.536943031704851 ] ] ], [ [ [ -5.840993373374964, 43.550645617637002 ], [ -5.840993373374964, 43.550230433520795 ], [ -5.840253157407456, 43.550230433520795 ], [ -5.840253157407456, 43.549815246544526 ], [ -5.839512941439948, 43.549815246544526 ], [ -5.839512941439948, 43.549400056708208 ], [ -5.838032509504931, 43.549400056708208 ], [ -5.838032509504931, 43.548984864011857 ], [ -5.837292293537423, 43.548984864011857 ], [ -5.837292293537423, 43.548569668455436 ], [ -5.834331429667389, 43.548569668455436 ], [ -5.834331429667389, 43.54815447003898 ], [ -5.831370565797356, 43.54815447003898 ], [ -5.831370565797356, 43.54773926876247 ], [ -5.827669485959815, 43.54773926876247 ], [ -5.827669485959815, 43.547324064625933 ], [ -5.826929269992306, 43.547324064625933 ], [ -5.826929269992306, 43.546493647772721 ], [ -5.826189054024797, 43.546493647772721 ], [ -5.826189054024797, 43.545663219479366 ], [ -5.82544883805729, 43.545663219479366 ], [ -5.82544883805729, 43.544832779745889 ], [ -5.824708622089781, 43.544832779745889 ], [ -5.824708622089781, 43.544002328572311 ], [ -5.823968406122273, 43.544002328572311 ], [ -5.823968406122273, 43.543587098695482 ], [ -5.823228190154764, 43.543587098695482 ], [ -5.823228190154764, 43.542756630361758 ], [ -5.822487974187256, 43.542756630361758 ], [ -5.822487974187256, 43.54192615058799 ], [ -5.821007542252239, 43.54192615058799 ], [ -5.821007542252239, 43.541510906411077 ], [ -5.819527110317222, 43.541510906411077 ], [ -5.819527110317222, 43.541095659374164 ], [ -5.817306462414698, 43.541095659374164 ], [ -5.817306462414698, 43.540680409477226 ], [ -5.816566246447189, 43.540680409477226 ], [ -5.816566246447189, 43.539434642626411 ], [ -5.815826030479681, 43.539434642626411 ], [ -5.815826030479681, 43.537773580118674 ], [ -5.815085814512173, 43.537773580118674 ], [ -5.815085814512173, 43.536527753207956 ], [ -5.815826030479681, 43.536527753207956 ], [ -5.815826030479681, 43.535281900557365 ], [ -5.816566246447189, 43.535281900557365 ], [ -5.816566246447189, 43.53403602216698 ], [ -5.817306462414698, 43.53403602216698 ], [ -5.817306462414698, 43.533205422273518 ], [ -5.818046678382206, 43.533205422273518 ], [ -5.818046678382206, 43.531959500983589 ], [ -5.821007542252239, 43.531959500983589 ], [ -5.821007542252239, 43.53237481094019 ], [ -5.823968406122273, 43.53237481094019 ], [ -5.823968406122273, 43.531959500983589 ], [ -5.82544883805729, 43.531959500983589 ], [ -5.82544883805729, 43.531544188167018 ], [ -5.826189054024797, 43.531544188167018 ], [ -5.826189054024797, 43.531128872490477 ], [ -5.827669485959815, 43.531128872490477 ], [ -5.827669485959815, 43.530713553953994 ], [ -5.829149917894831, 43.530713553953994 ], [ -5.829149917894831, 43.531128872490477 ], [ -5.829890133862339, 43.531128872490477 ], [ -5.829890133862339, 43.531544188167018 ], [ -5.831370565797356, 43.531544188167018 ], [ -5.831370565797356, 43.531959500983589 ], [ -5.832850997732372, 43.531959500983589 ], [ -5.832850997732372, 43.53237481094019 ], [ -5.833591213699881, 43.53237481094019 ], [ -5.833591213699881, 43.532790118036843 ], [ -5.835071645634897, 43.532790118036843 ], [ -5.835071645634897, 43.533205422273518 ], [ -5.841733589342473, 43.533205422273518 ], [ -5.841733589342473, 43.53403602216698 ], [ -5.842473805309981, 43.53403602216698 ], [ -5.842473805309981, 43.535281900557365 ], [ -5.843214021277489, 43.535281900557365 ], [ -5.843214021277489, 43.536527753207956 ], [ -5.843954237244998, 43.536527753207956 ], [ -5.843954237244998, 43.537773580118674 ], [ -5.844694453212505, 43.537773580118674 ], [ -5.844694453212505, 43.538188850035603 ], [ -5.846915101115031, 43.538188850035603 ], [ -5.846915101115031, 43.53860411709254 ], [ -5.848395533050048, 43.53860411709254 ], [ -5.848395533050048, 43.539019381289471 ], [ -5.849875964985064, 43.539019381289471 ], [ -5.849875964985064, 43.540265156720295 ], [ -5.850616180952573, 43.540265156720295 ], [ -5.850616180952573, 43.54192615058799 ], [ -5.85135639692008, 43.54192615058799 ], [ -5.85135639692008, 43.544832779745889 ], [ -5.850616180952573, 43.544832779745889 ], [ -5.850616180952573, 43.54773926876247 ], [ -5.849875964985064, 43.54773926876247 ], [ -5.849875964985064, 43.549400056708208 ], [ -5.849135749017555, 43.549400056708208 ], [ -5.849135749017555, 43.549815246544526 ], [ -5.848395533050048, 43.549815246544526 ], [ -5.848395533050048, 43.550230433520795 ], [ -5.847655317082539, 43.550230433520795 ], [ -5.847655317082539, 43.550645617637002 ], [ -5.846174885147523, 43.550645617637002 ], [ -5.846174885147523, 43.551060798893154 ], [ -5.845434669180014, 43.551060798893154 ], [ -5.845434669180014, 43.551475977289243 ], [ -5.843214021277489, 43.551475977289243 ], [ -5.843214021277489, 43.551060798893154 ], [ -5.842473805309981, 43.551060798893154 ], [ -5.842473805309981, 43.550645617637002 ], [ -5.840993373374964, 43.550645617637002 ] ] ], [ [ [ 2.931306057566307, 36.145270739546369 ], [ 2.932046273533815, 36.145270739546369 ], [ 2.932046273533815, 36.14480814722986 ], [ 2.933526705468831, 36.14480814722986 ], [ 2.933526705468831, 36.144345552185356 ], [ 2.93426692143634, 36.144345552185356 ], [ 2.93426692143634, 36.142495144727611 ], [ 2.935007137403848, 36.142495144727611 ], [ 2.935007137403848, 36.141107310491023 ], [ 2.935747353371357, 36.141107310491023 ], [ 2.935747353371357, 36.139256826651881 ], [ 2.936487569338865, 36.139256826651881 ], [ 2.936487569338865, 36.136481019058579 ], [ 2.935747353371357, 36.136481019058579 ], [ 2.935747353371357, 36.13463042610794 ], [ 2.935007137403848, 36.13463042610794 ], [ 2.935007137403848, 36.134167771051025 ], [ 2.93426692143634, 36.134167771051025 ], [ 2.93426692143634, 36.13370511326643 ], [ 2.933526705468831, 36.13370511326643 ], [ 2.933526705468831, 36.133242452754182 ], [ 2.932786489501323, 36.133242452754182 ], [ 2.932786489501323, 36.132779789514281 ], [ 2.931306057566307, 36.132779789514281 ], [ 2.931306057566307, 36.132317123546741 ], [ 2.930565841598798, 36.132317123546741 ], [ 2.930565841598798, 36.131854454851599 ], [ 2.929085409663781, 36.131854454851599 ], [ 2.929085409663781, 36.132317123546741 ], [ 2.927604977728765, 36.132317123546741 ], [ 2.927604977728765, 36.132779789514281 ], [ 2.926124545793748, 36.132779789514281 ], [ 2.926124545793748, 36.133242452754182 ], [ 2.92538432982624, 36.133242452754182 ], [ 2.92538432982624, 36.13370511326643 ], [ 2.923903897891223, 36.13370511326643 ], [ 2.923903897891223, 36.134167771051025 ], [ 2.923163681923715, 36.134167771051025 ], [ 2.923163681923715, 36.135093078437173 ], [ 2.922423465956207, 36.135093078437173 ], [ 2.922423465956207, 36.135555728038689 ], [ 2.921683249988698, 36.135555728038689 ], [ 2.921683249988698, 36.136018374912496 ], [ 2.92094303402119, 36.136018374912496 ], [ 2.92094303402119, 36.136943660476909 ], [ 2.920202818053682, 36.136943660476909 ], [ 2.920202818053682, 36.140644693623038 ], [ 2.92094303402119, 36.140644693623038 ], [ 2.92094303402119, 36.143420353912397 ], [ 2.921683249988698, 36.143420353912397 ], [ 2.921683249988698, 36.143882954412867 ], [ 2.922423465956207, 36.143882954412867 ], [ 2.922423465956207, 36.144345552185356 ], [ 2.923163681923715, 36.144345552185356 ], [ 2.923163681923715, 36.14480814722986 ], [ 2.923903897891223, 36.14480814722986 ], [ 2.923903897891223, 36.145270739546369 ], [ 2.924644113858732, 36.145270739546369 ], [ 2.924644113858732, 36.14573332913487 ], [ 2.926124545793748, 36.14573332913487 ], [ 2.926124545793748, 36.146195915995342 ], [ 2.926864761761257, 36.146195915995342 ], [ 2.926864761761257, 36.146658500127771 ], [ 2.928345193696273, 36.146658500127771 ], [ 2.928345193696273, 36.146195915995342 ], [ 2.92982562563129, 36.146195915995342 ], [ 2.92982562563129, 36.14573332913487 ], [ 2.931306057566307, 36.14573332913487 ], [ 2.931306057566307, 36.145270739546369 ] ] ], [ [ [ 2.939448433208898, 36.599137326812055 ], [ 2.939448433208898, 36.598217521521264 ], [ 2.940188649176407, 36.598217521521264 ], [ 2.940188649176407, 36.597757614763687 ], [ 2.940928865143915, 36.597757614763687 ], [ 2.940928865143915, 36.597297705264687 ], [ 2.941669081111423, 36.597297705264687 ], [ 2.941669081111423, 36.592698459498877 ], [ 2.940928865143915, 36.592698459498877 ], [ 2.940928865143915, 36.591778577449873 ], [ 2.940188649176407, 36.591778577449873 ], [ 2.940188649176407, 36.591318632313481 ], [ 2.939448433208898, 36.591318632313481 ], [ 2.939448433208898, 36.590398733816969 ], [ 2.93870821724139, 36.590398733816969 ], [ 2.93870821724139, 36.589478824355602 ], [ 2.937968001273882, 36.589478824355602 ], [ 2.937968001273882, 36.588558903929453 ], [ 2.937227785306373, 36.588558903929453 ], [ 2.937227785306373, 36.588098939604613 ], [ 2.936487569338865, 36.588098939604613 ], [ 2.936487569338865, 36.587179002731524 ], [ 2.935747353371357, 36.587179002731524 ], [ 2.935747353371357, 36.586259054893922 ], [ 2.932046273533815, 36.586259054893922 ], [ 2.932046273533815, 36.586719030183275 ], [ 2.92982562563129, 36.586719030183275 ], [ 2.92982562563129, 36.587179002731524 ], [ 2.928345193696273, 36.587179002731524 ], [ 2.928345193696273, 36.588098939604613 ], [ 2.927604977728765, 36.588098939604613 ], [ 2.927604977728765, 36.589018865513104 ], [ 2.926864761761257, 36.589018865513104 ], [ 2.926864761761257, 36.58993878045689 ], [ 2.926124545793748, 36.58993878045689 ], [ 2.926124545793748, 36.591318632313481 ], [ 2.92538432982624, 36.591318632313481 ], [ 2.92538432982624, 36.592238519845012 ], [ 2.924644113858732, 36.592238519845012 ], [ 2.924644113858732, 36.596837793024264 ], [ 2.92538432982624, 36.596837793024264 ], [ 2.92538432982624, 36.597297705264687 ], [ 2.926124545793748, 36.597297705264687 ], [ 2.926124545793748, 36.598217521521264 ], [ 2.926864761761257, 36.598217521521264 ], [ 2.926864761761257, 36.599137326812055 ], [ 2.927604977728765, 36.599137326812055 ], [ 2.927604977728765, 36.599597225345263 ], [ 2.930565841598798, 36.599597225345263 ], [ 2.930565841598798, 36.600057121136963 ], [ 2.93426692143634, 36.600057121136963 ], [ 2.93426692143634, 36.600517014187183 ], [ 2.937227785306373, 36.600517014187183 ], [ 2.937227785306373, 36.600057121136963 ], [ 2.937968001273882, 36.600057121136963 ], [ 2.937968001273882, 36.599597225345263 ], [ 2.93870821724139, 36.599597225345263 ], [ 2.93870821724139, 36.599137326812055 ], [ 2.939448433208898, 36.599137326812055 ] ] ], [ [ [ 3.142267608306182, 36.604196059893432 ], [ 3.142267608306182, 36.603736188775677 ], [ 3.14300782427369, 36.603736188775677 ], [ 3.14300782427369, 36.602816438315351 ], [ 3.143748040241198, 36.602816438315351 ], [ 3.143748040241198, 36.601896676888721 ], [ 3.144488256208707, 36.601896676888721 ], [ 3.144488256208707, 36.594998116648675 ], [ 3.143748040241198, 36.594998116648675 ], [ 3.143748040241198, 36.594538190701364 ], [ 3.14300782427369, 36.594538190701364 ], [ 3.14300782427369, 36.594078262012708 ], [ 3.142267608306182, 36.594078262012708 ], [ 3.142267608306182, 36.593158396411461 ], [ 3.141527392338674, 36.593158396411461 ], [ 3.141527392338674, 36.592698459498877 ], [ 3.140787176371165, 36.592698459498877 ], [ 3.140787176371165, 36.591778577449873 ], [ 3.134865448631099, 36.591778577449873 ], [ 3.134865448631099, 36.592238519845012 ], [ 3.13412523266359, 36.592238519845012 ], [ 3.13412523266359, 36.592698459498877 ], [ 3.133385016696082, 36.592698459498877 ], [ 3.133385016696082, 36.593158396411461 ], [ 3.132644800728573, 36.593158396411461 ], [ 3.132644800728573, 36.593618330582743 ], [ 3.131904584761065, 36.593618330582743 ], [ 3.131904584761065, 36.594078262012708 ], [ 3.131164368793557, 36.594078262012708 ], [ 3.131164368793557, 36.594538190701364 ], [ 3.130424152826048, 36.594538190701364 ], [ 3.130424152826048, 36.595458039854627 ], [ 3.12968393685854, 36.595458039854627 ], [ 3.12968393685854, 36.595917960319227 ], [ 3.128943720891032, 36.595917960319227 ], [ 3.128943720891032, 36.601896676888721 ], [ 3.12968393685854, 36.601896676888721 ], [ 3.12968393685854, 36.602356558972815 ], [ 3.130424152826048, 36.602356558972815 ], [ 3.130424152826048, 36.602816438315351 ], [ 3.131164368793557, 36.602816438315351 ], [ 3.131164368793557, 36.603276314916315 ], [ 3.131904584761065, 36.603276314916315 ], [ 3.131904584761065, 36.603736188775677 ], [ 3.132644800728573, 36.603736188775677 ], [ 3.132644800728573, 36.604196059893432 ], [ 3.133385016696082, 36.604196059893432 ], [ 3.133385016696082, 36.604655928269572 ], [ 3.13412523266359, 36.604655928269572 ], [ 3.13412523266359, 36.605115793904091 ], [ 3.134865448631099, 36.605115793904091 ], [ 3.134865448631099, 36.605575656796958 ], [ 3.135605664598607, 36.605575656796958 ], [ 3.135605664598607, 36.605115793904091 ], [ 3.13856652846864, 36.605115793904091 ], [ 3.13856652846864, 36.604655928269572 ], [ 3.141527392338674, 36.604655928269572 ], [ 3.141527392338674, 36.604196059893432 ], [ 3.142267608306182, 36.604196059893432 ] ] ], [ [ [ 2.889113747418332, 36.610633967666281 ], [ 2.88985396338584, 36.610633967666281 ], [ 2.88985396338584, 36.61017413493235 ], [ 2.890594179353348, 36.61017413493235 ], [ 2.890594179353348, 36.606495374357721 ], [ 2.891334395320857, 36.606495374357721 ], [ 2.891334395320857, 36.605115793904091 ], [ 2.892814827255873, 36.605115793904091 ], [ 2.892814827255873, 36.605575656796958 ], [ 2.893555043223381, 36.605575656796958 ], [ 2.893555043223381, 36.606035516948175 ], [ 2.895035475158398, 36.606035516948175 ], [ 2.895035475158398, 36.605575656796958 ], [ 2.895775691125907, 36.605575656796958 ], [ 2.895775691125907, 36.605115793904091 ], [ 2.896515907093415, 36.605115793904091 ], [ 2.896515907093415, 36.604655928269572 ], [ 2.897256123060923, 36.604655928269572 ], [ 2.897256123060923, 36.604196059893432 ], [ 2.897996339028431, 36.604196059893432 ], [ 2.897996339028431, 36.603736188775677 ], [ 2.89873655499594, 36.603736188775677 ], [ 2.89873655499594, 36.603276314916315 ], [ 2.899476770963448, 36.603276314916315 ], [ 2.899476770963448, 36.602816438315351 ], [ 2.900216986930956, 36.602816438315351 ], [ 2.900216986930956, 36.602356558972815 ], [ 2.901697418865973, 36.602356558972815 ], [ 2.901697418865973, 36.601896676888721 ], [ 2.902437634833482, 36.601896676888721 ], [ 2.902437634833482, 36.600057121136963 ], [ 2.90317785080099, 36.600057121136963 ], [ 2.90317785080099, 36.598217521521264 ], [ 2.903918066768498, 36.598217521521264 ], [ 2.903918066768498, 36.597757614763687 ], [ 2.90317785080099, 36.597757614763687 ], [ 2.90317785080099, 36.596377878042439 ], [ 2.902437634833482, 36.596377878042439 ], [ 2.902437634833482, 36.595458039854627 ], [ 2.901697418865973, 36.595458039854627 ], [ 2.901697418865973, 36.594078262012708 ], [ 2.900957202898465, 36.594078262012708 ], [ 2.900957202898465, 36.593158396411461 ], [ 2.900216986930956, 36.593158396411461 ], [ 2.900216986930956, 36.592698459498877 ], [ 2.899476770963448, 36.592698459498877 ], [ 2.899476770963448, 36.593158396411461 ], [ 2.896515907093415, 36.593158396411461 ], [ 2.896515907093415, 36.593618330582743 ], [ 2.89429525919089, 36.593618330582743 ], [ 2.89429525919089, 36.594078262012708 ], [ 2.891334395320857, 36.594078262012708 ], [ 2.891334395320857, 36.594538190701364 ], [ 2.889113747418332, 36.594538190701364 ], [ 2.889113747418332, 36.596377878042439 ], [ 2.888373531450823, 36.596377878042439 ], [ 2.888373531450823, 36.598217521521264 ], [ 2.887633315483315, 36.598217521521264 ], [ 2.887633315483315, 36.598677425537396 ], [ 2.888373531450823, 36.598677425537396 ], [ 2.888373531450823, 36.600976904495894 ], [ 2.889113747418332, 36.600976904495894 ], [ 2.889113747418332, 36.601896676888721 ], [ 2.888373531450823, 36.601896676888721 ], [ 2.888373531450823, 36.601436792063076 ], [ 2.88541266758079, 36.601436792063076 ], [ 2.88541266758079, 36.600517014187183 ], [ 2.886152883548299, 36.600517014187183 ], [ 2.886152883548299, 36.599137326812055 ], [ 2.886893099515807, 36.599137326812055 ], [ 2.886893099515807, 36.597757614763687 ], [ 2.887633315483315, 36.597757614763687 ], [ 2.887633315483315, 36.596377878042439 ], [ 2.886893099515807, 36.596377878042439 ], [ 2.886893099515807, 36.594078262012708 ], [ 2.886152883548299, 36.594078262012708 ], [ 2.886152883548299, 36.592238519845012 ], [ 2.88541266758079, 36.592238519845012 ], [ 2.88541266758079, 36.591318632313481 ], [ 2.884672451613281, 36.591318632313481 ], [ 2.884672451613281, 36.590858684435844 ], [ 2.883932235645773, 36.590858684435844 ], [ 2.883932235645773, 36.590398733816969 ], [ 2.883192019678265, 36.590398733816969 ], [ 2.883192019678265, 36.58993878045689 ], [ 2.882451803710757, 36.58993878045689 ], [ 2.882451803710757, 36.589478824355602 ], [ 2.88097137177574, 36.589478824355602 ], [ 2.88097137177574, 36.589018865513104 ], [ 2.880231155808231, 36.589018865513104 ], [ 2.880231155808231, 36.588558903929453 ], [ 2.879490939840723, 36.588558903929453 ], [ 2.879490939840723, 36.588098939604613 ], [ 2.878010507905707, 36.588098939604613 ], [ 2.878010507905707, 36.588558903929453 ], [ 2.875049644035673, 36.588558903929453 ], [ 2.875049644035673, 36.589018865513104 ], [ 2.874309428068165, 36.589018865513104 ], [ 2.874309428068165, 36.589478824355602 ], [ 2.873569212100656, 36.589478824355602 ], [ 2.873569212100656, 36.58993878045689 ], [ 2.872828996133148, 36.58993878045689 ], [ 2.872828996133148, 36.590398733816969 ], [ 2.87208878016564, 36.590398733816969 ], [ 2.87208878016564, 36.590858684435844 ], [ 2.871348564198132, 36.590858684435844 ], [ 2.871348564198132, 36.591318632313481 ], [ 2.870608348230624, 36.591318632313481 ], [ 2.870608348230624, 36.591778577449873 ], [ 2.869868132263115, 36.591778577449873 ], [ 2.869868132263115, 36.592698459498877 ], [ 2.869127916295606, 36.592698459498877 ], [ 2.869127916295606, 36.594998116648675 ], [ 2.868387700328098, 36.594998116648675 ], [ 2.868387700328098, 36.597297705264687 ], [ 2.86764748436059, 36.597297705264687 ], [ 2.86764748436059, 36.600976904495894 ], [ 2.868387700328098, 36.600976904495894 ], [ 2.868387700328098, 36.602816438315351 ], [ 2.869127916295606, 36.602816438315351 ], [ 2.869127916295606, 36.604655928269572 ], [ 2.869868132263115, 36.604655928269572 ], [ 2.869868132263115, 36.605115793904091 ], [ 2.870608348230624, 36.605115793904091 ], [ 2.870608348230624, 36.605575656796958 ], [ 2.87208878016564, 36.605575656796958 ], [ 2.87208878016564, 36.606035516948175 ], [ 2.873569212100656, 36.606035516948175 ], [ 2.873569212100656, 36.606495374357721 ], [ 2.87653007597069, 36.606495374357721 ], [ 2.87653007597069, 36.606035516948175 ], [ 2.877270291938198, 36.606035516948175 ], [ 2.877270291938198, 36.605575656796958 ], [ 2.878010507905707, 36.605575656796958 ], [ 2.878010507905707, 36.605115793904091 ], [ 2.879490939840723, 36.605115793904091 ], [ 2.879490939840723, 36.604655928269572 ], [ 2.880231155808231, 36.604655928269572 ], [ 2.880231155808231, 36.604196059893432 ], [ 2.88097137177574, 36.604196059893432 ], [ 2.88097137177574, 36.605575656796958 ], [ 2.880231155808231, 36.605575656796958 ], [ 2.880231155808231, 36.607415080951746 ], [ 2.88097137177574, 36.607415080951746 ], [ 2.88097137177574, 36.608794620279923 ], [ 2.881711587743248, 36.608794620279923 ], [ 2.881711587743248, 36.61017413493235 ], [ 2.882451803710757, 36.61017413493235 ], [ 2.882451803710757, 36.610633967666281 ], [ 2.883192019678265, 36.610633967666281 ], [ 2.883192019678265, 36.611093797658391 ], [ 2.884672451613281, 36.611093797658391 ], [ 2.884672451613281, 36.611553624908673 ], [ 2.88541266758079, 36.611553624908673 ], [ 2.88541266758079, 36.612013449417155 ], [ 2.886893099515807, 36.612013449417155 ], [ 2.886893099515807, 36.611553624908673 ], [ 2.887633315483315, 36.611553624908673 ], [ 2.887633315483315, 36.611093797658391 ], [ 2.889113747418332, 36.611093797658391 ], [ 2.889113747418332, 36.610633967666281 ] ] ], [ [ [ 3.239235900049774, 36.634081801172542 ], [ 3.239235900049774, 36.633622108287483 ], [ 3.239976116017282, 36.633622108287483 ], [ 3.239976116017282, 36.630863893385722 ], [ 3.239235900049774, 36.630863893385722 ], [ 3.239235900049774, 36.627645851221985 ], [ 3.238495684082265, 36.627645851221985 ], [ 3.238495684082265, 36.626726385922929 ], [ 3.237755468114757, 36.626726385922929 ], [ 3.237755468114757, 36.626266649159994 ], [ 3.237015252147248, 36.626266649159994 ], [ 3.237015252147248, 36.625347167407384 ], [ 3.236275036179741, 36.625347167407384 ], [ 3.236275036179741, 36.624427674685869 ], [ 3.235534820212232, 36.624427674685869 ], [ 3.235534820212232, 36.623967924211811 ], [ 3.234794604244723, 36.623967924211811 ], [ 3.234794604244723, 36.623048415037132 ], [ 3.234054388277215, 36.623048415037132 ], [ 3.234054388277215, 36.622588656336532 ], [ 3.232573956342199, 36.622588656336532 ], [ 3.232573956342199, 36.622128894893805 ], [ 3.229613092472166, 36.622128894893805 ], [ 3.229613092472166, 36.622588656336532 ], [ 3.228132660537149, 36.622588656336532 ], [ 3.228132660537149, 36.623508170995557 ], [ 3.22739244456964, 36.623508170995557 ], [ 3.22739244456964, 36.623967924211811 ], [ 3.226652228602132, 36.623967924211811 ], [ 3.226652228602132, 36.624887422417736 ], [ 3.225912012634624, 36.624887422417736 ], [ 3.225912012634624, 36.625347167407384 ], [ 3.225171796667116, 36.625347167407384 ], [ 3.225171796667116, 36.626266649159994 ], [ 3.224431580699607, 36.626266649159994 ], [ 3.224431580699607, 36.627186119943595 ], [ 3.223691364732099, 36.627186119943595 ], [ 3.223691364732099, 36.63178330932265 ], [ 3.224431580699607, 36.63178330932265 ], [ 3.224431580699607, 36.632702714289934 ], [ 3.225171796667116, 36.632702714289934 ], [ 3.225171796667116, 36.633622108287483 ], [ 3.225912012634624, 36.633622108287483 ], [ 3.225912012634624, 36.634541491315147 ], [ 3.226652228602132, 36.634541491315147 ], [ 3.226652228602132, 36.635460863372849 ], [ 3.22739244456964, 36.635460863372849 ], [ 3.22739244456964, 36.636380224460474 ], [ 3.237015252147248, 36.636380224460474 ], [ 3.237015252147248, 36.635460863372849 ], [ 3.237755468114757, 36.635460863372849 ], [ 3.237755468114757, 36.635001178715243 ], [ 3.238495684082265, 36.635001178715243 ], [ 3.238495684082265, 36.634081801172542 ], [ 3.239235900049774, 36.634081801172542 ] ] ], [ [ [ 3.128943720891032, 36.687846933872635 ], [ 3.128943720891032, 36.68600942970653 ], [ 3.12968393685854, 36.68600942970653 ], [ 3.12968393685854, 36.684631272770233 ], [ 3.130424152826048, 36.684631272770233 ], [ 3.130424152826048, 36.682793691773554 ], [ 3.131164368793557, 36.682793691773554 ], [ 3.131164368793557, 36.680956066874856 ], [ 3.131904584761065, 36.680956066874856 ], [ 3.131904584761065, 36.680037237962523 ], [ 3.131164368793557, 36.680037237962523 ], [ 3.131164368793557, 36.678199547212365 ], [ 3.130424152826048, 36.678199547212365 ], [ 3.130424152826048, 36.676361812562291 ], [ 3.12968393685854, 36.676361812562291 ], [ 3.12968393685854, 36.67452403401316 ], [ 3.128943720891032, 36.67452403401316 ], [ 3.128943720891032, 36.673145671293035 ], [ 3.127463288956015, 36.673145671293035 ], [ 3.127463288956015, 36.672686211565782 ], [ 3.12524264105349, 36.672686211565782 ], [ 3.12524264105349, 36.672226749094932 ], [ 3.121541561215949, 36.672226749094932 ], [ 3.121541561215949, 36.673145671293035 ], [ 3.120801345248441, 36.673145671293035 ], [ 3.120801345248441, 36.673605128276698 ], [ 3.120061129280932, 36.673605128276698 ], [ 3.120061129280932, 36.67452403401316 ], [ 3.119320913313424, 36.67452403401316 ], [ 3.119320913313424, 36.674983482765938 ], [ 3.118580697345915, 36.674983482765938 ], [ 3.118580697345915, 36.675442928775055 ], [ 3.117840481378407, 36.675442928775055 ], [ 3.117840481378407, 36.676361812562291 ], [ 3.117100265410898, 36.676361812562291 ], [ 3.117100265410898, 36.676821250340389 ], [ 3.11636004944339, 36.676821250340389 ], [ 3.11636004944339, 36.677740117665422 ], [ 3.115619833475882, 36.677740117665422 ], [ 3.115619833475882, 36.678199547212365 ], [ 3.114879617508374, 36.678199547212365 ], [ 3.114879617508374, 36.679118398074984 ], [ 3.114139401540865, 36.679118398074984 ], [ 3.114139401540865, 36.679577819390644 ], [ 3.113399185573357, 36.679577819390644 ], [ 3.113399185573357, 36.683253091138575 ], [ 3.114139401540865, 36.683253091138575 ], [ 3.114139401540865, 36.68600942970653 ], [ 3.114879617508374, 36.68600942970653 ], [ 3.114879617508374, 36.686468809864046 ], [ 3.11636004944339, 36.686468809864046 ], [ 3.11636004944339, 36.68692818727758 ], [ 3.117840481378407, 36.68692818727758 ], [ 3.117840481378407, 36.687387561947112 ], [ 3.119320913313424, 36.687387561947112 ], [ 3.119320913313424, 36.687846933872635 ], [ 3.120801345248441, 36.687846933872635 ], [ 3.120801345248441, 36.688306303054155 ], [ 3.122281777183456, 36.688306303054155 ], [ 3.122281777183456, 36.688765669491623 ], [ 3.123762209118474, 36.688765669491623 ], [ 3.123762209118474, 36.689225033185046 ], [ 3.12524264105349, 36.689225033185046 ], [ 3.12524264105349, 36.688765669491623 ], [ 3.126723072988507, 36.688765669491623 ], [ 3.126723072988507, 36.688306303054155 ], [ 3.127463288956015, 36.688306303054155 ], [ 3.127463288956015, 36.687846933872635 ], [ 3.128943720891032, 36.687846933872635 ] ] ], [ [ [ 1.667017185062072, 41.318685952030009 ], [ 1.66775740102958, 41.318685952030009 ], [ 1.66775740102958, 41.318255711557249 ], [ 1.668497616997088, 41.318255711557249 ], [ 1.668497616997088, 41.317395222091427 ], [ 1.669237832964597, 41.317395222091427 ], [ 1.669237832964597, 41.316534721265214 ], [ 1.669978048932105, 41.316534721265214 ], [ 1.669978048932105, 41.315674209078693 ], [ 1.670718264899614, 41.315674209078693 ], [ 1.670718264899614, 41.31395315062484 ], [ 1.669978048932105, 41.31395315062484 ], [ 1.669978048932105, 41.308359396826262 ], [ 1.669237832964597, 41.308359396826262 ], [ 1.669237832964597, 41.30749877671883 ], [ 1.668497616997088, 41.30749877671883 ], [ 1.668497616997088, 41.306638145251547 ], [ 1.66775740102958, 41.306638145251547 ], [ 1.66775740102958, 41.306207825257957 ], [ 1.667017185062072, 41.306207825257957 ], [ 1.667017185062072, 41.305777502424441 ], [ 1.657394377484463, 41.305777502424441 ], [ 1.657394377484463, 41.306638145251547 ], [ 1.656654161516955, 41.306638145251547 ], [ 1.656654161516955, 41.307068462405169 ], [ 1.655913945549446, 41.307068462405169 ], [ 1.655913945549446, 41.307929088192537 ], [ 1.655173729581938, 41.307929088192537 ], [ 1.655173729581938, 41.308789702620011 ], [ 1.65443351361443, 41.308789702620011 ], [ 1.65443351361443, 41.318255711557249 ], [ 1.655173729581938, 41.318255711557249 ], [ 1.655173729581938, 41.319116189662658 ], [ 1.655913945549446, 41.319116189662658 ], [ 1.655913945549446, 41.319546424455204 ], [ 1.656654161516955, 41.319546424455204 ], [ 1.656654161516955, 41.320406885519908 ], [ 1.657394377484463, 41.320406885519908 ], [ 1.657394377484463, 41.320837111792073 ], [ 1.665536753127055, 41.320837111792073 ], [ 1.665536753127055, 41.320406885519908 ], [ 1.666276969094563, 41.320406885519908 ], [ 1.666276969094563, 41.319546424455204 ], [ 1.667017185062072, 41.319546424455204 ], [ 1.667017185062072, 41.318685952030009 ] ] ], [ [ [ 2.001594802375839, 41.412410569391874 ], [ 2.001594802375839, 41.411980948192124 ], [ 2.002335018343347, 41.411980948192124 ], [ 2.002335018343347, 41.411551324151091 ], [ 2.003815450278363, 41.411551324151091 ], [ 2.003815450278363, 41.411121697268769 ], [ 2.004555666245873, 41.411121697268769 ], [ 2.004555666245873, 41.410692067545178 ], [ 2.005295882213381, 41.410692067545178 ], [ 2.005295882213381, 41.408973520238099 ], [ 2.006036098180889, 41.408973520238099 ], [ 2.006036098180889, 41.407254927470994 ], [ 2.006776314148397, 41.407254927470994 ], [ 2.006776314148397, 41.406825272176128 ], [ 2.006036098180889, 41.406825272176128 ], [ 2.006036098180889, 41.404676953083538 ], [ 2.005295882213381, 41.404676953083538 ], [ 2.005295882213381, 41.402528562961002 ], [ 2.004555666245873, 41.402528562961002 ], [ 2.004555666245873, 41.401669187023749 ], [ 2.003815450278363, 41.401669187023749 ], [ 2.003815450278363, 41.401239494793387 ], [ 2.003075234310855, 41.401239494793387 ], [ 2.003075234310855, 41.400809799721856 ], [ 2.001594802375839, 41.400809799721856 ], [ 2.001594802375839, 41.400380101809176 ], [ 1.999374154473314, 41.400380101809176 ], [ 1.999374154473314, 41.400809799721856 ], [ 1.998633938505805, 41.400809799721856 ], [ 1.998633938505805, 41.401239494793387 ], [ 1.997153506570789, 41.401239494793387 ], [ 1.997153506570789, 41.401669187023749 ], [ 1.99641329060328, 41.401669187023749 ], [ 1.99641329060328, 41.402098876412957 ], [ 1.995673074635772, 41.402098876412957 ], [ 1.995673074635772, 41.402528562961002 ], [ 1.994932858668264, 41.402528562961002 ], [ 1.994932858668264, 41.402958246667872 ], [ 1.994192642700756, 41.402958246667872 ], [ 1.994192642700756, 41.403387927533572 ], [ 1.993452426733247, 41.403387927533572 ], [ 1.993452426733247, 41.404676953083538 ], [ 1.992712210765739, 41.404676953083538 ], [ 1.992712210765739, 41.406395614040044 ], [ 1.99197199479823, 41.406395614040044 ], [ 1.99197199479823, 41.408114229537027 ], [ 1.992712210765739, 41.408114229537027 ], [ 1.992712210765739, 41.409832799574154 ], [ 1.993452426733247, 41.409832799574154 ], [ 1.993452426733247, 41.411121697268769 ], [ 1.994192642700756, 41.411121697268769 ], [ 1.994192642700756, 41.411551324151091 ], [ 1.994932858668264, 41.411551324151091 ], [ 1.994932858668264, 41.411980948192124 ], [ 1.995673074635772, 41.411980948192124 ], [ 1.995673074635772, 41.412410569391874 ], [ 1.997153506570789, 41.412410569391874 ], [ 1.997153506570789, 41.412840187750334 ], [ 1.997893722538297, 41.412840187750334 ], [ 1.997893722538297, 41.413269803267482 ], [ 1.998633938505805, 41.413269803267482 ], [ 1.998633938505805, 41.412840187750334 ], [ 2.000114370440822, 41.412840187750334 ], [ 2.000114370440822, 41.412410569391874 ], [ 2.001594802375839, 41.412410569391874 ] ] ] ] } }
]
}
