{
"type": "FeatureCollection",
"name": "spain_fires_modis_ba",
"crs": { "type": "name", "properties": { "name": "urn:ogc:def:crs:OGC:1.3:CRS84" } },
"features": [
{ "type": "Feature", "properties": { }, "geometry": { "type": "Polygon", "coordinates": [ [ [ 0.430116303355645, 42.454748849823147 ], [ 0.438258678998237, 42.454748849823147 ], [ 0.438258678998237, 42.454326192843084 ], [ 0.439739110933254, 42.454326192843084 ], [ 0.439739110933254, 42.453903533010582 ], [ 0.440479326900762, 42.453903533010582 ], [ 0.440479326900762, 42.454326192843084 ], [ 0.444920622705812, 42.454326192843084 ], [ 0.444920622705812, 42.45348087032567 ], [ 0.44566083867332, 42.45348087032567 ], [ 0.44566083867332, 42.45136751411497 ], [ 0.444920622705812, 42.45136751411497 ], [ 0.444920622705812, 42.450944834315635 ], [ 0.441959758835779, 42.450944834315635 ], [ 0.441959758835779, 42.45136751411497 ], [ 0.440479326900762, 42.45136751411497 ], [ 0.440479326900762, 42.451790191061924 ], [ 0.438998894965745, 42.451790191061924 ], [ 0.438998894965745, 42.452212865156469 ], [ 0.436038031095712, 42.452212865156469 ], [ 0.436038031095712, 42.45263553639861 ], [ 0.434557599160695, 42.45263553639861 ], [ 0.434557599160695, 42.453058204788348 ], [ 0.433077167225678, 42.453058204788348 ], [ 0.433077167225678, 42.45348087032567 ], [ 0.431596735290662, 42.45348087032567 ], [ 0.431596735290662, 42.453903533010582 ], [ 0.430116303355645, 42.453903533010582 ], [ 0.430116303355645, 42.454748849823147 ] ] ] } }
]
}
