{
"type": "FeatureCollection",
"name": "spain_fires_modis_ba",
"crs": { "type": "name", "properties": { "name": "urn:ogc:def:crs:OGC:1.3:CRS84" } },
"features": [
{ "type": "Feature", "properties": { }, "geometry": { "type": "Polygon", "coordinates": [ [ [ -7.294037317593825, 41.657260110526828 ], [ -7.291076453723792, 41.657260110526828 ], [ -7.291076453723792, 41.656832112558433 ], [ -7.288855805821266, 41.656832112558433 ], [ -7.288855805821266, 41.656404111745786 ], [ -7.286635157918742, 41.656404111745786 ], [ -7.286635157918742, 41.655976108088915 ], [ -7.283674294048708, 41.655976108088915 ], [ -7.283674294048708, 41.655548101587804 ], [ -7.282934078081201, 41.655548101587804 ], [ -7.282934078081201, 41.65512009224247 ], [ -7.281453646146183, 41.65512009224247 ], [ -7.281453646146183, 41.654692080052904 ], [ -7.280713430178675, 41.654692080052904 ], [ -7.280713430178675, 41.65426406501912 ], [ -7.279973214211166, 41.65426406501912 ], [ -7.279973214211166, 41.65340802641893 ], [ -7.279232998243658, 41.65340802641893 ], [ -7.279232998243658, 41.652980002852523 ], [ -7.278492782276149, 41.652980002852523 ], [ -7.278492782276149, 41.652123947187128 ], [ -7.277752566308641, 41.652123947187128 ], [ -7.277752566308641, 41.651695915088148 ], [ -7.277012350341132, 41.651695915088148 ], [ -7.277012350341132, 41.650839842357641 ], [ -7.276272134373625, 41.650839842357641 ], [ -7.276272134373625, 41.649983758250436 ], [ -7.275531918406117, 41.649983758250436 ], [ -7.275531918406117, 41.649127662766567 ], [ -7.274791702438608, 41.649127662766567 ], [ -7.274791702438608, 41.647843498209653 ], [ -7.274051486471099, 41.647843498209653 ], [ -7.274051486471099, 41.646559308055487 ], [ -7.273311270503592, 41.646559308055487 ], [ -7.273311270503592, 41.643990850955952 ], [ -7.272571054536084, 41.643990850955952 ], [ -7.272571054536084, 41.639281747018231 ], [ -7.273311270503592, 41.639281747018231 ], [ -7.273311270503592, 41.638425509329593 ], [ -7.274051486471099, 41.638425509329593 ], [ -7.274051486471099, 41.637997386219226 ], [ -7.274791702438608, 41.637997386219226 ], [ -7.274791702438608, 41.63756926026484 ], [ -7.275531918406117, 41.63756926026484 ], [ -7.275531918406117, 41.637141131466429 ], [ -7.276272134373625, 41.637141131466429 ], [ -7.276272134373625, 41.636712999824013 ], [ -7.277012350341132, 41.636712999824013 ], [ -7.277012350341132, 41.636284865337586 ], [ -7.277752566308641, 41.636284865337586 ], [ -7.277752566308641, 41.635856728007148 ], [ -7.278492782276149, 41.635856728007148 ], [ -7.278492782276149, 41.63542858783272 ], [ -7.279973214211166, 41.63542858783272 ], [ -7.279973214211166, 41.635000444814295 ], [ -7.280713430178675, 41.635000444814295 ], [ -7.280713430178675, 41.634572298951888 ], [ -7.282193862113692, 41.634572298951888 ], [ -7.282193862113692, 41.634144150245497 ], [ -7.282934078081201, 41.634144150245497 ], [ -7.282934078081201, 41.633715998695116 ], [ -7.284414510016216, 41.633715998695116 ], [ -7.284414510016216, 41.633287844300781 ], [ -7.285154725983725, 41.633287844300781 ], [ -7.285154725983725, 41.632859687062464 ], [ -7.285894941951232, 41.632859687062464 ], [ -7.285894941951232, 41.632431526980191 ], [ -7.287375373886249, 41.632431526980191 ], [ -7.287375373886249, 41.632003364053958 ], [ -7.288115589853758, 41.632003364053958 ], [ -7.288115589853758, 41.631575198283777 ], [ -7.288855805821266, 41.631575198283777 ], [ -7.288855805821266, 41.631147029669641 ], [ -7.289596021788776, 41.631147029669641 ], [ -7.289596021788776, 41.630718858211559 ], [ -7.290336237756283, 41.630718858211559 ], [ -7.290336237756283, 41.630290683909543 ], [ -7.291076453723792, 41.630290683909543 ], [ -7.291076453723792, 41.629434326773719 ], [ -7.296257965496349, 41.629434326773719 ], [ -7.296257965496349, 41.629862506763594 ], [ -7.296998181463858, 41.629862506763594 ], [ -7.296998181463858, 41.638853629595928 ], [ -7.296257965496349, 41.638853629595928 ], [ -7.296257965496349, 41.639281747018231 ], [ -7.294777533561333, 41.639281747018231 ], [ -7.294777533561333, 41.639709861596501 ], [ -7.293297101626316, 41.639709861596501 ], [ -7.293297101626316, 41.640137973330724 ], [ -7.2918166696913, 41.640137973330724 ], [ -7.2918166696913, 41.6405660822209 ], [ -7.290336237756283, 41.6405660822209 ], [ -7.290336237756283, 41.640994188267015 ], [ -7.289596021788776, 41.640994188267015 ], [ -7.289596021788776, 41.641422291469091 ], [ -7.288855805821266, 41.641422291469091 ], [ -7.288855805821266, 41.641850391827084 ], [ -7.288115589853758, 41.641850391827084 ], [ -7.288115589853758, 41.642278489341024 ], [ -7.287375373886249, 41.642278489341024 ], [ -7.287375373886249, 41.643990850955952 ], [ -7.286635157918742, 41.643990850955952 ], [ -7.286635157918742, 41.646559308055487 ], [ -7.287375373886249, 41.646559308055487 ], [ -7.287375373886249, 41.647415437669054 ], [ -7.288115589853758, 41.647415437669054 ], [ -7.288115589853758, 41.648271555906099 ], [ -7.288855805821266, 41.648271555906099 ], [ -7.288855805821266, 41.649127662766567 ], [ -7.289596021788776, 41.649127662766567 ], [ -7.289596021788776, 41.649555711930574 ], [ -7.290336237756283, 41.649555711930574 ], [ -7.290336237756283, 41.649983758250436 ], [ -7.291076453723792, 41.649983758250436 ], [ -7.291076453723792, 41.650839842357641 ], [ -7.2918166696913, 41.650839842357641 ], [ -7.2918166696913, 41.651267880144985 ], [ -7.292556885658807, 41.651267880144985 ], [ -7.292556885658807, 41.651695915088148 ], [ -7.294037317593825, 41.651695915088148 ], [ -7.294037317593825, 41.652123947187128 ], [ -7.29551774952884, 41.652123947187128 ], [ -7.29551774952884, 41.652551976441927 ], [ -7.296998181463858, 41.652551976441927 ], [ -7.296998181463858, 41.656404111745786 ], [ -7.296257965496349, 41.656404111745786 ], [ -7.296257965496349, 41.656832112558433 ], [ -7.294037317593825, 41.656832112558433 ], [ -7.294037317593825, 41.657260110526828 ] ] ] } }
]
}
