{
"type": "FeatureCollection",
"name": "spain_fires_nrt_ba",
"crs": { "type": "name", "properties": { "name": "urn:ogc:def:crs:OGC:1.3:CRS84" } },
"features": [
{ "type": "Feature", "properties": { }, "geometry": { "type": "MultiPolygon", "coordinates": [ [ [ [ -0.934101724762215, 35.571429039422256 ], [ -0.933361508794706, 35.571429039422256 ], [ -0.933361508794706, 35.570963086286405 ], [ -0.932621292827198, 35.570963086286405 ], [ -0.932621292827198, 35.570497130440543 ], [ -0.93188107685969, 35.570497130440543 ], [ -0.93188107685969, 35.56956521061889 ], [ -0.931140860892182, 35.56956521061889 ], [ -0.931140860892182, 35.564439457841075 ], [ -0.93188107685969, 35.564439457841075 ], [ -0.93188107685969, 35.563973464056765 ], [ -0.932621292827198, 35.563973464056765 ], [ -0.932621292827198, 35.56304146835884 ], [ -0.933361508794706, 35.56304146835884 ], [ -0.933361508794706, 35.562109461821933 ], [ -0.934101724762215, 35.562109461821933 ], [ -0.934101724762215, 35.56164345448888 ], [ -0.934841940729723, 35.56164345448888 ], [ -0.934841940729723, 35.560711431693733 ], [ -0.935582156697232, 35.560711431693733 ], [ -0.935582156697232, 35.559779398059881 ], [ -0.93632237266474, 35.559779398059881 ], [ -0.93632237266474, 35.559313377178498 ], [ -0.938543020567265, 35.559313377178498 ], [ -0.938543020567265, 35.558847353587474 ], [ -0.942244100404807, 35.558847353587474 ], [ -0.942244100404807, 35.559779398059881 ], [ -0.942984316372315, 35.559779398059881 ], [ -0.942984316372315, 35.560245416231631 ], [ -0.943724532339823, 35.560245416231631 ], [ -0.943724532339823, 35.560711431693733 ], [ -0.944464748307332, 35.560711431693733 ], [ -0.944464748307332, 35.561177444446159 ], [ -0.94520496427484, 35.561177444446159 ], [ -0.94520496427484, 35.56164345448888 ], [ -0.945945180242348, 35.56164345448888 ], [ -0.945945180242348, 35.562109461821933 ], [ -0.946685396209857, 35.562109461821933 ], [ -0.946685396209857, 35.563973464056765 ], [ -0.945945180242348, 35.563973464056765 ], [ -0.945945180242348, 35.571429039422256 ], [ -0.94520496427484, 35.571429039422256 ], [ -0.94520496427484, 35.572360937563893 ], [ -0.944464748307332, 35.572360937563893 ], [ -0.944464748307332, 35.57282688256965 ], [ -0.943724532339823, 35.57282688256965 ], [ -0.943724532339823, 35.573758764450957 ], [ -0.935582156697232, 35.573758764450957 ], [ -0.935582156697232, 35.57282688256965 ], [ -0.934841940729723, 35.57282688256965 ], [ -0.934841940729723, 35.572360937563893 ], [ -0.934101724762215, 35.572360937563893 ], [ -0.934101724762215, 35.571429039422256 ] ] ], [ [ [ -0.276789945614814, 35.824505411354338 ], [ -0.276049729647306, 35.824505411354338 ], [ -0.276049729647306, 35.824040934669902 ], [ -0.273088865777272, 35.824040934669902 ], [ -0.273088865777272, 35.8235764552674 ], [ -0.268647569972222, 35.8235764552674 ], [ -0.268647569972222, 35.82311197314683 ], [ -0.264946490134681, 35.82311197314683 ], [ -0.264946490134681, 35.822647488308213 ], [ -0.264206274167172, 35.822647488308213 ], [ -0.264206274167172, 35.822183000751579 ], [ -0.263466058199664, 35.822183000751579 ], [ -0.263466058199664, 35.821718510476927 ], [ -0.262725842232156, 35.821718510476927 ], [ -0.262725842232156, 35.821254017484272 ], [ -0.261985626264647, 35.821254017484272 ], [ -0.261985626264647, 35.820789521773627 ], [ -0.260505194329631, 35.820789521773627 ], [ -0.260505194329631, 35.820325023345006 ], [ -0.259764978362122, 35.820325023345006 ], [ -0.259764978362122, 35.819860522198454 ], [ -0.259024762394614, 35.819860522198454 ], [ -0.259024762394614, 35.81939601833394 ], [ -0.258284546427106, 35.81939601833394 ], [ -0.258284546427106, 35.818931511751508 ], [ -0.256804114492089, 35.818931511751508 ], [ -0.256804114492089, 35.818467002451158 ], [ -0.255323682557072, 35.818467002451158 ], [ -0.255323682557072, 35.818002490432896 ], [ -0.253103034654547, 35.818002490432896 ], [ -0.253103034654547, 35.81753797569678 ], [ -0.251622602719531, 35.81753797569678 ], [ -0.251622602719531, 35.817073458242774 ], [ -0.250142170784514, 35.817073458242774 ], [ -0.250142170784514, 35.816608938070921 ], [ -0.247921522881989, 35.816608938070921 ], [ -0.247921522881989, 35.817073458242774 ], [ -0.247181306914481, 35.817073458242774 ], [ -0.247181306914481, 35.81753797569678 ], [ -0.245700874979464, 35.81753797569678 ], [ -0.245700874979464, 35.818002490432896 ], [ -0.244960659011956, 35.818002490432896 ], [ -0.244960659011956, 35.818467002451158 ], [ -0.244220443044447, 35.818467002451158 ], [ -0.244220443044447, 35.818931511751508 ], [ -0.242740011109431, 35.818931511751508 ], [ -0.242740011109431, 35.81939601833394 ], [ -0.239779147239397, 35.81939601833394 ], [ -0.239779147239397, 35.818931511751508 ], [ -0.237558499336872, 35.818931511751508 ], [ -0.237558499336872, 35.818467002451158 ], [ -0.236078067401856, 35.818467002451158 ], [ -0.236078067401856, 35.818002490432896 ], [ -0.234597635466839, 35.818002490432896 ], [ -0.234597635466839, 35.81753797569678 ], [ -0.232376987564314, 35.81753797569678 ], [ -0.232376987564314, 35.817073458242774 ], [ -0.231636771596806, 35.817073458242774 ], [ -0.231636771596806, 35.816144415181228 ], [ -0.230896555629297, 35.816144415181228 ], [ -0.230896555629297, 35.815215361248384 ], [ -0.230156339661789, 35.815215361248384 ], [ -0.230156339661789, 35.814286296444358 ], [ -0.229416123694281, 35.814286296444358 ], [ -0.229416123694281, 35.813821759965677 ], [ -0.228675907726772, 35.813821759965677 ], [ -0.228675907726772, 35.813357220769255 ], [ -0.227195475791756, 35.813357220769255 ], [ -0.227195475791756, 35.812892678855093 ], [ -0.225715043856739, 35.812892678855093 ], [ -0.225715043856739, 35.812428134223211 ], [ -0.224234611921722, 35.812428134223211 ], [ -0.224234611921722, 35.810569928518746 ], [ -0.223494395954214, 35.810569928518746 ], [ -0.223494395954214, 35.805924224024189 ], [ -0.224234611921722, 35.805924224024189 ], [ -0.224234611921722, 35.803601269869652 ], [ -0.224974827889231, 35.803601269869652 ], [ -0.224974827889231, 35.803136670886389 ], [ -0.225715043856739, 35.803136670886389 ], [ -0.225715043856739, 35.80220746476764 ], [ -0.226455259824247, 35.80220746476764 ], [ -0.226455259824247, 35.801742857632192 ], [ -0.227195475791756, 35.801742857632192 ], [ -0.227195475791756, 35.801278247779365 ], [ -0.227935691759264, 35.801278247779365 ], [ -0.227935691759264, 35.800813635209181 ], [ -0.230896555629297, 35.800813635209181 ], [ -0.230896555629297, 35.800349019921647 ], [ -0.233117203531822, 35.800349019921647 ], [ -0.233117203531822, 35.799884401916799 ], [ -0.234597635466839, 35.799884401916799 ], [ -0.234597635466839, 35.800349019921647 ], [ -0.235337851434347, 35.800349019921647 ], [ -0.235337851434347, 35.800813635209181 ], [ -0.236078067401856, 35.800813635209181 ], [ -0.236078067401856, 35.801278247779365 ], [ -0.236818283369364, 35.801278247779365 ], [ -0.236818283369364, 35.801742857632192 ], [ -0.237558499336872, 35.801742857632192 ], [ -0.237558499336872, 35.80220746476764 ], [ -0.238298715304381, 35.80220746476764 ], [ -0.238298715304381, 35.802672069185711 ], [ -0.239038931271889, 35.802672069185711 ], [ -0.239038931271889, 35.800349019921647 ], [ -0.239779147239397, 35.800349019921647 ], [ -0.239779147239397, 35.798490531598425 ], [ -0.240519363206906, 35.798490531598425 ], [ -0.240519363206906, 35.798025902724412 ], [ -0.241999795141922, 35.798025902724412 ], [ -0.241999795141922, 35.797561271133148 ], [ -0.242740011109431, 35.797561271133148 ], [ -0.242740011109431, 35.797096636824634 ], [ -0.244960659011956, 35.797096636824634 ], [ -0.244960659011956, 35.797561271133148 ], [ -0.246441090946972, 35.797561271133148 ], [ -0.246441090946972, 35.798025902724412 ], [ -0.247181306914481, 35.798025902724412 ], [ -0.247181306914481, 35.798490531598425 ], [ -0.247921522881989, 35.798490531598425 ], [ -0.247921522881989, 35.798955157755167 ], [ -0.251622602719531, 35.798955157755167 ], [ -0.251622602719531, 35.798490531598425 ], [ -0.254583466589564, 35.798490531598425 ], [ -0.254583466589564, 35.798025902724412 ], [ -0.258284546427106, 35.798025902724412 ], [ -0.258284546427106, 35.797561271133148 ], [ -0.261985626264647, 35.797561271133148 ], [ -0.261985626264647, 35.798025902724412 ], [ -0.264206274167172, 35.798025902724412 ], [ -0.264206274167172, 35.798490531598425 ], [ -0.266426922069697, 35.798490531598425 ], [ -0.266426922069697, 35.798955157755167 ], [ -0.267167138037206, 35.798955157755167 ], [ -0.267167138037206, 35.799419781194644 ], [ -0.267907354004714, 35.799419781194644 ], [ -0.267907354004714, 35.799884401916799 ], [ -0.268647569972222, 35.799884401916799 ], [ -0.268647569972222, 35.800349019921647 ], [ -0.269387785939731, 35.800349019921647 ], [ -0.269387785939731, 35.800813635209181 ], [ -0.270128001907239, 35.800813635209181 ], [ -0.270128001907239, 35.801278247779365 ], [ -0.270868217874747, 35.801278247779365 ], [ -0.270868217874747, 35.801742857632192 ], [ -0.271608433842256, 35.801742857632192 ], [ -0.271608433842256, 35.80220746476764 ], [ -0.272348649809764, 35.80220746476764 ], [ -0.272348649809764, 35.803136670886389 ], [ -0.273088865777272, 35.803136670886389 ], [ -0.273088865777272, 35.803601269869652 ], [ -0.273829081744781, 35.803601269869652 ], [ -0.273829081744781, 35.804065866135467 ], [ -0.275309513679797, 35.804065866135467 ], [ -0.275309513679797, 35.803136670886389 ], [ -0.276049729647306, 35.803136670886389 ], [ -0.276049729647306, 35.80220746476764 ], [ -0.276789945614814, 35.80220746476764 ], [ -0.276789945614814, 35.801278247779365 ], [ -0.277530161582322, 35.801278247779365 ], [ -0.277530161582322, 35.800813635209181 ], [ -0.282711673354881, 35.800813635209181 ], [ -0.282711673354881, 35.801742857632192 ], [ -0.283451889322389, 35.801742857632192 ], [ -0.283451889322389, 35.802672069185711 ], [ -0.284192105289897, 35.802672069185711 ], [ -0.284192105289897, 35.803136670886389 ], [ -0.284932321257406, 35.803136670886389 ], [ -0.284932321257406, 35.804995050514783 ], [ -0.285672537224914, 35.804995050514783 ], [ -0.285672537224914, 35.811499036806339 ], [ -0.286412753192422, 35.811499036806339 ], [ -0.286412753192422, 35.81753797569678 ], [ -0.287152969159931, 35.81753797569678 ], [ -0.287152969159931, 35.821254017484272 ], [ -0.286412753192422, 35.821254017484272 ], [ -0.286412753192422, 35.822183000751579 ], [ -0.285672537224914, 35.822183000751579 ], [ -0.285672537224914, 35.822647488308213 ], [ -0.284932321257406, 35.822647488308213 ], [ -0.284932321257406, 35.82311197314683 ], [ -0.284192105289897, 35.82311197314683 ], [ -0.284192105289897, 35.8235764552674 ], [ -0.283451889322389, 35.8235764552674 ], [ -0.283451889322389, 35.824040934669902 ], [ -0.282711673354881, 35.824040934669902 ], [ -0.282711673354881, 35.824505411354338 ], [ -0.281971457387372, 35.824505411354338 ], [ -0.281971457387372, 35.824969885320684 ], [ -0.281231241419864, 35.824969885320684 ], [ -0.281231241419864, 35.82543435656892 ], [ -0.280491025452356, 35.82543435656892 ], [ -0.280491025452356, 35.825898825099053 ], [ -0.278270377549831, 35.825898825099053 ], [ -0.278270377549831, 35.82543435656892 ], [ -0.277530161582322, 35.82543435656892 ], [ -0.277530161582322, 35.824969885320684 ], [ -0.276789945614814, 35.824969885320684 ], [ -0.276789945614814, 35.824505411354338 ] ] ], [ [ [ -5.097816541996597, 36.655224709052433 ], [ -5.09633611006158, 36.655224709052433 ], [ -5.09633611006158, 36.654765142335052 ], [ -5.095595894094072, 36.654765142335052 ], [ -5.095595894094072, 36.654305572874598 ], [ -5.094855678126563, 36.654305572874598 ], [ -5.094855678126563, 36.653846000671066 ], [ -5.093375246191546, 36.653846000671066 ], [ -5.093375246191546, 36.652467267602283 ], [ -5.092635030224037, 36.652467267602283 ], [ -5.092635030224037, 36.651088509846439 ], [ -5.09189481425653, 36.651088509846439 ], [ -5.09189481425653, 36.650628918441868 ], [ -5.089674166354004, 36.650628918441868 ], [ -5.089674166354004, 36.650169324294353 ], [ -5.088193734418988, 36.650169324294353 ], [ -5.088193734418988, 36.649709727403888 ], [ -5.085973086516463, 36.649709727403888 ], [ -5.085973086516463, 36.649250127770507 ], [ -5.085232870548955, 36.649250127770507 ], [ -5.085232870548955, 36.648790525394197 ], [ -5.084492654581446, 36.648790525394197 ], [ -5.084492654581446, 36.64695208846009 ], [ -5.083752438613938, 36.64695208846009 ], [ -5.083752438613938, 36.641896160608837 ], [ -5.084492654581446, 36.641896160608837 ], [ -5.084492654581446, 36.638218913725105 ], [ -5.085232870548955, 36.638218913725105 ], [ -5.085232870548955, 36.634081801172542 ], [ -5.085973086516463, 36.634081801172542 ], [ -5.085973086516463, 36.630404181303668 ], [ -5.086713302483972, 36.630404181303668 ], [ -5.086713302483972, 36.629484748912446 ], [ -5.087453518451481, 36.629484748912446 ], [ -5.087453518451481, 36.628565305551845 ], [ -5.088193734418988, 36.628565305551845 ], [ -5.088193734418988, 36.627186119943595 ], [ -5.088933950386497, 36.627186119943595 ], [ -5.088933950386497, 36.626726385922929 ], [ -5.090414382321512, 36.626726385922929 ], [ -5.090414382321512, 36.626266649159994 ], [ -5.091154598289021, 36.626266649159994 ], [ -5.091154598289021, 36.625806909654813 ], [ -5.092635030224037, 36.625806909654813 ], [ -5.092635030224037, 36.625347167407384 ], [ -5.093375246191546, 36.625347167407384 ], [ -5.093375246191546, 36.624887422417736 ], [ -5.094855678126563, 36.624887422417736 ], [ -5.094855678126563, 36.624427674685869 ], [ -5.095595894094072, 36.624427674685869 ], [ -5.095595894094072, 36.623967924211811 ], [ -5.097076326029088, 36.623967924211811 ], [ -5.097076326029088, 36.623508170995557 ], [ -5.097816541996597, 36.623508170995557 ], [ -5.097816541996597, 36.623048415037132 ], [ -5.099296973931613, 36.623048415037132 ], [ -5.099296973931613, 36.623508170995557 ], [ -5.102257837801646, 36.623508170995557 ], [ -5.102257837801646, 36.623967924211811 ], [ -5.10521870167168, 36.623967924211811 ], [ -5.10521870167168, 36.624427674685869 ], [ -5.108179565541714, 36.624427674685869 ], [ -5.108179565541714, 36.624887422417736 ], [ -5.111140429411746, 36.624887422417736 ], [ -5.111140429411746, 36.625347167407384 ], [ -5.11410129328178, 36.625347167407384 ], [ -5.11410129328178, 36.625806909654813 ], [ -5.117062157151813, 36.625806909654813 ], [ -5.117062157151813, 36.626266649159994 ], [ -5.118542589086831, 36.626266649159994 ], [ -5.118542589086831, 36.627645851221985 ], [ -5.119282805054338, 36.627645851221985 ], [ -5.119282805054338, 36.629025028603316 ], [ -5.120023021021846, 36.629025028603316 ], [ -5.120023021021846, 36.630404181303668 ], [ -5.120763236989355, 36.630404181303668 ], [ -5.120763236989355, 36.63178330932265 ], [ -5.121503452956863, 36.63178330932265 ], [ -5.121503452956863, 36.633162412659935 ], [ -5.122243668924372, 36.633162412659935 ], [ -5.122243668924372, 36.634081801172542 ], [ -5.122983884891879, 36.634081801172542 ], [ -5.122983884891879, 36.635460863372849 ], [ -5.123724100859388, 36.635460863372849 ], [ -5.123724100859388, 36.636839900890493 ], [ -5.124464316826897, 36.636839900890493 ], [ -5.124464316826897, 36.638218913725105 ], [ -5.125204532794405, 36.638218913725105 ], [ -5.125204532794405, 36.641436514347689 ], [ -5.124464316826897, 36.641436514347689 ], [ -5.124464316826897, 36.643275082935993 ], [ -5.123724100859388, 36.643275082935993 ], [ -5.123724100859388, 36.645573231959546 ], [ -5.122983884891879, 36.645573231959546 ], [ -5.122983884891879, 36.647871312412889 ], [ -5.122243668924372, 36.647871312412889 ], [ -5.122243668924372, 36.649709727403888 ], [ -5.121503452956863, 36.649709727403888 ], [ -5.121503452956863, 36.651088509846439 ], [ -5.120023021021846, 36.651088509846439 ], [ -5.120023021021846, 36.651548098508044 ], [ -5.119282805054338, 36.651548098508044 ], [ -5.119282805054338, 36.652007684426664 ], [ -5.117802373119321, 36.652007684426664 ], [ -5.117802373119321, 36.652467267602283 ], [ -5.117062157151813, 36.652467267602283 ], [ -5.117062157151813, 36.652007684426664 ], [ -5.115581725216797, 36.652007684426664 ], [ -5.115581725216797, 36.651548098508044 ], [ -5.11410129328178, 36.651548098508044 ], [ -5.11410129328178, 36.651088509846439 ], [ -5.112620861346763, 36.651088509846439 ], [ -5.112620861346763, 36.650628918441868 ], [ -5.110400213444238, 36.650628918441868 ], [ -5.110400213444238, 36.651088509846439 ], [ -5.109659997476729, 36.651088509846439 ], [ -5.109659997476729, 36.651548098508044 ], [ -5.108919781509222, 36.651548098508044 ], [ -5.108919781509222, 36.652007684426664 ], [ -5.108179565541714, 36.652007684426664 ], [ -5.108179565541714, 36.652926848034909 ], [ -5.107439349574205, 36.652926848034909 ], [ -5.107439349574205, 36.653386425724513 ], [ -5.106699133606696, 36.653386425724513 ], [ -5.106699133606696, 36.653846000671066 ], [ -5.105958917639189, 36.653846000671066 ], [ -5.105958917639189, 36.654305572874598 ], [ -5.10521870167168, 36.654305572874598 ], [ -5.10521870167168, 36.655224709052433 ], [ -5.103738269736664, 36.655224709052433 ], [ -5.103738269736664, 36.65568427302675 ], [ -5.101517621834138, 36.65568427302675 ], [ -5.101517621834138, 36.656143834257939 ], [ -5.098556757964105, 36.656143834257939 ], [ -5.098556757964105, 36.65568427302675 ], [ -5.097816541996597, 36.65568427302675 ], [ -5.097816541996597, 36.655224709052433 ] ] ], [ [ [ -8.798156163570761, 37.962830211175209 ], [ -8.798156163570761, 37.962378568367143 ], [ -8.795935515668235, 37.962378568367143 ], [ -8.795935515668235, 37.961926922781323 ], [ -8.794455083733217, 37.961926922781323 ], [ -8.794455083733217, 37.960571969357538 ], [ -8.79371486776571, 37.960571969357538 ], [ -8.79371486776571, 37.959216990934443 ], [ -8.7929746517982, 37.959216990934443 ], [ -8.7929746517982, 37.957410314149698 ], [ -8.792234435830693, 37.957410314149698 ], [ -8.792234435830693, 37.956055277396075 ], [ -8.791494219863186, 37.956055277396075 ], [ -8.791494219863186, 37.954700215644124 ], [ -8.790754003895676, 37.954700215644124 ], [ -8.790754003895676, 37.952893427755782 ], [ -8.790013787928167, 37.952893427755782 ], [ -8.790013787928167, 37.951538307675598 ], [ -8.78927357196066, 37.951538307675598 ], [ -8.78927357196066, 37.947472797452335 ], [ -8.790013787928167, 37.947472797452335 ], [ -8.790013787928167, 37.944762332320835 ], [ -8.790754003895676, 37.944762332320835 ], [ -8.790754003895676, 37.944310578411582 ], [ -8.7929746517982, 37.944310578411582 ], [ -8.7929746517982, 37.943858821725037 ], [ -8.795195299700726, 37.943858821725037 ], [ -8.795195299700726, 37.943407062261187 ], [ -8.797415947603252, 37.943407062261187 ], [ -8.797415947603252, 37.944310578411582 ], [ -8.798156163570761, 37.944310578411582 ], [ -8.798156163570761, 37.944762332320835 ], [ -8.798896379538268, 37.944762332320835 ], [ -8.798896379538268, 37.945214083452775 ], [ -8.799636595505778, 37.945214083452775 ], [ -8.799636595505778, 37.945665831807368 ], [ -8.800376811473285, 37.945665831807368 ], [ -8.800376811473285, 37.946117577384648 ], [ -8.801117027440792, 37.946117577384648 ], [ -8.801117027440792, 37.946569320184565 ], [ -8.801857243408302, 37.946569320184565 ], [ -8.801857243408302, 37.947021060207135 ], [ -8.802597459375811, 37.947021060207135 ], [ -8.802597459375811, 37.947472797452335 ], [ -8.804077891310827, 37.947472797452335 ], [ -8.804077891310827, 37.947021060207135 ], [ -8.805558323245844, 37.947021060207135 ], [ -8.805558323245844, 37.946569320184565 ], [ -8.806298539213351, 37.946569320184565 ], [ -8.806298539213351, 37.946117577384648 ], [ -8.807778971148368, 37.946117577384648 ], [ -8.807778971148368, 37.946569320184565 ], [ -8.809999619050894, 37.946569320184565 ], [ -8.809999619050894, 37.947021060207135 ], [ -8.811480050985908, 37.947021060207135 ], [ -8.811480050985908, 37.947472797452335 ], [ -8.812220266953418, 37.947472797452335 ], [ -8.812220266953418, 37.947924531920144 ], [ -8.812960482920927, 37.947924531920144 ], [ -8.812960482920927, 37.948827992523576 ], [ -8.813700698888436, 37.948827992523576 ], [ -8.813700698888436, 37.949731442017359 ], [ -8.814440914855945, 37.949731442017359 ], [ -8.814440914855945, 37.953345128894163 ], [ -8.813700698888436, 37.953345128894163 ], [ -8.813700698888436, 37.956055277396075 ], [ -8.812960482920927, 37.956055277396075 ], [ -8.812960482920927, 37.956506959091541 ], [ -8.812220266953418, 37.956506959091541 ], [ -8.812220266953418, 37.956958638009432 ], [ -8.810739835018401, 37.956958638009432 ], [ -8.810739835018401, 37.957410314149698 ], [ -8.809999619050894, 37.957410314149698 ], [ -8.809999619050894, 37.95831365809736 ], [ -8.809259403083384, 37.95831365809736 ], [ -8.809259403083384, 37.959216990934443 ], [ -8.808519187115875, 37.959216990934443 ], [ -8.808519187115875, 37.960120312660855 ], [ -8.807778971148368, 37.960120312660855 ], [ -8.807778971148368, 37.961475274417779 ], [ -8.80703875518086, 37.961475274417779 ], [ -8.80703875518086, 37.962378568367143 ], [ -8.806298539213351, 37.962378568367143 ], [ -8.806298539213351, 37.963281851205529 ], [ -8.805558323245844, 37.963281851205529 ], [ -8.805558323245844, 37.963733488458075 ], [ -8.803337675343318, 37.963733488458075 ], [ -8.803337675343318, 37.963281851205529 ], [ -8.801117027440792, 37.963281851205529 ], [ -8.801117027440792, 37.962830211175209 ], [ -8.798156163570761, 37.962830211175209 ] ] ], [ [ [ -9.005416634473093, 38.92608471433384 ], [ -9.004676418505586, 38.92608471433384 ], [ -9.004676418505586, 38.925193401701009 ], [ -9.003936202538076, 38.925193401701009 ], [ -9.003936202538076, 38.918062497505481 ], [ -9.004676418505586, 38.918062497505481 ], [ -9.004676418505586, 38.917171084090562 ], [ -9.005416634473093, 38.917171084090562 ], [ -9.005416634473093, 38.916279659478015 ], [ -9.006156850440602, 38.916279659478015 ], [ -9.006156850440602, 38.915833942972647 ], [ -9.006897066408111, 38.915833942972647 ], [ -9.006897066408111, 38.915388223667904 ], [ -9.007637282375619, 38.915388223667904 ], [ -9.007637282375619, 38.914942501563786 ], [ -9.009117714310635, 38.914942501563786 ], [ -9.009117714310635, 38.914496776660307 ], [ -9.009857930278143, 38.914496776660307 ], [ -9.009857930278143, 38.914051048957482 ], [ -9.010598146245652, 38.914051048957482 ], [ -9.010598146245652, 38.913605318455303 ], [ -9.012078578180668, 38.913605318455303 ], [ -9.012078578180668, 38.914051048957482 ], [ -9.013559010115685, 38.914051048957482 ], [ -9.013559010115685, 38.914496776660307 ], [ -9.015039442050702, 38.914496776660307 ], [ -9.015039442050702, 38.914942501563786 ], [ -9.016519873985718, 38.914942501563786 ], [ -9.016519873985718, 38.915388223667904 ], [ -9.018000305920735, 38.915388223667904 ], [ -9.018000305920735, 38.915833942972647 ], [ -9.018740521888244, 38.915833942972647 ], [ -9.018740521888244, 38.916279659478015 ], [ -9.020220953823259, 38.916279659478015 ], [ -9.020220953823259, 38.916725373183986 ], [ -9.021701385758277, 38.916725373183986 ], [ -9.021701385758277, 38.918062497505481 ], [ -9.022441601725784, 38.918062497505481 ], [ -9.022441601725784, 38.922073719299874 ], [ -9.023181817693294, 38.922073719299874 ], [ -9.023181817693294, 38.92296507112647 ], [ -9.022441601725784, 38.92296507112647 ], [ -9.022441601725784, 38.923410742840474 ], [ -9.021701385758277, 38.923410742840474 ], [ -9.021701385758277, 38.924302077869861 ], [ -9.020961169790768, 38.924302077869861 ], [ -9.020961169790768, 38.924747741185215 ], [ -9.020220953823259, 38.924747741185215 ], [ -9.020220953823259, 38.925193401701009 ], [ -9.019480737855751, 38.925193401701009 ], [ -9.019480737855751, 38.925639059417215 ], [ -9.018740521888244, 38.925639059417215 ], [ -9.018740521888244, 38.926530366450876 ], [ -9.018000305920735, 38.926530366450876 ], [ -9.018000305920735, 38.926976015768297 ], [ -9.017260089953226, 38.926976015768297 ], [ -9.017260089953226, 38.927421662286093 ], [ -9.016519873985718, 38.927421662286093 ], [ -9.016519873985718, 38.927867306004288 ], [ -9.015779658018211, 38.927867306004288 ], [ -9.015779658018211, 38.928312946922837 ], [ -9.006897066408111, 38.928312946922837 ], [ -9.006897066408111, 38.927421662286093 ], [ -9.006156850440602, 38.927421662286093 ], [ -9.006156850440602, 38.926530366450876 ], [ -9.005416634473093, 38.926530366450876 ], [ -9.005416634473093, 38.92608471433384 ] ] ], [ [ [ -8.416944940303967, 40.294988680929592 ], [ -8.416944940303967, 40.294551751827093 ], [ -8.415464508368952, 40.294551751827093 ], [ -8.415464508368952, 40.294114819899406 ], [ -8.414724292401443, 40.294114819899406 ], [ -8.414724292401443, 40.29367788514655 ], [ -8.413243860466427, 40.29367788514655 ], [ -8.413243860466427, 40.29193011788356 ], [ -8.412503644498917, 40.29193011788356 ], [ -8.412503644498917, 40.290182305418405 ], [ -8.41176342853141, 40.290182305418405 ], [ -8.41176342853141, 40.289308382235163 ], [ -8.412503644498917, 40.289308382235163 ], [ -8.412503644498917, 40.287997476272118 ], [ -8.413243860466427, 40.287997476272118 ], [ -8.413243860466427, 40.28668654488343 ], [ -8.413984076433936, 40.28668654488343 ], [ -8.413984076433936, 40.2853755880693 ], [ -8.414724292401443, 40.2853755880693 ], [ -8.414724292401443, 40.284064605829919 ], [ -8.415464508368952, 40.284064605829919 ], [ -8.415464508368952, 40.283627606100119 ], [ -8.41620472433646, 40.283627606100119 ], [ -8.41620472433646, 40.2831906035453 ], [ -8.417685156271476, 40.2831906035453 ], [ -8.417685156271476, 40.282753598165492 ], [ -8.418425372238985, 40.282753598165492 ], [ -8.418425372238985, 40.282316589960701 ], [ -8.421386236109019, 40.282316589960701 ], [ -8.421386236109019, 40.282753598165492 ], [ -8.422866668044033, 40.282753598165492 ], [ -8.422866668044033, 40.2831906035453 ], [ -8.423606884011543, 40.2831906035453 ], [ -8.423606884011543, 40.283627606100119 ], [ -8.42434709997905, 40.283627606100119 ], [ -8.42434709997905, 40.284501602734736 ], [ -8.425087315946559, 40.284501602734736 ], [ -8.425087315946559, 40.285812576499055 ], [ -8.425827531914068, 40.285812576499055 ], [ -8.425827531914068, 40.28668654488343 ], [ -8.426567747881576, 40.28668654488343 ], [ -8.426567747881576, 40.287997476272118 ], [ -8.427307963849083, 40.287997476272118 ], [ -8.427307963849083, 40.289745345239332 ], [ -8.426567747881576, 40.289745345239332 ], [ -8.426567747881576, 40.292804007165358 ], [ -8.425827531914068, 40.292804007165358 ], [ -8.425827531914068, 40.294551751827093 ], [ -8.425087315946559, 40.294551751827093 ], [ -8.425087315946559, 40.294988680929592 ], [ -8.42434709997905, 40.294988680929592 ], [ -8.42434709997905, 40.295425607206923 ], [ -8.422866668044033, 40.295425607206923 ], [ -8.422866668044033, 40.295862530659043 ], [ -8.419905804174, 40.295862530659043 ], [ -8.419905804174, 40.295425607206923 ], [ -8.418425372238985, 40.295425607206923 ], [ -8.418425372238985, 40.294988680929592 ], [ -8.416944940303967, 40.294988680929592 ] ] ], [ [ [ -8.06534235573751, 41.681223457191848 ], [ -8.06534235573751, 41.680367776981598 ], [ -8.064602139770001, 41.680367776981598 ], [ -8.064602139770001, 41.679512085393299 ], [ -8.063861923802493, 41.679512085393299 ], [ -8.063861923802493, 41.679084235332382 ], [ -8.063121707834984, 41.679084235332382 ], [ -8.063121707834984, 41.67822852667706 ], [ -8.062381491867477, 41.67822852667706 ], [ -8.062381491867477, 41.677800668082654 ], [ -8.061641275899968, 41.677800668082654 ], [ -8.061641275899968, 41.6769449423604 ], [ -8.060901059932458, 41.6769449423604 ], [ -8.060901059932458, 41.671810349092219 ], [ -8.061641275899968, 41.671810349092219 ], [ -8.061641275899968, 41.671382447831043 ], [ -8.062381491867477, 41.671382447831043 ], [ -8.062381491867477, 41.670954543725458 ], [ -8.063121707834984, 41.670954543725458 ], [ -8.063121707834984, 41.670526636775463 ], [ -8.063861923802493, 41.670526636775463 ], [ -8.063861923802493, 41.670098726981067 ], [ -8.064602139770001, 41.670098726981067 ], [ -8.064602139770001, 41.669670814342268 ], [ -8.06534235573751, 41.669670814342268 ], [ -8.06534235573751, 41.667531208482515 ], [ -8.066082571705017, 41.667531208482515 ], [ -8.066082571705017, 41.66282382528761 ], [ -8.066822787672526, 41.66282382528761 ], [ -8.066822787672526, 41.658544087366508 ], [ -8.068303219607543, 41.658544087366508 ], [ -8.068303219607543, 41.658116097930872 ], [ -8.06904343557505, 41.658116097930872 ], [ -8.06904343557505, 41.657688105650976 ], [ -8.06978365154256, 41.657688105650976 ], [ -8.06978365154256, 41.657260110526828 ], [ -8.072744515412591, 41.657260110526828 ], [ -8.072744515412591, 41.657688105650976 ], [ -8.074224947347609, 41.657688105650976 ], [ -8.074224947347609, 41.658116097930872 ], [ -8.074965163315117, 41.658116097930872 ], [ -8.074965163315117, 41.658544087366508 ], [ -8.076445595250133, 41.658544087366508 ], [ -8.076445595250133, 41.658972073957891 ], [ -8.07792602718515, 41.658972073957891 ], [ -8.07792602718515, 41.659400057705 ], [ -8.078666243152659, 41.659400057705 ], [ -8.078666243152659, 41.65982803860782 ], [ -8.080146675087676, 41.65982803860782 ], [ -8.080146675087676, 41.660683991880653 ], [ -8.080886891055185, 41.660683991880653 ], [ -8.080886891055185, 41.661539933776339 ], [ -8.081627107022694, 41.661539933776339 ], [ -8.081627107022694, 41.66239586429483 ], [ -8.082367322990201, 41.66239586429483 ], [ -8.082367322990201, 41.66282382528761 ], [ -8.083107538957709, 41.66282382528761 ], [ -8.083107538957709, 41.663679738740228 ], [ -8.083847754925218, 41.663679738740228 ], [ -8.083847754925218, 41.664535640815579 ], [ -8.084587970892727, 41.664535640815579 ], [ -8.084587970892727, 41.665391531513578 ], [ -8.085328186860234, 41.665391531513578 ], [ -8.085328186860234, 41.667531208482515 ], [ -8.086068402827742, 41.667531208482515 ], [ -8.086068402827742, 41.670954543725458 ], [ -8.086808618795251, 41.670954543725458 ], [ -8.086808618795251, 41.671810349092219 ], [ -8.086068402827742, 41.671810349092219 ], [ -8.086068402827742, 41.672238247508979 ], [ -8.085328186860234, 41.672238247508979 ], [ -8.085328186860234, 41.672666143081322 ], [ -8.084587970892727, 41.672666143081322 ], [ -8.084587970892727, 41.673094035809228 ], [ -8.083847754925218, 41.673094035809228 ], [ -8.083847754925218, 41.673949812731749 ], [ -8.083107538957709, 41.673949812731749 ], [ -8.083107538957709, 41.674377696926349 ], [ -8.082367322990201, 41.674377696926349 ], [ -8.082367322990201, 41.674805578276505 ], [ -8.080146675087676, 41.674805578276505 ], [ -8.080146675087676, 41.674377696926349 ], [ -8.079406459120168, 41.674377696926349 ], [ -8.079406459120168, 41.673949812731749 ], [ -8.07792602718515, 41.673949812731749 ], [ -8.07792602718515, 41.673521925692711 ], [ -8.076445595250133, 41.673521925692711 ], [ -8.076445595250133, 41.673949812731749 ], [ -8.075705379282624, 41.673949812731749 ], [ -8.075705379282624, 41.674377696926349 ], [ -8.074965163315117, 41.674377696926349 ], [ -8.074965163315117, 41.674805578276505 ], [ -8.074224947347609, 41.674805578276505 ], [ -8.074224947347609, 41.6769449423604 ], [ -8.0734847313801, 41.6769449423604 ], [ -8.0734847313801, 41.680795618508981 ], [ -8.072004299445084, 41.680795618508981 ], [ -8.072004299445084, 41.681223457191848 ], [ -8.06978365154256, 41.681223457191848 ], [ -8.06978365154256, 41.681651293030178 ], [ -8.067563003640034, 41.681651293030178 ], [ -8.067563003640034, 41.682079126023979 ], [ -8.066822787672526, 41.682079126023979 ], [ -8.066822787672526, 41.681651293030178 ], [ -8.066082571705017, 41.681651293030178 ], [ -8.066082571705017, 41.681223457191848 ], [ -8.06534235573751, 41.681223457191848 ] ] ], [ [ [ -3.179916970182502, 42.543865669451414 ], [ -3.179916970182502, 42.542599495783165 ], [ -3.179176754214994, 42.542599495783165 ], [ -3.179176754214994, 42.540489149272304 ], [ -3.178436538247485, 42.540489149272304 ], [ -3.178436538247485, 42.538378731432111 ], [ -3.177696322279977, 42.538378731432111 ], [ -3.177696322279977, 42.536268242263034 ], [ -3.176956106312468, 42.536268242263034 ], [ -3.176956106312468, 42.534157681765542 ], [ -3.17621589034496, 42.534157681765542 ], [ -3.17621589034496, 42.532469182011376 ], [ -3.176956106312468, 42.532469182011376 ], [ -3.176956106312468, 42.531624915015648 ], [ -3.177696322279977, 42.531624915015648 ], [ -3.177696322279977, 42.530358493123842 ], [ -3.178436538247485, 42.530358493123842 ], [ -3.178436538247485, 42.529092045554265 ], [ -3.179176754214994, 42.529092045554265 ], [ -3.179176754214994, 42.528247732909158 ], [ -3.179916970182502, 42.528247732909158 ], [ -3.179916970182502, 42.526981242543499 ], [ -3.18065718615001, 42.526981242543499 ], [ -3.18065718615001, 42.526136901367771 ], [ -3.181397402117518, 42.526136901367771 ], [ -3.181397402117518, 42.525292548779845 ], [ -3.182137618085027, 42.525292548779845 ], [ -3.182137618085027, 42.524870368206308 ], [ -3.183618050020043, 42.524870368206308 ], [ -3.183618050020043, 42.524448184779736 ], [ -3.185838697922568, 42.524448184779736 ], [ -3.185838697922568, 42.524025998500129 ], [ -3.188059345825093, 42.524025998500129 ], [ -3.188059345825093, 42.524448184779736 ], [ -3.188799561792601, 42.524448184779736 ], [ -3.188799561792601, 42.525292548779845 ], [ -3.18953977776011, 42.525292548779845 ], [ -3.18953977776011, 42.526559073382153 ], [ -3.190279993727618, 42.526559073382153 ], [ -3.190279993727618, 42.527825572307002 ], [ -3.191020209695127, 42.527825572307002 ], [ -3.191020209695127, 42.528669890658243 ], [ -3.191760425662635, 42.528669890658243 ], [ -3.191760425662635, 42.527825572307002 ], [ -3.192500641630143, 42.527825572307002 ], [ -3.192500641630143, 42.526981242543499 ], [ -3.193240857597652, 42.526981242543499 ], [ -3.193240857597652, 42.526136901367771 ], [ -3.19398107356516, 42.526136901367771 ], [ -3.19398107356516, 42.525714726500325 ], [ -3.195461505500177, 42.525714726500325 ], [ -3.195461505500177, 42.525292548779845 ], [ -3.199902801305227, 42.525292548779845 ], [ -3.199902801305227, 42.524870368206308 ], [ -3.203603881142768, 42.524870368206308 ], [ -3.203603881142768, 42.525714726500325 ], [ -3.204344097110277, 42.525714726500325 ], [ -3.204344097110277, 42.526559073382153 ], [ -3.205084313077785, 42.526559073382153 ], [ -3.205084313077785, 42.527825572307002 ], [ -3.205824529045294, 42.527825572307002 ], [ -3.205824529045294, 42.529092045554265 ], [ -3.206564745012802, 42.529092045554265 ], [ -3.206564745012802, 42.530780636607538 ], [ -3.205824529045294, 42.530780636607538 ], [ -3.205824529045294, 42.532047049940061 ], [ -3.205084313077785, 42.532047049940061 ], [ -3.205084313077785, 42.532891311229577 ], [ -3.204344097110277, 42.532891311229577 ], [ -3.204344097110277, 42.534157681765542 ], [ -3.203603881142768, 42.534157681765542 ], [ -3.203603881142768, 42.535001914523917 ], [ -3.20286366517526, 42.535001914523917 ], [ -3.20286366517526, 42.536268242263034 ], [ -3.202123449207751, 42.536268242263034 ], [ -3.202123449207751, 42.537112446490099 ], [ -3.201383233240243, 42.537112446490099 ], [ -3.201383233240243, 42.537956639304582 ], [ -3.199902801305227, 42.537956639304582 ], [ -3.199902801305227, 42.538378731432111 ], [ -3.19842236937021, 42.538378731432111 ], [ -3.19842236937021, 42.538800820706477 ], [ -3.196941937435193, 42.538800820706477 ], [ -3.196941937435193, 42.539222907127673 ], [ -3.195461505500177, 42.539222907127673 ], [ -3.195461505500177, 42.53964499069572 ], [ -3.19398107356516, 42.53964499069572 ], [ -3.19398107356516, 42.540911224280833 ], [ -3.193240857597652, 42.540911224280833 ], [ -3.193240857597652, 42.541755365738368 ], [ -3.192500641630143, 42.541755365738368 ], [ -3.192500641630143, 42.542599495783165 ], [ -3.191760425662635, 42.542599495783165 ], [ -3.191760425662635, 42.543865669451414 ], [ -3.190279993727618, 42.543865669451414 ], [ -3.190279993727618, 42.544287721634426 ], [ -3.187319129857585, 42.544287721634426 ], [ -3.187319129857585, 42.544709770964246 ], [ -3.18509848195506, 42.544709770964246 ], [ -3.18509848195506, 42.54513181744084 ], [ -3.183618050020043, 42.54513181744084 ], [ -3.183618050020043, 42.544709770964246 ], [ -3.182137618085027, 42.544709770964246 ], [ -3.182137618085027, 42.544287721634426 ], [ -3.181397402117518, 42.544287721634426 ], [ -3.181397402117518, 42.543865669451414 ], [ -3.179916970182502, 42.543865669451414 ] ] ], [ [ [ -3.25171791903081, 42.548086062886881 ], [ -3.250977703063302, 42.548086062886881 ], [ -3.250977703063302, 42.547242007025581 ], [ -3.249497271128285, 42.547242007025581 ], [ -3.249497271128285, 42.546819974815079 ], [ -3.24727662322576, 42.546819974815079 ], [ -3.24727662322576, 42.546397939751351 ], [ -3.245796191290743, 42.546397939751351 ], [ -3.245796191290743, 42.544709770964246 ], [ -3.245055975323235, 42.544709770964246 ], [ -3.245055975323235, 42.540911224280833 ], [ -3.244315759355727, 42.540911224280833 ], [ -3.244315759355727, 42.540067071410597 ], [ -3.245055975323235, 42.540067071410597 ], [ -3.245055975323235, 42.53964499069572 ], [ -3.245796191290743, 42.53964499069572 ], [ -3.245796191290743, 42.538800820706477 ], [ -3.246536407258251, 42.538800820706477 ], [ -3.246536407258251, 42.538378731432111 ], [ -3.24727662322576, 42.538378731432111 ], [ -3.24727662322576, 42.537956639304582 ], [ -3.246536407258251, 42.537956639304582 ], [ -3.246536407258251, 42.537534544323918 ], [ -3.244315759355727, 42.537534544323918 ], [ -3.244315759355727, 42.537112446490099 ], [ -3.243575543388218, 42.537112446490099 ], [ -3.243575543388218, 42.536268242263034 ], [ -3.24283532742071, 42.536268242263034 ], [ -3.24283532742071, 42.535424026623424 ], [ -3.242095111453202, 42.535424026623424 ], [ -3.242095111453202, 42.53457979957129 ], [ -3.241354895485693, 42.53457979957129 ], [ -3.241354895485693, 42.532469182011376 ], [ -3.240614679518185, 42.532469182011376 ], [ -3.240614679518185, 42.529936346787068 ], [ -3.239874463550677, 42.529936346787068 ], [ -3.239874463550677, 42.527403408851789 ], [ -3.239134247583169, 42.527403408851789 ], [ -3.239134247583169, 42.524870368206308 ], [ -3.239874463550677, 42.524870368206308 ], [ -3.239874463550677, 42.523181617381837 ], [ -3.240614679518185, 42.523181617381837 ], [ -3.240614679518185, 42.521915024306708 ], [ -3.242095111453202, 42.521915024306708 ], [ -3.242095111453202, 42.521492820908961 ], [ -3.244315759355727, 42.521492820908961 ], [ -3.244315759355727, 42.521070614658214 ], [ -3.246536407258251, 42.521070614658214 ], [ -3.246536407258251, 42.520648405554454 ], [ -3.248757055160777, 42.520648405554454 ], [ -3.248757055160777, 42.520226193597694 ], [ -3.252458134998319, 42.520226193597694 ], [ -3.252458134998319, 42.521070614658214 ], [ -3.253198350965827, 42.521070614658214 ], [ -3.253198350965827, 42.522337224851434 ], [ -3.253938566933335, 42.522337224851434 ], [ -3.253938566933335, 42.523603809367494 ], [ -3.254678782900843, 42.523603809367494 ], [ -3.254678782900843, 42.524870368206308 ], [ -3.255418998868352, 42.524870368206308 ], [ -3.255418998868352, 42.525714726500325 ], [ -3.257639646770877, 42.525714726500325 ], [ -3.257639646770877, 42.525292548779845 ], [ -3.258379862738385, 42.525292548779845 ], [ -3.258379862738385, 42.524448184779736 ], [ -3.259120078705893, 42.524448184779736 ], [ -3.259120078705893, 42.523603809367494 ], [ -3.259860294673402, 42.523603809367494 ], [ -3.259860294673402, 42.522759422543139 ], [ -3.26060051064091, 42.522759422543139 ], [ -3.26060051064091, 42.521915024306708 ], [ -3.261340726608418, 42.521915024306708 ], [ -3.261340726608418, 42.521492820908961 ], [ -3.262821158543435, 42.521492820908961 ], [ -3.262821158543435, 42.521070614658214 ], [ -3.263561374510944, 42.521070614658214 ], [ -3.263561374510944, 42.520648405554454 ], [ -3.265782022413469, 42.520648405554454 ], [ -3.265782022413469, 42.521070614658214 ], [ -3.266522238380977, 42.521070614658214 ], [ -3.266522238380977, 42.521492820908961 ], [ -3.267262454348485, 42.521492820908961 ], [ -3.267262454348485, 42.521915024306708 ], [ -3.268002670315993, 42.521915024306708 ], [ -3.268002670315993, 42.522337224851434 ], [ -3.268742886283502, 42.522337224851434 ], [ -3.268742886283502, 42.523181617381837 ], [ -3.26948310225101, 42.523181617381837 ], [ -3.26948310225101, 42.523603809367494 ], [ -3.270223318218519, 42.523603809367494 ], [ -3.270223318218519, 42.525292548779845 ], [ -3.270963534186027, 42.525292548779845 ], [ -3.270963534186027, 42.527825572307002 ], [ -3.271703750153535, 42.527825572307002 ], [ -3.271703750153535, 42.530358493123842 ], [ -3.272443966121043, 42.530358493123842 ], [ -3.272443966121043, 42.53373556110666 ], [ -3.271703750153535, 42.53373556110666 ], [ -3.271703750153535, 42.535846135869789 ], [ -3.270963534186027, 42.535846135869789 ], [ -3.270963534186027, 42.536690345803137 ], [ -3.270223318218519, 42.536690345803137 ], [ -3.270223318218519, 42.537534544323918 ], [ -3.26948310225101, 42.537534544323918 ], [ -3.26948310225101, 42.538378731432111 ], [ -3.268742886283502, 42.538378731432111 ], [ -3.268742886283502, 42.539222907127673 ], [ -3.268002670315993, 42.539222907127673 ], [ -3.268002670315993, 42.540067071410597 ], [ -3.267262454348485, 42.540067071410597 ], [ -3.267262454348485, 42.540489149272304 ], [ -3.266522238380977, 42.540489149272304 ], [ -3.266522238380977, 42.541333296436193 ], [ -3.265782022413469, 42.541333296436193 ], [ -3.265782022413469, 42.542177432187358 ], [ -3.26504180644596, 42.542177432187358 ], [ -3.26504180644596, 42.543021556525773 ], [ -3.264301590478452, 42.543021556525773 ], [ -3.264301590478452, 42.543865669451414 ], [ -3.263561374510944, 42.543865669451414 ], [ -3.263561374510944, 42.544709770964246 ], [ -3.262821158543435, 42.544709770964246 ], [ -3.262821158543435, 42.54513181744084 ], [ -3.262080942575927, 42.54513181744084 ], [ -3.262080942575927, 42.545975901834403 ], [ -3.261340726608418, 42.545975901834403 ], [ -3.261340726608418, 42.546819974815079 ], [ -3.26060051064091, 42.546819974815079 ], [ -3.26060051064091, 42.547664036382848 ], [ -3.259860294673402, 42.547664036382848 ], [ -3.259860294673402, 42.54850808653768 ], [ -3.259120078705893, 42.54850808653768 ], [ -3.259120078705893, 42.54935212527954 ], [ -3.258379862738385, 42.54935212527954 ], [ -3.258379862738385, 42.549774140370594 ], [ -3.253198350965827, 42.549774140370594 ], [ -3.253198350965827, 42.54935212527954 ], [ -3.252458134998319, 42.54935212527954 ], [ -3.252458134998319, 42.54850808653768 ], [ -3.25171791903081, 42.54850808653768 ], [ -3.25171791903081, 42.548086062886881 ] ] ], [ [ [ -3.301312388853869, 42.634962683617694 ], [ -3.301312388853869, 42.63369835907065 ], [ -3.30057217288636, 42.63369835907065 ], [ -3.30057217288636, 42.631169632919786 ], [ -3.299831956918852, 42.631169632919786 ], [ -3.299831956918852, 42.627797838231658 ], [ -3.30057217288636, 42.627797838231658 ], [ -3.30057217288636, 42.626533368134034 ], [ -3.301312388853869, 42.626533368134034 ], [ -3.301312388853869, 42.625690373799451 ], [ -3.302052604821377, 42.625690373799451 ], [ -3.302052604821377, 42.624425860893403 ], [ -3.301312388853869, 42.624425860893403 ], [ -3.301312388853869, 42.624847368049309 ], [ -3.299091740951344, 42.624847368049309 ], [ -3.299091740951344, 42.625690373799451 ], [ -3.298351524983835, 42.625690373799451 ], [ -3.298351524983835, 42.626533368134034 ], [ -3.297611309016327, 42.626533368134034 ], [ -3.297611309016327, 42.627376351053023 ], [ -3.296871093048818, 42.627376351053023 ], [ -3.296871093048818, 42.628640804027214 ], [ -3.29613087708131, 42.628640804027214 ], [ -3.29613087708131, 42.629062282644114 ], [ -3.293910229178785, 42.629062282644114 ], [ -3.293910229178785, 42.629483758407098 ], [ -3.29168958127626, 42.629483758407098 ], [ -3.29168958127626, 42.629905231316165 ], [ -3.289468933373735, 42.629905231316165 ], [ -3.289468933373735, 42.630326701371303 ], [ -3.288728717406227, 42.630326701371303 ], [ -3.288728717406227, 42.629905231316165 ], [ -3.28724828547121, 42.629905231316165 ], [ -3.28724828547121, 42.629483758407098 ], [ -3.286508069503701, 42.629483758407098 ], [ -3.286508069503701, 42.629062282644114 ], [ -3.285767853536194, 42.629062282644114 ], [ -3.285767853536194, 42.632012553052519 ], [ -3.285027637568685, 42.632012553052519 ], [ -3.285027637568685, 42.632855461769488 ], [ -3.284287421601177, 42.632855461769488 ], [ -3.284287421601177, 42.63369835907065 ], [ -3.283547205633669, 42.63369835907065 ], [ -3.283547205633669, 42.634541244955976 ], [ -3.279846125796127, 42.634541244955976 ], [ -3.279846125796127, 42.634119803440299 ], [ -3.27836569386111, 42.634119803440299 ], [ -3.27836569386111, 42.63369835907065 ], [ -3.276145045958585, 42.63369835907065 ], [ -3.276145045958585, 42.632012553052519 ], [ -3.275404829991077, 42.632012553052519 ], [ -3.275404829991077, 42.630326701371303 ], [ -3.274664614023568, 42.630326701371303 ], [ -3.274664614023568, 42.629062282644114 ], [ -3.275404829991077, 42.629062282644114 ], [ -3.275404829991077, 42.627376351053023 ], [ -3.276145045958585, 42.627376351053023 ], [ -3.276145045958585, 42.625690373799451 ], [ -3.277625477893602, 42.625690373799451 ], [ -3.277625477893602, 42.62526887235132 ], [ -3.27836569386111, 42.62526887235132 ], [ -3.27836569386111, 42.624847368049309 ], [ -3.279105909828619, 42.624847368049309 ], [ -3.279105909828619, 42.624425860893403 ], [ -3.281326557731143, 42.624425860893403 ], [ -3.281326557731143, 42.624847368049309 ], [ -3.282066773698652, 42.624847368049309 ], [ -3.282066773698652, 42.62526887235132 ], [ -3.283547205633669, 42.62526887235132 ], [ -3.283547205633669, 42.624847368049309 ], [ -3.284287421601177, 42.624847368049309 ], [ -3.284287421601177, 42.621475230893644 ], [ -3.285027637568685, 42.621475230893644 ], [ -3.285027637568685, 42.620632168066095 ], [ -3.286508069503701, 42.620632168066095 ], [ -3.286508069503701, 42.620210632371553 ], [ -3.287988501438718, 42.620210632371553 ], [ -3.287988501438718, 42.619789093823158 ], [ -3.289468933373735, 42.619789093823158 ], [ -3.289468933373735, 42.619367552420918 ], [ -3.290949365308752, 42.619367552420918 ], [ -3.290949365308752, 42.618946008164841 ], [ -3.29168958127626, 42.618946008164841 ], [ -3.29168958127626, 42.616838244077002 ], [ -3.290949365308752, 42.616838244077002 ], [ -3.290949365308752, 42.614308832995668 ], [ -3.29168958127626, 42.614308832995668 ], [ -3.29168958127626, 42.613465673138144 ], [ -3.292429797243769, 42.613465673138144 ], [ -3.292429797243769, 42.613044088928696 ], [ -3.293170013211276, 42.613044088928696 ], [ -3.293170013211276, 42.612622501865467 ], [ -3.293910229178785, 42.612622501865467 ], [ -3.293910229178785, 42.61177931917765 ], [ -3.294650445146293, 42.61177931917765 ], [ -3.294650445146293, 42.610936125074737 ], [ -3.295390661113802, 42.610936125074737 ], [ -3.295390661113802, 42.609249702623714 ], [ -3.29613087708131, 42.609249702623714 ], [ -3.29613087708131, 42.607984855821009 ], [ -3.296871093048818, 42.607984855821009 ], [ -3.296871093048818, 42.606298353465014 ], [ -3.297611309016327, 42.606298353465014 ], [ -3.297611309016327, 42.605876720741669 ], [ -3.299091740951344, 42.605876720741669 ], [ -3.299091740951344, 42.605455085164621 ], [ -3.299831956918852, 42.605455085164621 ], [ -3.299831956918852, 42.605033446733835 ], [ -3.301312388853869, 42.605033446733835 ], [ -3.301312388853869, 42.604611805449331 ], [ -3.302052604821377, 42.604611805449331 ], [ -3.302052604821377, 42.605033446733835 ], [ -3.302792820788885, 42.605033446733835 ], [ -3.302792820788885, 42.605455085164621 ], [ -3.303533036756393, 42.605455085164621 ], [ -3.303533036756393, 42.605876720741669 ], [ -3.304273252723902, 42.605876720741669 ], [ -3.304273252723902, 42.606298353465014 ], [ -3.305013468691411, 42.606298353465014 ], [ -3.305013468691411, 42.606719983334614 ], [ -3.305753684658919, 42.606719983334614 ], [ -3.305753684658919, 42.607141610350489 ], [ -3.306493900626426, 42.607141610350489 ], [ -3.306493900626426, 42.606719983334614 ], [ -3.307234116593935, 42.606719983334614 ], [ -3.307234116593935, 42.606298353465014 ], [ -3.307974332561443, 42.606298353465014 ], [ -3.307974332561443, 42.605876720741669 ], [ -3.308714548528952, 42.605876720741669 ], [ -3.308714548528952, 42.605455085164621 ], [ -3.310935196431477, 42.605455085164621 ], [ -3.310935196431477, 42.606298353465014 ], [ -3.311675412398985, 42.606298353465014 ], [ -3.311675412398985, 42.606719983334614 ], [ -3.312415628366493, 42.606719983334614 ], [ -3.312415628366493, 42.607141610350489 ], [ -3.313155844334002, 42.607141610350489 ], [ -3.313155844334002, 42.607563234512618 ], [ -3.31389606030151, 42.607563234512618 ], [ -3.31389606030151, 42.607984855821009 ], [ -3.314636276269019, 42.607984855821009 ], [ -3.314636276269019, 42.60882808987656 ], [ -3.315376492236527, 42.60882808987656 ], [ -3.315376492236527, 42.613044088928696 ], [ -3.314636276269019, 42.613044088928696 ], [ -3.314636276269019, 42.613465673138144 ], [ -3.31389606030151, 42.613465673138144 ], [ -3.31389606030151, 42.614308832995668 ], [ -3.313155844334002, 42.614308832995668 ], [ -3.313155844334002, 42.614730408643737 ], [ -3.312415628366493, 42.614730408643737 ], [ -3.312415628366493, 42.615573551378468 ], [ -3.311675412398985, 42.615573551378468 ], [ -3.311675412398985, 42.615995118465136 ], [ -3.312415628366493, 42.615995118465136 ], [ -3.312415628366493, 42.618524461054932 ], [ -3.313155844334002, 42.618524461054932 ], [ -3.313155844334002, 42.620632168066095 ], [ -3.31389606030151, 42.620632168066095 ], [ -3.31389606030151, 42.621896758026637 ], [ -3.316116708204035, 42.621896758026637 ], [ -3.316116708204035, 42.621475230893644 ], [ -3.31833735610656, 42.621475230893644 ], [ -3.31833735610656, 42.621053700906799 ], [ -3.320558004009086, 42.621053700906799 ], [ -3.320558004009086, 42.621475230893644 ], [ -3.321298219976593, 42.621475230893644 ], [ -3.321298219976593, 42.62231828230577 ], [ -3.322038435944102, 42.62231828230577 ], [ -3.322038435944102, 42.622739803731029 ], [ -3.32277865191161, 42.622739803731029 ], [ -3.32277865191161, 42.623161322302437 ], [ -3.323518867879119, 42.623161322302437 ], [ -3.323518867879119, 42.623582838019971 ], [ -3.324259083846627, 42.623582838019971 ], [ -3.324259083846627, 42.624004350883631 ], [ -3.324999299814135, 42.624004350883631 ], [ -3.324999299814135, 42.629062282644114 ], [ -3.324259083846627, 42.629062282644114 ], [ -3.324259083846627, 42.629905231316165 ], [ -3.323518867879119, 42.629905231316165 ], [ -3.323518867879119, 42.630748168572502 ], [ -3.32277865191161, 42.630748168572502 ], [ -3.32277865191161, 42.631591094413118 ], [ -3.322038435944102, 42.631591094413118 ], [ -3.322038435944102, 42.632434008837983 ], [ -3.321298219976593, 42.632434008837983 ], [ -3.321298219976593, 42.633276911847048 ], [ -3.320558004009086, 42.633276911847048 ], [ -3.320558004009086, 42.634119803440299 ], [ -3.319817788041577, 42.634119803440299 ], [ -3.319817788041577, 42.634541244955976 ], [ -3.319077572074069, 42.634541244955976 ], [ -3.319077572074069, 42.634962683617694 ], [ -3.31833735610656, 42.634962683617694 ], [ -3.31833735610656, 42.63538411942546 ], [ -3.317597140139052, 42.63538411942546 ], [ -3.317597140139052, 42.635805552379239 ], [ -3.314636276269019, 42.635805552379239 ], [ -3.314636276269019, 42.63538411942546 ], [ -3.31389606030151, 42.63538411942546 ], [ -3.31389606030151, 42.634541244955976 ], [ -3.313155844334002, 42.634541244955976 ], [ -3.313155844334002, 42.634119803440299 ], [ -3.312415628366493, 42.634119803440299 ], [ -3.312415628366493, 42.63369835907065 ], [ -3.311675412398985, 42.63369835907065 ], [ -3.311675412398985, 42.634119803440299 ], [ -3.310935196431477, 42.634119803440299 ], [ -3.310935196431477, 42.634962683617694 ], [ -3.310194980463969, 42.634962683617694 ], [ -3.310194980463969, 42.635805552379239 ], [ -3.30945476449646, 42.635805552379239 ], [ -3.30945476449646, 42.63706983411673 ], [ -3.303533036756393, 42.63706983411673 ], [ -3.303533036756393, 42.636226982479045 ], [ -3.302792820788885, 42.636226982479045 ], [ -3.302792820788885, 42.635805552379239 ], [ -3.302052604821377, 42.635805552379239 ], [ -3.302052604821377, 42.634962683617694 ], [ -3.301312388853869, 42.634962683617694 ] ] ], [ [ [ -2.215415564519142, 43.045344248849148 ], [ -2.215415564519142, 43.044925600070989 ], [ -2.213194916616617, 43.044925600070989 ], [ -2.213194916616617, 43.044506948435782 ], [ -2.212454700649109, 43.044506948435782 ], [ -2.212454700649109, 43.043250976387839 ], [ -2.2117144846816, 43.043250976387839 ], [ -2.2117144846816, 43.040320274946268 ], [ -2.210974268714092, 43.040320274946268 ], [ -2.210974268714092, 43.035295889632046 ], [ -2.2117144846816, 43.035295889632046 ], [ -2.2117144846816, 43.031946070863157 ], [ -2.212454700649109, 43.031946070863157 ], [ -2.212454700649109, 43.029433586793843 ], [ -2.213194916616617, 43.029433586793843 ], [ -2.213194916616617, 43.029014829449622 ], [ -2.213935132584125, 43.029014829449622 ], [ -2.213935132584125, 43.028596069248458 ], [ -2.215415564519142, 43.028596069248458 ], [ -2.215415564519142, 43.028177306190337 ], [ -2.21615578048665, 43.028177306190337 ], [ -2.21615578048665, 43.027758540275293 ], [ -2.218376428389175, 43.027758540275293 ], [ -2.218376428389175, 43.028177306190337 ], [ -2.2205970762917, 43.028177306190337 ], [ -2.2205970762917, 43.028596069248458 ], [ -2.222817724194225, 43.028596069248458 ], [ -2.222817724194225, 43.029014829449622 ], [ -2.22503837209675, 43.029014829449622 ], [ -2.22503837209675, 43.029433586793843 ], [ -2.225778588064259, 43.029433586793843 ], [ -2.225778588064259, 43.030689841684811 ], [ -2.226518804031767, 43.030689841684811 ], [ -2.226518804031767, 43.031527330660673 ], [ -2.227259019999275, 43.031527330660673 ], [ -2.227259019999275, 43.032783542697238 ], [ -2.227999235966783, 43.032783542697238 ], [ -2.227999235966783, 43.033621003103427 ], [ -2.228739451934292, 43.033621003103427 ], [ -2.228739451934292, 43.03487717228537 ], [ -2.2294796679018, 43.03487717228537 ], [ -2.2294796679018, 43.036133315754434 ], [ -2.230219883869309, 43.036133315754434 ], [ -2.230219883869309, 43.036970730448857 ], [ -2.230960099836817, 43.036970730448857 ], [ -2.230960099836817, 43.038226831062964 ], [ -2.230219883869309, 43.038226831062964 ], [ -2.230219883869309, 43.041994978626512 ], [ -2.2294796679018, 43.041994978626512 ], [ -2.2294796679018, 43.043250976387839 ], [ -2.228739451934292, 43.043250976387839 ], [ -2.228739451934292, 43.043669636594203 ], [ -2.227999235966783, 43.043669636594203 ], [ -2.227999235966783, 43.04408829394351 ], [ -2.227259019999275, 43.04408829394351 ], [ -2.227259019999275, 43.044506948435782 ], [ -2.225778588064259, 43.044506948435782 ], [ -2.225778588064259, 43.044925600070989 ], [ -2.22503837209675, 43.044925600070989 ], [ -2.22503837209675, 43.045344248849148 ], [ -2.224298156129242, 43.045344248849148 ], [ -2.224298156129242, 43.045762894770256 ], [ -2.223557940161733, 43.045762894770256 ], [ -2.223557940161733, 43.0461815378343 ], [ -2.222817724194225, 43.0461815378343 ], [ -2.222817724194225, 43.046600178041274 ], [ -2.2205970762917, 43.046600178041274 ], [ -2.2205970762917, 43.0461815378343 ], [ -2.218376428389175, 43.0461815378343 ], [ -2.218376428389175, 43.045762894770256 ], [ -2.216895996454158, 43.045762894770256 ], [ -2.216895996454158, 43.045344248849148 ], [ -2.215415564519142, 43.045344248849148 ] ] ], [ [ [ 0.132549484417295, 36.022125078837831 ], [ 0.133289700384803, 36.022125078837831 ], [ 0.133289700384803, 36.02119844118188 ], [ 0.134029916352311, 36.02119844118188 ], [ 0.134029916352311, 36.014711672484637 ], [ 0.133289700384803, 36.014711672484637 ], [ 0.133289700384803, 36.01378494765703 ], [ 0.132549484417295, 36.01378494765703 ], [ 0.132549484417295, 36.012858211933477 ], [ 0.131809268449787, 36.012858211933477 ], [ 0.131809268449787, 36.01239483998576 ], [ 0.131069052482278, 36.01239483998576 ], [ 0.131069052482278, 36.011468087918502 ], [ 0.13032883651477, 36.011468087918502 ], [ 0.13032883651477, 36.011004707799003 ], [ 0.129588620547261, 36.011004707799003 ], [ 0.129588620547261, 36.010541324955597 ], [ 0.128848404579753, 36.010541324955597 ], [ 0.128848404579753, 36.011004707799003 ], [ 0.123666892807195, 36.011004707799003 ], [ 0.123666892807195, 36.011468087918502 ], [ 0.122926676839686, 36.011468087918502 ], [ 0.122926676839686, 36.01239483998576 ], [ 0.122186460872178, 36.01239483998576 ], [ 0.122186460872178, 36.012858211933477 ], [ 0.12144624490467, 36.012858211933477 ], [ 0.12144624490467, 36.013321581157236 ], [ 0.120706028937161, 36.013321581157236 ], [ 0.120706028937161, 36.01378494765703 ], [ 0.119965812969653, 36.01378494765703 ], [ 0.119965812969653, 36.014711672484637 ], [ 0.119225597002145, 36.014711672484637 ], [ 0.119225597002145, 36.018881799368508 ], [ 0.119965812969653, 36.018881799368508 ], [ 0.119965812969653, 36.01934513317952 ], [ 0.120706028937161, 36.01934513317952 ], [ 0.120706028937161, 36.020271792629075 ], [ 0.12144624490467, 36.020271792629075 ], [ 0.12144624490467, 36.020735118267581 ], [ 0.122186460872178, 36.020735118267581 ], [ 0.122186460872178, 36.02119844118188 ], [ 0.122926676839686, 36.02119844118188 ], [ 0.122926676839686, 36.022125078837831 ], [ 0.123666892807195, 36.022125078837831 ], [ 0.123666892807195, 36.022588393579454 ], [ 0.124407108774703, 36.022588393579454 ], [ 0.124407108774703, 36.023051705596806 ], [ 0.125147324742211, 36.023051705596806 ], [ 0.125147324742211, 36.023978321458699 ], [ 0.131069052482278, 36.023978321458699 ], [ 0.131069052482278, 36.023515014889895 ], [ 0.131809268449787, 36.023515014889895 ], [ 0.131809268449787, 36.022588393579454 ], [ 0.132549484417295, 36.022588393579454 ], [ 0.132549484417295, 36.022125078837831 ] ] ], [ [ [ 1.242133219712288, 36.135555728038689 ], [ 1.243613651647304, 36.135555728038689 ], [ 1.243613651647304, 36.135093078437173 ], [ 1.245094083582321, 36.135093078437173 ], [ 1.245094083582321, 36.13463042610794 ], [ 1.245834299549829, 36.13463042610794 ], [ 1.245834299549829, 36.134167771051025 ], [ 1.246574515517338, 36.134167771051025 ], [ 1.246574515517338, 36.132317123546741 ], [ 1.247314731484846, 36.132317123546741 ], [ 1.247314731484846, 36.130929109278505 ], [ 1.248054947452355, 36.130929109278505 ], [ 1.248054947452355, 36.129078385401499 ], [ 1.248795163419863, 36.129078385401499 ], [ 1.248795163419863, 36.123988669722088 ], [ 1.248054947452355, 36.123988669722088 ], [ 1.248054947452355, 36.122137782198543 ], [ 1.247314731484846, 36.122137782198543 ], [ 1.247314731484846, 36.121212322072857 ], [ 1.246574515517338, 36.121212322072857 ], [ 1.246574515517338, 36.120749587919107 ], [ 1.245834299549829, 36.120749587919107 ], [ 1.245834299549829, 36.119824111429786 ], [ 1.242133219712288, 36.119824111429786 ], [ 1.242133219712288, 36.120286851038067 ], [ 1.239912571809763, 36.120286851038067 ], [ 1.239912571809763, 36.120749587919107 ], [ 1.237691923907238, 36.120749587919107 ], [ 1.237691923907238, 36.121212322072857 ], [ 1.236951707939729, 36.121212322072857 ], [ 1.236951707939729, 36.122137782198543 ], [ 1.236211491972221, 36.122137782198543 ], [ 1.236211491972221, 36.122600508170429 ], [ 1.235471276004713, 36.122600508170429 ], [ 1.235471276004713, 36.123525951932208 ], [ 1.233990844069696, 36.123525951932208 ], [ 1.233990844069696, 36.123988669722088 ], [ 1.232510412134679, 36.123988669722088 ], [ 1.232510412134679, 36.124451384784592 ], [ 1.230289764232154, 36.124451384784592 ], [ 1.230289764232154, 36.124914097119721 ], [ 1.229549548264646, 36.124914097119721 ], [ 1.229549548264646, 36.127227617884188 ], [ 1.228809332297138, 36.127227617884188 ], [ 1.228809332297138, 36.129078385401499 ], [ 1.22806911632963, 36.129078385401499 ], [ 1.22806911632963, 36.132317123546741 ], [ 1.228809332297138, 36.132317123546741 ], [ 1.228809332297138, 36.13370511326643 ], [ 1.229549548264646, 36.13370511326643 ], [ 1.229549548264646, 36.13463042610794 ], [ 1.230289764232154, 36.13463042610794 ], [ 1.230289764232154, 36.135093078437173 ], [ 1.231770196167171, 36.135093078437173 ], [ 1.231770196167171, 36.135555728038689 ], [ 1.232510412134679, 36.135555728038689 ], [ 1.232510412134679, 36.136018374912496 ], [ 1.233990844069696, 36.136018374912496 ], [ 1.233990844069696, 36.136481019058579 ], [ 1.235471276004713, 36.136481019058579 ], [ 1.235471276004713, 36.136943660476909 ], [ 1.238432139874746, 36.136943660476909 ], [ 1.238432139874746, 36.136481019058579 ], [ 1.239912571809763, 36.136481019058579 ], [ 1.239912571809763, 36.136018374912496 ], [ 1.242133219712288, 36.136018374912496 ], [ 1.242133219712288, 36.135555728038689 ] ] ], [ [ [ 3.748504485695508, 36.186892875113685 ], [ 3.749244701663016, 36.186892875113685 ], [ 3.749244701663016, 36.186430528374551 ], [ 3.749984917630524, 36.186430528374551 ], [ 3.749984917630524, 36.185968178906165 ], [ 3.750725133598033, 36.185968178906165 ], [ 3.750725133598033, 36.185505826708528 ], [ 3.75220556553305, 36.185505826708528 ], [ 3.75220556553305, 36.185043471781654 ], [ 3.752945781500558, 36.185043471781654 ], [ 3.752945781500558, 36.184581114125564 ], [ 3.753685997468065, 36.184581114125564 ], [ 3.753685997468065, 36.184118753740272 ], [ 3.754426213435575, 36.184118753740272 ], [ 3.754426213435575, 36.183194024782118 ], [ 3.755166429403083, 36.183194024782118 ], [ 3.755166429403083, 36.181344534115965 ], [ 3.755906645370591, 36.181344534115965 ], [ 3.755906645370591, 36.17903260937846 ], [ 3.755166429403083, 36.17903260937846 ], [ 3.755166429403083, 36.178107820380092 ], [ 3.754426213435575, 36.178107820380092 ], [ 3.754426213435575, 36.176720616415025 ], [ 3.753685997468065, 36.176720616415025 ], [ 3.753685997468065, 36.175333387889239 ], [ 3.752945781500558, 36.175333387889239 ], [ 3.752945781500558, 36.174408555227394 ], [ 3.75220556553305, 36.174408555227394 ], [ 3.75220556553305, 36.173946134803117 ], [ 3.751465349565541, 36.173946134803117 ], [ 3.751465349565541, 36.173483711649958 ], [ 3.749244701663016, 36.173483711649958 ], [ 3.749244701663016, 36.173021285767938 ], [ 3.747024053760491, 36.173021285767938 ], [ 3.747024053760491, 36.172558857157064 ], [ 3.744803405857966, 36.172558857157064 ], [ 3.744803405857966, 36.17209642581733 ], [ 3.743322973922949, 36.17209642581733 ], [ 3.743322973922949, 36.172558857157064 ], [ 3.742582757955441, 36.172558857157064 ], [ 3.742582757955441, 36.173483711649958 ], [ 3.741842541987933, 36.173483711649958 ], [ 3.741842541987933, 36.173946134803117 ], [ 3.741102326020424, 36.173946134803117 ], [ 3.741102326020424, 36.174870972922768 ], [ 3.740362110052916, 36.174870972922768 ], [ 3.740362110052916, 36.182269284907314 ], [ 3.739621894085408, 36.182269284907314 ], [ 3.739621894085408, 36.183194024782118 ], [ 3.740362110052916, 36.183194024782118 ], [ 3.740362110052916, 36.185043471781654 ], [ 3.741102326020424, 36.185043471781654 ], [ 3.741102326020424, 36.186892875113685 ], [ 3.741842541987933, 36.186892875113685 ], [ 3.741842541987933, 36.187355219123539 ], [ 3.743322973922949, 36.187355219123539 ], [ 3.743322973922949, 36.187817560404099 ], [ 3.744063189890458, 36.187817560404099 ], [ 3.744063189890458, 36.188279898955365 ], [ 3.747024053760491, 36.188279898955365 ], [ 3.747024053760491, 36.187817560404099 ], [ 3.747764269728, 36.187817560404099 ], [ 3.747764269728, 36.187355219123539 ], [ 3.748504485695508, 36.187355219123539 ], [ 3.748504485695508, 36.186892875113685 ] ] ], [ [ [ 2.883192019678265, 36.601436792063076 ], [ 2.883192019678265, 36.600517014187183 ], [ 2.883932235645773, 36.600517014187183 ], [ 2.883932235645773, 36.599597225345263 ], [ 2.884672451613281, 36.599597225345263 ], [ 2.884672451613281, 36.598677425537396 ], [ 2.88541266758079, 36.598677425537396 ], [ 2.88541266758079, 36.597757614763687 ], [ 2.886152883548299, 36.597757614763687 ], [ 2.886152883548299, 36.592238519845012 ], [ 2.88541266758079, 36.592238519845012 ], [ 2.88541266758079, 36.591778577449873 ], [ 2.884672451613281, 36.591778577449873 ], [ 2.884672451613281, 36.591318632313481 ], [ 2.883932235645773, 36.591318632313481 ], [ 2.883932235645773, 36.590858684435844 ], [ 2.883192019678265, 36.590858684435844 ], [ 2.883192019678265, 36.590398733816969 ], [ 2.882451803710757, 36.590398733816969 ], [ 2.882451803710757, 36.58993878045689 ], [ 2.881711587743248, 36.58993878045689 ], [ 2.881711587743248, 36.589478824355602 ], [ 2.88097137177574, 36.589478824355602 ], [ 2.88097137177574, 36.589018865513104 ], [ 2.878750723873215, 36.589018865513104 ], [ 2.878750723873215, 36.589478824355602 ], [ 2.878010507905707, 36.589478824355602 ], [ 2.878010507905707, 36.58993878045689 ], [ 2.877270291938198, 36.58993878045689 ], [ 2.877270291938198, 36.590398733816969 ], [ 2.87653007597069, 36.590398733816969 ], [ 2.87653007597069, 36.590858684435844 ], [ 2.875789860003182, 36.590858684435844 ], [ 2.875789860003182, 36.591318632313481 ], [ 2.875049644035673, 36.591318632313481 ], [ 2.875049644035673, 36.591778577449873 ], [ 2.874309428068165, 36.591778577449873 ], [ 2.874309428068165, 36.592238519845012 ], [ 2.873569212100656, 36.592238519845012 ], [ 2.873569212100656, 36.592698459498877 ], [ 2.872828996133148, 36.592698459498877 ], [ 2.872828996133148, 36.593618330582743 ], [ 2.87208878016564, 36.593618330582743 ], [ 2.87208878016564, 36.594078262012708 ], [ 2.871348564198132, 36.594078262012708 ], [ 2.871348564198132, 36.594538190701364 ], [ 2.870608348230624, 36.594538190701364 ], [ 2.870608348230624, 36.599137326812055 ], [ 2.871348564198132, 36.599137326812055 ], [ 2.871348564198132, 36.600057121136963 ], [ 2.87208878016564, 36.600057121136963 ], [ 2.87208878016564, 36.600976904495894 ], [ 2.872828996133148, 36.600976904495894 ], [ 2.872828996133148, 36.601896676888721 ], [ 2.873569212100656, 36.601896676888721 ], [ 2.873569212100656, 36.602816438315351 ], [ 2.874309428068165, 36.602816438315351 ], [ 2.874309428068165, 36.603276314916315 ], [ 2.875049644035673, 36.603276314916315 ], [ 2.875049644035673, 36.603736188775677 ], [ 2.88097137177574, 36.603736188775677 ], [ 2.88097137177574, 36.603276314916315 ], [ 2.881711587743248, 36.603276314916315 ], [ 2.881711587743248, 36.602356558972815 ], [ 2.882451803710757, 36.602356558972815 ], [ 2.882451803710757, 36.601436792063076 ], [ 2.883192019678265, 36.601436792063076 ] ] ], [ [ [ 3.231093524407182, 36.637299574577931 ], [ 3.231093524407182, 36.636839900890493 ], [ 3.232573956342199, 36.636839900890493 ], [ 3.232573956342199, 36.636380224460474 ], [ 3.234054388277215, 36.636380224460474 ], [ 3.234054388277215, 36.635920545287931 ], [ 3.235534820212232, 36.635920545287931 ], [ 3.235534820212232, 36.635460863372849 ], [ 3.236275036179741, 36.635460863372849 ], [ 3.236275036179741, 36.635001178715243 ], [ 3.237755468114757, 36.635001178715243 ], [ 3.237755468114757, 36.634541491315147 ], [ 3.238495684082265, 36.634541491315147 ], [ 3.238495684082265, 36.633162412659935 ], [ 3.239235900049774, 36.633162412659935 ], [ 3.239235900049774, 36.63178330932265 ], [ 3.239976116017282, 36.63178330932265 ], [ 3.239976116017282, 36.629025028603316 ], [ 3.239235900049774, 36.629025028603316 ], [ 3.239235900049774, 36.627645851221985 ], [ 3.238495684082265, 36.627645851221985 ], [ 3.238495684082265, 36.626726385922929 ], [ 3.237755468114757, 36.626726385922929 ], [ 3.237755468114757, 36.625347167407384 ], [ 3.237015252147248, 36.625347167407384 ], [ 3.237015252147248, 36.624887422417736 ], [ 3.230353308439674, 36.624887422417736 ], [ 3.230353308439674, 36.625347167407384 ], [ 3.229613092472166, 36.625347167407384 ], [ 3.229613092472166, 36.625806909654813 ], [ 3.228872876504657, 36.625806909654813 ], [ 3.228872876504657, 36.626266649159994 ], [ 3.22739244456964, 36.626266649159994 ], [ 3.22739244456964, 36.626726385922929 ], [ 3.226652228602132, 36.626726385922929 ], [ 3.226652228602132, 36.627186119943595 ], [ 3.225912012634624, 36.627186119943595 ], [ 3.225912012634624, 36.627645851221985 ], [ 3.225171796667116, 36.627645851221985 ], [ 3.225171796667116, 36.628105579758056 ], [ 3.224431580699607, 36.628105579758056 ], [ 3.224431580699607, 36.628565305551845 ], [ 3.223691364732099, 36.628565305551845 ], [ 3.223691364732099, 36.629025028603316 ], [ 3.222210932797082, 36.629025028603316 ], [ 3.222210932797082, 36.62994446647923 ], [ 3.221470716829573, 36.62994446647923 ], [ 3.221470716829573, 36.63178330932265 ], [ 3.220730500862065, 36.63178330932265 ], [ 3.220730500862065, 36.635001178715243 ], [ 3.221470716829573, 36.635001178715243 ], [ 3.221470716829573, 36.636839900890493 ], [ 3.222210932797082, 36.636839900890493 ], [ 3.222210932797082, 36.637299574577931 ], [ 3.22295114876459, 36.637299574577931 ], [ 3.22295114876459, 36.637759245522808 ], [ 3.223691364732099, 36.637759245522808 ], [ 3.223691364732099, 36.638218913725105 ], [ 3.225171796667116, 36.638218913725105 ], [ 3.225171796667116, 36.638678579184806 ], [ 3.22739244456964, 36.638678579184806 ], [ 3.22739244456964, 36.638218913725105 ], [ 3.228872876504657, 36.638218913725105 ], [ 3.228872876504657, 36.637759245522808 ], [ 3.230353308439674, 36.637759245522808 ], [ 3.230353308439674, 36.637299574577931 ], [ 3.231093524407182, 36.637299574577931 ] ] ], [ [ [ 3.127463288956015, 36.688306303054155 ], [ 3.127463288956015, 36.687846933872635 ], [ 3.128943720891032, 36.687846933872635 ], [ 3.128943720891032, 36.686468809864046 ], [ 3.12968393685854, 36.686468809864046 ], [ 3.12968393685854, 36.685550046805048 ], [ 3.130424152826048, 36.685550046805048 ], [ 3.130424152826048, 36.684171881636921 ], [ 3.131164368793557, 36.684171881636921 ], [ 3.131164368793557, 36.683253091138575 ], [ 3.131904584761065, 36.683253091138575 ], [ 3.131904584761065, 36.681874884811897 ], [ 3.132644800728573, 36.681874884811897 ], [ 3.132644800728573, 36.680956066874856 ], [ 3.133385016696082, 36.680956066874856 ], [ 3.133385016696082, 36.679577819390644 ], [ 3.13412523266359, 36.679577819390644 ], [ 3.13412523266359, 36.676361812562291 ], [ 3.133385016696082, 36.676361812562291 ], [ 3.133385016696082, 36.67452403401316 ], [ 3.132644800728573, 36.67452403401316 ], [ 3.132644800728573, 36.674064582516735 ], [ 3.131164368793557, 36.674064582516735 ], [ 3.131164368793557, 36.673605128276698 ], [ 3.12968393685854, 36.673605128276698 ], [ 3.12968393685854, 36.673145671293035 ], [ 3.128943720891032, 36.673145671293035 ], [ 3.128943720891032, 36.672686211565782 ], [ 3.127463288956015, 36.672686211565782 ], [ 3.127463288956015, 36.672226749094932 ], [ 3.125982857020999, 36.672226749094932 ], [ 3.125982857020999, 36.671767283880513 ], [ 3.120061129280932, 36.671767283880513 ], [ 3.120061129280932, 36.672226749094932 ], [ 3.119320913313424, 36.672226749094932 ], [ 3.119320913313424, 36.672686211565782 ], [ 3.118580697345915, 36.672686211565782 ], [ 3.118580697345915, 36.673145671293035 ], [ 3.117840481378407, 36.673145671293035 ], [ 3.117840481378407, 36.674064582516735 ], [ 3.117100265410898, 36.674064582516735 ], [ 3.117100265410898, 36.67452403401316 ], [ 3.11636004944339, 36.67452403401316 ], [ 3.11636004944339, 36.674983482765938 ], [ 3.115619833475882, 36.674983482765938 ], [ 3.115619833475882, 36.675902372040525 ], [ 3.114879617508374, 36.675902372040525 ], [ 3.114879617508374, 36.676361812562291 ], [ 3.114139401540865, 36.676361812562291 ], [ 3.114139401540865, 36.676821250340389 ], [ 3.113399185573357, 36.676821250340389 ], [ 3.113399185573357, 36.677280685374775 ], [ 3.112658969605848, 36.677280685374775 ], [ 3.112658969605848, 36.678199547212365 ], [ 3.11191875363834, 36.678199547212365 ], [ 3.11191875363834, 36.678658974015555 ], [ 3.111178537670832, 36.678658974015555 ], [ 3.111178537670832, 36.679118398074984 ], [ 3.110438321703324, 36.679118398074984 ], [ 3.110438321703324, 36.684171881636921 ], [ 3.111178537670832, 36.684171881636921 ], [ 3.111178537670832, 36.684631272770233 ], [ 3.11191875363834, 36.684631272770233 ], [ 3.11191875363834, 36.685090661159613 ], [ 3.112658969605848, 36.685090661159613 ], [ 3.112658969605848, 36.685550046805048 ], [ 3.113399185573357, 36.685550046805048 ], [ 3.113399185573357, 36.68600942970653 ], [ 3.114139401540865, 36.68600942970653 ], [ 3.114139401540865, 36.686468809864046 ], [ 3.114879617508374, 36.686468809864046 ], [ 3.114879617508374, 36.68692818727758 ], [ 3.115619833475882, 36.68692818727758 ], [ 3.115619833475882, 36.687387561947112 ], [ 3.11636004944339, 36.687387561947112 ], [ 3.11636004944339, 36.687846933872635 ], [ 3.117100265410898, 36.687846933872635 ], [ 3.117100265410898, 36.688306303054155 ], [ 3.117840481378407, 36.688306303054155 ], [ 3.117840481378407, 36.688765669491623 ], [ 3.118580697345915, 36.688765669491623 ], [ 3.118580697345915, 36.689225033185046 ], [ 3.119320913313424, 36.689225033185046 ], [ 3.119320913313424, 36.689684394134424 ], [ 3.122281777183456, 36.689684394134424 ], [ 3.122281777183456, 36.689225033185046 ], [ 3.123762209118474, 36.689225033185046 ], [ 3.123762209118474, 36.688765669491623 ], [ 3.12524264105349, 36.688765669491623 ], [ 3.12524264105349, 36.688306303054155 ], [ 3.127463288956015, 36.688306303054155 ] ] ], [ [ [ 3.086011194775548, 36.754426810952772 ], [ 3.087491626710565, 36.754426810952772 ], [ 3.087491626710565, 36.753967837047014 ], [ 3.088231842678073, 36.753967837047014 ], [ 3.088231842678073, 36.752131913965158 ], [ 3.088972058645582, 36.752131913965158 ], [ 3.088972058645582, 36.750295946949642 ], [ 3.089712274613091, 36.750295946949642 ], [ 3.089712274613091, 36.748918942857074 ], [ 3.088972058645582, 36.748918942857074 ], [ 3.088972058645582, 36.74708289895969 ], [ 3.088231842678073, 36.74708289895969 ], [ 3.088231842678073, 36.74524681113099 ], [ 3.087491626710565, 36.74524681113099 ], [ 3.087491626710565, 36.743410679371763 ], [ 3.086751410743056, 36.743410679371763 ], [ 3.086751410743056, 36.742951639567913 ], [ 3.08527097880804, 36.742951639567913 ], [ 3.08527097880804, 36.742492597018455 ], [ 3.083050330905515, 36.742492597018455 ], [ 3.083050330905515, 36.742033551723452 ], [ 3.08082968300299, 36.742033551723452 ], [ 3.08082968300299, 36.741574503682855 ], [ 3.078609035100465, 36.741574503682855 ], [ 3.078609035100465, 36.742033551723452 ], [ 3.077128603165448, 36.742033551723452 ], [ 3.077128603165448, 36.742492597018455 ], [ 3.07638838719794, 36.742492597018455 ], [ 3.07638838719794, 36.742951639567913 ], [ 3.074907955262923, 36.742951639567913 ], [ 3.074907955262923, 36.744787782309629 ], [ 3.074167739295415, 36.744787782309629 ], [ 3.074167739295415, 36.74708289895969 ], [ 3.073427523327906, 36.74708289895969 ], [ 3.073427523327906, 36.749377946967037 ], [ 3.072687307360398, 36.749377946967037 ], [ 3.072687307360398, 36.750754942822262 ], [ 3.073427523327906, 36.750754942822262 ], [ 3.073427523327906, 36.752590898854436 ], [ 3.074167739295415, 36.752590898854436 ], [ 3.074167739295415, 36.753967837047014 ], [ 3.074907955262923, 36.753967837047014 ], [ 3.074907955262923, 36.754426810952772 ], [ 3.07638838719794, 36.754426810952772 ], [ 3.07638838719794, 36.754885782112567 ], [ 3.077128603165448, 36.754885782112567 ], [ 3.077128603165448, 36.755344750526469 ], [ 3.077868819132957, 36.755344750526469 ], [ 3.077868819132957, 36.755803716194414 ], [ 3.078609035100465, 36.755803716194414 ], [ 3.078609035100465, 36.756262679116404 ], [ 3.082310114938007, 36.756262679116404 ], [ 3.082310114938007, 36.755803716194414 ], [ 3.083790546873024, 36.755803716194414 ], [ 3.083790546873024, 36.755344750526469 ], [ 3.08527097880804, 36.755344750526469 ], [ 3.08527097880804, 36.754885782112567 ], [ 3.086011194775548, 36.754885782112567 ], [ 3.086011194775548, 36.754426810952772 ] ] ], [ [ [ 1.66775740102958, 41.317395222091427 ], [ 1.668497616997088, 41.317395222091427 ], [ 1.668497616997088, 41.316534721265214 ], [ 1.669237832964597, 41.316534721265214 ], [ 1.669237832964597, 41.315674209078693 ], [ 1.669978048932105, 41.315674209078693 ], [ 1.669978048932105, 41.310080602961357 ], [ 1.669237832964597, 41.310080602961357 ], [ 1.669237832964597, 41.309220005573778 ], [ 1.668497616997088, 41.309220005573778 ], [ 1.668497616997088, 41.308359396826262 ], [ 1.66775740102958, 41.308359396826262 ], [ 1.66775740102958, 41.30749877671883 ], [ 1.667017185062072, 41.30749877671883 ], [ 1.667017185062072, 41.306638145251547 ], [ 1.666276969094563, 41.306638145251547 ], [ 1.666276969094563, 41.305777502424441 ], [ 1.665536753127055, 41.305777502424441 ], [ 1.665536753127055, 41.305347176750963 ], [ 1.664056321192039, 41.305347176750963 ], [ 1.664056321192039, 41.304916848237561 ], [ 1.662575889257022, 41.304916848237561 ], [ 1.662575889257022, 41.304486516884211 ], [ 1.661095457322005, 41.304486516884211 ], [ 1.661095457322005, 41.304056182690942 ], [ 1.659615025386988, 41.304056182690942 ], [ 1.659615025386988, 41.304486516884211 ], [ 1.65887480941948, 41.304486516884211 ], [ 1.65887480941948, 41.304916848237561 ], [ 1.658134593451972, 41.304916848237561 ], [ 1.658134593451972, 41.305347176750963 ], [ 1.657394377484463, 41.305347176750963 ], [ 1.657394377484463, 41.305777502424441 ], [ 1.656654161516955, 41.305777502424441 ], [ 1.656654161516955, 41.306638145251547 ], [ 1.655913945549446, 41.306638145251547 ], [ 1.655913945549446, 41.307068462405169 ], [ 1.655173729581938, 41.307068462405169 ], [ 1.655173729581938, 41.30749877671883 ], [ 1.65443351361443, 41.30749877671883 ], [ 1.65443351361443, 41.311801763656462 ], [ 1.653693297646922, 41.311801763656462 ], [ 1.653693297646922, 41.314813685531881 ], [ 1.65443351361443, 41.314813685531881 ], [ 1.65443351361443, 41.315243948725325 ], [ 1.655173729581938, 41.315243948725325 ], [ 1.655173729581938, 41.316104466591995 ], [ 1.655913945549446, 41.316104466591995 ], [ 1.655913945549446, 41.316534721265214 ], [ 1.656654161516955, 41.316534721265214 ], [ 1.656654161516955, 41.317395222091427 ], [ 1.657394377484463, 41.317395222091427 ], [ 1.657394377484463, 41.318255711557249 ], [ 1.658134593451972, 41.318255711557249 ], [ 1.658134593451972, 41.318685952030009 ], [ 1.65887480941948, 41.318685952030009 ], [ 1.65887480941948, 41.319116189662658 ], [ 1.66331610522453, 41.319116189662658 ], [ 1.66331610522453, 41.319546424455204 ], [ 1.666276969094563, 41.319546424455204 ], [ 1.666276969094563, 41.318685952030009 ], [ 1.667017185062072, 41.318685952030009 ], [ 1.667017185062072, 41.317825468244379 ], [ 1.66775740102958, 41.317825468244379 ], [ 1.66775740102958, 41.317395222091427 ] ] ], [ [ [ 1.978648107383081, 41.464373761387826 ], [ 1.979388323350589, 41.464373761387826 ], [ 1.979388323350589, 41.463944484023486 ], [ 1.980128539318097, 41.463944484023486 ], [ 1.980128539318097, 41.463515203817195 ], [ 1.980868755285605, 41.463515203817195 ], [ 1.980868755285605, 41.463085920768989 ], [ 1.981608971253114, 41.463085920768989 ], [ 1.981608971253114, 41.462227346146804 ], [ 1.982349187220622, 41.462227346146804 ], [ 1.982349187220622, 41.461798054572846 ], [ 1.98308940318813, 41.461798054572846 ], [ 1.98308940318813, 41.461368760156972 ], [ 1.983829619155639, 41.461368760156972 ], [ 1.983829619155639, 41.460939462899212 ], [ 1.984569835123147, 41.460939462899212 ], [ 1.984569835123147, 41.460510162799537 ], [ 1.985310051090655, 41.460510162799537 ], [ 1.985310051090655, 41.459222245449205 ], [ 1.986050267058164, 41.459222245449205 ], [ 1.986050267058164, 41.457504982529208 ], [ 1.986790483025672, 41.457504982529208 ], [ 1.986790483025672, 41.455787674139529 ], [ 1.98753069899318, 41.455787674139529 ], [ 1.98753069899318, 41.454499663008015 ], [ 1.986790483025672, 41.454499663008015 ], [ 1.986790483025672, 41.452782275047241 ], [ 1.986050267058164, 41.452782275047241 ], [ 1.986050267058164, 41.451064841617743 ], [ 1.985310051090655, 41.451064841617743 ], [ 1.985310051090655, 41.449347362719848 ], [ 1.984569835123147, 41.449347362719848 ], [ 1.984569835123147, 41.448917985890979 ], [ 1.981608971253114, 41.448917985890979 ], [ 1.981608971253114, 41.448488606220351 ], [ 1.978648107383081, 41.448488606220351 ], [ 1.978648107383081, 41.448059223707993 ], [ 1.975687243513047, 41.448059223707993 ], [ 1.975687243513047, 41.448917985890979 ], [ 1.974947027545539, 41.448917985890979 ], [ 1.974947027545539, 41.449776736706959 ], [ 1.97420681157803, 41.449776736706959 ], [ 1.97420681157803, 41.450635476155917 ], [ 1.973466595610522, 41.450635476155917 ], [ 1.973466595610522, 41.451923564016063 ], [ 1.972726379643014, 41.451923564016063 ], [ 1.972726379643014, 41.452782275047241 ], [ 1.971986163675505, 41.452782275047241 ], [ 1.971986163675505, 41.454070320280536 ], [ 1.971245947707997, 41.454070320280536 ], [ 1.971245947707997, 41.45836361967293 ], [ 1.971986163675505, 41.45836361967293 ], [ 1.971986163675505, 41.462227346146804 ], [ 1.972726379643014, 41.462227346146804 ], [ 1.972726379643014, 41.462656634878854 ], [ 1.973466595610522, 41.462656634878854 ], [ 1.973466595610522, 41.463085920768989 ], [ 1.97420681157803, 41.463085920768989 ], [ 1.97420681157803, 41.463515203817195 ], [ 1.974947027545539, 41.463515203817195 ], [ 1.974947027545539, 41.463944484023486 ], [ 1.975687243513047, 41.463944484023486 ], [ 1.975687243513047, 41.464373761387826 ], [ 1.976427459480555, 41.464373761387826 ], [ 1.976427459480555, 41.465232307590696 ], [ 1.977907891415572, 41.465232307590696 ], [ 1.977907891415572, 41.464803035910236 ], [ 1.978648107383081, 41.464803035910236 ], [ 1.978648107383081, 41.464373761387826 ] ] ], [ [ [ 0.185845034077895, 41.931447529982364 ], [ 0.186585250045403, 41.931447529982364 ], [ 0.186585250045403, 41.931021359016711 ], [ 0.187325466012912, 41.931021359016711 ], [ 0.187325466012912, 41.930169008543487 ], [ 0.18806568198042, 41.930169008543487 ], [ 0.18806568198042, 41.92931664668108 ], [ 0.188805897947928, 41.92931664668108 ], [ 0.188805897947928, 41.928464273429555 ], [ 0.189546113915437, 41.928464273429555 ], [ 0.189546113915437, 41.924202236335979 ], [ 0.188805897947928, 41.924202236335979 ], [ 0.188805897947928, 41.919513666678057 ], [ 0.18806568198042, 41.919513666678057 ], [ 0.18806568198042, 41.918234906071213 ], [ 0.187325466012912, 41.918234906071213 ], [ 0.187325466012912, 41.917382384764132 ], [ 0.186585250045403, 41.917382384764132 ], [ 0.186585250045403, 41.916529852068429 ], [ 0.185845034077895, 41.916529852068429 ], [ 0.185845034077895, 41.916103581449839 ], [ 0.185104818110386, 41.916103581449839 ], [ 0.185104818110386, 41.915677307984119 ], [ 0.177702658435303, 41.915677307984119 ], [ 0.177702658435303, 41.916103581449839 ], [ 0.176222226500287, 41.916103581449839 ], [ 0.176222226500287, 41.916956119839853 ], [ 0.175482010532778, 41.916956119839853 ], [ 0.175482010532778, 41.917382384764132 ], [ 0.17474179456527, 41.917382384764132 ], [ 0.17474179456527, 41.918234906071213 ], [ 0.174001578597761, 41.918234906071213 ], [ 0.174001578597761, 41.918661162453994 ], [ 0.173261362630253, 41.918661162453994 ], [ 0.173261362630253, 41.919087415989608 ], [ 0.172521146662745, 41.919087415989608 ], [ 0.172521146662745, 41.919939914519318 ], [ 0.171780930695237, 41.919939914519318 ], [ 0.171780930695237, 41.920366159513392 ], [ 0.171040714727728, 41.920366159513392 ], [ 0.171040714727728, 41.928890461478971 ], [ 0.171780930695237, 41.928890461478971 ], [ 0.171780930695237, 41.92931664668108 ], [ 0.172521146662745, 41.92931664668108 ], [ 0.172521146662745, 41.930169008543487 ], [ 0.173261362630253, 41.930169008543487 ], [ 0.173261362630253, 41.931021359016711 ], [ 0.174001578597761, 41.931021359016711 ], [ 0.174001578597761, 41.931873698100702 ], [ 0.17474179456527, 41.931873698100702 ], [ 0.17474179456527, 41.932299863371739 ], [ 0.175482010532778, 41.932299863371739 ], [ 0.175482010532778, 41.933152185371853 ], [ 0.179923306337828, 41.933152185371853 ], [ 0.179923306337828, 41.933578342100922 ], [ 0.184364602142878, 41.933578342100922 ], [ 0.184364602142878, 41.933152185371853 ], [ 0.185104818110386, 41.933152185371853 ], [ 0.185104818110386, 41.932299863371739 ], [ 0.185845034077895, 41.932299863371739 ], [ 0.185845034077895, 41.931447529982364 ] ] ], [ [ [ 2.008996962050922, 42.722139041293836 ], [ 2.008996962050922, 42.721718193476534 ], [ 2.011217609953447, 42.721718193476534 ], [ 2.011217609953447, 42.721297342804554 ], [ 2.011957825920955, 42.721297342804554 ], [ 2.011957825920955, 42.719193046624746 ], [ 2.012698041888464, 42.719193046624746 ], [ 2.012698041888464, 42.71582602429546 ], [ 2.013438257855972, 42.71582602429546 ], [ 2.013438257855972, 42.714563343820615 ], [ 2.012698041888464, 42.714563343820615 ], [ 2.012698041888464, 42.713721542564308 ], [ 2.011957825920955, 42.713721542564308 ], [ 2.011957825920955, 42.71330063765425 ], [ 2.011217609953447, 42.71330063765425 ], [ 2.011217609953447, 42.712879729889586 ], [ 2.010477393985939, 42.712879729889586 ], [ 2.010477393985939, 42.712458819270317 ], [ 2.009737178018431, 42.712458819270317 ], [ 2.009737178018431, 42.711616989468006 ], [ 2.008996962050922, 42.711616989468006 ], [ 2.008996962050922, 42.711196070284963 ], [ 2.008256746083414, 42.711196070284963 ], [ 2.008256746083414, 42.710775148247336 ], [ 2.007516530115905, 42.710775148247336 ], [ 2.007516530115905, 42.70993329560833 ], [ 2.006776314148397, 42.70993329560833 ], [ 2.006776314148397, 42.709512365006972 ], [ 2.006036098180889, 42.709512365006972 ], [ 2.006036098180889, 42.70909143155103 ], [ 2.005295882213381, 42.70909143155103 ], [ 2.005295882213381, 42.708670495240526 ], [ 2.004555666245873, 42.708670495240526 ], [ 2.004555666245873, 42.706565770869567 ], [ 2.003815450278363, 42.706565770869567 ], [ 2.003815450278363, 42.704040007424354 ], [ 2.003075234310855, 42.704040007424354 ], [ 2.003075234310855, 42.70361903685928 ], [ 2.002335018343347, 42.70361903685928 ], [ 2.002335018343347, 42.703198063439686 ], [ 2.000854586408331, 42.703198063439686 ], [ 2.000854586408331, 42.702777087165551 ], [ 1.999374154473314, 42.702777087165551 ], [ 1.999374154473314, 42.702356108036916 ], [ 1.997893722538297, 42.702356108036916 ], [ 1.997893722538297, 42.701935126053762 ], [ 1.99641329060328, 42.701935126053762 ], [ 1.99641329060328, 42.701514141216094 ], [ 1.995673074635772, 42.701514141216094 ], [ 1.995673074635772, 42.701093153523928 ], [ 1.994192642700756, 42.701093153523928 ], [ 1.994192642700756, 42.700672162977241 ], [ 1.991231778830722, 42.700672162977241 ], [ 1.991231778830722, 42.701093153523928 ], [ 1.989751346895706, 42.701093153523928 ], [ 1.989751346895706, 42.701514141216094 ], [ 1.989011130928197, 42.701514141216094 ], [ 1.989011130928197, 42.701935126053762 ], [ 1.988270914960689, 42.701935126053762 ], [ 1.988270914960689, 42.702777087165551 ], [ 1.98753069899318, 42.702777087165551 ], [ 1.98753069899318, 42.7044609751349 ], [ 1.986790483025672, 42.7044609751349 ], [ 1.986790483025672, 42.706986721452878 ], [ 1.98753069899318, 42.706986721452878 ], [ 1.98753069899318, 42.708670495240526 ], [ 1.988270914960689, 42.708670495240526 ], [ 1.988270914960689, 42.712458819270317 ], [ 1.98753069899318, 42.712458819270317 ], [ 1.98753069899318, 42.715405133658464 ], [ 1.986790483025672, 42.715405133658464 ], [ 1.986790483025672, 42.718772178824828 ], [ 1.98753069899318, 42.718772178824828 ], [ 1.98753069899318, 42.720455632896609 ], [ 1.988270914960689, 42.720455632896609 ], [ 1.988270914960689, 42.721297342804554 ], [ 1.989751346895706, 42.721297342804554 ], [ 1.989751346895706, 42.721718193476534 ], [ 1.992712210765739, 42.721718193476534 ], [ 1.992712210765739, 42.722139041293836 ], [ 1.995673074635772, 42.722139041293836 ], [ 1.995673074635772, 42.722559886256469 ], [ 1.998633938505805, 42.722559886256469 ], [ 1.998633938505805, 42.722980728364426 ], [ 2.004555666245873, 42.722980728364426 ], [ 2.004555666245873, 42.722559886256469 ], [ 2.006776314148397, 42.722559886256469 ], [ 2.006776314148397, 42.722139041293836 ], [ 2.008996962050922, 42.722139041293836 ] ] ] ] } }
]
}
