{
"type": "FeatureCollection",
"name": "spain_fires_nrt_ba",
"crs": { "type": "name", "properties": { "name": "urn:ogc:def:crs:OGC:1.3:CRS84" } },
"features": [
{ "type": "Feature", "properties": { }, "geometry": { "type": "MultiPolygon", "coordinates": [ [ [ [ -0.271608433842256, 35.53507655783536 ], [ -0.270868217874747, 35.53507655783536 ], [ -0.270868217874747, 35.534144226185013 ], [ -0.270128001907239, 35.534144226185013 ], [ -0.270128001907239, 35.533678056296615 ], [ -0.269387785939731, 35.533678056296615 ], [ -0.269387785939731, 35.528083806354168 ], [ -0.270128001907239, 35.528083806354168 ], [ -0.270128001907239, 35.527151393442459 ], [ -0.270868217874747, 35.527151393442459 ], [ -0.270868217874747, 35.52621896969643 ], [ -0.271608433842256, 35.52621896969643 ], [ -0.271608433842256, 35.525286535116166 ], [ -0.272348649809764, 35.525286535116166 ], [ -0.272348649809764, 35.524354089701824 ], [ -0.273088865777272, 35.524354089701824 ], [ -0.273088865777272, 35.523421633453495 ], [ -0.273829081744781, 35.523421633453495 ], [ -0.273829081744781, 35.522489166371336 ], [ -0.274569297712289, 35.522489166371336 ], [ -0.274569297712289, 35.522022928767583 ], [ -0.276049729647306, 35.522022928767583 ], [ -0.276049729647306, 35.521556688455441 ], [ -0.276789945614814, 35.521556688455441 ], [ -0.276789945614814, 35.521090445434879 ], [ -0.279750809484847, 35.521090445434879 ], [ -0.279750809484847, 35.521556688455441 ], [ -0.281231241419864, 35.521556688455441 ], [ -0.281231241419864, 35.522022928767583 ], [ -0.281971457387372, 35.522022928767583 ], [ -0.281971457387372, 35.522489166371336 ], [ -0.282711673354881, 35.522489166371336 ], [ -0.282711673354881, 35.524354089701824 ], [ -0.283451889322389, 35.524354089701824 ], [ -0.283451889322389, 35.5299485996741 ], [ -0.282711673354881, 35.5299485996741 ], [ -0.282711673354881, 35.531347166223014 ], [ -0.281971457387372, 35.531347166223014 ], [ -0.281971457387372, 35.532745708393463 ], [ -0.281231241419864, 35.532745708393463 ], [ -0.281231241419864, 35.534144226185013 ], [ -0.280491025452356, 35.534144226185013 ], [ -0.280491025452356, 35.535542719597274 ], [ -0.279750809484847, 35.535542719597274 ], [ -0.279750809484847, 35.536008878650335 ], [ -0.278270377549831, 35.536008878650335 ], [ -0.278270377549831, 35.536475034994524 ], [ -0.276049729647306, 35.536475034994524 ], [ -0.276049729647306, 35.536941188629832 ], [ -0.273088865777272, 35.536941188629832 ], [ -0.273088865777272, 35.536008878650335 ], [ -0.272348649809764, 35.536008878650335 ], [ -0.272348649809764, 35.535542719597274 ], [ -0.271608433842256, 35.535542719597274 ], [ -0.271608433842256, 35.53507655783536 ] ] ], [ [ [ -0.276789945614814, 35.824505411354338 ], [ -0.276049729647306, 35.824505411354338 ], [ -0.276049729647306, 35.824040934669902 ], [ -0.274569297712289, 35.824040934669902 ], [ -0.274569297712289, 35.8235764552674 ], [ -0.272348649809764, 35.8235764552674 ], [ -0.272348649809764, 35.82311197314683 ], [ -0.270128001907239, 35.82311197314683 ], [ -0.270128001907239, 35.822647488308213 ], [ -0.267167138037206, 35.822647488308213 ], [ -0.267167138037206, 35.822183000751579 ], [ -0.264946490134681, 35.822183000751579 ], [ -0.264946490134681, 35.821718510476927 ], [ -0.262725842232156, 35.821718510476927 ], [ -0.262725842232156, 35.821254017484272 ], [ -0.260505194329631, 35.821254017484272 ], [ -0.260505194329631, 35.820789521773627 ], [ -0.259764978362122, 35.820789521773627 ], [ -0.259764978362122, 35.819860522198454 ], [ -0.259024762394614, 35.819860522198454 ], [ -0.259024762394614, 35.81939601833394 ], [ -0.258284546427106, 35.81939601833394 ], [ -0.258284546427106, 35.818467002451158 ], [ -0.257544330459597, 35.818467002451158 ], [ -0.257544330459597, 35.818002490432896 ], [ -0.250882386752022, 35.818002490432896 ], [ -0.250882386752022, 35.81753797569678 ], [ -0.250142170784514, 35.81753797569678 ], [ -0.250142170784514, 35.817073458242774 ], [ -0.249401954817006, 35.817073458242774 ], [ -0.249401954817006, 35.816608938070921 ], [ -0.239038931271889, 35.816608938070921 ], [ -0.239038931271889, 35.817073458242774 ], [ -0.234597635466839, 35.817073458242774 ], [ -0.234597635466839, 35.816608938070921 ], [ -0.233857419499331, 35.816608938070921 ], [ -0.233857419499331, 35.816144415181228 ], [ -0.233117203531822, 35.816144415181228 ], [ -0.233117203531822, 35.815679889573708 ], [ -0.232376987564314, 35.815679889573708 ], [ -0.232376987564314, 35.815215361248384 ], [ -0.230896555629297, 35.815215361248384 ], [ -0.230896555629297, 35.814750830205249 ], [ -0.230156339661789, 35.814750830205249 ], [ -0.230156339661789, 35.814286296444358 ], [ -0.229416123694281, 35.814286296444358 ], [ -0.229416123694281, 35.813357220769255 ], [ -0.228675907726772, 35.813357220769255 ], [ -0.228675907726772, 35.811499036806339 ], [ -0.227935691759264, 35.811499036806339 ], [ -0.227935691759264, 35.809176245705025 ], [ -0.227195475791756, 35.809176245705025 ], [ -0.227195475791756, 35.80731796390701 ], [ -0.227935691759264, 35.80731796390701 ], [ -0.227935691759264, 35.805924224024189 ], [ -0.228675907726772, 35.805924224024189 ], [ -0.228675907726772, 35.804530459683846 ], [ -0.229416123694281, 35.804530459683846 ], [ -0.229416123694281, 35.803601269869652 ], [ -0.230156339661789, 35.803601269869652 ], [ -0.230156339661789, 35.803136670886389 ], [ -0.230896555629297, 35.803136670886389 ], [ -0.230896555629297, 35.802672069185711 ], [ -0.231636771596806, 35.802672069185711 ], [ -0.231636771596806, 35.80220746476764 ], [ -0.232376987564314, 35.80220746476764 ], [ -0.232376987564314, 35.801742857632192 ], [ -0.237558499336872, 35.801742857632192 ], [ -0.237558499336872, 35.80220746476764 ], [ -0.238298715304381, 35.80220746476764 ], [ -0.238298715304381, 35.802672069185711 ], [ -0.239038931271889, 35.802672069185711 ], [ -0.239038931271889, 35.800813635209181 ], [ -0.239779147239397, 35.800813635209181 ], [ -0.239779147239397, 35.799884401916799 ], [ -0.240519363206906, 35.799884401916799 ], [ -0.240519363206906, 35.799419781194644 ], [ -0.241259579174414, 35.799419781194644 ], [ -0.241259579174414, 35.798955157755167 ], [ -0.242740011109431, 35.798955157755167 ], [ -0.242740011109431, 35.798490531598425 ], [ -0.245700874979464, 35.798490531598425 ], [ -0.245700874979464, 35.798955157755167 ], [ -0.247921522881989, 35.798955157755167 ], [ -0.247921522881989, 35.799419781194644 ], [ -0.249401954817006, 35.799419781194644 ], [ -0.249401954817006, 35.799884401916799 ], [ -0.250882386752022, 35.799884401916799 ], [ -0.250882386752022, 35.799419781194644 ], [ -0.252362818687039, 35.799419781194644 ], [ -0.252362818687039, 35.798955157755167 ], [ -0.253843250622056, 35.798955157755167 ], [ -0.253843250622056, 35.798490531598425 ], [ -0.255323682557072, 35.798490531598425 ], [ -0.255323682557072, 35.798025902724412 ], [ -0.261245410297139, 35.798025902724412 ], [ -0.261245410297139, 35.798490531598425 ], [ -0.266426922069697, 35.798490531598425 ], [ -0.266426922069697, 35.799419781194644 ], [ -0.267167138037206, 35.799419781194644 ], [ -0.267167138037206, 35.799884401916799 ], [ -0.267907354004714, 35.799884401916799 ], [ -0.267907354004714, 35.800349019921647 ], [ -0.268647569972222, 35.800349019921647 ], [ -0.268647569972222, 35.801278247779365 ], [ -0.269387785939731, 35.801278247779365 ], [ -0.269387785939731, 35.801742857632192 ], [ -0.270128001907239, 35.801742857632192 ], [ -0.270128001907239, 35.80220746476764 ], [ -0.270868217874747, 35.80220746476764 ], [ -0.270868217874747, 35.803136670886389 ], [ -0.271608433842256, 35.803136670886389 ], [ -0.271608433842256, 35.803601269869652 ], [ -0.272348649809764, 35.803601269869652 ], [ -0.272348649809764, 35.804530459683846 ], [ -0.273088865777272, 35.804530459683846 ], [ -0.273088865777272, 35.804995050514783 ], [ -0.273829081744781, 35.804995050514783 ], [ -0.273829081744781, 35.804065866135467 ], [ -0.274569297712289, 35.804065866135467 ], [ -0.274569297712289, 35.803136670886389 ], [ -0.275309513679797, 35.803136670886389 ], [ -0.275309513679797, 35.80220746476764 ], [ -0.276049729647306, 35.80220746476764 ], [ -0.276049729647306, 35.801742857632192 ], [ -0.276789945614814, 35.801742857632192 ], [ -0.276789945614814, 35.801278247779365 ], [ -0.278270377549831, 35.801278247779365 ], [ -0.278270377549831, 35.800813635209181 ], [ -0.279010593517339, 35.800813635209181 ], [ -0.279010593517339, 35.800349019921647 ], [ -0.280491025452356, 35.800349019921647 ], [ -0.280491025452356, 35.800813635209181 ], [ -0.281231241419864, 35.800813635209181 ], [ -0.281231241419864, 35.801278247779365 ], [ -0.282711673354881, 35.801278247779365 ], [ -0.282711673354881, 35.801742857632192 ], [ -0.283451889322389, 35.801742857632192 ], [ -0.283451889322389, 35.80220746476764 ], [ -0.284192105289897, 35.80220746476764 ], [ -0.284192105289897, 35.804065866135467 ], [ -0.284932321257406, 35.804065866135467 ], [ -0.284932321257406, 35.806388806702657 ], [ -0.285672537224914, 35.806388806702657 ], [ -0.285672537224914, 35.808711679331893 ], [ -0.286412753192422, 35.808711679331893 ], [ -0.286412753192422, 35.811034484021377 ], [ -0.287152969159931, 35.811034484021377 ], [ -0.287152969159931, 35.821254017484272 ], [ -0.286412753192422, 35.821254017484272 ], [ -0.286412753192422, 35.822183000751579 ], [ -0.285672537224914, 35.822183000751579 ], [ -0.285672537224914, 35.822647488308213 ], [ -0.284932321257406, 35.822647488308213 ], [ -0.284932321257406, 35.82311197314683 ], [ -0.284192105289897, 35.82311197314683 ], [ -0.284192105289897, 35.8235764552674 ], [ -0.283451889322389, 35.8235764552674 ], [ -0.283451889322389, 35.824040934669902 ], [ -0.282711673354881, 35.824040934669902 ], [ -0.282711673354881, 35.824505411354338 ], [ -0.281971457387372, 35.824505411354338 ], [ -0.281971457387372, 35.824969885320684 ], [ -0.281231241419864, 35.824969885320684 ], [ -0.281231241419864, 35.82543435656892 ], [ -0.280491025452356, 35.82543435656892 ], [ -0.280491025452356, 35.825898825099053 ], [ -0.278270377549831, 35.825898825099053 ], [ -0.278270377549831, 35.82543435656892 ], [ -0.277530161582322, 35.82543435656892 ], [ -0.277530161582322, 35.824969885320684 ], [ -0.276789945614814, 35.824969885320684 ], [ -0.276789945614814, 35.824505411354338 ] ] ], [ [ [ -5.063026391523705, 36.526899263228607 ], [ -5.061545959588687, 36.526899263228607 ], [ -5.061545959588687, 36.526438931708348 ], [ -5.060065527653672, 36.526438931708348 ], [ -5.060065527653672, 36.525978597448741 ], [ -5.057844879751146, 36.525978597448741 ], [ -5.057844879751146, 36.526438931708348 ], [ -5.051923152011081, 36.526438931708348 ], [ -5.051923152011081, 36.526899263228607 ], [ -5.046001424271013, 36.526899263228607 ], [ -5.046001424271013, 36.527359592009461 ], [ -5.043040560400979, 36.527359592009461 ], [ -5.043040560400979, 36.526899263228607 ], [ -5.042300344433471, 36.526899263228607 ], [ -5.042300344433471, 36.525978597448741 ], [ -5.041560128465963, 36.525978597448741 ], [ -5.041560128465963, 36.525057920711497 ], [ -5.040819912498454, 36.525057920711497 ], [ -5.040819912498454, 36.524597578233902 ], [ -5.040079696530945, 36.524597578233902 ], [ -5.040079696530945, 36.520454372668169 ], [ -5.039339480563438, 36.520454372668169 ], [ -5.039339480563438, 36.519994002798093 ], [ -5.03859926459593, 36.519994002798093 ], [ -5.03859926459593, 36.519533630188839 ], [ -5.037859048628422, 36.519533630188839 ], [ -5.037859048628422, 36.519073254840421 ], [ -5.036378616693405, 36.519073254840421 ], [ -5.036378616693405, 36.518612876752861 ], [ -5.035638400725897, 36.518612876752861 ], [ -5.035638400725897, 36.518152495926159 ], [ -5.034898184758388, 36.518152495926159 ], [ -5.034898184758388, 36.517692112360351 ], [ -5.03415796879088, 36.517692112360351 ], [ -5.03415796879088, 36.517231726055421 ], [ -5.033417752823372, 36.517231726055421 ], [ -5.033417752823372, 36.516310945228312 ], [ -5.032677536855862, 36.516310945228312 ], [ -5.032677536855862, 36.515390153444947 ], [ -5.031937320888354, 36.515390153444947 ], [ -5.031937320888354, 36.514469350705411 ], [ -5.031197104920846, 36.514469350705411 ], [ -5.031197104920846, 36.513548537009846 ], [ -5.030456888953337, 36.513548537009846 ], [ -5.030456888953337, 36.512167295924122 ], [ -5.029716672985829, 36.512167295924122 ], [ -5.029716672985829, 36.51124645483889 ], [ -5.028976457018321, 36.51124645483889 ], [ -5.028976457018321, 36.508023424765369 ], [ -5.029716672985829, 36.508023424765369 ], [ -5.029716672985829, 36.504800260489446 ], [ -5.030456888953337, 36.504800260489446 ], [ -5.030456888953337, 36.504339797495014 ], [ -5.031197104920846, 36.504339797495014 ], [ -5.031197104920846, 36.503879331761851 ], [ -5.031937320888354, 36.503879331761851 ], [ -5.031937320888354, 36.503418863289987 ], [ -5.032677536855862, 36.503418863289987 ], [ -5.032677536855862, 36.502958392079435 ], [ -5.033417752823372, 36.502958392079435 ], [ -5.033417752823372, 36.502497918130203 ], [ -5.03415796879088, 36.502497918130203 ], [ -5.03415796879088, 36.502037441442319 ], [ -5.036378616693405, 36.502037441442319 ], [ -5.036378616693405, 36.502497918130203 ], [ -5.037118832660913, 36.502497918130203 ], [ -5.037118832660913, 36.502958392079435 ], [ -5.037859048628422, 36.502958392079435 ], [ -5.037859048628422, 36.503418863289987 ], [ -5.03859926459593, 36.503418863289987 ], [ -5.03859926459593, 36.503879331761851 ], [ -5.039339480563438, 36.503879331761851 ], [ -5.039339480563438, 36.504339797495014 ], [ -5.040079696530945, 36.504339797495014 ], [ -5.040079696530945, 36.504800260489446 ], [ -5.041560128465963, 36.504800260489446 ], [ -5.041560128465963, 36.50526072074517 ], [ -5.042300344433471, 36.50526072074517 ], [ -5.042300344433471, 36.505721178262135 ], [ -5.043040560400979, 36.505721178262135 ], [ -5.043040560400979, 36.506181633040356 ], [ -5.043780776368489, 36.506181633040356 ], [ -5.043780776368489, 36.506642085079797 ], [ -5.044520992335997, 36.506642085079797 ], [ -5.044520992335997, 36.507102534380444 ], [ -5.045261208303504, 36.507102534380444 ], [ -5.045261208303504, 36.507562980942318 ], [ -5.046001424271013, 36.507562980942318 ], [ -5.046001424271013, 36.508023424765369 ], [ -5.046741640238522, 36.508023424765369 ], [ -5.046741640238522, 36.508483865849584 ], [ -5.047481856206029, 36.508483865849584 ], [ -5.047481856206029, 36.508023424765369 ], [ -5.048962288141047, 36.508023424765369 ], [ -5.048962288141047, 36.507562980942318 ], [ -5.050442720076063, 36.507562980942318 ], [ -5.050442720076063, 36.507102534380444 ], [ -5.051923152011081, 36.507102534380444 ], [ -5.051923152011081, 36.506642085079797 ], [ -5.053403583946096, 36.506642085079797 ], [ -5.053403583946096, 36.506181633040356 ], [ -5.059325311686163, 36.506181633040356 ], [ -5.059325311686163, 36.506642085079797 ], [ -5.062286175556197, 36.506642085079797 ], [ -5.062286175556197, 36.507102534380444 ], [ -5.063026391523705, 36.507102534380444 ], [ -5.063026391523705, 36.508023424765369 ], [ -5.063766607491212, 36.508023424765369 ], [ -5.063766607491212, 36.508944304194976 ], [ -5.064506823458721, 36.508944304194976 ], [ -5.064506823458721, 36.509404739801511 ], [ -5.06524703942623, 36.509404739801511 ], [ -5.06524703942623, 36.509865172669194 ], [ -5.067467687328755, 36.509865172669194 ], [ -5.067467687328755, 36.510325602797984 ], [ -5.068948119263771, 36.510325602797984 ], [ -5.068948119263771, 36.510786030187894 ], [ -5.070428551198789, 36.510786030187894 ], [ -5.070428551198789, 36.511706876750971 ], [ -5.071168767166296, 36.511706876750971 ], [ -5.071168767166296, 36.512167295924122 ], [ -5.071908983133804, 36.512167295924122 ], [ -5.071908983133804, 36.512627712358317 ], [ -5.072649199101313, 36.512627712358317 ], [ -5.072649199101313, 36.513548537009846 ], [ -5.073389415068821, 36.513548537009846 ], [ -5.073389415068821, 36.514008945227133 ], [ -5.074129631036329, 36.514008945227133 ], [ -5.074129631036329, 36.51492975344469 ], [ -5.074869847003838, 36.51492975344469 ], [ -5.074869847003838, 36.515390153444947 ], [ -5.075610062971347, 36.515390153444947 ], [ -5.075610062971347, 36.523216534365268 ], [ -5.074869847003838, 36.523216534365268 ], [ -5.074869847003838, 36.523676885060766 ], [ -5.074129631036329, 36.523676885060766 ], [ -5.074129631036329, 36.524597578233902 ], [ -5.073389415068821, 36.524597578233902 ], [ -5.073389415068821, 36.525518260449786 ], [ -5.072649199101313, 36.525518260449786 ], [ -5.072649199101313, 36.525978597448741 ], [ -5.071168767166296, 36.525978597448741 ], [ -5.071168767166296, 36.526438931708348 ], [ -5.06968833523128, 36.526438931708348 ], [ -5.06968833523128, 36.526899263228607 ], [ -5.068207903296263, 36.526899263228607 ], [ -5.068207903296263, 36.527359592009461 ], [ -5.067467687328755, 36.527359592009461 ], [ -5.067467687328755, 36.527819918050945 ], [ -5.064506823458721, 36.527819918050945 ], [ -5.064506823458721, 36.527359592009461 ], [ -5.063026391523705, 36.527359592009461 ], [ -5.063026391523705, 36.526899263228607 ] ] ], [ [ [ -5.17183813874743, 37.367890159816611 ], [ -5.17183813874743, 37.367434882337584 ], [ -5.171097922779921, 37.367434882337584 ], [ -5.171097922779921, 37.358328752609502 ], [ -5.170357706812412, 37.358328752609502 ], [ -5.170357706812412, 37.353319910256445 ], [ -5.171097922779921, 37.353319910256445 ], [ -5.171097922779921, 37.352864544377532 ], [ -5.17183813874743, 37.352864544377532 ], [ -5.17183813874743, 37.35195380433278 ], [ -5.172578354714938, 37.35195380433278 ], [ -5.172578354714938, 37.351043053238953 ], [ -5.173318570682446, 37.351043053238953 ], [ -5.173318570682446, 37.350132291096109 ], [ -5.174058786649955, 37.350132291096109 ], [ -5.174058786649955, 37.349676905881353 ], [ -5.177759866487496, 37.349676905881353 ], [ -5.177759866487496, 37.350132291096109 ], [ -5.180720730357529, 37.350132291096109 ], [ -5.180720730357529, 37.350587673548659 ], [ -5.182201162292547, 37.350587673548659 ], [ -5.182201162292547, 37.351043053238953 ], [ -5.182941378260055, 37.351043053238953 ], [ -5.182941378260055, 37.351498430167005 ], [ -5.183681594227563, 37.351498430167005 ], [ -5.183681594227563, 37.352864544377532 ], [ -5.184421810195072, 37.352864544377532 ], [ -5.184421810195072, 37.354230633727354 ], [ -5.18516202616258, 37.354230633727354 ], [ -5.18516202616258, 37.355596698216182 ], [ -5.185902242130088, 37.355596698216182 ], [ -5.185902242130088, 37.356507394063563 ], [ -5.186642458097597, 37.356507394063563 ], [ -5.186642458097597, 37.358784085339906 ], [ -5.187382674065105, 37.358784085339906 ], [ -5.187382674065105, 37.366524319091468 ], [ -5.186642458097597, 37.366524319091468 ], [ -5.186642458097597, 37.36697960209586 ], [ -5.185902242130088, 37.36697960209586 ], [ -5.185902242130088, 37.367434882337584 ], [ -5.18516202616258, 37.367434882337584 ], [ -5.18516202616258, 37.368345434532955 ], [ -5.184421810195072, 37.368345434532955 ], [ -5.184421810195072, 37.368800706486589 ], [ -5.183681594227563, 37.368800706486589 ], [ -5.183681594227563, 37.369711242105694 ], [ -5.173318570682446, 37.369711242105694 ], [ -5.173318570682446, 37.368800706486589 ], [ -5.172578354714938, 37.368800706486589 ], [ -5.172578354714938, 37.367890159816611 ], [ -5.17183813874743, 37.367890159816611 ] ] ], [ [ [ -4.728448774209937, 37.55159611449443 ], [ -4.728448774209937, 37.551141954110889 ], [ -4.72770855824243, 37.551141954110889 ], [ -4.72770855824243, 37.550687790959891 ], [ -4.726968342274921, 37.550687790959891 ], [ -4.726968342274921, 37.550233625041443 ], [ -4.725487910339904, 37.550233625041443 ], [ -4.725487910339904, 37.549779456355559 ], [ -4.724747694372395, 37.549779456355559 ], [ -4.724747694372395, 37.549325284902253 ], [ -4.724007478404888, 37.549325284902253 ], [ -4.724007478404888, 37.547962753937895 ], [ -4.723267262437379, 37.547962753937895 ], [ -4.723267262437379, 37.545237617290262 ], [ -4.72252704646987, 37.545237617290262 ], [ -4.72252704646987, 37.542966593982797 ], [ -4.721786830502363, 37.542966593982797 ], [ -4.721786830502363, 37.540695501494071 ], [ -4.72252704646987, 37.540695501494071 ], [ -4.72252704646987, 37.539787045128158 ], [ -4.723267262437379, 37.539787045128158 ], [ -4.723267262437379, 37.538878577693573 ], [ -4.724007478404888, 37.538878577693573 ], [ -4.724007478404888, 37.537515855788129 ], [ -4.724747694372395, 37.537515855788129 ], [ -4.724747694372395, 37.536607360682268 ], [ -4.725487910339904, 37.536607360682268 ], [ -4.725487910339904, 37.536153108978688 ], [ -4.729929206144955, 37.536153108978688 ], [ -4.729929206144955, 37.536607360682268 ], [ -4.730669422112462, 37.536607360682268 ], [ -4.730669422112462, 37.537515855788129 ], [ -4.731409638079971, 37.537515855788129 ], [ -4.731409638079971, 37.538424339825546 ], [ -4.732149854047479, 37.538424339825546 ], [ -4.732149854047479, 37.539332812794434 ], [ -4.732890070014987, 37.539332812794434 ], [ -4.732890070014987, 37.540241274694701 ], [ -4.733630285982496, 37.540241274694701 ], [ -4.733630285982496, 37.540695501494071 ], [ -4.735110717917512, 37.540695501494071 ], [ -4.735110717917512, 37.541149725526246 ], [ -4.736591149852529, 37.541149725526246 ], [ -4.736591149852529, 37.541603946791213 ], [ -4.738071581787547, 37.541603946791213 ], [ -4.738071581787547, 37.543875011607611 ], [ -4.738811797755053, 37.543875011607611 ], [ -4.738811797755053, 37.546146007242164 ], [ -4.739552013722562, 37.546146007242164 ], [ -4.739552013722562, 37.547508571415001 ], [ -4.738811797755053, 37.547508571415001 ], [ -4.738811797755053, 37.549325284902253 ], [ -4.738071581787547, 37.549325284902253 ], [ -4.738071581787547, 37.550687790959891 ], [ -4.737331365820038, 37.550687790959891 ], [ -4.737331365820038, 37.551141954110889 ], [ -4.735850933885021, 37.551141954110889 ], [ -4.735850933885021, 37.55159611449443 ], [ -4.733630285982496, 37.55159611449443 ], [ -4.733630285982496, 37.552050272110492 ], [ -4.732149854047479, 37.552050272110492 ], [ -4.732149854047479, 37.552504426959068 ], [ -4.730669422112462, 37.552504426959068 ], [ -4.730669422112462, 37.552050272110492 ], [ -4.729929206144955, 37.552050272110492 ], [ -4.729929206144955, 37.55159611449443 ], [ -4.728448774209937, 37.55159611449443 ] ] ], [ [ [ -2.747630845157635, 39.238243124003994 ], [ -2.746890629190126, 39.238243124003994 ], [ -2.746890629190126, 39.237799436668141 ], [ -2.746150413222617, 39.237799436668141 ], [ -2.746150413222617, 39.236912053578493 ], [ -2.745410197255109, 39.236912053578493 ], [ -2.745410197255109, 39.231587519341595 ], [ -2.744669981287601, 39.231587519341595 ], [ -2.744669981287601, 39.22981258480759 ], [ -2.745410197255109, 39.22981258480759 ], [ -2.745410197255109, 39.228925100705581 ], [ -2.746150413222617, 39.228925100705581 ], [ -2.746150413222617, 39.228481354445861 ], [ -2.746890629190126, 39.228481354445861 ], [ -2.746890629190126, 39.227593853509021 ], [ -2.747630845157635, 39.227593853509021 ], [ -2.747630845157635, 39.227150098831927 ], [ -2.748371061125142, 39.227150098831927 ], [ -2.748371061125142, 39.226706341349043 ], [ -2.749111277092651, 39.226706341349043 ], [ -2.749111277092651, 39.225818817966015 ], [ -2.749851493060159, 39.225818817966015 ], [ -2.749851493060159, 39.225375052065871 ], [ -2.753552572897701, 39.225375052065871 ], [ -2.753552572897701, 39.225818817966015 ], [ -2.756513436767734, 39.225818817966015 ], [ -2.756513436767734, 39.226262581060411 ], [ -2.758734084670259, 39.226262581060411 ], [ -2.758734084670259, 39.227150098831927 ], [ -2.759474300637768, 39.227150098831927 ], [ -2.759474300637768, 39.227593853509021 ], [ -2.760214516605276, 39.227593853509021 ], [ -2.760214516605276, 39.228481354445861 ], [ -2.760954732572784, 39.228481354445861 ], [ -2.760954732572784, 39.229368844159495 ], [ -2.761694948540292, 39.229368844159495 ], [ -2.761694948540292, 39.231143789916864 ], [ -2.760954732572784, 39.231143789916864 ], [ -2.760954732572784, 39.237355746526305 ], [ -2.760214516605276, 39.237355746526305 ], [ -2.760214516605276, 39.238243124003994 ], [ -2.759474300637768, 39.238243124003994 ], [ -2.759474300637768, 39.238686808533849 ], [ -2.758734084670259, 39.238686808533849 ], [ -2.758734084670259, 39.239574169175533 ], [ -2.748371061125142, 39.239574169175533 ], [ -2.748371061125142, 39.239130490257701 ], [ -2.747630845157635, 39.239130490257701 ], [ -2.747630845157635, 39.238243124003994 ] ] ], [ [ [ -2.217636212421667, 43.045762894770256 ], [ -2.216895996454158, 43.045762894770256 ], [ -2.216895996454158, 43.045344248849148 ], [ -2.21615578048665, 43.045344248849148 ], [ -2.21615578048665, 43.044925600070989 ], [ -2.215415564519142, 43.044925600070989 ], [ -2.215415564519142, 43.044506948435782 ], [ -2.214675348551634, 43.044506948435782 ], [ -2.214675348551634, 43.043669636594203 ], [ -2.213935132584125, 43.043669636594203 ], [ -2.213935132584125, 43.04241364740399 ], [ -2.213194916616617, 43.04241364740399 ], [ -2.213194916616617, 43.038226831062964 ], [ -2.212454700649109, 43.038226831062964 ], [ -2.212454700649109, 43.033202274328815 ], [ -2.213194916616617, 43.033202274328815 ], [ -2.213194916616617, 43.031527330660673 ], [ -2.213935132584125, 43.031527330660673 ], [ -2.213935132584125, 43.031108587601217 ], [ -2.214675348551634, 43.031108587601217 ], [ -2.214675348551634, 43.030689841684811 ], [ -2.215415564519142, 43.030689841684811 ], [ -2.215415564519142, 43.030271092911441 ], [ -2.21615578048665, 43.030271092911441 ], [ -2.21615578048665, 43.029852341281128 ], [ -2.217636212421667, 43.029852341281128 ], [ -2.217636212421667, 43.029433586793843 ], [ -2.218376428389175, 43.029433586793843 ], [ -2.218376428389175, 43.029014829449622 ], [ -2.219856860324191, 43.029014829449622 ], [ -2.219856860324191, 43.028596069248458 ], [ -2.221337292259209, 43.028596069248458 ], [ -2.221337292259209, 43.029014829449622 ], [ -2.222077508226717, 43.029014829449622 ], [ -2.222077508226717, 43.029433586793843 ], [ -2.222817724194225, 43.029433586793843 ], [ -2.222817724194225, 43.029852341281128 ], [ -2.224298156129242, 43.029852341281128 ], [ -2.224298156129242, 43.030271092911441 ], [ -2.22503837209675, 43.030271092911441 ], [ -2.22503837209675, 43.031108587601217 ], [ -2.225778588064259, 43.031108587601217 ], [ -2.225778588064259, 43.034458452081701 ], [ -2.226518804031767, 43.034458452081701 ], [ -2.226518804031767, 43.039064217187324 ], [ -2.225778588064259, 43.039064217187324 ], [ -2.225778588064259, 43.040738955151873 ], [ -2.22503837209675, 43.040738955151873 ], [ -2.22503837209675, 43.04241364740399 ], [ -2.224298156129242, 43.04241364740399 ], [ -2.224298156129242, 43.044506948435782 ], [ -2.223557940161733, 43.044506948435782 ], [ -2.223557940161733, 43.045344248849148 ], [ -2.222077508226717, 43.045344248849148 ], [ -2.222077508226717, 43.045762894770256 ], [ -2.221337292259209, 43.045762894770256 ], [ -2.221337292259209, 43.0461815378343 ], [ -2.219856860324191, 43.0461815378343 ], [ -2.219856860324191, 43.046600178041274 ], [ -2.218376428389175, 43.046600178041274 ], [ -2.218376428389175, 43.0461815378343 ], [ -2.217636212421667, 43.0461815378343 ], [ -2.217636212421667, 43.045762894770256 ] ] ], [ [ [ -5.725519682443664, 43.537358307341755 ], [ -5.725519682443664, 43.536943031704851 ], [ -5.724039250508648, 43.536943031704851 ], [ -5.724039250508648, 43.536527753207956 ], [ -5.72255881857363, 43.536527753207956 ], [ -5.72255881857363, 43.535697187634213 ], [ -5.721818602606122, 43.535697187634213 ], [ -5.721818602606122, 43.534451317823752 ], [ -5.721078386638613, 43.534451317823752 ], [ -5.721078386638613, 43.533205422273518 ], [ -5.720338170671106, 43.533205422273518 ], [ -5.720338170671106, 43.53237481094019 ], [ -5.719597954703597, 43.53237481094019 ], [ -5.719597954703597, 43.531128872490477 ], [ -5.718857738736089, 43.531128872490477 ], [ -5.718857738736089, 43.529882908301154 ], [ -5.718117522768581, 43.529882908301154 ], [ -5.718117522768581, 43.529052251208505 ], [ -5.717377306801072, 43.529052251208505 ], [ -5.717377306801072, 43.527806244119944 ], [ -5.716637090833564, 43.527806244119944 ], [ -5.716637090833564, 43.526560211291923 ], [ -5.715896874866057, 43.526560211291923 ], [ -5.715896874866057, 43.525729508440229 ], [ -5.715156658898548, 43.525729508440229 ], [ -5.715156658898548, 43.523652701262279 ], [ -5.715896874866057, 43.523652701262279 ], [ -5.715896874866057, 43.522406582636464 ], [ -5.716637090833564, 43.522406582636464 ], [ -5.716637090833564, 43.521160438271444 ], [ -5.717377306801072, 43.521160438271444 ], [ -5.717377306801072, 43.520329661061893 ], [ -5.718117522768581, 43.520329661061893 ], [ -5.718117522768581, 43.519498872412733 ], [ -5.718857738736089, 43.519498872412733 ], [ -5.718857738736089, 43.519083473798304 ], [ -5.720338170671106, 43.519083473798304 ], [ -5.720338170671106, 43.518668072323983 ], [ -5.721078386638613, 43.518668072323983 ], [ -5.721078386638613, 43.518252667989771 ], [ -5.72255881857363, 43.518252667989771 ], [ -5.72255881857363, 43.517837260795666 ], [ -5.723299034541139, 43.517837260795666 ], [ -5.723299034541139, 43.51742185074167 ], [ -5.724039250508648, 43.51742185074167 ], [ -5.724039250508648, 43.517006437827789 ], [ -5.725519682443664, 43.517006437827789 ], [ -5.725519682443664, 43.516591022054023 ], [ -5.726259898411173, 43.516591022054023 ], [ -5.726259898411173, 43.516175603420372 ], [ -5.727740330346189, 43.516175603420372 ], [ -5.727740330346189, 43.515760181926844 ], [ -5.728480546313697, 43.515760181926844 ], [ -5.728480546313697, 43.51534475757343 ], [ -5.729220762281205, 43.51534475757343 ], [ -5.729220762281205, 43.514929330360154 ], [ -5.730701194216222, 43.514929330360154 ], [ -5.730701194216222, 43.514513900287 ], [ -5.73144141018373, 43.514513900287 ], [ -5.73144141018373, 43.514929330360154 ], [ -5.732921842118747, 43.514929330360154 ], [ -5.732921842118747, 43.51534475757343 ], [ -5.733662058086256, 43.51534475757343 ], [ -5.733662058086256, 43.515760181926844 ], [ -5.735142490021273, 43.515760181926844 ], [ -5.735142490021273, 43.516175603420372 ], [ -5.73662292195629, 43.516175603420372 ], [ -5.73662292195629, 43.516591022054023 ], [ -5.737363137923798, 43.516591022054023 ], [ -5.737363137923798, 43.517006437827789 ], [ -5.738843569858814, 43.517006437827789 ], [ -5.738843569858814, 43.51742185074167 ], [ -5.74032400179383, 43.51742185074167 ], [ -5.74032400179383, 43.517837260795666 ], [ -5.741804433728848, 43.517837260795666 ], [ -5.741804433728848, 43.518668072323983 ], [ -5.742544649696356, 43.518668072323983 ], [ -5.742544649696356, 43.519083473798304 ], [ -5.743284865663864, 43.519083473798304 ], [ -5.743284865663864, 43.519914268167263 ], [ -5.744025081631372, 43.519914268167263 ], [ -5.744025081631372, 43.520745051096618 ], [ -5.744765297598882, 43.520745051096618 ], [ -5.744765297598882, 43.524068068417712 ], [ -5.744025081631372, 43.524068068417712 ], [ -5.744025081631372, 43.527806244119944 ], [ -5.743284865663864, 43.527806244119944 ], [ -5.743284865663864, 43.529052251208505 ], [ -5.742544649696356, 43.529052251208505 ], [ -5.742544649696356, 43.530298232557548 ], [ -5.741804433728848, 43.530298232557548 ], [ -5.741804433728848, 43.531544188167018 ], [ -5.741064217761339, 43.531544188167018 ], [ -5.741064217761339, 43.532790118036843 ], [ -5.74032400179383, 43.532790118036843 ], [ -5.74032400179383, 43.533620723650237 ], [ -5.739583785826321, 43.533620723650237 ], [ -5.739583785826321, 43.53403602216698 ], [ -5.738843569858814, 43.53403602216698 ], [ -5.738843569858814, 43.534451317823752 ], [ -5.737363137923798, 43.534451317823752 ], [ -5.737363137923798, 43.534866610620547 ], [ -5.73662292195629, 43.534866610620547 ], [ -5.73662292195629, 43.535281900557365 ], [ -5.73588270598878, 43.535281900557365 ], [ -5.73588270598878, 43.535697187634213 ], [ -5.735142490021273, 43.535697187634213 ], [ -5.735142490021273, 43.536112471851069 ], [ -5.734402274053765, 43.536112471851069 ], [ -5.734402274053765, 43.536527753207956 ], [ -5.733662058086256, 43.536527753207956 ], [ -5.733662058086256, 43.536943031704851 ], [ -5.732921842118747, 43.536943031704851 ], [ -5.732921842118747, 43.537358307341755 ], [ -5.732181626151239, 43.537358307341755 ], [ -5.732181626151239, 43.537773580118674 ], [ -5.73144141018373, 43.537773580118674 ], [ -5.73144141018373, 43.538188850035603 ], [ -5.729220762281205, 43.538188850035603 ], [ -5.729220762281205, 43.537773580118674 ], [ -5.727000114378681, 43.537773580118674 ], [ -5.727000114378681, 43.537358307341755 ], [ -5.725519682443664, 43.537358307341755 ] ] ], [ [ [ -5.840253157407456, 43.550645617637002 ], [ -5.840253157407456, 43.550230433520795 ], [ -5.83877272547244, 43.550230433520795 ], [ -5.83877272547244, 43.549815246544526 ], [ -5.836552077569914, 43.549815246544526 ], [ -5.836552077569914, 43.549400056708208 ], [ -5.835071645634897, 43.549400056708208 ], [ -5.835071645634897, 43.548984864011857 ], [ -5.832850997732372, 43.548984864011857 ], [ -5.832850997732372, 43.548569668455436 ], [ -5.831370565797356, 43.548569668455436 ], [ -5.831370565797356, 43.54815447003898 ], [ -5.829149917894831, 43.54815447003898 ], [ -5.829149917894831, 43.54773926876247 ], [ -5.827669485959815, 43.54773926876247 ], [ -5.827669485959815, 43.547324064625933 ], [ -5.82544883805729, 43.547324064625933 ], [ -5.82544883805729, 43.546908857629347 ], [ -5.823228190154764, 43.546908857629347 ], [ -5.823228190154764, 43.546493647772721 ], [ -5.822487974187256, 43.546493647772721 ], [ -5.822487974187256, 43.54607843505606 ], [ -5.821747758219748, 43.54607843505606 ], [ -5.821747758219748, 43.545248001042651 ], [ -5.821007542252239, 43.545248001042651 ], [ -5.821007542252239, 43.544417555589114 ], [ -5.82026732628473, 43.544417555589114 ], [ -5.82026732628473, 43.543171865958641 ], [ -5.819527110317222, 43.543171865958641 ], [ -5.819527110317222, 43.542341391904877 ], [ -5.818786894349714, 43.542341391904877 ], [ -5.818786894349714, 43.541510906411077 ], [ -5.818046678382206, 43.541510906411077 ], [ -5.818046678382206, 43.540265156720295 ], [ -5.817306462414698, 43.540265156720295 ], [ -5.817306462414698, 43.539434642626411 ], [ -5.816566246447189, 43.539434642626411 ], [ -5.816566246447189, 43.53860411709254 ], [ -5.815826030479681, 43.53860411709254 ], [ -5.815826030479681, 43.537358307341755 ], [ -5.815085814512173, 43.537358307341755 ], [ -5.815085814512173, 43.536527753207956 ], [ -5.815826030479681, 43.536527753207956 ], [ -5.815826030479681, 43.535281900557365 ], [ -5.816566246447189, 43.535281900557365 ], [ -5.816566246447189, 43.53403602216698 ], [ -5.817306462414698, 43.53403602216698 ], [ -5.817306462414698, 43.533205422273518 ], [ -5.818046678382206, 43.533205422273518 ], [ -5.818046678382206, 43.531959500983589 ], [ -5.821007542252239, 43.531959500983589 ], [ -5.821007542252239, 43.53237481094019 ], [ -5.823968406122273, 43.53237481094019 ], [ -5.823968406122273, 43.531959500983589 ], [ -5.82544883805729, 43.531959500983589 ], [ -5.82544883805729, 43.531544188167018 ], [ -5.826189054024797, 43.531544188167018 ], [ -5.826189054024797, 43.531128872490477 ], [ -5.827669485959815, 43.531128872490477 ], [ -5.827669485959815, 43.530713553953994 ], [ -5.829149917894831, 43.530713553953994 ], [ -5.829149917894831, 43.531128872490477 ], [ -5.831370565797356, 43.531128872490477 ], [ -5.831370565797356, 43.531544188167018 ], [ -5.832850997732372, 43.531544188167018 ], [ -5.832850997732372, 43.531959500983589 ], [ -5.835071645634897, 43.531959500983589 ], [ -5.835071645634897, 43.53237481094019 ], [ -5.837292293537423, 43.53237481094019 ], [ -5.837292293537423, 43.532790118036843 ], [ -5.839512941439948, 43.532790118036843 ], [ -5.839512941439948, 43.533205422273518 ], [ -5.841733589342473, 43.533205422273518 ], [ -5.841733589342473, 43.532790118036843 ], [ -5.842473805309981, 43.532790118036843 ], [ -5.842473805309981, 43.53237481094019 ], [ -5.843954237244998, 43.53237481094019 ], [ -5.843954237244998, 43.531959500983589 ], [ -5.846174885147523, 43.531959500983589 ], [ -5.846174885147523, 43.53237481094019 ], [ -5.846915101115031, 43.53237481094019 ], [ -5.846915101115031, 43.533205422273518 ], [ -5.847655317082539, 43.533205422273518 ], [ -5.847655317082539, 43.533620723650237 ], [ -5.848395533050048, 43.533620723650237 ], [ -5.848395533050048, 43.53403602216698 ], [ -5.849135749017555, 43.53403602216698 ], [ -5.849135749017555, 43.534451317823752 ], [ -5.849875964985064, 43.534451317823752 ], [ -5.849875964985064, 43.535281900557365 ], [ -5.850616180952573, 43.535281900557365 ], [ -5.850616180952573, 43.539019381289471 ], [ -5.85135639692008, 43.539019381289471 ], [ -5.85135639692008, 43.542756630361758 ], [ -5.852096612887589, 43.542756630361758 ], [ -5.852096612887589, 43.546493647772721 ], [ -5.85135639692008, 43.546493647772721 ], [ -5.85135639692008, 43.54815447003898 ], [ -5.850616180952573, 43.54815447003898 ], [ -5.850616180952573, 43.549815246544526 ], [ -5.849875964985064, 43.549815246544526 ], [ -5.849875964985064, 43.550230433520795 ], [ -5.849135749017555, 43.550230433520795 ], [ -5.849135749017555, 43.550645617637002 ], [ -5.847655317082539, 43.550645617637002 ], [ -5.847655317082539, 43.551060798893154 ], [ -5.846915101115031, 43.551060798893154 ], [ -5.846915101115031, 43.551475977289243 ], [ -5.844694453212505, 43.551475977289243 ], [ -5.844694453212505, 43.551060798893154 ], [ -5.842473805309981, 43.551060798893154 ], [ -5.842473805309981, 43.550645617637002 ], [ -5.840253157407456, 43.550645617637002 ] ] ], [ [ [ 0.541888914449404, 35.790126796138338 ], [ 0.54336934638442, 35.790126796138338 ], [ 0.54336934638442, 35.789662118356006 ], [ 0.544109562351929, 35.789662118356006 ], [ 0.544109562351929, 35.789197437856686 ], [ 0.544849778319437, 35.789197437856686 ], [ 0.544849778319437, 35.788732754640378 ], [ 0.546330210254454, 35.788732754640378 ], [ 0.546330210254454, 35.787803380056921 ], [ 0.547070426221962, 35.787803380056921 ], [ 0.547070426221962, 35.786409297804781 ], [ 0.54781064218947, 35.786409297804781 ], [ 0.54781064218947, 35.782691625590473 ], [ 0.547070426221962, 35.782691625590473 ], [ 0.547070426221962, 35.78083272428038 ], [ 0.546330210254454, 35.78083272428038 ], [ 0.546330210254454, 35.77897377950292 ], [ 0.545589994286945, 35.77897377950292 ], [ 0.545589994286945, 35.777579542394932 ], [ 0.544109562351929, 35.777579542394932 ], [ 0.544109562351929, 35.777114791259052 ], [ 0.54336934638442, 35.777114791259052 ], [ 0.54336934638442, 35.776650037406554 ], [ 0.541888914449404, 35.776650037406554 ], [ 0.541888914449404, 35.776185280837481 ], [ 0.540408482514387, 35.776185280837481 ], [ 0.540408482514387, 35.775720521551847 ], [ 0.53892805057937, 35.775720521551847 ], [ 0.53892805057937, 35.776185280837481 ], [ 0.538187834611862, 35.776185280837481 ], [ 0.538187834611862, 35.776650037406554 ], [ 0.536707402676845, 35.776650037406554 ], [ 0.536707402676845, 35.777114791259052 ], [ 0.535226970741829, 35.777114791259052 ], [ 0.535226970741829, 35.777579542394932 ], [ 0.53448675477432, 35.777579542394932 ], [ 0.53448675477432, 35.778044290814222 ], [ 0.533746538806812, 35.778044290814222 ], [ 0.533746538806812, 35.779903257325017 ], [ 0.533006322839304, 35.779903257325017 ], [ 0.533006322839304, 35.784550483432255 ], [ 0.533746538806812, 35.784550483432255 ], [ 0.533746538806812, 35.788268068707133 ], [ 0.53448675477432, 35.788268068707133 ], [ 0.53448675477432, 35.788732754640378 ], [ 0.535226970741829, 35.788732754640378 ], [ 0.535226970741829, 35.789197437856686 ], [ 0.535967186709337, 35.789197437856686 ], [ 0.535967186709337, 35.789662118356006 ], [ 0.536707402676845, 35.789662118356006 ], [ 0.536707402676845, 35.790126796138338 ], [ 0.537447618644354, 35.790126796138338 ], [ 0.537447618644354, 35.790591471203676 ], [ 0.538187834611862, 35.790591471203676 ], [ 0.538187834611862, 35.791056143551991 ], [ 0.53892805057937, 35.791056143551991 ], [ 0.53892805057937, 35.791520813183269 ], [ 0.539668266546879, 35.791520813183269 ], [ 0.539668266546879, 35.791056143551991 ], [ 0.541148698481895, 35.791056143551991 ], [ 0.541148698481895, 35.790591471203676 ], [ 0.541888914449404, 35.790591471203676 ], [ 0.541888914449404, 35.790126796138338 ] ] ], [ [ [ 1.246574515517338, 36.132779789514281 ], [ 1.247314731484846, 36.132779789514281 ], [ 1.247314731484846, 36.131854454851599 ], [ 1.248054947452355, 36.131854454851599 ], [ 1.248054947452355, 36.130929109278505 ], [ 1.248795163419863, 36.130929109278505 ], [ 1.248795163419863, 36.130003752795091 ], [ 1.249535379387371, 36.130003752795091 ], [ 1.249535379387371, 36.129078385401499 ], [ 1.25027559535488, 36.129078385401499 ], [ 1.25027559535488, 36.123525951932208 ], [ 1.249535379387371, 36.123525951932208 ], [ 1.249535379387371, 36.122600508170429 ], [ 1.248795163419863, 36.122600508170429 ], [ 1.248795163419863, 36.121675053499345 ], [ 1.248054947452355, 36.121675053499345 ], [ 1.248054947452355, 36.121212322072857 ], [ 1.247314731484846, 36.121212322072857 ], [ 1.247314731484846, 36.120749587919107 ], [ 1.245834299549829, 36.120749587919107 ], [ 1.245834299549829, 36.120286851038067 ], [ 1.242133219712288, 36.120286851038067 ], [ 1.242133219712288, 36.119824111429786 ], [ 1.238432139874746, 36.119824111429786 ], [ 1.238432139874746, 36.119361369094264 ], [ 1.236951707939729, 36.119361369094264 ], [ 1.236951707939729, 36.119824111429786 ], [ 1.236211491972221, 36.119824111429786 ], [ 1.236211491972221, 36.121212322072857 ], [ 1.235471276004713, 36.121212322072857 ], [ 1.235471276004713, 36.122137782198543 ], [ 1.234731060037205, 36.122137782198543 ], [ 1.234731060037205, 36.123525951932208 ], [ 1.233990844069696, 36.123525951932208 ], [ 1.233990844069696, 36.130466432400581 ], [ 1.234731060037205, 36.130466432400581 ], [ 1.234731060037205, 36.130929109278505 ], [ 1.235471276004713, 36.130929109278505 ], [ 1.235471276004713, 36.131854454851599 ], [ 1.236211491972221, 36.131854454851599 ], [ 1.236211491972221, 36.132317123546741 ], [ 1.236951707939729, 36.132317123546741 ], [ 1.236951707939729, 36.132779789514281 ], [ 1.237691923907238, 36.132779789514281 ], [ 1.237691923907238, 36.133242452754182 ], [ 1.238432139874746, 36.133242452754182 ], [ 1.238432139874746, 36.13370511326643 ], [ 1.239172355842254, 36.13370511326643 ], [ 1.239172355842254, 36.13463042610794 ], [ 1.239912571809763, 36.13463042610794 ], [ 1.239912571809763, 36.135093078437173 ], [ 1.245094083582321, 36.135093078437173 ], [ 1.245094083582321, 36.13463042610794 ], [ 1.245834299549829, 36.13463042610794 ], [ 1.245834299549829, 36.13370511326643 ], [ 1.246574515517338, 36.13370511326643 ], [ 1.246574515517338, 36.132779789514281 ] ] ], [ [ [ 3.744063189890458, 36.186430528374551 ], [ 3.744803405857966, 36.186430528374551 ], [ 3.744803405857966, 36.185968178906165 ], [ 3.745543621825474, 36.185968178906165 ], [ 3.745543621825474, 36.186430528374551 ], [ 3.747024053760491, 36.186430528374551 ], [ 3.747024053760491, 36.186892875113685 ], [ 3.749244701663016, 36.186892875113685 ], [ 3.749244701663016, 36.187355219123539 ], [ 3.751465349565541, 36.187355219123539 ], [ 3.751465349565541, 36.187817560404099 ], [ 3.752945781500558, 36.187817560404099 ], [ 3.752945781500558, 36.187355219123539 ], [ 3.753685997468065, 36.187355219123539 ], [ 3.753685997468065, 36.186892875113685 ], [ 3.754426213435575, 36.186892875113685 ], [ 3.754426213435575, 36.185968178906165 ], [ 3.755166429403083, 36.185968178906165 ], [ 3.755166429403083, 36.185043471781654 ], [ 3.755906645370591, 36.185043471781654 ], [ 3.755906645370591, 36.184118753740272 ], [ 3.756646861338099, 36.184118753740272 ], [ 3.756646861338099, 36.183656390625785 ], [ 3.757387077305608, 36.183656390625785 ], [ 3.757387077305608, 36.181344534115965 ], [ 3.756646861338099, 36.181344534115965 ], [ 3.756646861338099, 36.175795800126778 ], [ 3.755906645370591, 36.175795800126778 ], [ 3.755906645370591, 36.173483711649958 ], [ 3.755166429403083, 36.173483711649958 ], [ 3.755166429403083, 36.173021285767938 ], [ 3.754426213435575, 36.173021285767938 ], [ 3.754426213435575, 36.17209642581733 ], [ 3.753685997468065, 36.17209642581733 ], [ 3.753685997468065, 36.171171554951435 ], [ 3.749984917630524, 36.171171554951435 ], [ 3.749984917630524, 36.171633991748799 ], [ 3.744063189890458, 36.171633991748799 ], [ 3.744063189890458, 36.17209642581733 ], [ 3.742582757955441, 36.17209642581733 ], [ 3.742582757955441, 36.173483711649958 ], [ 3.741842541987933, 36.173483711649958 ], [ 3.741842541987933, 36.174408555227394 ], [ 3.741102326020424, 36.174408555227394 ], [ 3.741102326020424, 36.175795800126778 ], [ 3.740362110052916, 36.175795800126778 ], [ 3.740362110052916, 36.176720616415025 ], [ 3.739621894085408, 36.176720616415025 ], [ 3.739621894085408, 36.178107820380092 ], [ 3.738881678117899, 36.178107820380092 ], [ 3.738881678117899, 36.178570216243784 ], [ 3.738141462150391, 36.178570216243784 ], [ 3.738141462150391, 36.17903260937846 ], [ 3.737401246182882, 36.17903260937846 ], [ 3.737401246182882, 36.17949499978409 ], [ 3.736661030215375, 36.17949499978409 ], [ 3.736661030215375, 36.179957387460668 ], [ 3.735920814247866, 36.179957387460668 ], [ 3.735920814247866, 36.180419772408193 ], [ 3.735180598280357, 36.180419772408193 ], [ 3.735180598280357, 36.185505826708528 ], [ 3.735920814247866, 36.185505826708528 ], [ 3.735920814247866, 36.186430528374551 ], [ 3.736661030215375, 36.186430528374551 ], [ 3.736661030215375, 36.186892875113685 ], [ 3.737401246182882, 36.186892875113685 ], [ 3.737401246182882, 36.187817560404099 ], [ 3.738141462150391, 36.187817560404099 ], [ 3.738141462150391, 36.188279898955365 ], [ 3.742582757955441, 36.188279898955365 ], [ 3.742582757955441, 36.187817560404099 ], [ 3.743322973922949, 36.187817560404099 ], [ 3.743322973922949, 36.187355219123539 ], [ 3.744063189890458, 36.187355219123539 ], [ 3.744063189890458, 36.186430528374551 ] ] ], [ [ [ 2.88985396338584, 36.610633967666281 ], [ 2.88985396338584, 36.61017413493235 ], [ 2.890594179353348, 36.61017413493235 ], [ 2.890594179353348, 36.606495374357721 ], [ 2.891334395320857, 36.606495374357721 ], [ 2.891334395320857, 36.605115793904091 ], [ 2.892814827255873, 36.605115793904091 ], [ 2.892814827255873, 36.605575656796958 ], [ 2.893555043223381, 36.605575656796958 ], [ 2.893555043223381, 36.606035516948175 ], [ 2.895035475158398, 36.606035516948175 ], [ 2.895035475158398, 36.605575656796958 ], [ 2.895775691125907, 36.605575656796958 ], [ 2.895775691125907, 36.605115793904091 ], [ 2.896515907093415, 36.605115793904091 ], [ 2.896515907093415, 36.604655928269572 ], [ 2.897256123060923, 36.604655928269572 ], [ 2.897256123060923, 36.604196059893432 ], [ 2.897996339028431, 36.604196059893432 ], [ 2.897996339028431, 36.603736188775677 ], [ 2.89873655499594, 36.603736188775677 ], [ 2.89873655499594, 36.603276314916315 ], [ 2.899476770963448, 36.603276314916315 ], [ 2.899476770963448, 36.602816438315351 ], [ 2.900216986930956, 36.602816438315351 ], [ 2.900216986930956, 36.602356558972815 ], [ 2.901697418865973, 36.602356558972815 ], [ 2.901697418865973, 36.601896676888721 ], [ 2.902437634833482, 36.601896676888721 ], [ 2.902437634833482, 36.600057121136963 ], [ 2.90317785080099, 36.600057121136963 ], [ 2.90317785080099, 36.598217521521264 ], [ 2.903918066768498, 36.598217521521264 ], [ 2.903918066768498, 36.597757614763687 ], [ 2.90317785080099, 36.597757614763687 ], [ 2.90317785080099, 36.596377878042439 ], [ 2.902437634833482, 36.596377878042439 ], [ 2.902437634833482, 36.595458039854627 ], [ 2.901697418865973, 36.595458039854627 ], [ 2.901697418865973, 36.594078262012708 ], [ 2.900957202898465, 36.594078262012708 ], [ 2.900957202898465, 36.593158396411461 ], [ 2.900216986930956, 36.593158396411461 ], [ 2.900216986930956, 36.592698459498877 ], [ 2.899476770963448, 36.592698459498877 ], [ 2.899476770963448, 36.593158396411461 ], [ 2.896515907093415, 36.593158396411461 ], [ 2.896515907093415, 36.593618330582743 ], [ 2.89429525919089, 36.593618330582743 ], [ 2.89429525919089, 36.594078262012708 ], [ 2.891334395320857, 36.594078262012708 ], [ 2.891334395320857, 36.594538190701364 ], [ 2.889113747418332, 36.594538190701364 ], [ 2.889113747418332, 36.596377878042439 ], [ 2.888373531450823, 36.596377878042439 ], [ 2.888373531450823, 36.598217521521264 ], [ 2.887633315483315, 36.598217521521264 ], [ 2.887633315483315, 36.596377878042439 ], [ 2.886893099515807, 36.596377878042439 ], [ 2.886893099515807, 36.594078262012708 ], [ 2.886152883548299, 36.594078262012708 ], [ 2.886152883548299, 36.592238519845012 ], [ 2.88541266758079, 36.592238519845012 ], [ 2.88541266758079, 36.591318632313481 ], [ 2.884672451613281, 36.591318632313481 ], [ 2.884672451613281, 36.590858684435844 ], [ 2.883932235645773, 36.590858684435844 ], [ 2.883932235645773, 36.590398733816969 ], [ 2.883192019678265, 36.590398733816969 ], [ 2.883192019678265, 36.58993878045689 ], [ 2.882451803710757, 36.58993878045689 ], [ 2.882451803710757, 36.589478824355602 ], [ 2.88097137177574, 36.589478824355602 ], [ 2.88097137177574, 36.589018865513104 ], [ 2.880231155808231, 36.589018865513104 ], [ 2.880231155808231, 36.588558903929453 ], [ 2.879490939840723, 36.588558903929453 ], [ 2.879490939840723, 36.588098939604613 ], [ 2.878010507905707, 36.588098939604613 ], [ 2.878010507905707, 36.588558903929453 ], [ 2.875049644035673, 36.588558903929453 ], [ 2.875049644035673, 36.589018865513104 ], [ 2.874309428068165, 36.589018865513104 ], [ 2.874309428068165, 36.589478824355602 ], [ 2.873569212100656, 36.589478824355602 ], [ 2.873569212100656, 36.58993878045689 ], [ 2.872828996133148, 36.58993878045689 ], [ 2.872828996133148, 36.590398733816969 ], [ 2.87208878016564, 36.590398733816969 ], [ 2.87208878016564, 36.590858684435844 ], [ 2.871348564198132, 36.590858684435844 ], [ 2.871348564198132, 36.591318632313481 ], [ 2.870608348230624, 36.591318632313481 ], [ 2.870608348230624, 36.591778577449873 ], [ 2.869868132263115, 36.591778577449873 ], [ 2.869868132263115, 36.592698459498877 ], [ 2.869127916295606, 36.592698459498877 ], [ 2.869127916295606, 36.594998116648675 ], [ 2.868387700328098, 36.594998116648675 ], [ 2.868387700328098, 36.597297705264687 ], [ 2.86764748436059, 36.597297705264687 ], [ 2.86764748436059, 36.600976904495894 ], [ 2.868387700328098, 36.600976904495894 ], [ 2.868387700328098, 36.602816438315351 ], [ 2.869127916295606, 36.602816438315351 ], [ 2.869127916295606, 36.604655928269572 ], [ 2.869868132263115, 36.604655928269572 ], [ 2.869868132263115, 36.605115793904091 ], [ 2.870608348230624, 36.605115793904091 ], [ 2.870608348230624, 36.605575656796958 ], [ 2.87208878016564, 36.605575656796958 ], [ 2.87208878016564, 36.606035516948175 ], [ 2.873569212100656, 36.606035516948175 ], [ 2.873569212100656, 36.606495374357721 ], [ 2.87653007597069, 36.606495374357721 ], [ 2.87653007597069, 36.606035516948175 ], [ 2.878010507905707, 36.606035516948175 ], [ 2.878010507905707, 36.605575656796958 ], [ 2.878750723873215, 36.605575656796958 ], [ 2.878750723873215, 36.605115793904091 ], [ 2.880231155808231, 36.605115793904091 ], [ 2.880231155808231, 36.604655928269572 ], [ 2.88097137177574, 36.604655928269572 ], [ 2.88097137177574, 36.605575656796958 ], [ 2.880231155808231, 36.605575656796958 ], [ 2.880231155808231, 36.607415080951746 ], [ 2.88097137177574, 36.607415080951746 ], [ 2.88097137177574, 36.608794620279923 ], [ 2.881711587743248, 36.608794620279923 ], [ 2.881711587743248, 36.61017413493235 ], [ 2.882451803710757, 36.61017413493235 ], [ 2.882451803710757, 36.610633967666281 ], [ 2.883192019678265, 36.610633967666281 ], [ 2.883192019678265, 36.611093797658391 ], [ 2.884672451613281, 36.611093797658391 ], [ 2.884672451613281, 36.611553624908673 ], [ 2.88541266758079, 36.611553624908673 ], [ 2.88541266758079, 36.612013449417155 ], [ 2.886893099515807, 36.612013449417155 ], [ 2.886893099515807, 36.611553624908673 ], [ 2.887633315483315, 36.611553624908673 ], [ 2.887633315483315, 36.611093797658391 ], [ 2.889113747418332, 36.611093797658391 ], [ 2.889113747418332, 36.610633967666281 ], [ 2.88985396338584, 36.610633967666281 ] ], [ [ 2.887633315483315, 36.598677425537396 ], [ 2.888373531450823, 36.598677425537396 ], [ 2.888373531450823, 36.600976904495894 ], [ 2.889113747418332, 36.600976904495894 ], [ 2.889113747418332, 36.601896676888721 ], [ 2.888373531450823, 36.601896676888721 ], [ 2.888373531450823, 36.601436792063076 ], [ 2.886152883548299, 36.601436792063076 ], [ 2.886152883548299, 36.600517014187183 ], [ 2.886893099515807, 36.600517014187183 ], [ 2.886893099515807, 36.598217521521264 ], [ 2.887633315483315, 36.598217521521264 ], [ 2.887633315483315, 36.598677425537396 ] ] ], [ [ [ 3.236275036179741, 36.635920545287931 ], [ 3.237015252147248, 36.635920545287931 ], [ 3.237015252147248, 36.635001178715243 ], [ 3.237755468114757, 36.635001178715243 ], [ 3.237755468114757, 36.634541491315147 ], [ 3.238495684082265, 36.634541491315147 ], [ 3.238495684082265, 36.634081801172542 ], [ 3.239235900049774, 36.634081801172542 ], [ 3.239235900049774, 36.633162412659935 ], [ 3.239976116017282, 36.633162412659935 ], [ 3.239976116017282, 36.632243013177515 ], [ 3.239235900049774, 36.632243013177515 ], [ 3.239235900049774, 36.625806909654813 ], [ 3.238495684082265, 36.625806909654813 ], [ 3.238495684082265, 36.625347167407384 ], [ 3.237755468114757, 36.625347167407384 ], [ 3.237755468114757, 36.624887422417736 ], [ 3.237015252147248, 36.624887422417736 ], [ 3.237015252147248, 36.624427674685869 ], [ 3.236275036179741, 36.624427674685869 ], [ 3.236275036179741, 36.623967924211811 ], [ 3.235534820212232, 36.623967924211811 ], [ 3.235534820212232, 36.623508170995557 ], [ 3.234794604244723, 36.623508170995557 ], [ 3.234794604244723, 36.623048415037132 ], [ 3.234054388277215, 36.623048415037132 ], [ 3.234054388277215, 36.622588656336532 ], [ 3.22739244456964, 36.622588656336532 ], [ 3.22739244456964, 36.623508170995557 ], [ 3.226652228602132, 36.623508170995557 ], [ 3.226652228602132, 36.623967924211811 ], [ 3.225912012634624, 36.623967924211811 ], [ 3.225912012634624, 36.624887422417736 ], [ 3.225171796667116, 36.624887422417736 ], [ 3.225171796667116, 36.633162412659935 ], [ 3.225912012634624, 36.633162412659935 ], [ 3.225912012634624, 36.635001178715243 ], [ 3.226652228602132, 36.635001178715243 ], [ 3.226652228602132, 36.635460863372849 ], [ 3.22739244456964, 36.635460863372849 ], [ 3.22739244456964, 36.636380224460474 ], [ 3.228132660537149, 36.636380224460474 ], [ 3.228132660537149, 36.637299574577931 ], [ 3.234794604244723, 36.637299574577931 ], [ 3.234794604244723, 36.636839900890493 ], [ 3.235534820212232, 36.636839900890493 ], [ 3.235534820212232, 36.636380224460474 ], [ 3.236275036179741, 36.636380224460474 ], [ 3.236275036179741, 36.635920545287931 ] ] ], [ [ [ 3.127463288956015, 36.687387561947112 ], [ 3.128203504923524, 36.687387561947112 ], [ 3.128203504923524, 36.68692818727758 ], [ 3.128943720891032, 36.68692818727758 ], [ 3.128943720891032, 36.68600942970653 ], [ 3.12968393685854, 36.68600942970653 ], [ 3.12968393685854, 36.685090661159613 ], [ 3.130424152826048, 36.685090661159613 ], [ 3.130424152826048, 36.684171881636921 ], [ 3.131164368793557, 36.684171881636921 ], [ 3.131164368793557, 36.683253091138575 ], [ 3.131904584761065, 36.683253091138575 ], [ 3.131904584761065, 36.682334289664659 ], [ 3.132644800728573, 36.682334289664659 ], [ 3.132644800728573, 36.681415477215303 ], [ 3.133385016696082, 36.681415477215303 ], [ 3.133385016696082, 36.680956066874856 ], [ 3.13412523266359, 36.680956066874856 ], [ 3.13412523266359, 36.678199547212365 ], [ 3.133385016696082, 36.678199547212365 ], [ 3.133385016696082, 36.67452403401316 ], [ 3.132644800728573, 36.67452403401316 ], [ 3.132644800728573, 36.674064582516735 ], [ 3.131164368793557, 36.674064582516735 ], [ 3.131164368793557, 36.673605128276698 ], [ 3.130424152826048, 36.673605128276698 ], [ 3.130424152826048, 36.673145671293035 ], [ 3.128943720891032, 36.673145671293035 ], [ 3.128943720891032, 36.672686211565782 ], [ 3.128203504923524, 36.672686211565782 ], [ 3.128203504923524, 36.672226749094932 ], [ 3.126723072988507, 36.672226749094932 ], [ 3.126723072988507, 36.671767283880513 ], [ 3.120061129280932, 36.671767283880513 ], [ 3.120061129280932, 36.672226749094932 ], [ 3.119320913313424, 36.672226749094932 ], [ 3.119320913313424, 36.672686211565782 ], [ 3.118580697345915, 36.672686211565782 ], [ 3.118580697345915, 36.673145671293035 ], [ 3.117840481378407, 36.673145671293035 ], [ 3.117840481378407, 36.673605128276698 ], [ 3.117100265410898, 36.673605128276698 ], [ 3.117100265410898, 36.674064582516735 ], [ 3.11636004944339, 36.674064582516735 ], [ 3.11636004944339, 36.674983482765938 ], [ 3.115619833475882, 36.674983482765938 ], [ 3.115619833475882, 36.675442928775055 ], [ 3.114879617508374, 36.675442928775055 ], [ 3.114879617508374, 36.675902372040525 ], [ 3.114139401540865, 36.675902372040525 ], [ 3.114139401540865, 36.676361812562291 ], [ 3.113399185573357, 36.676361812562291 ], [ 3.113399185573357, 36.676821250340389 ], [ 3.112658969605848, 36.676821250340389 ], [ 3.112658969605848, 36.677280685374775 ], [ 3.11191875363834, 36.677280685374775 ], [ 3.11191875363834, 36.677740117665422 ], [ 3.111178537670832, 36.677740117665422 ], [ 3.111178537670832, 36.679577819390644 ], [ 3.110438321703324, 36.679577819390644 ], [ 3.110438321703324, 36.681415477215303 ], [ 3.109698105735816, 36.681415477215303 ], [ 3.109698105735816, 36.682334289664659 ], [ 3.110438321703324, 36.682334289664659 ], [ 3.110438321703324, 36.684171881636921 ], [ 3.111178537670832, 36.684171881636921 ], [ 3.111178537670832, 36.685550046805048 ], [ 3.11191875363834, 36.685550046805048 ], [ 3.11191875363834, 36.68600942970653 ], [ 3.112658969605848, 36.68600942970653 ], [ 3.112658969605848, 36.686468809864046 ], [ 3.113399185573357, 36.686468809864046 ], [ 3.113399185573357, 36.68692818727758 ], [ 3.114139401540865, 36.68692818727758 ], [ 3.114139401540865, 36.687387561947112 ], [ 3.114879617508374, 36.687387561947112 ], [ 3.114879617508374, 36.687846933872635 ], [ 3.115619833475882, 36.687846933872635 ], [ 3.115619833475882, 36.688306303054155 ], [ 3.11636004944339, 36.688306303054155 ], [ 3.11636004944339, 36.688765669491623 ], [ 3.117840481378407, 36.688765669491623 ], [ 3.117840481378407, 36.689225033185046 ], [ 3.118580697345915, 36.689225033185046 ], [ 3.118580697345915, 36.689684394134424 ], [ 3.119320913313424, 36.689684394134424 ], [ 3.119320913313424, 36.689225033185046 ], [ 3.126723072988507, 36.689225033185046 ], [ 3.126723072988507, 36.688306303054155 ], [ 3.127463288956015, 36.688306303054155 ], [ 3.127463288956015, 36.687387561947112 ] ] ], [ [ [ 2.003075234310855, 41.411980948192124 ], [ 2.003075234310855, 41.411121697268769 ], [ 2.003815450278363, 41.411121697268769 ], [ 2.003815450278363, 41.410692067545178 ], [ 2.004555666245873, 41.410692067545178 ], [ 2.004555666245873, 41.409832799574154 ], [ 2.005295882213381, 41.409832799574154 ], [ 2.005295882213381, 41.404676953083538 ], [ 2.004555666245873, 41.404676953083538 ], [ 2.004555666245873, 41.403817605558082 ], [ 2.003815450278363, 41.403817605558082 ], [ 2.003815450278363, 41.402528562961002 ], [ 2.003075234310855, 41.402528562961002 ], [ 2.003075234310855, 41.401669187023749 ], [ 2.002335018343347, 41.401669187023749 ], [ 2.002335018343347, 41.400809799721856 ], [ 2.001594802375839, 41.400809799721856 ], [ 2.001594802375839, 41.399950401055364 ], [ 2.000854586408331, 41.399950401055364 ], [ 2.000854586408331, 41.399520697460403 ], [ 1.997893722538297, 41.399520697460403 ], [ 1.997893722538297, 41.399090991024323 ], [ 1.994932858668264, 41.399090991024323 ], [ 1.994932858668264, 41.399950401055364 ], [ 1.994192642700756, 41.399950401055364 ], [ 1.994192642700756, 41.400809799721856 ], [ 1.993452426733247, 41.400809799721856 ], [ 1.993452426733247, 41.401669187023749 ], [ 1.992712210765739, 41.401669187023749 ], [ 1.992712210765739, 41.402958246667872 ], [ 1.99197199479823, 41.402958246667872 ], [ 1.99197199479823, 41.403817605558082 ], [ 1.991231778830722, 41.403817605558082 ], [ 1.991231778830722, 41.408114229537027 ], [ 1.99197199479823, 41.408114229537027 ], [ 1.99197199479823, 41.409403161326757 ], [ 1.992712210765739, 41.409403161326757 ], [ 1.992712210765739, 41.410262434980304 ], [ 1.993452426733247, 41.410262434980304 ], [ 1.993452426733247, 41.411121697268769 ], [ 1.994192642700756, 41.411121697268769 ], [ 1.994192642700756, 41.411980948192124 ], [ 1.994932858668264, 41.411980948192124 ], [ 1.994932858668264, 41.412840187750334 ], [ 2.001594802375839, 41.412840187750334 ], [ 2.001594802375839, 41.412410569391874 ], [ 2.002335018343347, 41.412410569391874 ], [ 2.002335018343347, 41.411980948192124 ], [ 2.003075234310855, 41.411980948192124 ] ] ], [ [ [ 0.185104818110386, 41.933152185371853 ], [ 0.185104818110386, 41.932726025795461 ], [ 0.185845034077895, 41.932726025795461 ], [ 0.185845034077895, 41.932299863371739 ], [ 0.186585250045403, 41.932299863371739 ], [ 0.186585250045403, 41.931021359016711 ], [ 0.187325466012912, 41.931021359016711 ], [ 0.187325466012912, 41.929742829035931 ], [ 0.18806568198042, 41.929742829035931 ], [ 0.18806568198042, 41.928464273429555 ], [ 0.188805897947928, 41.928464273429555 ], [ 0.188805897947928, 41.92761188878891 ], [ 0.189546113915437, 41.92761188878891 ], [ 0.189546113915437, 41.926333290473444 ], [ 0.190286329882945, 41.926333290473444 ], [ 0.190286329882945, 41.925480877360194 ], [ 0.189546113915437, 41.925480877360194 ], [ 0.189546113915437, 41.923349794750358 ], [ 0.188805897947928, 41.923349794750358 ], [ 0.188805897947928, 41.92207111101775 ], [ 0.18806568198042, 41.92207111101775 ], [ 0.18806568198042, 41.921644877412461 ], [ 0.187325466012912, 41.921644877412461 ], [ 0.187325466012912, 41.921218640959964 ], [ 0.186585250045403, 41.921218640959964 ], [ 0.186585250045403, 41.920792401660272 ], [ 0.185104818110386, 41.920792401660272 ], [ 0.185104818110386, 41.920366159513392 ], [ 0.184364602142878, 41.920366159513392 ], [ 0.184364602142878, 41.919939914519318 ], [ 0.18362438617537, 41.919939914519318 ], [ 0.18362438617537, 41.919513666678057 ], [ 0.182884170207862, 41.919513666678057 ], [ 0.182884170207862, 41.919087415989608 ], [ 0.181403738272845, 41.919087415989608 ], [ 0.181403738272845, 41.918661162453994 ], [ 0.176962442467795, 41.918661162453994 ], [ 0.176962442467795, 41.919087415989608 ], [ 0.17474179456527, 41.919087415989608 ], [ 0.17474179456527, 41.919939914519318 ], [ 0.174001578597761, 41.919939914519318 ], [ 0.174001578597761, 41.921218640959964 ], [ 0.173261362630253, 41.921218640959964 ], [ 0.173261362630253, 41.92207111101775 ], [ 0.172521146662745, 41.92207111101775 ], [ 0.172521146662745, 41.923349794750358 ], [ 0.171780930695237, 41.923349794750358 ], [ 0.171780930695237, 41.925480877360194 ], [ 0.172521146662745, 41.925480877360194 ], [ 0.172521146662745, 41.928464273429555 ], [ 0.173261362630253, 41.928464273429555 ], [ 0.173261362630253, 41.931021359016711 ], [ 0.174001578597761, 41.931021359016711 ], [ 0.174001578597761, 41.931873698100702 ], [ 0.17474179456527, 41.931873698100702 ], [ 0.17474179456527, 41.932299863371739 ], [ 0.176222226500287, 41.932299863371739 ], [ 0.176222226500287, 41.932726025795461 ], [ 0.177702658435303, 41.932726025795461 ], [ 0.177702658435303, 41.933152185371853 ], [ 0.17918309037032, 41.933152185371853 ], [ 0.17918309037032, 41.933578342100922 ], [ 0.180663522305336, 41.933578342100922 ], [ 0.180663522305336, 41.934004495982656 ], [ 0.182884170207862, 41.934004495982656 ], [ 0.182884170207862, 41.933578342100922 ], [ 0.18362438617537, 41.933578342100922 ], [ 0.18362438617537, 41.933152185371853 ], [ 0.185104818110386, 41.933152185371853 ] ] ] ] } }
]
}
