{
"type": "FeatureCollection",
"name": "spain_fires_modis_ba",
"crs": { "type": "name", "properties": { "name": "urn:ogc:def:crs:OGC:1.3:CRS84" } },
"features": [
{ "type": "Feature", "properties": { }, "geometry": { "type": "Polygon", "coordinates": [ [ [ 0.270229654373845, 42.470807701384302 ], [ 0.27689159808142, 42.470807701384302 ], [ 0.27689159808142, 42.470385152799032 ], [ 0.278372030016437, 42.470385152799032 ], [ 0.278372030016437, 42.469962601361203 ], [ 0.28133289388647, 42.469962601361203 ], [ 0.28133289388647, 42.469540047070808 ], [ 0.282073109853978, 42.469540047070808 ], [ 0.282073109853978, 42.469117489927854 ], [ 0.282813325821487, 42.469117489927854 ], [ 0.282813325821487, 42.468694929932354 ], [ 0.283553541788995, 42.468694929932354 ], [ 0.283553541788995, 42.466159510055938 ], [ 0.282813325821487, 42.466159510055938 ], [ 0.282813325821487, 42.46531434727688 ], [ 0.28133289388647, 42.46531434727688 ], [ 0.28133289388647, 42.464891761608577 ], [ 0.279852461951453, 42.464891761608577 ], [ 0.279852461951453, 42.464469173087757 ], [ 0.279112245983945, 42.464469173087757 ], [ 0.279112245983945, 42.463623987488582 ], [ 0.278372030016437, 42.463623987488582 ], [ 0.278372030016437, 42.464469173087757 ], [ 0.277631814048928, 42.464469173087757 ], [ 0.277631814048928, 42.46531434727688 ], [ 0.27689159808142, 42.46531434727688 ], [ 0.27689159808142, 42.466582087166685 ], [ 0.276151382113912, 42.466582087166685 ], [ 0.276151382113912, 42.467004661424888 ], [ 0.274670950178895, 42.467004661424888 ], [ 0.274670950178895, 42.467427232830566 ], [ 0.27245030227637, 42.467427232830566 ], [ 0.27245030227637, 42.467004661424888 ], [ 0.270229654373845, 42.467004661424888 ], [ 0.270229654373845, 42.467427232830566 ], [ 0.269489438406337, 42.467427232830566 ], [ 0.269489438406337, 42.468694929932354 ], [ 0.268749222438828, 42.468694929932354 ], [ 0.268749222438828, 42.469962601361203 ], [ 0.269489438406337, 42.469962601361203 ], [ 0.269489438406337, 42.470385152799032 ], [ 0.270229654373845, 42.470385152799032 ], [ 0.270229654373845, 42.470807701384302 ] ] ] } }
]
}
