{
"type": "FeatureCollection",
"name": "spain_fires_nrt_ba",
"crs": { "type": "name", "properties": { "name": "urn:ogc:def:crs:OGC:1.3:CRS84" } },
"features": [
{ "type": "Feature", "properties": { }, "geometry": { "type": "MultiPolygon", "coordinates": [ [ [ [ -4.25174969113457, 40.329497151856543 ], [ -4.25174969113457, 40.329060445965617 ], [ -4.251009475167062, 40.329060445965617 ], [ -4.251009475167062, 40.327313594144591 ], [ -4.250269259199554, 40.327313594144591 ], [ -4.250269259199554, 40.324693231641845 ], [ -4.251009475167062, 40.324693231641845 ], [ -4.251009475167062, 40.322946266793195 ], [ -4.253230123069587, 40.322946266793195 ], [ -4.253230123069587, 40.32250951851691 ], [ -4.254710555004603, 40.32250951851691 ], [ -4.254710555004603, 40.322072767414994 ], [ -4.25619098693962, 40.322072767414994 ], [ -4.25619098693962, 40.321636013487449 ], [ -4.257671418874637, 40.321636013487449 ], [ -4.257671418874637, 40.321199256734289 ], [ -4.259151850809653, 40.321199256734289 ], [ -4.259151850809653, 40.320762497155513 ], [ -4.260632282744671, 40.320762497155513 ], [ -4.260632282744671, 40.320325734751137 ], [ -4.262112714679686, 40.320325734751137 ], [ -4.262112714679686, 40.318141880345401 ], [ -4.261372498712178, 40.318141880345401 ], [ -4.261372498712178, 40.317268318804118 ], [ -4.260632282744671, 40.317268318804118 ], [ -4.260632282744671, 40.316394745960643 ], [ -4.259892066777161, 40.316394745960643 ], [ -4.259892066777161, 40.315084365503942 ], [ -4.259151850809653, 40.315084365503942 ], [ -4.259151850809653, 40.314210764405232 ], [ -4.258411634842145, 40.314210764405232 ], [ -4.258411634842145, 40.310279419599652 ], [ -4.259151850809653, 40.310279419599652 ], [ -4.259151850809653, 40.309405756340674 ], [ -4.259892066777161, 40.309405756340674 ], [ -4.259892066777161, 40.308532081780008 ], [ -4.260632282744671, 40.308532081780008 ], [ -4.260632282744671, 40.308095240261558 ], [ -4.26507357854972, 40.308095240261558 ], [ -4.26507357854972, 40.32644015127979 ], [ -4.262112714679686, 40.32644015127979 ], [ -4.262112714679686, 40.326876874125034 ], [ -4.260632282744671, 40.326876874125034 ], [ -4.260632282744671, 40.327313594144591 ], [ -4.259892066777161, 40.327313594144591 ], [ -4.259892066777161, 40.327750311338427 ], [ -4.259151850809653, 40.327750311338427 ], [ -4.259151850809653, 40.328187025706555 ], [ -4.257671418874637, 40.328187025706555 ], [ -4.257671418874637, 40.328623737248954 ], [ -4.256931202907129, 40.328623737248954 ], [ -4.256931202907129, 40.329060445965617 ], [ -4.255450770972112, 40.329060445965617 ], [ -4.255450770972112, 40.329497151856543 ], [ -4.254710555004603, 40.329497151856543 ], [ -4.254710555004603, 40.32993385492172 ], [ -4.252489907102078, 40.32993385492172 ], [ -4.252489907102078, 40.329497151856543 ], [ -4.25174969113457, 40.329497151856543 ] ] ], [ [ [ -4.258411634842145, 40.346526477449807 ], [ -4.258411634842145, 40.346089881768265 ], [ -4.256931202907129, 40.346089881768265 ], [ -4.256931202907129, 40.345653283260717 ], [ -4.255450770972112, 40.345653283260717 ], [ -4.255450770972112, 40.345216681927148 ], [ -4.253970339037094, 40.345216681927148 ], [ -4.253970339037094, 40.344780077767581 ], [ -4.253230123069587, 40.344780077767581 ], [ -4.253230123069587, 40.344343470782029 ], [ -4.252489907102078, 40.344343470782029 ], [ -4.252489907102078, 40.343906860970478 ], [ -4.25174969113457, 40.343906860970478 ], [ -4.25174969113457, 40.343033632869449 ], [ -4.251009475167062, 40.343033632869449 ], [ -4.251009475167062, 40.342597014579979 ], [ -4.250269259199554, 40.342597014579979 ], [ -4.250269259199554, 40.341723769523171 ], [ -4.249529043232045, 40.341723769523171 ], [ -4.249529043232045, 40.337357374683528 ], [ -4.250269259199554, 40.337357374683528 ], [ -4.250269259199554, 40.336047401126777 ], [ -4.25174969113457, 40.336047401126777 ], [ -4.25174969113457, 40.335610737622801 ], [ -4.253970339037094, 40.335610737622801 ], [ -4.253970339037094, 40.336047401126777 ], [ -4.255450770972112, 40.336047401126777 ], [ -4.255450770972112, 40.336484061804882 ], [ -4.256931202907129, 40.336484061804882 ], [ -4.256931202907129, 40.336920719657151 ], [ -4.258411634842145, 40.336920719657151 ], [ -4.258411634842145, 40.337357374683528 ], [ -4.261372498712178, 40.337357374683528 ], [ -4.261372498712178, 40.336920719657151 ], [ -4.262112714679686, 40.336920719657151 ], [ -4.262112714679686, 40.335610737622801 ], [ -4.262852930647195, 40.335610737622801 ], [ -4.262852930647195, 40.334300730155832 ], [ -4.263593146614703, 40.334300730155832 ], [ -4.263593146614703, 40.333864055348521 ], [ -4.26507357854972, 40.333864055348521 ], [ -4.26507357854972, 40.345216681927148 ], [ -4.263593146614703, 40.345216681927148 ], [ -4.263593146614703, 40.345653283260717 ], [ -4.262112714679686, 40.345653283260717 ], [ -4.262112714679686, 40.346089881768265 ], [ -4.261372498712178, 40.346089881768265 ], [ -4.261372498712178, 40.346526477449807 ], [ -4.260632282744671, 40.346526477449807 ], [ -4.260632282744671, 40.346963070305314 ], [ -4.259892066777161, 40.346963070305314 ], [ -4.259892066777161, 40.346526477449807 ], [ -4.258411634842145, 40.346526477449807 ] ] ], [ [ [ -4.222141052434237, 40.35351162401048 ], [ -4.222141052434237, 40.353075073546165 ], [ -4.221400836466728, 40.353075073546165 ], [ -4.221400836466728, 40.352638520255709 ], [ -4.220660620499221, 40.352638520255709 ], [ -4.220660620499221, 40.35089227883276 ], [ -4.219920404531711, 40.35089227883276 ], [ -4.219920404531711, 40.348272831915658 ], [ -4.220660620499221, 40.348272831915658 ], [ -4.220660620499221, 40.346089881768265 ], [ -4.221400836466728, 40.346089881768265 ], [ -4.221400836466728, 40.343906860970478 ], [ -4.222141052434237, 40.343906860970478 ], [ -4.222141052434237, 40.343470248332949 ], [ -4.223621484369254, 40.343470248332949 ], [ -4.223621484369254, 40.343033632869449 ], [ -4.225842132271779, 40.343033632869449 ], [ -4.225842132271779, 40.342597014579979 ], [ -4.227322564206795, 40.342597014579979 ], [ -4.227322564206795, 40.342160393464553 ], [ -4.228802996141812, 40.342160393464553 ], [ -4.228802996141812, 40.340850513162572 ], [ -4.229543212109321, 40.340850513162572 ], [ -4.229543212109321, 40.336920719657151 ], [ -4.230283428076828, 40.336920719657151 ], [ -4.230283428076828, 40.336047401126777 ], [ -4.231023644044337, 40.336047401126777 ], [ -4.231023644044337, 40.335174071292975 ], [ -4.231763860011845, 40.335174071292975 ], [ -4.231763860011845, 40.334300730155832 ], [ -4.232504075979353, 40.334300730155832 ], [ -4.232504075979353, 40.333427377715388 ], [ -4.233244291946862, 40.333427377715388 ], [ -4.233244291946862, 40.332990697256449 ], [ -4.23398450791437, 40.332990697256449 ], [ -4.23398450791437, 40.332117327861148 ], [ -4.234724723881878, 40.332117327861148 ], [ -4.234724723881878, 40.331243947162697 ], [ -4.235464939849386, 40.331243947162697 ], [ -4.235464939849386, 40.3308072525748 ], [ -4.236945371784403, 40.3308072525748 ], [ -4.236945371784403, 40.330370555161139 ], [ -4.239906235654437, 40.330370555161139 ], [ -4.239906235654437, 40.3308072525748 ], [ -4.240646451621945, 40.3308072525748 ], [ -4.240646451621945, 40.331243947162697 ], [ -4.241386667589453, 40.331243947162697 ], [ -4.241386667589453, 40.331680638924809 ], [ -4.24286709952447, 40.331680638924809 ], [ -4.24286709952447, 40.332117327861148 ], [ -4.243607315491978, 40.332117327861148 ], [ -4.243607315491978, 40.333427377715388 ], [ -4.244347531459487, 40.333427377715388 ], [ -4.244347531459487, 40.336484061804882 ], [ -4.243607315491978, 40.336484061804882 ], [ -4.243607315491978, 40.337794026884048 ], [ -4.24286709952447, 40.337794026884048 ], [ -4.24286709952447, 40.338667322807424 ], [ -4.242126883556962, 40.338667322807424 ], [ -4.242126883556962, 40.349145992192305 ], [ -4.241386667589453, 40.349145992192305 ], [ -4.241386667589453, 40.350455711411769 ], [ -4.239906235654437, 40.350455711411769 ], [ -4.239906235654437, 40.35089227883276 ], [ -4.237685587751912, 40.35089227883276 ], [ -4.237685587751912, 40.351328843427652 ], [ -4.235464939849386, 40.351328843427652 ], [ -4.235464939849386, 40.351765405196446 ], [ -4.23398450791437, 40.351765405196446 ], [ -4.23398450791437, 40.352201964139134 ], [ -4.232504075979353, 40.352201964139134 ], [ -4.232504075979353, 40.351765405196446 ], [ -4.229543212109321, 40.351765405196446 ], [ -4.229543212109321, 40.351328843427652 ], [ -4.226582348239286, 40.351328843427652 ], [ -4.226582348239286, 40.351765405196446 ], [ -4.225842132271779, 40.351765405196446 ], [ -4.225842132271779, 40.352201964139134 ], [ -4.225101916304269, 40.352201964139134 ], [ -4.225101916304269, 40.352638520255709 ], [ -4.224361700336762, 40.352638520255709 ], [ -4.224361700336762, 40.35351162401048 ], [ -4.223621484369254, 40.35351162401048 ], [ -4.223621484369254, 40.353948171648675 ], [ -4.222881268401745, 40.353948171648675 ], [ -4.222881268401745, 40.35351162401048 ], [ -4.222141052434237, 40.35351162401048 ] ] ], [ [ [ -4.258411634842145, 40.378390328657176 ], [ -4.257671418874637, 40.378390328657176 ], [ -4.257671418874637, 40.377081152087541 ], [ -4.256931202907129, 40.377081152087541 ], [ -4.256931202907129, 40.376208353575194 ], [ -4.25619098693962, 40.376208353575194 ], [ -4.25619098693962, 40.375771950079262 ], [ -4.252489907102078, 40.375771950079262 ], [ -4.252489907102078, 40.375335543756833 ], [ -4.25174969113457, 40.375335543756833 ], [ -4.25174969113457, 40.374899134607922 ], [ -4.251009475167062, 40.374899134607922 ], [ -4.251009475167062, 40.374026307830668 ], [ -4.250269259199554, 40.374026307830668 ], [ -4.250269259199554, 40.370971325076951 ], [ -4.249529043232045, 40.370971325076951 ], [ -4.249529043232045, 40.365733889574642 ], [ -4.248788827264537, 40.365733889574642 ], [ -4.248788827264537, 40.361805545858779 ], [ -4.249529043232045, 40.361805545858779 ], [ -4.249529043232045, 40.360059541835085 ], [ -4.250269259199554, 40.360059541835085 ], [ -4.250269259199554, 40.359623033763548 ], [ -4.251009475167062, 40.359623033763548 ], [ -4.251009475167062, 40.359186522865755 ], [ -4.25174969113457, 40.359186522865755 ], [ -4.25174969113457, 40.358750009141751 ], [ -4.253230123069587, 40.358750009141751 ], [ -4.253230123069587, 40.358313492591527 ], [ -4.253970339037094, 40.358313492591527 ], [ -4.253970339037094, 40.357003925983598 ], [ -4.254710555004603, 40.357003925983598 ], [ -4.254710555004603, 40.355257797606349 ], [ -4.255450770972112, 40.355257797606349 ], [ -4.255450770972112, 40.353948171648675 ], [ -4.25619098693962, 40.353948171648675 ], [ -4.25619098693962, 40.35351162401048 ], [ -4.256931202907129, 40.35351162401048 ], [ -4.256931202907129, 40.352638520255709 ], [ -4.257671418874637, 40.352638520255709 ], [ -4.257671418874637, 40.352201964139134 ], [ -4.258411634842145, 40.352201964139134 ], [ -4.258411634842145, 40.351328843427652 ], [ -4.259151850809653, 40.351328843427652 ], [ -4.259151850809653, 40.35089227883276 ], [ -4.259892066777161, 40.35089227883276 ], [ -4.259892066777161, 40.350019141164694 ], [ -4.260632282744671, 40.350019141164694 ], [ -4.260632282744671, 40.349582568091535 ], [ -4.261372498712178, 40.349582568091535 ], [ -4.261372498712178, 40.350019141164694 ], [ -4.26507357854972, 40.350019141164694 ], [ -4.26507357854972, 40.379699479787988 ], [ -4.259151850809653, 40.379699479787988 ], [ -4.259151850809653, 40.379263098904268 ], [ -4.258411634842145, 40.379263098904268 ], [ -4.258411634842145, 40.378390328657176 ] ] ], [ [ [ -4.245827963394503, 40.418962183721284 ], [ -4.245087747426995, 40.418962183721284 ], [ -4.245087747426995, 40.418526057255697 ], [ -4.244347531459487, 40.418526057255697 ], [ -4.244347531459487, 40.417653795843009 ], [ -4.243607315491978, 40.417653795843009 ], [ -4.243607315491978, 40.415036943753201 ], [ -4.244347531459487, 40.415036943753201 ], [ -4.244347531459487, 40.412419989886985 ], [ -4.243607315491978, 40.412419989886985 ], [ -4.243607315491978, 40.41067529743448 ], [ -4.24286709952447, 40.41067529743448 ], [ -4.24286709952447, 40.40936674841101 ], [ -4.243607315491978, 40.40936674841101 ], [ -4.243607315491978, 40.408058173944248 ], [ -4.244347531459487, 40.408058173944248 ], [ -4.244347531459487, 40.406749574034386 ], [ -4.245087747426995, 40.406749574034386 ], [ -4.245087747426995, 40.405877159959516 ], [ -4.245827963394503, 40.405877159959516 ], [ -4.245827963394503, 40.405004734576742 ], [ -4.245087747426995, 40.405004734576742 ], [ -4.245087747426995, 40.404568517644904 ], [ -4.244347531459487, 40.404568517644904 ], [ -4.244347531459487, 40.403696075300381 ], [ -4.243607315491978, 40.403696075300381 ], [ -4.243607315491978, 40.403259849887696 ], [ -4.24286709952447, 40.403259849887696 ], [ -4.24286709952447, 40.402823621648082 ], [ -4.242126883556962, 40.402823621648082 ], [ -4.242126883556962, 40.401951156688078 ], [ -4.241386667589453, 40.401951156688078 ], [ -4.241386667589453, 40.398024924436619 ], [ -4.240646451621945, 40.398024924436619 ], [ -4.240646451621945, 40.394971029937125 ], [ -4.241386667589453, 40.394971029937125 ], [ -4.241386667589453, 40.393225885176186 ], [ -4.242126883556962, 40.393225885176186 ], [ -4.242126883556962, 40.392789591918991 ], [ -4.244347531459487, 40.392789591918991 ], [ -4.244347531459487, 40.392353295835036 ], [ -4.247308395329521, 40.392353295835036 ], [ -4.247308395329521, 40.391916996924316 ], [ -4.249529043232045, 40.391916996924316 ], [ -4.249529043232045, 40.391480695186857 ], [ -4.25174969113457, 40.391480695186857 ], [ -4.25174969113457, 40.391044390622632 ], [ -4.252489907102078, 40.391044390622632 ], [ -4.252489907102078, 40.38799017952482 ], [ -4.25174969113457, 40.38799017952482 ], [ -4.25174969113457, 40.383626780545562 ], [ -4.252489907102078, 40.383626780545562 ], [ -4.252489907102078, 40.382754066830046 ], [ -4.253230123069587, 40.382754066830046 ], [ -4.253230123069587, 40.381444975057235 ], [ -4.253970339037094, 40.381444975057235 ], [ -4.253970339037094, 40.381008605479778 ], [ -4.254710555004603, 40.381008605479778 ], [ -4.254710555004603, 40.381444975057235 ], [ -4.256931202907129, 40.381444975057235 ], [ -4.256931202907129, 40.381881341808104 ], [ -4.257671418874637, 40.381881341808104 ], [ -4.257671418874637, 40.384063133163394 ], [ -4.258411634842145, 40.384063133163394 ], [ -4.258411634842145, 40.386244853853007 ], [ -4.259151850809653, 40.386244853853007 ], [ -4.259151850809653, 40.386681189510981 ], [ -4.26507357854972, 40.386681189510981 ], [ -4.26507357854972, 40.415909239091704 ], [ -4.263593146614703, 40.415909239091704 ], [ -4.263593146614703, 40.415473092836017 ], [ -4.262852930647195, 40.415473092836017 ], [ -4.262852930647195, 40.415909239091704 ], [ -4.261372498712178, 40.415909239091704 ], [ -4.261372498712178, 40.416345382520248 ], [ -4.260632282744671, 40.416345382520248 ], [ -4.260632282744671, 40.416781523121657 ], [ -4.259892066777161, 40.416781523121657 ], [ -4.259892066777161, 40.417217660895908 ], [ -4.257671418874637, 40.417217660895908 ], [ -4.257671418874637, 40.416781523121657 ], [ -4.255450770972112, 40.416781523121657 ], [ -4.255450770972112, 40.417217660895908 ], [ -4.253970339037094, 40.417217660895908 ], [ -4.253970339037094, 40.417653795843009 ], [ -4.252489907102078, 40.417653795843009 ], [ -4.252489907102078, 40.418089927962939 ], [ -4.25174969113457, 40.418089927962939 ], [ -4.25174969113457, 40.418526057255697 ], [ -4.250269259199554, 40.418526057255697 ], [ -4.250269259199554, 40.418962183721284 ], [ -4.249529043232045, 40.418962183721284 ], [ -4.249529043232045, 40.419398307359678 ], [ -4.248048611297029, 40.419398307359678 ], [ -4.248048611297029, 40.419834428170894 ], [ -4.246568179362012, 40.419834428170894 ], [ -4.246568179362012, 40.419398307359678 ], [ -4.245827963394503, 40.419398307359678 ], [ -4.245827963394503, 40.418962183721284 ] ] ], [ [ [ -4.215479108726662, 40.496112025097233 ], [ -4.215479108726662, 40.493933867081573 ], [ -4.214738892759153, 40.493933867081573 ], [ -4.214738892759153, 40.489577338923475 ], [ -4.215479108726662, 40.489577338923475 ], [ -4.215479108726662, 40.488270325323889 ], [ -4.21621932469417, 40.488270325323889 ], [ -4.21621932469417, 40.486527600928532 ], [ -4.216959540661678, 40.486527600928532 ], [ -4.216959540661678, 40.484784831281139 ], [ -4.217699756629187, 40.484784831281139 ], [ -4.217699756629187, 40.483042016382143 ], [ -4.218439972596695, 40.483042016382143 ], [ -4.218439972596695, 40.482170591963424 ], [ -4.219180188564203, 40.482170591963424 ], [ -4.219180188564203, 40.481734875511798 ], [ -4.219920404531711, 40.481734875511798 ], [ -4.219920404531711, 40.481299156231977 ], [ -4.220660620499221, 40.481299156231977 ], [ -4.220660620499221, 40.480863434123997 ], [ -4.221400836466728, 40.480863434123997 ], [ -4.221400836466728, 40.48042770918785 ], [ -4.222141052434237, 40.48042770918785 ], [ -4.222141052434237, 40.479991981423545 ], [ -4.222881268401745, 40.479991981423545 ], [ -4.222881268401745, 40.479556250831095 ], [ -4.224361700336762, 40.479556250831095 ], [ -4.224361700336762, 40.479120517410493 ], [ -4.225842132271779, 40.479120517410493 ], [ -4.225842132271779, 40.479556250831095 ], [ -4.231023644044337, 40.479556250831095 ], [ -4.231023644044337, 40.476941807885588 ], [ -4.231763860011845, 40.476941807885588 ], [ -4.231763860011845, 40.474763027658142 ], [ -4.232504075979353, 40.474763027658142 ], [ -4.232504075979353, 40.474327263128423 ], [ -4.233244291946862, 40.474327263128423 ], [ -4.233244291946862, 40.473455725584806 ], [ -4.23398450791437, 40.473455725584806 ], [ -4.23398450791437, 40.473019952570915 ], [ -4.234724723881878, 40.473019952570915 ], [ -4.234724723881878, 40.470405255099017 ], [ -4.235464939849386, 40.470405255099017 ], [ -4.235464939849386, 40.467790455819134 ], [ -4.236205155816894, 40.467790455819134 ], [ -4.236205155816894, 40.466047199739961 ], [ -4.237685587751912, 40.466047199739961 ], [ -4.237685587751912, 40.465611378650323 ], [ -4.239166019686929, 40.465611378650323 ], [ -4.239166019686929, 40.46517555473276 ], [ -4.240646451621945, 40.46517555473276 ], [ -4.240646451621945, 40.464739727987286 ], [ -4.242126883556962, 40.464739727987286 ], [ -4.242126883556962, 40.464303898413895 ], [ -4.243607315491978, 40.464303898413895 ], [ -4.243607315491978, 40.463868066012601 ], [ -4.244347531459487, 40.463868066012601 ], [ -4.244347531459487, 40.462560551841385 ], [ -4.245087747426995, 40.462560551841385 ], [ -4.245087747426995, 40.461688861587852 ], [ -4.245827963394503, 40.461688861587852 ], [ -4.245827963394503, 40.460381304998592 ], [ -4.246568179362012, 40.460381304998592 ], [ -4.246568179362012, 40.459073722958763 ], [ -4.247308395329521, 40.459073722958763 ], [ -4.247308395329521, 40.456458482528134 ], [ -4.248048611297029, 40.456458482528134 ], [ -4.248048611297029, 40.453407240028532 ], [ -4.248788827264537, 40.453407240028532 ], [ -4.248788827264537, 40.451663610675681 ], [ -4.250269259199554, 40.451663610675681 ], [ -4.250269259199554, 40.451227696268177 ], [ -4.25174969113457, 40.451227696268177 ], [ -4.25174969113457, 40.450791779032997 ], [ -4.253230123069587, 40.450791779032997 ], [ -4.253230123069587, 40.44991993607956 ], [ -4.253970339037094, 40.44991993607956 ], [ -4.253970339037094, 40.449048081815405 ], [ -4.254710555004603, 40.449048081815405 ], [ -4.254710555004603, 40.448176216240611 ], [ -4.255450770972112, 40.448176216240611 ], [ -4.255450770972112, 40.44730433935522 ], [ -4.25619098693962, 40.44730433935522 ], [ -4.25619098693962, 40.445124597658264 ], [ -4.255450770972112, 40.445124597658264 ], [ -4.255450770972112, 40.443816718708824 ], [ -4.252489907102078, 40.443816718708824 ], [ -4.252489907102078, 40.444252681186235 ], [ -4.25174969113457, 40.444252681186235 ], [ -4.25174969113457, 40.444688640836041 ], [ -4.251009475167062, 40.444688640836041 ], [ -4.251009475167062, 40.445124597658264 ], [ -4.250269259199554, 40.445124597658264 ], [ -4.250269259199554, 40.445560551652889 ], [ -4.248048611297029, 40.445560551652889 ], [ -4.248048611297029, 40.445124597658264 ], [ -4.247308395329521, 40.445124597658264 ], [ -4.247308395329521, 40.443816718708824 ], [ -4.246568179362012, 40.443816718708824 ], [ -4.246568179362012, 40.442072840523501 ], [ -4.245827963394503, 40.442072840523501 ], [ -4.245827963394503, 40.441636863908272 ], [ -4.246568179362012, 40.441636863908272 ], [ -4.246568179362012, 40.439892929171982 ], [ -4.247308395329521, 40.439892929171982 ], [ -4.247308395329521, 40.439020944838695 ], [ -4.248788827264537, 40.439020944838695 ], [ -4.248788827264537, 40.438584948430801 ], [ -4.251009475167062, 40.438584948430801 ], [ -4.251009475167062, 40.439020944838695 ], [ -4.25174969113457, 40.439020944838695 ], [ -4.25174969113457, 40.439892929171982 ], [ -4.252489907102078, 40.439892929171982 ], [ -4.252489907102078, 40.440764902195184 ], [ -4.253230123069587, 40.440764902195184 ], [ -4.253230123069587, 40.441636863908272 ], [ -4.255450770972112, 40.441636863908272 ], [ -4.255450770972112, 40.440764902195184 ], [ -4.25619098693962, 40.440764902195184 ], [ -4.25619098693962, 40.438584948430801 ], [ -4.256931202907129, 40.438584948430801 ], [ -4.256931202907129, 40.436404923978991 ], [ -4.257671418874637, 40.436404923978991 ], [ -4.257671418874637, 40.435096875378306 ], [ -4.258411634842145, 40.435096875378306 ], [ -4.258411634842145, 40.434660853523177 ], [ -4.259892066777161, 40.434660853523177 ], [ -4.259892066777161, 40.434224828840627 ], [ -4.260632282744671, 40.434224828840627 ], [ -4.260632282744671, 40.434660853523177 ], [ -4.261372498712178, 40.434660853523177 ], [ -4.261372498712178, 40.435096875378306 ], [ -4.262112714679686, 40.435096875378306 ], [ -4.262112714679686, 40.435968910606213 ], [ -4.262852930647195, 40.435968910606213 ], [ -4.262852930647195, 40.438584948430801 ], [ -4.263593146614703, 40.438584948430801 ], [ -4.263593146614703, 40.439892929171982 ], [ -4.264333362582212, 40.439892929171982 ], [ -4.264333362582212, 40.440764902195184 ], [ -4.26507357854972, 40.440764902195184 ], [ -4.26507357854972, 40.459509586466538 ], [ -4.264333362582212, 40.459509586466538 ], [ -4.264333362582212, 40.460381304998592 ], [ -4.263593146614703, 40.460381304998592 ], [ -4.263593146614703, 40.461253012219281 ], [ -4.262852930647195, 40.461253012219281 ], [ -4.262852930647195, 40.461688861587852 ], [ -4.262112714679686, 40.461688861587852 ], [ -4.262112714679686, 40.462560551841385 ], [ -4.261372498712178, 40.462560551841385 ], [ -4.261372498712178, 40.463432230783418 ], [ -4.260632282744671, 40.463432230783418 ], [ -4.260632282744671, 40.464303898413895 ], [ -4.259892066777161, 40.464303898413895 ], [ -4.259892066777161, 40.46517555473276 ], [ -4.259151850809653, 40.46517555473276 ], [ -4.259151850809653, 40.466047199739961 ], [ -4.258411634842145, 40.466047199739961 ], [ -4.258411634842145, 40.466483018001668 ], [ -4.257671418874637, 40.466483018001668 ], [ -4.257671418874637, 40.467354646041258 ], [ -4.256931202907129, 40.467354646041258 ], [ -4.256931202907129, 40.468226262769051 ], [ -4.254710555004603, 40.468226262769051 ], [ -4.254710555004603, 40.468662066891 ], [ -4.252489907102078, 40.468662066891 ], [ -4.252489907102078, 40.469097868184981 ], [ -4.250269259199554, 40.469097868184981 ], [ -4.250269259199554, 40.469533666650982 ], [ -4.249529043232045, 40.469533666650982 ], [ -4.249529043232045, 40.476941807885588 ], [ -4.250269259199554, 40.476941807885588 ], [ -4.250269259199554, 40.477813300179903 ], [ -4.249529043232045, 40.477813300179903 ], [ -4.249529043232045, 40.479556250831095 ], [ -4.248788827264537, 40.479556250831095 ], [ -4.248788827264537, 40.480863434123997 ], [ -4.247308395329521, 40.480863434123997 ], [ -4.247308395329521, 40.481299156231977 ], [ -4.245827963394503, 40.481299156231977 ], [ -4.245827963394503, 40.481734875511798 ], [ -4.245087747426995, 40.481734875511798 ], [ -4.245087747426995, 40.482170591963424 ], [ -4.244347531459487, 40.482170591963424 ], [ -4.244347531459487, 40.483042016382143 ], [ -4.243607315491978, 40.483042016382143 ], [ -4.243607315491978, 40.484349131798702 ], [ -4.24286709952447, 40.484349131798702 ], [ -4.24286709952447, 40.48565622176131 ], [ -4.242126883556962, 40.48565622176131 ], [ -4.242126883556962, 40.486963286269763 ], [ -4.241386667589453, 40.486963286269763 ], [ -4.241386667589453, 40.488270325323889 ], [ -4.240646451621945, 40.488270325323889 ], [ -4.240646451621945, 40.488705999352035 ], [ -4.239906235654437, 40.488705999352035 ], [ -4.239906235654437, 40.489141670551909 ], [ -4.239166019686929, 40.489141670551909 ], [ -4.239166019686929, 40.489577338923475 ], [ -4.237685587751912, 40.489577338923475 ], [ -4.237685587751912, 40.490013004466761 ], [ -4.236945371784403, 40.490013004466761 ], [ -4.236945371784403, 40.490448667181724 ], [ -4.236205155816894, 40.490448667181724 ], [ -4.236205155816894, 40.490884327068379 ], [ -4.235464939849386, 40.490884327068379 ], [ -4.235464939849386, 40.491319984126712 ], [ -4.234724723881878, 40.491319984126712 ], [ -4.234724723881878, 40.491755638356715 ], [ -4.23398450791437, 40.491755638356715 ], [ -4.23398450791437, 40.492191289758388 ], [ -4.233244291946862, 40.492191289758388 ], [ -4.233244291946862, 40.492626938331711 ], [ -4.232504075979353, 40.492626938331711 ], [ -4.232504075979353, 40.493062584076696 ], [ -4.231763860011845, 40.493062584076696 ], [ -4.231763860011845, 40.493498226993324 ], [ -4.231023644044337, 40.493498226993324 ], [ -4.231023644044337, 40.493933867081573 ], [ -4.227322564206795, 40.493933867081573 ], [ -4.227322564206795, 40.494369504341478 ], [ -4.222881268401745, 40.494369504341478 ], [ -4.222881268401745, 40.494805138772996 ], [ -4.221400836466728, 40.494805138772996 ], [ -4.221400836466728, 40.495240770376135 ], [ -4.220660620499221, 40.495240770376135 ], [ -4.220660620499221, 40.495676399150881 ], [ -4.219920404531711, 40.495676399150881 ], [ -4.219920404531711, 40.496112025097233 ], [ -4.219180188564203, 40.496112025097233 ], [ -4.219180188564203, 40.496547648215184 ], [ -4.21621932469417, 40.496547648215184 ], [ -4.21621932469417, 40.496112025097233 ], [ -4.215479108726662, 40.496112025097233 ] ] ], [ [ [ -4.051891379907319, 39.585671315983276 ], [ -4.051151163939811, 39.585671315983276 ], [ -4.051151163939811, 39.58390537126332 ], [ -4.050410947972303, 39.58390537126332 ], [ -4.050410947972303, 39.583463878051582 ], [ -4.049670732004794, 39.583463878051582 ], [ -4.049670732004794, 39.583022382027146 ], [ -4.048930516037286, 39.583022382027146 ], [ -4.048930516037286, 39.58258088319004 ], [ -4.04745008410227, 39.58258088319004 ], [ -4.04745008410227, 39.582139381540259 ], [ -4.046709868134761, 39.582139381540259 ], [ -4.046709868134761, 39.581697877077815 ], [ -4.045969652167253, 39.581697877077815 ], [ -4.045969652167253, 39.58125636980273 ], [ -4.044489220232236, 39.58125636980273 ], [ -4.044489220232236, 39.580814859714984 ], [ -4.043749004264727, 39.580814859714984 ], [ -4.043749004264727, 39.580373346814618 ], [ -4.042268572329712, 39.580373346814618 ], [ -4.042268572329712, 39.579931831101611 ], [ -4.041528356362202, 39.579931831101611 ], [ -4.041528356362202, 39.579490312575984 ], [ -4.039307708459678, 39.579490312575984 ], [ -4.039307708459678, 39.579931831101611 ], [ -4.03856749249217, 39.579931831101611 ], [ -4.03856749249217, 39.580373346814618 ], [ -4.037087060557154, 39.580373346814618 ], [ -4.037087060557154, 39.580814859714984 ], [ -4.035606628622136, 39.580814859714984 ], [ -4.035606628622136, 39.582139381540259 ], [ -4.034866412654628, 39.582139381540259 ], [ -4.034866412654628, 39.58390537126332 ], [ -4.03412619668712, 39.58390537126332 ], [ -4.03412619668712, 39.584346861662375 ], [ -4.033385980719611, 39.584346861662375 ], [ -4.033385980719611, 39.584788349248718 ], [ -4.031165332817086, 39.584788349248718 ], [ -4.031165332817086, 39.584346861662375 ], [ -4.030425116849578, 39.584346861662375 ], [ -4.030425116849578, 39.58390537126332 ], [ -4.02968490088207, 39.58390537126332 ], [ -4.02968490088207, 39.583463878051582 ], [ -4.028944684914562, 39.583463878051582 ], [ -4.028944684914562, 39.583022382027146 ], [ -4.028204468947053, 39.583022382027146 ], [ -4.028204468947053, 39.58258088319004 ], [ -4.027464252979544, 39.58258088319004 ], [ -4.027464252979544, 39.582139381540259 ], [ -4.026724037012036, 39.582139381540259 ], [ -4.026724037012036, 39.581697877077815 ], [ -4.025983821044528, 39.581697877077815 ], [ -4.025983821044528, 39.58125636980273 ], [ -4.025243605077019, 39.58125636980273 ], [ -4.025243605077019, 39.580814859714984 ], [ -4.024503389109511, 39.580814859714984 ], [ -4.024503389109511, 39.580373346814618 ], [ -4.023763173142003, 39.580373346814618 ], [ -4.023763173142003, 39.579931831101611 ], [ -4.022282741206987, 39.579931831101611 ], [ -4.022282741206987, 39.580373346814618 ], [ -4.019321877336953, 39.580373346814618 ], [ -4.019321877336953, 39.580814859714984 ], [ -4.017101229434428, 39.580814859714984 ], [ -4.017101229434428, 39.58125636980273 ], [ -4.015620797499412, 39.58125636980273 ], [ -4.015620797499412, 39.580814859714984 ], [ -4.014880581531903, 39.580814859714984 ], [ -4.014880581531903, 39.580373346814618 ], [ -4.014140365564395, 39.580373346814618 ], [ -4.014140365564395, 39.579931831101611 ], [ -4.013400149596887, 39.579931831101611 ], [ -4.013400149596887, 39.579490312575984 ], [ -4.012659933629378, 39.579490312575984 ], [ -4.012659933629378, 39.579048791237753 ], [ -4.01191971766187, 39.579048791237753 ], [ -4.01191971766187, 39.577282677758866 ], [ -4.011179501694362, 39.577282677758866 ], [ -4.011179501694362, 39.575074972627498 ], [ -4.010439285726853, 39.575074972627498 ], [ -4.010439285726853, 39.571100926202448 ], [ -4.011179501694362, 39.571100926202448 ], [ -4.011179501694362, 39.56977619343629 ], [ -4.010439285726853, 39.56977619343629 ], [ -4.010439285726853, 39.568893024196704 ], [ -4.009699069759344, 39.568893024196704 ], [ -4.009699069759344, 39.568009843707465 ], [ -4.008958853791836, 39.568009843707465 ], [ -4.008958853791836, 39.567568249244253 ], [ -4.008218637824328, 39.567568249244253 ], [ -4.008218637824328, 39.563593772518878 ], [ -4.008958853791836, 39.563593772518878 ], [ -4.008958853791836, 39.563152149932186 ], [ -4.009699069759344, 39.563152149932186 ], [ -4.009699069759344, 39.562710524533166 ], [ -4.010439285726853, 39.562710524533166 ], [ -4.010439285726853, 39.562268896321839 ], [ -4.011179501694362, 39.562268896321839 ], [ -4.011179501694362, 39.561827265298248 ], [ -4.01191971766187, 39.561827265298248 ], [ -4.01191971766187, 39.562268896321839 ], [ -4.012659933629378, 39.562268896321839 ], [ -4.012659933629378, 39.563152149932186 ], [ -4.013400149596887, 39.563152149932186 ], [ -4.013400149596887, 39.563593772518878 ], [ -4.014140365564395, 39.563593772518878 ], [ -4.014140365564395, 39.564035392293285 ], [ -4.014880581531903, 39.564035392293285 ], [ -4.014880581531903, 39.564477009255363 ], [ -4.015620797499412, 39.564477009255363 ], [ -4.015620797499412, 39.56491862340512 ], [ -4.017101229434428, 39.56491862340512 ], [ -4.017101229434428, 39.564477009255363 ], [ -4.018581661369445, 39.564477009255363 ], [ -4.018581661369445, 39.564035392293285 ], [ -4.019321877336953, 39.564035392293285 ], [ -4.019321877336953, 39.563593772518878 ], [ -4.020062093304461, 39.563593772518878 ], [ -4.020062093304461, 39.562268896321839 ], [ -4.02080230927197, 39.562268896321839 ], [ -4.02080230927197, 39.560502355353812 ], [ -4.021542525239478, 39.560502355353812 ], [ -4.021542525239478, 39.559619067996238 ], [ -4.023022957174494, 39.559619067996238 ], [ -4.023022957174494, 39.55917742009909 ], [ -4.023763173142003, 39.55917742009909 ], [ -4.023763173142003, 39.55873576938972 ], [ -4.024503389109511, 39.55873576938972 ], [ -4.024503389109511, 39.558294115868115 ], [ -4.025243605077019, 39.558294115868115 ], [ -4.025243605077019, 39.556085806077114 ], [ -4.024503389109511, 39.556085806077114 ], [ -4.024503389109511, 39.5534357415264 ], [ -4.025243605077019, 39.5534357415264 ], [ -4.025243605077019, 39.552552364179085 ], [ -4.025983821044528, 39.552552364179085 ], [ -4.025983821044528, 39.551668975583382 ], [ -4.028944684914562, 39.551668975583382 ], [ -4.028944684914562, 39.552552364179085 ], [ -4.02968490088207, 39.552552364179085 ], [ -4.02968490088207, 39.5534357415264 ], [ -4.030425116849578, 39.5534357415264 ], [ -4.030425116849578, 39.554760786456406 ], [ -4.031165332817086, 39.554760786456406 ], [ -4.031165332817086, 39.555644135682371 ], [ -4.031905548784595, 39.555644135682371 ], [ -4.031905548784595, 39.556085806077114 ], [ -4.037087060557154, 39.556085806077114 ], [ -4.037087060557154, 39.555644135682371 ], [ -4.039307708459678, 39.555644135682371 ], [ -4.039307708459678, 39.555202462475464 ], [ -4.040047924427186, 39.555202462475464 ], [ -4.040047924427186, 39.554319107625204 ], [ -4.040788140394695, 39.554319107625204 ], [ -4.040788140394695, 39.55387742598186 ], [ -4.041528356362202, 39.55387742598186 ], [ -4.041528356362202, 39.552994054258797 ], [ -4.043749004264727, 39.552994054258797 ], [ -4.043749004264727, 39.5534357415264 ], [ -4.044489220232236, 39.5534357415264 ], [ -4.044489220232236, 39.552994054258797 ], [ -4.045969652167253, 39.552994054258797 ], [ -4.045969652167253, 39.552110671287288 ], [ -4.046709868134761, 39.552110671287288 ], [ -4.046709868134761, 39.548577026918089 ], [ -4.04745008410227, 39.548577026918089 ], [ -4.04745008410227, 39.547251863880938 ], [ -4.048930516037286, 39.547251863880938 ], [ -4.048930516037286, 39.546810137244535 ], [ -4.050410947972303, 39.546810137244535 ], [ -4.050410947972303, 39.547251863880938 ], [ -4.051151163939811, 39.547251863880938 ], [ -4.051151163939811, 39.547693587705339 ], [ -4.051891379907319, 39.547693587705339 ], [ -4.051891379907319, 39.54901874230643 ], [ -4.052631595874828, 39.54901874230643 ], [ -4.052631595874828, 39.550785575739319 ], [ -4.053371811842336, 39.550785575739319 ], [ -4.053371811842336, 39.551668975583382 ], [ -4.054852243777353, 39.551668975583382 ], [ -4.054852243777353, 39.552110671287288 ], [ -4.057072891679878, 39.552110671287288 ], [ -4.057072891679878, 39.552994054258797 ], [ -4.057813107647386, 39.552994054258797 ], [ -4.057813107647386, 39.5534357415264 ], [ -4.058553323614895, 39.5534357415264 ], [ -4.058553323614895, 39.554760786456406 ], [ -4.059293539582403, 39.554760786456406 ], [ -4.059293539582403, 39.55873576938972 ], [ -4.060033755549911, 39.55873576938972 ], [ -4.060033755549911, 39.562710524533166 ], [ -4.06077397151742, 39.562710524533166 ], [ -4.06077397151742, 39.566685051880661 ], [ -4.061514187484928, 39.566685051880661 ], [ -4.061514187484928, 39.56712665196865 ], [ -4.062254403452436, 39.56712665196865 ], [ -4.062254403452436, 39.567568249244253 ], [ -4.062994619419944, 39.567568249244253 ], [ -4.062994619419944, 39.56712665196865 ], [ -4.064475051354962, 39.56712665196865 ], [ -4.064475051354962, 39.566685051880661 ], [ -4.065955483289978, 39.566685051880661 ], [ -4.065955483289978, 39.566243448980316 ], [ -4.066695699257487, 39.566243448980316 ], [ -4.066695699257487, 39.5658018432676 ], [ -4.068176131192503, 39.5658018432676 ], [ -4.068176131192503, 39.565360234742528 ], [ -4.068916347160012, 39.565360234742528 ], [ -4.068916347160012, 39.56491862340512 ], [ -4.070396779095028, 39.56491862340512 ], [ -4.070396779095028, 39.564477009255363 ], [ -4.071877211030045, 39.564477009255363 ], [ -4.071877211030045, 39.564035392293285 ], [ -4.072617426997553, 39.564035392293285 ], [ -4.072617426997553, 39.563593772518878 ], [ -4.07409785893257, 39.563593772518878 ], [ -4.07409785893257, 39.563152149932186 ], [ -4.075578290867587, 39.563152149932186 ], [ -4.075578290867587, 39.562710524533166 ], [ -4.079279370705128, 39.562710524533166 ], [ -4.079279370705128, 39.563152149932186 ], [ -4.080019586672636, 39.563152149932186 ], [ -4.080019586672636, 39.564035392293285 ], [ -4.080759802640145, 39.564035392293285 ], [ -4.080759802640145, 39.56491862340512 ], [ -4.081500018607653, 39.56491862340512 ], [ -4.081500018607653, 39.566243448980316 ], [ -4.082240234575162, 39.566243448980316 ], [ -4.082240234575162, 39.56977619343629 ], [ -4.08298045054267, 39.56977619343629 ], [ -4.08298045054267, 39.571542498166266 ], [ -4.082240234575162, 39.571542498166266 ], [ -4.082240234575162, 39.573308757896839 ], [ -4.081500018607653, 39.573308757896839 ], [ -4.081500018607653, 39.574191870887191 ], [ -4.080759802640145, 39.574191870887191 ], [ -4.080759802640145, 39.574633423163611 ], [ -4.080019586672636, 39.574633423163611 ], [ -4.080019586672636, 39.575074972627498 ], [ -4.079279370705128, 39.575074972627498 ], [ -4.079279370705128, 39.575516519278864 ], [ -4.078539154737619, 39.575516519278864 ], [ -4.078539154737619, 39.575958063117689 ], [ -4.077798938770111, 39.575958063117689 ], [ -4.077798938770111, 39.576399604143965 ], [ -4.077058722802603, 39.576399604143965 ], [ -4.077058722802603, 39.576841142357701 ], [ -4.076318506835094, 39.576841142357701 ], [ -4.076318506835094, 39.577282677758866 ], [ -4.075578290867587, 39.577282677758866 ], [ -4.075578290867587, 39.577724210347462 ], [ -4.074838074900078, 39.577724210347462 ], [ -4.074838074900078, 39.578165740123481 ], [ -4.07409785893257, 39.578165740123481 ], [ -4.07409785893257, 39.577724210347462 ], [ -4.071877211030045, 39.577724210347462 ], [ -4.071877211030045, 39.577282677758866 ], [ -4.069656563127519, 39.577282677758866 ], [ -4.069656563127519, 39.576841142357701 ], [ -4.067435915224994, 39.576841142357701 ], [ -4.067435915224994, 39.576399604143965 ], [ -4.06521526732247, 39.576399604143965 ], [ -4.06521526732247, 39.575958063117689 ], [ -4.062994619419944, 39.575958063117689 ], [ -4.062994619419944, 39.575516519278864 ], [ -4.06077397151742, 39.575516519278864 ], [ -4.06077397151742, 39.575074972627498 ], [ -4.057072891679878, 39.575074972627498 ], [ -4.057072891679878, 39.575516519278864 ], [ -4.05633267571237, 39.575516519278864 ], [ -4.05633267571237, 39.576399604143965 ], [ -4.055592459744862, 39.576399604143965 ], [ -4.055592459744862, 39.577282677758866 ], [ -4.054852243777353, 39.577282677758866 ], [ -4.054852243777353, 39.577724210347462 ], [ -4.054112027809845, 39.577724210347462 ], [ -4.054112027809845, 39.579048791237753 ], [ -4.054852243777353, 39.579048791237753 ], [ -4.054852243777353, 39.579490312575984 ], [ -4.055592459744862, 39.579490312575984 ], [ -4.055592459744862, 39.580373346814618 ], [ -4.05633267571237, 39.580373346814618 ], [ -4.05633267571237, 39.580814859714984 ], [ -4.057072891679878, 39.580814859714984 ], [ -4.057072891679878, 39.585229834022357 ], [ -4.05633267571237, 39.585229834022357 ], [ -4.05633267571237, 39.585671315983276 ], [ -4.055592459744862, 39.585671315983276 ], [ -4.055592459744862, 39.58611279513147 ], [ -4.054852243777353, 39.58611279513147 ], [ -4.054852243777353, 39.586554271466923 ], [ -4.054112027809845, 39.586554271466923 ], [ -4.054112027809845, 39.586995744989629 ], [ -4.053371811842336, 39.586995744989629 ], [ -4.053371811842336, 39.586554271466923 ], [ -4.051891379907319, 39.586554271466923 ], [ -4.051891379907319, 39.585671315983276 ] ] ], [ [ [ -3.743221321456344, 39.942786326583487 ], [ -3.741740889521328, 39.942786326583487 ], [ -3.741740889521328, 39.942347128404151 ], [ -3.741000673553819, 39.942347128404151 ], [ -3.741000673553819, 39.941907927405616 ], [ -3.740260457586311, 39.941907927405616 ], [ -3.740260457586311, 39.940590307494809 ], [ -3.739520241618802, 39.940590307494809 ], [ -3.739520241618802, 39.938833441478643 ], [ -3.738780025651294, 39.938833441478643 ], [ -3.738780025651294, 39.934880328022935 ], [ -3.739520241618802, 39.934880328022935 ], [ -3.739520241618802, 39.932684055212832 ], [ -3.740260457586311, 39.932684055212832 ], [ -3.740260457586311, 39.931805526355475 ], [ -3.741740889521328, 39.931805526355475 ], [ -3.741740889521328, 39.931366257698258 ], [ -3.742481105488836, 39.931366257698258 ], [ -3.742481105488836, 39.930926986222019 ], [ -3.743221321456344, 39.930926986222019 ], [ -3.743221321456344, 39.93048771192678 ], [ -3.748402833228903, 39.93048771192678 ], [ -3.748402833228903, 39.931366257698258 ], [ -3.749143049196411, 39.931366257698258 ], [ -3.749143049196411, 39.932244792193679 ], [ -3.749883265163919, 39.932244792193679 ], [ -3.749883265163919, 39.933562572794045 ], [ -3.750623481131427, 39.933562572794045 ], [ -3.750623481131427, 39.9357588174135 ], [ -3.749883265163919, 39.9357588174135 ], [ -3.749883265163919, 39.937515762365443 ], [ -3.749143049196411, 39.937515762365443 ], [ -3.749143049196411, 39.939711880125053 ], [ -3.748402833228903, 39.939711880125053 ], [ -3.748402833228903, 39.941468723587867 ], [ -3.747662617261394, 39.941468723587867 ], [ -3.747662617261394, 39.941907927405616 ], [ -3.746922401293885, 39.941907927405616 ], [ -3.746922401293885, 39.942347128404151 ], [ -3.746182185326378, 39.942347128404151 ], [ -3.746182185326378, 39.942786326583487 ], [ -3.745441969358869, 39.942786326583487 ], [ -3.745441969358869, 39.943225521943617 ], [ -3.744701753391361, 39.943225521943617 ], [ -3.744701753391361, 39.943664714484513 ], [ -3.743961537423853, 39.943664714484513 ], [ -3.743961537423853, 39.943225521943617 ], [ -3.743221321456344, 39.943225521943617 ], [ -3.743221321456344, 39.942786326583487 ] ] ], [ [ [ -3.473042493315802, 40.250844575619915 ], [ -3.473042493315802, 40.250407361210598 ], [ -3.472302277348294, 40.250407361210598 ], [ -3.472302277348294, 40.249970143976832 ], [ -3.471562061380785, 40.249970143976832 ], [ -3.471562061380785, 40.249532923918622 ], [ -3.470821845413277, 40.249532923918622 ], [ -3.470821845413277, 40.249095701035969 ], [ -3.470081629445768, 40.249095701035969 ], [ -3.470081629445768, 40.248658475328888 ], [ -3.469341413478261, 40.248658475328888 ], [ -3.469341413478261, 40.247784015441454 ], [ -3.468601197510752, 40.247784015441454 ], [ -3.468601197510752, 40.247346781261115 ], [ -3.467860981543244, 40.247346781261115 ], [ -3.467860981543244, 40.246035061773718 ], [ -3.468601197510752, 40.246035061773718 ], [ -3.468601197510752, 40.241225206177418 ], [ -3.469341413478261, 40.241225206177418 ], [ -3.469341413478261, 40.240350650261888 ], [ -3.470081629445768, 40.240350650261888 ], [ -3.470081629445768, 40.239476083049205 ], [ -3.470821845413277, 40.239476083049205 ], [ -3.470821845413277, 40.238601504539439 ], [ -3.471562061380785, 40.238601504539439 ], [ -3.471562061380785, 40.238164211048165 ], [ -3.472302277348294, 40.238164211048165 ], [ -3.472302277348294, 40.237726914732633 ], [ -3.476743573153344, 40.237726914732633 ], [ -3.476743573153344, 40.238164211048165 ], [ -3.480444652990886, 40.238164211048165 ], [ -3.480444652990886, 40.239038795206454 ], [ -3.481184868958394, 40.239038795206454 ], [ -3.481184868958394, 40.239476083049205 ], [ -3.481925084925902, 40.239476083049205 ], [ -3.481925084925902, 40.240350650261888 ], [ -3.482665300893411, 40.240350650261888 ], [ -3.482665300893411, 40.243411546540848 ], [ -3.483405516860918, 40.243411546540848 ], [ -3.483405516860918, 40.246035061773718 ], [ -3.484145732828428, 40.246035061773718 ], [ -3.484145732828428, 40.246472304427243 ], [ -3.483405516860918, 40.246472304427243 ], [ -3.483405516860918, 40.247346781261115 ], [ -3.482665300893411, 40.247346781261115 ], [ -3.482665300893411, 40.248658475328888 ], [ -3.481925084925902, 40.248658475328888 ], [ -3.481925084925902, 40.249532923918622 ], [ -3.481184868958394, 40.249532923918622 ], [ -3.481184868958394, 40.250407361210598 ], [ -3.478964221055869, 40.250407361210598 ], [ -3.478964221055869, 40.250844575619915 ], [ -3.476743573153344, 40.250844575619915 ], [ -3.476743573153344, 40.251281787204768 ], [ -3.47378270928331, 40.251281787204768 ], [ -3.47378270928331, 40.250844575619915 ], [ -3.473042493315802, 40.250844575619915 ] ] ], [ [ [ -4.188831333896362, 40.446868396671071 ], [ -4.187350901961345, 40.446868396671071 ], [ -4.187350901961345, 40.446432451159303 ], [ -4.185870470026329, 40.446432451159303 ], [ -4.185870470026329, 40.445996502819895 ], [ -4.18513025405882, 40.445996502819895 ], [ -4.18513025405882, 40.445124597658264 ], [ -4.184390038091311, 40.445124597658264 ], [ -4.184390038091311, 40.443816718708824 ], [ -4.183649822123804, 40.443816718708824 ], [ -4.183649822123804, 40.442944785271294 ], [ -4.182909606156294, 40.442944785271294 ], [ -4.182909606156294, 40.441636863908272 ], [ -4.182169390188786, 40.441636863908272 ], [ -4.182169390188786, 40.440764902195184 ], [ -4.181429174221278, 40.440764902195184 ], [ -4.181429174221278, 40.439456938419092 ], [ -4.18068895825377, 40.439456938419092 ], [ -4.18068895825377, 40.438584948430801 ], [ -4.179948742286262, 40.438584948430801 ], [ -4.179948742286262, 40.43727694224215 ], [ -4.179208526318753, 40.43727694224215 ], [ -4.179208526318753, 40.436404923978991 ], [ -4.178468310351246, 40.436404923978991 ], [ -4.178468310351246, 40.432480701836198 ], [ -4.179208526318753, 40.432480701836198 ], [ -4.179208526318753, 40.429428370723834 ], [ -4.179948742286262, 40.429428370723834 ], [ -4.179948742286262, 40.428556250674028 ], [ -4.18068895825377, 40.428556250674028 ], [ -4.18068895825377, 40.427684119314875 ], [ -4.181429174221278, 40.427684119314875 ], [ -4.181429174221278, 40.427248049394315 ], [ -4.183649822123804, 40.427248049394315 ], [ -4.183649822123804, 40.427684119314875 ], [ -4.184390038091311, 40.427684119314875 ], [ -4.184390038091311, 40.428120186408115 ], [ -4.18513025405882, 40.428120186408115 ], [ -4.18513025405882, 40.428556250674028 ], [ -4.185870470026329, 40.428556250674028 ], [ -4.185870470026329, 40.428992312112605 ], [ -4.186610685993837, 40.428992312112605 ], [ -4.186610685993837, 40.429428370723834 ], [ -4.187350901961345, 40.429428370723834 ], [ -4.187350901961345, 40.428992312112605 ], [ -4.188831333896362, 40.428992312112605 ], [ -4.188831333896362, 40.428556250674028 ], [ -4.190311765831378, 40.428556250674028 ], [ -4.190311765831378, 40.428992312112605 ], [ -4.191792197766395, 40.428992312112605 ], [ -4.191792197766395, 40.429428370723834 ], [ -4.192532413733903, 40.429428370723834 ], [ -4.192532413733903, 40.43117257689515 ], [ -4.193272629701411, 40.43117257689515 ], [ -4.193272629701411, 40.432480701836198 ], [ -4.19401284566892, 40.432480701836198 ], [ -4.19401284566892, 40.432916737828428 ], [ -4.194753061636429, 40.432916737828428 ], [ -4.194753061636429, 40.433352770993245 ], [ -4.195493277603937, 40.433352770993245 ], [ -4.195493277603937, 40.43378880133065 ], [ -4.196233493571445, 40.43378880133065 ], [ -4.196233493571445, 40.434224828840627 ], [ -4.196973709538954, 40.434224828840627 ], [ -4.196973709538954, 40.435096875378306 ], [ -4.197713925506461, 40.435096875378306 ], [ -4.197713925506461, 40.435968910606213 ], [ -4.19845414147397, 40.435968910606213 ], [ -4.19845414147397, 40.43727694224215 ], [ -4.199194357441478, 40.43727694224215 ], [ -4.199194357441478, 40.438584948430801 ], [ -4.199934573408987, 40.438584948430801 ], [ -4.199934573408987, 40.439456938419092 ], [ -4.200674789376495, 40.439456938419092 ], [ -4.200674789376495, 40.440764902195184 ], [ -4.201415005344002, 40.440764902195184 ], [ -4.201415005344002, 40.442508814311182 ], [ -4.200674789376495, 40.442508814311182 ], [ -4.200674789376495, 40.444252681186235 ], [ -4.199934573408987, 40.444252681186235 ], [ -4.199934573408987, 40.444688640836041 ], [ -4.199194357441478, 40.444688640836041 ], [ -4.199194357441478, 40.445124597658264 ], [ -4.197713925506461, 40.445124597658264 ], [ -4.197713925506461, 40.445560551652889 ], [ -4.196973709538954, 40.445560551652889 ], [ -4.196973709538954, 40.445996502819895 ], [ -4.196233493571445, 40.445996502819895 ], [ -4.196233493571445, 40.446432451159303 ], [ -4.195493277603937, 40.446432451159303 ], [ -4.195493277603937, 40.446868396671071 ], [ -4.19401284566892, 40.446868396671071 ], [ -4.19401284566892, 40.44730433935522 ], [ -4.193272629701411, 40.44730433935522 ], [ -4.193272629701411, 40.447740279211743 ], [ -4.190311765831378, 40.447740279211743 ], [ -4.190311765831378, 40.44730433935522 ], [ -4.188831333896362, 40.44730433935522 ], [ -4.188831333896362, 40.446868396671071 ] ] ], [ [ [ -4.187350901961345, 40.510050561946684 ], [ -4.186610685993837, 40.510050561946684 ], [ -4.186610685993837, 40.506566199273188 ], [ -4.185870470026329, 40.506566199273188 ], [ -4.185870470026329, 40.501774905012688 ], [ -4.186610685993837, 40.501774905012688 ], [ -4.186610685993837, 40.500468128997483 ], [ -4.187350901961345, 40.500468128997483 ], [ -4.187350901961345, 40.499161327526039 ], [ -4.188091117928853, 40.499161327526039 ], [ -4.188091117928853, 40.498725721378655 ], [ -4.187350901961345, 40.498725721378655 ], [ -4.187350901961345, 40.497854500598542 ], [ -4.185870470026329, 40.497854500598542 ], [ -4.185870470026329, 40.49741888596585 ], [ -4.183649822123804, 40.49741888596585 ], [ -4.183649822123804, 40.496983268504721 ], [ -4.182169390188786, 40.496983268504721 ], [ -4.182169390188786, 40.49741888596585 ], [ -4.181429174221278, 40.49741888596585 ], [ -4.181429174221278, 40.497854500598542 ], [ -4.18068895825377, 40.497854500598542 ], [ -4.18068895825377, 40.498725721378655 ], [ -4.179948742286262, 40.498725721378655 ], [ -4.179948742286262, 40.49959693084498 ], [ -4.179208526318753, 40.49959693084498 ], [ -4.179208526318753, 40.500468128997483 ], [ -4.178468310351246, 40.500468128997483 ], [ -4.178468310351246, 40.501339315836098 ], [ -4.177728094383736, 40.501339315836098 ], [ -4.177728094383736, 40.502210491360771 ], [ -4.17624766244872, 40.502210491360771 ], [ -4.17624766244872, 40.502646074880374 ], [ -4.175507446481211, 40.502646074880374 ], [ -4.175507446481211, 40.503081655571464 ], [ -4.174027014546194, 40.503081655571464 ], [ -4.174027014546194, 40.503517233434039 ], [ -4.173286798578687, 40.503517233434039 ], [ -4.173286798578687, 40.503952808468107 ], [ -4.171806366643669, 40.503952808468107 ], [ -4.171806366643669, 40.504388380673632 ], [ -4.170325934708654, 40.504388380673632 ], [ -4.170325934708654, 40.504823950050636 ], [ -4.169585718741145, 40.504823950050636 ], [ -4.169585718741145, 40.505259516599097 ], [ -4.168845502773637, 40.505259516599097 ], [ -4.168845502773637, 40.505695080319015 ], [ -4.168105286806129, 40.505695080319015 ], [ -4.168105286806129, 40.506130641210383 ], [ -4.16736507083862, 40.506130641210383 ], [ -4.16736507083862, 40.506566199273188 ], [ -4.166624854871111, 40.506566199273188 ], [ -4.166624854871111, 40.507001754507435 ], [ -4.165884638903603, 40.507001754507435 ], [ -4.165884638903603, 40.507872856490181 ], [ -4.165144422936095, 40.507872856490181 ], [ -4.165144422936095, 40.508308403238686 ], [ -4.164404206968586, 40.508308403238686 ], [ -4.164404206968586, 40.507872856490181 ], [ -4.163663991001078, 40.507872856490181 ], [ -4.163663991001078, 40.50743730691309 ], [ -4.162183559066062, 40.50743730691309 ], [ -4.162183559066062, 40.506130641210383 ], [ -4.161443343098553, 40.506130641210383 ], [ -4.161443343098553, 40.505259516599097 ], [ -4.160703127131045, 40.505259516599097 ], [ -4.160703127131045, 40.503952808468107 ], [ -4.159962911163537, 40.503952808468107 ], [ -4.159962911163537, 40.503517233434039 ], [ -4.159222695196028, 40.503517233434039 ], [ -4.159222695196028, 40.503081655571464 ], [ -4.157002047293503, 40.503081655571464 ], [ -4.157002047293503, 40.503517233434039 ], [ -4.152560751488454, 40.503517233434039 ], [ -4.152560751488454, 40.503952808468107 ], [ -4.148119455683402, 40.503952808468107 ], [ -4.148119455683402, 40.504388380673632 ], [ -4.146639023748387, 40.504388380673632 ], [ -4.146639023748387, 40.503952808468107 ], [ -4.14515859181337, 40.503952808468107 ], [ -4.14515859181337, 40.503517233434039 ], [ -4.144418375845861, 40.503517233434039 ], [ -4.144418375845861, 40.503081655571464 ], [ -4.142937943910845, 40.503081655571464 ], [ -4.142937943910845, 40.502646074880374 ], [ -4.142197727943337, 40.502646074880374 ], [ -4.142197727943337, 40.502210491360771 ], [ -4.141457511975828, 40.502210491360771 ], [ -4.141457511975828, 40.50090372383103 ], [ -4.14071729600832, 40.50090372383103 ], [ -4.14071729600832, 40.500032531335464 ], [ -4.139977080040811, 40.500032531335464 ], [ -4.139977080040811, 40.493498226993324 ], [ -4.14071729600832, 40.493498226993324 ], [ -4.14071729600832, 40.492191289758388 ], [ -4.141457511975828, 40.492191289758388 ], [ -4.141457511975828, 40.491755638356715 ], [ -4.142197727943337, 40.491755638356715 ], [ -4.142197727943337, 40.491319984126712 ], [ -4.142937943910845, 40.491319984126712 ], [ -4.142937943910845, 40.490448667181724 ], [ -4.143678159878354, 40.490448667181724 ], [ -4.143678159878354, 40.490013004466761 ], [ -4.144418375845861, 40.490013004466761 ], [ -4.144418375845861, 40.489577338923475 ], [ -4.14515859181337, 40.489577338923475 ], [ -4.14515859181337, 40.488705999352035 ], [ -4.145898807780878, 40.488705999352035 ], [ -4.145898807780878, 40.488270325323889 ], [ -4.146639023748387, 40.488270325323889 ], [ -4.146639023748387, 40.487834648467448 ], [ -4.147379239715895, 40.487834648467448 ], [ -4.147379239715895, 40.486963286269763 ], [ -4.151820535520945, 40.486963286269763 ], [ -4.151820535520945, 40.487398968782735 ], [ -4.155521615358486, 40.487398968782735 ], [ -4.155521615358486, 40.488270325323889 ], [ -4.156261831325995, 40.488270325323889 ], [ -4.156261831325995, 40.489141670551909 ], [ -4.157002047293503, 40.489141670551909 ], [ -4.157002047293503, 40.489577338923475 ], [ -4.157742263261011, 40.489577338923475 ], [ -4.157742263261011, 40.490448667181724 ], [ -4.158482479228519, 40.490448667181724 ], [ -4.158482479228519, 40.491319984126712 ], [ -4.159222695196028, 40.491319984126712 ], [ -4.159222695196028, 40.491755638356715 ], [ -4.159962911163537, 40.491755638356715 ], [ -4.159962911163537, 40.492626938331711 ], [ -4.160703127131045, 40.492626938331711 ], [ -4.160703127131045, 40.493498226993324 ], [ -4.161443343098553, 40.493498226993324 ], [ -4.161443343098553, 40.494369504341478 ], [ -4.162183559066062, 40.494369504341478 ], [ -4.162183559066062, 40.494805138772996 ], [ -4.16292377503357, 40.494805138772996 ], [ -4.16292377503357, 40.495676399150881 ], [ -4.163663991001078, 40.495676399150881 ], [ -4.163663991001078, 40.496547648215184 ], [ -4.165884638903603, 40.496547648215184 ], [ -4.165884638903603, 40.496112025097233 ], [ -4.166624854871111, 40.496112025097233 ], [ -4.166624854871111, 40.495676399150881 ], [ -4.168105286806129, 40.495676399150881 ], [ -4.168105286806129, 40.495240770376135 ], [ -4.168845502773637, 40.495240770376135 ], [ -4.168845502773637, 40.494805138772996 ], [ -4.169585718741145, 40.494805138772996 ], [ -4.169585718741145, 40.494369504341478 ], [ -4.170325934708654, 40.494369504341478 ], [ -4.170325934708654, 40.493933867081573 ], [ -4.171066150676162, 40.493933867081573 ], [ -4.171066150676162, 40.493062584076696 ], [ -4.171806366643669, 40.493062584076696 ], [ -4.171806366643669, 40.489577338923475 ], [ -4.172546582611179, 40.489577338923475 ], [ -4.172546582611179, 40.486527600928532 ], [ -4.173286798578687, 40.486527600928532 ], [ -4.173286798578687, 40.486091912759044 ], [ -4.174027014546194, 40.486091912759044 ], [ -4.174027014546194, 40.48522052793534 ], [ -4.174767230513703, 40.48522052793534 ], [ -4.174767230513703, 40.484349131798702 ], [ -4.175507446481211, 40.484349131798702 ], [ -4.175507446481211, 40.4834777243492 ], [ -4.17624766244872, 40.4834777243492 ], [ -4.17624766244872, 40.483042016382143 ], [ -4.177728094383736, 40.483042016382143 ], [ -4.177728094383736, 40.482606305586884 ], [ -4.181429174221278, 40.482606305586884 ], [ -4.181429174221278, 40.482170591963424 ], [ -4.184390038091311, 40.482170591963424 ], [ -4.184390038091311, 40.481734875511798 ], [ -4.187350901961345, 40.481734875511798 ], [ -4.187350901961345, 40.481299156231977 ], [ -4.18957154986387, 40.481299156231977 ], [ -4.18957154986387, 40.480863434123997 ], [ -4.190311765831378, 40.480863434123997 ], [ -4.190311765831378, 40.479991981423545 ], [ -4.191051981798886, 40.479991981423545 ], [ -4.191051981798886, 40.479120517410493 ], [ -4.191792197766395, 40.479120517410493 ], [ -4.191792197766395, 40.478249042084897 ], [ -4.192532413733903, 40.478249042084897 ], [ -4.192532413733903, 40.477377555446807 ], [ -4.193272629701411, 40.477377555446807 ], [ -4.193272629701411, 40.47650605749628 ], [ -4.192532413733903, 40.47650605749628 ], [ -4.192532413733903, 40.476070304278871 ], [ -4.191792197766395, 40.476070304278871 ], [ -4.191792197766395, 40.475634548233373 ], [ -4.191051981798886, 40.475634548233373 ], [ -4.191051981798886, 40.475198789359794 ], [ -4.190311765831378, 40.475198789359794 ], [ -4.190311765831378, 40.474763027658142 ], [ -4.18957154986387, 40.474763027658142 ], [ -4.18957154986387, 40.474327263128423 ], [ -4.188831333896362, 40.474327263128423 ], [ -4.188831333896362, 40.473019952570915 ], [ -4.188091117928853, 40.473019952570915 ], [ -4.188091117928853, 40.471276832235063 ], [ -4.187350901961345, 40.471276832235063 ], [ -4.187350901961345, 40.470841045081045 ], [ -4.188091117928853, 40.470841045081045 ], [ -4.188091117928853, 40.469097868184981 ], [ -4.188831333896362, 40.469097868184981 ], [ -4.188831333896362, 40.467790455819134 ], [ -4.190311765831378, 40.467790455819134 ], [ -4.190311765831378, 40.467354646041258 ], [ -4.191792197766395, 40.467354646041258 ], [ -4.191792197766395, 40.466918833435443 ], [ -4.192532413733903, 40.466918833435443 ], [ -4.192532413733903, 40.463432230783418 ], [ -4.18957154986387, 40.463432230783418 ], [ -4.18957154986387, 40.463868066012601 ], [ -4.186610685993837, 40.463868066012601 ], [ -4.186610685993837, 40.462560551841385 ], [ -4.185870470026329, 40.462560551841385 ], [ -4.185870470026329, 40.461688861587852 ], [ -4.18513025405882, 40.461688861587852 ], [ -4.18513025405882, 40.460817160022863 ], [ -4.184390038091311, 40.460817160022863 ], [ -4.184390038091311, 40.460381304998592 ], [ -4.183649822123804, 40.460381304998592 ], [ -4.183649822123804, 40.459945447146481 ], [ -4.182169390188786, 40.459945447146481 ], [ -4.182169390188786, 40.460381304998592 ], [ -4.17624766244872, 40.460381304998592 ], [ -4.17624766244872, 40.459509586466538 ], [ -4.175507446481211, 40.459509586466538 ], [ -4.175507446481211, 40.458637856623163 ], [ -4.174767230513703, 40.458637856623163 ], [ -4.174767230513703, 40.456894363002725 ], [ -4.174027014546194, 40.456894363002725 ], [ -4.174027014546194, 40.454714932352026 ], [ -4.173286798578687, 40.454714932352026 ], [ -4.173286798578687, 40.452099522255473 ], [ -4.172546582611179, 40.452099522255473 ], [ -4.172546582611179, 40.451663610675681 ], [ -4.173286798578687, 40.451663610675681 ], [ -4.173286798578687, 40.450791779032997 ], [ -4.174027014546194, 40.450791779032997 ], [ -4.174027014546194, 40.449484010361317 ], [ -4.174767230513703, 40.449484010361317 ], [ -4.174767230513703, 40.448176216240611 ], [ -4.17624766244872, 40.448176216240611 ], [ -4.17624766244872, 40.448612150441839 ], [ -4.178468310351246, 40.448612150441839 ], [ -4.178468310351246, 40.449048081815405 ], [ -4.179208526318753, 40.449048081815405 ], [ -4.179208526318753, 40.449484010361317 ], [ -4.179948742286262, 40.449484010361317 ], [ -4.179948742286262, 40.450355858970113 ], [ -4.18068895825377, 40.450355858970113 ], [ -4.18068895825377, 40.451227696268177 ], [ -4.181429174221278, 40.451227696268177 ], [ -4.181429174221278, 40.452099522255473 ], [ -4.182169390188786, 40.452099522255473 ], [ -4.182169390188786, 40.452971336931903 ], [ -4.182909606156294, 40.452971336931903 ], [ -4.182909606156294, 40.453843140297444 ], [ -4.183649822123804, 40.453843140297444 ], [ -4.183649822123804, 40.454714932352026 ], [ -4.184390038091311, 40.454714932352026 ], [ -4.184390038091311, 40.455586713095613 ], [ -4.18513025405882, 40.455586713095613 ], [ -4.18513025405882, 40.456458482528134 ], [ -4.18957154986387, 40.456458482528134 ], [ -4.18957154986387, 40.457330240649533 ], [ -4.190311765831378, 40.457330240649533 ], [ -4.190311765831378, 40.458637856623163 ], [ -4.191051981798886, 40.458637856623163 ], [ -4.191051981798886, 40.459509586466538 ], [ -4.191792197766395, 40.459509586466538 ], [ -4.191792197766395, 40.460381304998592 ], [ -4.19401284566892, 40.460381304998592 ], [ -4.19401284566892, 40.459945447146481 ], [ -4.194753061636429, 40.459945447146481 ], [ -4.194753061636429, 40.458201987459759 ], [ -4.195493277603937, 40.458201987459759 ], [ -4.195493277603937, 40.456458482528134 ], [ -4.196233493571445, 40.456458482528134 ], [ -4.196233493571445, 40.455586713095613 ], [ -4.197713925506461, 40.455586713095613 ], [ -4.197713925506461, 40.455150824137696 ], [ -4.199194357441478, 40.455150824137696 ], [ -4.199194357441478, 40.454714932352026 ], [ -4.200674789376495, 40.454714932352026 ], [ -4.200674789376495, 40.454279037738615 ], [ -4.201415005344002, 40.454279037738615 ], [ -4.201415005344002, 40.452971336931903 ], [ -4.202155221311512, 40.452971336931903 ], [ -4.202155221311512, 40.452099522255473 ], [ -4.20289543727902, 40.452099522255473 ], [ -4.20289543727902, 40.451227696268177 ], [ -4.208817165019086, 40.451227696268177 ], [ -4.208817165019086, 40.451663610675681 ], [ -4.212518244856629, 40.451663610675681 ], [ -4.212518244856629, 40.450791779032997 ], [ -4.213258460824137, 40.450791779032997 ], [ -4.213258460824137, 40.449484010361317 ], [ -4.213998676791645, 40.449484010361317 ], [ -4.213998676791645, 40.448612150441839 ], [ -4.214738892759153, 40.448612150441839 ], [ -4.214738892759153, 40.448176216240611 ], [ -4.215479108726662, 40.448176216240611 ], [ -4.215479108726662, 40.447740279211743 ], [ -4.217699756629187, 40.447740279211743 ], [ -4.217699756629187, 40.448176216240611 ], [ -4.219180188564203, 40.448176216240611 ], [ -4.219180188564203, 40.448612150441839 ], [ -4.219920404531711, 40.448612150441839 ], [ -4.219920404531711, 40.449048081815405 ], [ -4.220660620499221, 40.449048081815405 ], [ -4.220660620499221, 40.449484010361317 ], [ -4.221400836466728, 40.449484010361317 ], [ -4.221400836466728, 40.44991993607956 ], [ -4.222881268401745, 40.44991993607956 ], [ -4.222881268401745, 40.450355858970113 ], [ -4.223621484369254, 40.450355858970113 ], [ -4.223621484369254, 40.450791779032997 ], [ -4.224361700336762, 40.450791779032997 ], [ -4.224361700336762, 40.451227696268177 ], [ -4.225101916304269, 40.451227696268177 ], [ -4.225101916304269, 40.451663610675681 ], [ -4.225842132271779, 40.451663610675681 ], [ -4.225842132271779, 40.452099522255473 ], [ -4.226582348239286, 40.452099522255473 ], [ -4.226582348239286, 40.45253543100754 ], [ -4.227322564206795, 40.45253543100754 ], [ -4.227322564206795, 40.453407240028532 ], [ -4.228062780174303, 40.453407240028532 ], [ -4.228062780174303, 40.456894363002725 ], [ -4.227322564206795, 40.456894363002725 ], [ -4.227322564206795, 40.459509586466538 ], [ -4.226582348239286, 40.459509586466538 ], [ -4.226582348239286, 40.462124708128542 ], [ -4.225842132271779, 40.462124708128542 ], [ -4.225842132271779, 40.466918833435443 ], [ -4.226582348239286, 40.466918833435443 ], [ -4.226582348239286, 40.469969462289001 ], [ -4.227322564206795, 40.469969462289001 ], [ -4.227322564206795, 40.470841045081045 ], [ -4.226582348239286, 40.470841045081045 ], [ -4.226582348239286, 40.471712616561064 ], [ -4.225842132271779, 40.471712616561064 ], [ -4.225842132271779, 40.472584176728994 ], [ -4.225101916304269, 40.472584176728994 ], [ -4.225101916304269, 40.473019952570915 ], [ -4.221400836466728, 40.473019952570915 ], [ -4.221400836466728, 40.473455725584806 ], [ -4.216959540661678, 40.473455725584806 ], [ -4.216959540661678, 40.474763027658142 ], [ -4.21621932469417, 40.474763027658142 ], [ -4.21621932469417, 40.477377555446807 ], [ -4.215479108726662, 40.477377555446807 ], [ -4.215479108726662, 40.47868478116176 ], [ -4.214738892759153, 40.47868478116176 ], [ -4.214738892759153, 40.479120517410493 ], [ -4.213998676791645, 40.479120517410493 ], [ -4.213998676791645, 40.479556250831095 ], [ -4.213258460824137, 40.479556250831095 ], [ -4.213258460824137, 40.479991981423545 ], [ -4.212518244856629, 40.479991981423545 ], [ -4.212518244856629, 40.480863434123997 ], [ -4.21177802888912, 40.480863434123997 ], [ -4.21177802888912, 40.481299156231977 ], [ -4.211037812921611, 40.481299156231977 ], [ -4.211037812921611, 40.481734875511798 ], [ -4.210297596954103, 40.481734875511798 ], [ -4.210297596954103, 40.482170591963424 ], [ -4.209557380986594, 40.482170591963424 ], [ -4.209557380986594, 40.483913429488069 ], [ -4.208817165019086, 40.483913429488069 ], [ -4.208817165019086, 40.48565622176131 ], [ -4.209557380986594, 40.48565622176131 ], [ -4.209557380986594, 40.486527600928532 ], [ -4.210297596954103, 40.486527600928532 ], [ -4.210297596954103, 40.487398968782735 ], [ -4.211037812921611, 40.487398968782735 ], [ -4.211037812921611, 40.491319984126712 ], [ -4.210297596954103, 40.491319984126712 ], [ -4.210297596954103, 40.491755638356715 ], [ -4.209557380986594, 40.491755638356715 ], [ -4.209557380986594, 40.492626938331711 ], [ -4.208817165019086, 40.492626938331711 ], [ -4.208817165019086, 40.493062584076696 ], [ -4.20289543727902, 40.493062584076696 ], [ -4.20289543727902, 40.493933867081573 ], [ -4.202155221311512, 40.493933867081573 ], [ -4.202155221311512, 40.495240770376135 ], [ -4.201415005344002, 40.495240770376135 ], [ -4.201415005344002, 40.49741888596585 ], [ -4.202155221311512, 40.49741888596585 ], [ -4.202155221311512, 40.498290112402813 ], [ -4.20289543727902, 40.498290112402813 ], [ -4.20289543727902, 40.499161327526039 ], [ -4.203635653246529, 40.499161327526039 ], [ -4.203635653246529, 40.503517233434039 ], [ -4.20289543727902, 40.503517233434039 ], [ -4.20289543727902, 40.504388380673632 ], [ -4.202155221311512, 40.504388380673632 ], [ -4.202155221311512, 40.505695080319015 ], [ -4.201415005344002, 40.505695080319015 ], [ -4.201415005344002, 40.507001754507435 ], [ -4.200674789376495, 40.507001754507435 ], [ -4.200674789376495, 40.507872856490181 ], [ -4.199934573408987, 40.507872856490181 ], [ -4.199934573408987, 40.508308403238686 ], [ -4.199194357441478, 40.508308403238686 ], [ -4.199194357441478, 40.509179488249906 ], [ -4.19845414147397, 40.509179488249906 ], [ -4.19845414147397, 40.509615026512598 ], [ -4.197713925506461, 40.509615026512598 ], [ -4.197713925506461, 40.510050561946684 ], [ -4.196973709538954, 40.510050561946684 ], [ -4.196973709538954, 40.510486094552149 ], [ -4.196233493571445, 40.510486094552149 ], [ -4.196233493571445, 40.510921624328994 ], [ -4.188831333896362, 40.510921624328994 ], [ -4.188831333896362, 40.510486094552149 ], [ -4.187350901961345, 40.510486094552149 ], [ -4.187350901961345, 40.510050561946684 ] ] ] ] } }
]
}
