{
"type": "FeatureCollection",
"name": "spain_fires_modis_ba",
"crs": { "type": "name", "properties": { "name": "urn:ogc:def:crs:OGC:1.3:CRS84" } },
"features": [
{ "type": "Feature", "properties": { }, "geometry": { "type": "MultiPolygon", "coordinates": [ [ [ [ -7.240741767933224, 37.796438173352506 ], [ -7.240741767933224, 37.795985509082428 ], [ -7.2385211200307, 37.795985509082428 ], [ -7.2385211200307, 37.795532842038703 ], [ -7.237040688095683, 37.795532842038703 ], [ -7.237040688095683, 37.795080172221361 ], [ -7.236300472128176, 37.795080172221361 ], [ -7.236300472128176, 37.794627499630366 ], [ -7.235560256160666, 37.794627499630366 ], [ -7.235560256160666, 37.794174824265767 ], [ -7.233339608258142, 37.794174824265767 ], [ -7.233339608258142, 37.79372214612755 ], [ -7.232599392290632, 37.79372214612755 ], [ -7.232599392290632, 37.793269465215744 ], [ -7.231859176323125, 37.793269465215744 ], [ -7.231859176323125, 37.792364095071385 ], [ -7.231118960355618, 37.792364095071385 ], [ -7.231118960355618, 37.791006019053171 ], [ -7.230378744388108, 37.791006019053171 ], [ -7.230378744388108, 37.79055332150002 ], [ -7.229638528420599, 37.79055332150002 ], [ -7.229638528420599, 37.790100621173359 ], [ -7.228898312453092, 37.790100621173359 ], [ -7.228898312453092, 37.789647918073193 ], [ -7.225937448583058, 37.789647918073193 ], [ -7.225937448583058, 37.788289792131771 ], [ -7.226677664550566, 37.788289792131771 ], [ -7.226677664550566, 37.787837077937695 ], [ -7.228898312453092, 37.787837077937695 ], [ -7.228898312453092, 37.788289792131771 ], [ -7.229638528420599, 37.788289792131771 ], [ -7.229638528420599, 37.788742503552385 ], [ -7.230378744388108, 37.788742503552385 ], [ -7.230378744388108, 37.78919521219953 ], [ -7.231859176323125, 37.78919521219953 ], [ -7.231859176323125, 37.789647918073193 ], [ -7.233339608258142, 37.789647918073193 ], [ -7.233339608258142, 37.790100621173359 ], [ -7.234079824225649, 37.790100621173359 ], [ -7.234079824225649, 37.79055332150002 ], [ -7.234820040193158, 37.79055332150002 ], [ -7.234820040193158, 37.791006019053171 ], [ -7.235560256160666, 37.791006019053171 ], [ -7.235560256160666, 37.791458713832782 ], [ -7.237040688095683, 37.791458713832782 ], [ -7.237040688095683, 37.79191140583886 ], [ -7.2385211200307, 37.79191140583886 ], [ -7.2385211200307, 37.792364095071385 ], [ -7.239261335998209, 37.792364095071385 ], [ -7.239261335998209, 37.793269465215744 ], [ -7.240741767933224, 37.793269465215744 ], [ -7.240741767933224, 37.79372214612755 ], [ -7.241481983900733, 37.79372214612755 ], [ -7.241481983900733, 37.794174824265767 ], [ -7.242962415835749, 37.794174824265767 ], [ -7.242962415835749, 37.794627499630366 ], [ -7.243702631803258, 37.794627499630366 ], [ -7.243702631803258, 37.795532842038703 ], [ -7.244442847770767, 37.795532842038703 ], [ -7.244442847770767, 37.796438173352506 ], [ -7.240741767933224, 37.796438173352506 ] ] ], [ [ [ -7.107502893781724, 41.454499663008015 ], [ -7.107502893781724, 41.454070320280536 ], [ -7.106762677814216, 41.454070320280536 ], [ -7.106762677814216, 41.453640974711249 ], [ -7.106022461846709, 41.453640974711249 ], [ -7.106022461846709, 41.452782275047241 ], [ -7.1052822458792, 41.452782275047241 ], [ -7.1052822458792, 41.452352920952549 ], [ -7.104542029911691, 41.452352920952549 ], [ -7.104542029911691, 41.451923564016063 ], [ -7.103061597976675, 41.451923564016063 ], [ -7.103061597976675, 41.451494204237804 ], [ -7.102321382009166, 41.451494204237804 ], [ -7.102321382009166, 41.451064841617743 ], [ -7.10084095007415, 41.451064841617743 ], [ -7.10084095007415, 41.450635476155917 ], [ -7.099360518139132, 41.450635476155917 ], [ -7.099360518139132, 41.449347362719848 ], [ -7.098620302171625, 41.449347362719848 ], [ -7.098620302171625, 41.447200450158057 ], [ -7.097880086204117, 41.447200450158057 ], [ -7.097880086204117, 41.445912268520217 ], [ -7.097139870236608, 41.445912268520217 ], [ -7.097139870236608, 41.442476992451084 ], [ -7.097880086204117, 41.442476992451084 ], [ -7.097880086204117, 41.442047570154884 ], [ -7.100100734106641, 41.442047570154884 ], [ -7.100100734106641, 41.442476992451084 ], [ -7.10084095007415, 41.442476992451084 ], [ -7.10084095007415, 41.442906411905625 ], [ -7.102321382009166, 41.442906411905625 ], [ -7.102321382009166, 41.443765242289672 ], [ -7.103061597976675, 41.443765242289672 ], [ -7.103061597976675, 41.444624061306975 ], [ -7.103801813944183, 41.444624061306975 ], [ -7.103801813944183, 41.445053466553098 ], [ -7.104542029911691, 41.445053466553098 ], [ -7.104542029911691, 41.445912268520217 ], [ -7.1052822458792, 41.445912268520217 ], [ -7.1052822458792, 41.446341665241214 ], [ -7.106022461846709, 41.446341665241214 ], [ -7.106022461846709, 41.446771059120501 ], [ -7.110463757651758, 41.446771059120501 ], [ -7.110463757651758, 41.447200450158057 ], [ -7.111944189586774, 41.447200450158057 ], [ -7.111944189586774, 41.44762983835389 ], [ -7.112684405554282, 41.44762983835389 ], [ -7.112684405554282, 41.448059223707993 ], [ -7.113424621521792, 41.448059223707993 ], [ -7.113424621521792, 41.448488606220351 ], [ -7.1141648374893, 41.448488606220351 ], [ -7.1141648374893, 41.453640974711249 ], [ -7.113424621521792, 41.453640974711249 ], [ -7.113424621521792, 41.454499663008015 ], [ -7.107502893781724, 41.454499663008015 ] ] ] ] } }
]
}
