{
"type": "FeatureCollection",
"name": "spain_fires_nrt_ba",
"crs": { "type": "name", "properties": { "name": "urn:ogc:def:crs:OGC:1.3:CRS84" } },
"features": [
{ "type": "Feature", "properties": { }, "geometry": { "type": "MultiPolygon", "coordinates": [ [ [ [ -7.342151355481866, 37.288174549694837 ], [ -7.341411139514359, 37.288174549694837 ], [ -7.341411139514359, 37.287718788929489 ], [ -7.339930707579341, 37.287718788929489 ], [ -7.339930707579341, 37.287263025403576 ], [ -7.338450275644325, 37.287263025403576 ], [ -7.338450275644325, 37.286807259117083 ], [ -7.337710059676816, 37.286807259117083 ], [ -7.337710059676816, 37.286351490070047 ], [ -7.336969843709308, 37.286351490070047 ], [ -7.336969843709308, 37.285895718262488 ], [ -7.336229627741799, 37.285895718262488 ], [ -7.336229627741799, 37.284984166365774 ], [ -7.335489411774292, 37.284984166365774 ], [ -7.335489411774292, 37.28407260342707 ], [ -7.334749195806785, 37.28407260342707 ], [ -7.334749195806785, 37.28316102944644 ], [ -7.334008979839275, 37.28316102944644 ], [ -7.334008979839275, 37.282249444424018 ], [ -7.327347036131699, 37.282249444424018 ], [ -7.327347036131699, 37.281793647772162 ], [ -7.326606820164192, 37.281793647772162 ], [ -7.326606820164192, 37.280882046187195 ], [ -7.325866604196682, 37.280882046187195 ], [ -7.325866604196682, 37.279970433560663 ], [ -7.325126388229175, 37.279970433560663 ], [ -7.325126388229175, 37.279514623106849 ], [ -7.324386172261668, 37.279514623106849 ], [ -7.324386172261668, 37.276323872640816 ], [ -7.32290574032665, 37.276323872640816 ], [ -7.32290574032665, 37.275868040104505 ], [ -7.321425308391632, 37.275868040104505 ], [ -7.321425308391632, 37.275412204807914 ], [ -7.319944876456617, 37.275412204807914 ], [ -7.319944876456617, 37.273132986921539 ], [ -7.319204660489108, 37.273132986921539 ], [ -7.319204660489108, 37.26857434413639 ], [ -7.319944876456617, 37.26857434413639 ], [ -7.319944876456617, 37.268118464677329 ], [ -7.320685092424124, 37.268118464677329 ], [ -7.320685092424124, 37.267206697479054 ], [ -7.321425308391632, 37.267206697479054 ], [ -7.321425308391632, 37.265839025981464 ], [ -7.320685092424124, 37.265839025981464 ], [ -7.320685092424124, 37.264471329643946 ], [ -7.319944876456617, 37.264471329643946 ], [ -7.319944876456617, 37.263559518285803 ], [ -7.319204660489108, 37.263559518285803 ], [ -7.319204660489108, 37.260824017973448 ], [ -7.319944876456617, 37.260824017973448 ], [ -7.319944876456617, 37.259000295901238 ], [ -7.320685092424124, 37.259000295901238 ], [ -7.320685092424124, 37.25808841830623 ], [ -7.321425308391632, 37.25808841830623 ], [ -7.321425308391632, 37.257632475369043 ], [ -7.322165524359141, 37.257632475369043 ], [ -7.322165524359141, 37.257176529672087 ], [ -7.32290574032665, 37.257176529672087 ], [ -7.32290574032665, 37.256720581215362 ], [ -7.323645956294158, 37.256720581215362 ], [ -7.323645956294158, 37.252160944864045 ], [ -7.324386172261668, 37.252160944864045 ], [ -7.324386172261668, 37.251248984477876 ], [ -7.325126388229175, 37.251248984477876 ], [ -7.325126388229175, 37.250793000145379 ], [ -7.325866604196682, 37.250793000145379 ], [ -7.325866604196682, 37.249881023201638 ], [ -7.326606820164192, 37.249881023201638 ], [ -7.326606820164192, 37.249425030590409 ], [ -7.329567684034225, 37.249425030590409 ], [ -7.329567684034225, 37.248969035219631 ], [ -7.332528547904259, 37.248969035219631 ], [ -7.332528547904259, 37.248513037089317 ], [ -7.335489411774292, 37.248513037089317 ], [ -7.335489411774292, 37.248057036199462 ], [ -7.338450275644325, 37.248057036199462 ], [ -7.338450275644325, 37.247601032550094 ], [ -7.339190491611832, 37.247601032550094 ], [ -7.339190491611832, 37.248057036199462 ], [ -7.339930707579341, 37.248057036199462 ], [ -7.339930707579341, 37.248513037089317 ], [ -7.34067092354685, 37.248513037089317 ], [ -7.34067092354685, 37.248969035219631 ], [ -7.341411139514359, 37.248969035219631 ], [ -7.341411139514359, 37.249425030590409 ], [ -7.342151355481866, 37.249425030590409 ], [ -7.342151355481866, 37.249881023201638 ], [ -7.342891571449376, 37.249881023201638 ], [ -7.342891571449376, 37.250793000145379 ], [ -7.343631787416883, 37.250793000145379 ], [ -7.343631787416883, 37.251248984477876 ], [ -7.348073083221933, 37.251248984477876 ], [ -7.348073083221933, 37.251704966050767 ], [ -7.348813299189442, 37.251704966050767 ], [ -7.348813299189442, 37.252160944864045 ], [ -7.34955351515695, 37.252160944864045 ], [ -7.34955351515695, 37.252616920917696 ], [ -7.350293731124458, 37.252616920917696 ], [ -7.350293731124458, 37.253072894211705 ], [ -7.351033947091967, 37.253072894211705 ], [ -7.351033947091967, 37.253528864746066 ], [ -7.351774163059476, 37.253528864746066 ], [ -7.351774163059476, 37.253984832520771 ], [ -7.352514379026983, 37.253984832520771 ], [ -7.352514379026983, 37.254440797535786 ], [ -7.353254594994493, 37.254440797535786 ], [ -7.353254594994493, 37.254896759791137 ], [ -7.353994810962, 37.254896759791137 ], [ -7.353994810962, 37.255808676022696 ], [ -7.354735026929507, 37.255808676022696 ], [ -7.354735026929507, 37.256720581215362 ], [ -7.355475242897016, 37.256720581215362 ], [ -7.355475242897016, 37.257632475369043 ], [ -7.356215458864524, 37.257632475369043 ], [ -7.356215458864524, 37.258544358483633 ], [ -7.356955674832033, 37.258544358483633 ], [ -7.356955674832033, 37.259456230559039 ], [ -7.357695890799542, 37.259456230559039 ], [ -7.357695890799542, 37.260368091595154 ], [ -7.358436106767051, 37.260368091595154 ], [ -7.358436106767051, 37.262191780549152 ], [ -7.359176322734558, 37.262191780549152 ], [ -7.359176322734558, 37.264015425344844 ], [ -7.359916538702067, 37.264015425344844 ], [ -7.359916538702067, 37.266294919240671 ], [ -7.360656754669574, 37.266294919240671 ], [ -7.360656754669574, 37.26857434413639 ], [ -7.361396970637084, 37.26857434413639 ], [ -7.361396970637084, 37.270853700030528 ], [ -7.360656754669574, 37.270853700030528 ], [ -7.360656754669574, 37.272677135063667 ], [ -7.359916538702067, 37.272677135063667 ], [ -7.359916538702067, 37.274044682356738 ], [ -7.357695890799542, 37.274044682356738 ], [ -7.357695890799542, 37.274500525934023 ], [ -7.355475242897016, 37.274500525934023 ], [ -7.355475242897016, 37.274956366751084 ], [ -7.354735026929507, 37.274956366751084 ], [ -7.354735026929507, 37.275412204807914 ], [ -7.353994810962, 37.275412204807914 ], [ -7.353994810962, 37.276323872640816 ], [ -7.353254594994493, 37.276323872640816 ], [ -7.353254594994493, 37.278602993918142 ], [ -7.353994810962, 37.278602993918142 ], [ -7.353994810962, 37.282705238315458 ], [ -7.354735026929507, 37.282705238315458 ], [ -7.354735026929507, 37.28316102944644 ], [ -7.353994810962, 37.28316102944644 ], [ -7.353994810962, 37.284984166365774 ], [ -7.353254594994493, 37.284984166365774 ], [ -7.353254594994493, 37.286807259117083 ], [ -7.352514379026983, 37.286807259117083 ], [ -7.352514379026983, 37.287263025403576 ], [ -7.350293731124458, 37.287263025403576 ], [ -7.350293731124458, 37.287718788929489 ], [ -7.348073083221933, 37.287718788929489 ], [ -7.348073083221933, 37.288174549694837 ], [ -7.346592651286916, 37.288174549694837 ], [ -7.346592651286916, 37.288630307699599 ], [ -7.344372003384392, 37.288630307699599 ], [ -7.344372003384392, 37.289086062943767 ], [ -7.343631787416883, 37.289086062943767 ], [ -7.343631787416883, 37.288630307699599 ], [ -7.342151355481866, 37.288630307699599 ], [ -7.342151355481866, 37.288174549694837 ] ] ], [ [ [ -4.057813107647386, 40.089320749954233 ], [ -4.057813107647386, 40.08888249381728 ], [ -4.057072891679878, 40.08888249381728 ], [ -4.057072891679878, 40.088444234858578 ], [ -4.055592459744862, 40.088444234858578 ], [ -4.055592459744862, 40.08800597307814 ], [ -4.054852243777353, 40.08800597307814 ], [ -4.054852243777353, 40.087567708475987 ], [ -4.053371811842336, 40.087567708475987 ], [ -4.053371811842336, 40.087129441052106 ], [ -4.052631595874828, 40.087129441052106 ], [ -4.052631595874828, 40.086691170806503 ], [ -4.051151163939811, 40.086691170806503 ], [ -4.051151163939811, 40.086252897739207 ], [ -4.050410947972303, 40.086252897739207 ], [ -4.050410947972303, 40.085814621850197 ], [ -4.049670732004794, 40.085814621850197 ], [ -4.049670732004794, 40.085376343139508 ], [ -4.048190300069779, 40.085376343139508 ], [ -4.048190300069779, 40.08493806160714 ], [ -4.04745008410227, 40.08493806160714 ], [ -4.04745008410227, 40.084499777253086 ], [ -4.046709868134761, 40.084499777253086 ], [ -4.046709868134761, 40.083623200079977 ], [ -4.045969652167253, 40.083623200079977 ], [ -4.045969652167253, 40.082746611620259 ], [ -4.045229436199745, 40.082746611620259 ], [ -4.045229436199745, 40.081431707768395 ], [ -4.044489220232236, 40.081431707768395 ], [ -4.044489220232236, 40.0805550910924 ], [ -4.043749004264727, 40.0805550910924 ], [ -4.043749004264727, 40.078363500024508 ], [ -4.044489220232236, 40.078363500024508 ], [ -4.044489220232236, 40.076610176382005 ], [ -4.045229436199745, 40.076610176382005 ], [ -4.045229436199745, 40.075733497631518 ], [ -4.046709868134761, 40.075733497631518 ], [ -4.046709868134761, 40.075295154023983 ], [ -4.048930516037286, 40.075295154023983 ], [ -4.048930516037286, 40.074856807594948 ], [ -4.051151163939811, 40.074856807594948 ], [ -4.051151163939811, 40.074418458344404 ], [ -4.051891379907319, 40.074418458344404 ], [ -4.051891379907319, 40.074856807594948 ], [ -4.052631595874828, 40.074856807594948 ], [ -4.052631595874828, 40.075295154023983 ], [ -4.053371811842336, 40.075295154023983 ], [ -4.053371811842336, 40.075733497631518 ], [ -4.054852243777353, 40.075733497631518 ], [ -4.054852243777353, 40.076171838417515 ], [ -4.055592459744862, 40.076171838417515 ], [ -4.055592459744862, 40.076610176382005 ], [ -4.05633267571237, 40.076610176382005 ], [ -4.05633267571237, 40.077048511524943 ], [ -4.057813107647386, 40.077048511524943 ], [ -4.057813107647386, 40.077486843846359 ], [ -4.058553323614895, 40.077486843846359 ], [ -4.058553323614895, 40.077925173346209 ], [ -4.059293539582403, 40.077925173346209 ], [ -4.059293539582403, 40.078363500024508 ], [ -4.06077397151742, 40.078363500024508 ], [ -4.06077397151742, 40.07880182388125 ], [ -4.061514187484928, 40.07880182388125 ], [ -4.061514187484928, 40.079240144916412 ], [ -4.062254403452436, 40.079240144916412 ], [ -4.062254403452436, 40.079678463129994 ], [ -4.063734835387454, 40.079678463129994 ], [ -4.063734835387454, 40.0805550910924 ], [ -4.064475051354962, 40.0805550910924 ], [ -4.064475051354962, 40.081431707768395 ], [ -4.06521526732247, 40.081431707768395 ], [ -4.06521526732247, 40.081870011873981 ], [ -4.065955483289978, 40.081870011873981 ], [ -4.065955483289978, 40.083184907260943 ], [ -4.066695699257487, 40.083184907260943 ], [ -4.066695699257487, 40.086691170806503 ], [ -4.065955483289978, 40.086691170806503 ], [ -4.065955483289978, 40.087567708475987 ], [ -4.06521526732247, 40.087567708475987 ], [ -4.06521526732247, 40.08800597307814 ], [ -4.064475051354962, 40.08800597307814 ], [ -4.064475051354962, 40.088444234858578 ], [ -4.063734835387454, 40.088444234858578 ], [ -4.063734835387454, 40.08888249381728 ], [ -4.062994619419944, 40.08888249381728 ], [ -4.062994619419944, 40.089320749954233 ], [ -4.062254403452436, 40.089320749954233 ], [ -4.062254403452436, 40.089759003269435 ], [ -4.061514187484928, 40.089759003269435 ], [ -4.061514187484928, 40.090197253762874 ], [ -4.060033755549911, 40.090197253762874 ], [ -4.060033755549911, 40.089759003269435 ], [ -4.058553323614895, 40.089759003269435 ], [ -4.058553323614895, 40.089320749954233 ], [ -4.057813107647386, 40.089320749954233 ] ] ], [ [ [ -8.186737774408877, 40.232041805627233 ], [ -8.186737774408877, 40.231604469772954 ], [ -8.185997558441368, 40.231604469772954 ], [ -8.185997558441368, 40.23116713109453 ], [ -8.185257342473859, 40.23116713109453 ], [ -8.185257342473859, 40.230729789591969 ], [ -8.177114966831267, 40.230729789591969 ], [ -8.177114966831267, 40.230292445265285 ], [ -8.17193345505871, 40.230292445265285 ], [ -8.17193345505871, 40.229417748139561 ], [ -8.171193239091201, 40.229417748139561 ], [ -8.171193239091201, 40.228543039717401 ], [ -8.170453023123693, 40.228543039717401 ], [ -8.170453023123693, 40.228105681270179 ], [ -8.169712807156186, 40.228105681270179 ], [ -8.169712807156186, 40.225918846672968 ], [ -8.168972591188677, 40.225918846672968 ], [ -8.168972591188677, 40.222857159627054 ], [ -8.168232375221168, 40.222857159627054 ], [ -8.168232375221168, 40.221982366483566 ], [ -8.16749215925366, 40.221982366483566 ], [ -8.16749215925366, 40.221544965675839 ], [ -8.166751943286151, 40.221544965675839 ], [ -8.166751943286151, 40.221107562044146 ], [ -8.166011727318642, 40.221107562044146 ], [ -8.166011727318642, 40.220670155588472 ], [ -8.165271511351134, 40.220670155588472 ], [ -8.165271511351134, 40.219795334205266 ], [ -8.164531295383625, 40.219795334205266 ], [ -8.164531295383625, 40.217608231328292 ], [ -8.165271511351134, 40.217608231328292 ], [ -8.165271511351134, 40.214108719882191 ], [ -8.166011727318642, 40.214108719882191 ], [ -8.166011727318642, 40.213671268244013 ], [ -8.166751943286151, 40.213671268244013 ], [ -8.166751943286151, 40.213233813781997 ], [ -8.168232375221168, 40.213233813781997 ], [ -8.168232375221168, 40.212796356496142 ], [ -8.170453023123693, 40.212796356496142 ], [ -8.170453023123693, 40.212358896386462 ], [ -8.17193345505871, 40.212358896386462 ], [ -8.17193345505871, 40.209734076428298 ], [ -8.172673671026217, 40.209734076428298 ], [ -8.172673671026217, 40.207546648809178 ], [ -8.173413886993727, 40.207546648809178 ], [ -8.173413886993727, 40.207109154814098 ], [ -8.174154102961234, 40.207109154814098 ], [ -8.174154102961234, 40.20667165799528 ], [ -8.174894318928741, 40.20667165799528 ], [ -8.174894318928741, 40.205796655886459 ], [ -8.17563453489625, 40.205796655886459 ], [ -8.17563453489625, 40.205359150596479 ], [ -8.17637475086376, 40.205359150596479 ], [ -8.17637475086376, 40.204921642482795 ], [ -8.177114966831267, 40.204921642482795 ], [ -8.177114966831267, 40.204484131545392 ], [ -8.177855182798776, 40.204484131545392 ], [ -8.177855182798776, 40.204046617784321 ], [ -8.178595398766284, 40.204046617784321 ], [ -8.178595398766284, 40.203609101199554 ], [ -8.180816046668809, 40.203609101199554 ], [ -8.180816046668809, 40.204046617784321 ], [ -8.183036694571333, 40.204046617784321 ], [ -8.183036694571333, 40.204484131545392 ], [ -8.185257342473859, 40.204484131545392 ], [ -8.185257342473859, 40.204921642482795 ], [ -8.185997558441368, 40.204921642482795 ], [ -8.185997558441368, 40.20667165799528 ], [ -8.186737774408877, 40.20667165799528 ], [ -8.186737774408877, 40.20885911385195 ], [ -8.187477990376385, 40.20885911385195 ], [ -8.187477990376385, 40.209734076428298 ], [ -8.188218206343894, 40.209734076428298 ], [ -8.188218206343894, 40.209296596552015 ], [ -8.190438854246418, 40.209296596552015 ], [ -8.190438854246418, 40.20885911385195 ], [ -8.192659502148942, 40.20885911385195 ], [ -8.192659502148942, 40.209296596552015 ], [ -8.193399718116451, 40.209296596552015 ], [ -8.193399718116451, 40.210171553480819 ], [ -8.194139934083958, 40.210171553480819 ], [ -8.194139934083958, 40.210609027709545 ], [ -8.196360581986484, 40.210609027709545 ], [ -8.196360581986484, 40.210171553480819 ], [ -8.199321445856517, 40.210171553480819 ], [ -8.199321445856517, 40.211046499114488 ], [ -8.200061661824025, 40.211046499114488 ], [ -8.200061661824025, 40.211483967695621 ], [ -8.200801877791534, 40.211483967695621 ], [ -8.200801877791534, 40.212358896386462 ], [ -8.201542093759043, 40.212358896386462 ], [ -8.201542093759043, 40.213233813781997 ], [ -8.202282309726552, 40.213233813781997 ], [ -8.202282309726552, 40.216295935715131 ], [ -8.20302252569406, 40.216295935715131 ], [ -8.20302252569406, 40.218920501526263 ], [ -8.203762741661567, 40.218920501526263 ], [ -8.203762741661567, 40.221982366483566 ], [ -8.204502957629076, 40.221982366483566 ], [ -8.204502957629076, 40.225044093065705 ], [ -8.205243173596585, 40.225044093065705 ], [ -8.205243173596585, 40.227668319998877 ], [ -8.204502957629076, 40.227668319998877 ], [ -8.204502957629076, 40.228980395340528 ], [ -8.203762741661567, 40.228980395340528 ], [ -8.203762741661567, 40.230292445265285 ], [ -8.20302252569406, 40.230292445265285 ], [ -8.20302252569406, 40.23116713109453 ], [ -8.202282309726552, 40.23116713109453 ], [ -8.202282309726552, 40.232041805627233 ], [ -8.199321445856517, 40.232041805627233 ], [ -8.199321445856517, 40.232479138657375 ], [ -8.195620366018975, 40.232479138657375 ], [ -8.195620366018975, 40.232916468863337 ], [ -8.191919286181435, 40.232916468863337 ], [ -8.191919286181435, 40.233353796245147 ], [ -8.188218206343894, 40.233353796245147 ], [ -8.188218206343894, 40.232479138657375 ], [ -8.187477990376385, 40.232479138657375 ], [ -8.187477990376385, 40.232041805627233 ], [ -8.186737774408877, 40.232041805627233 ] ] ], [ [ [ -8.543521870747893, 40.582310231336763 ], [ -8.543521870747893, 40.581875165546229 ], [ -8.544262086715401, 40.581875165546229 ], [ -8.544262086715401, 40.581440096925959 ], [ -8.545002302682908, 40.581440096925959 ], [ -8.545002302682908, 40.58056995119626 ], [ -8.545742518650417, 40.58056995119626 ], [ -8.545742518650417, 40.580134874086838 ], [ -8.546482734617927, 40.580134874086838 ], [ -8.546482734617927, 40.579699794147707 ], [ -8.547222950585434, 40.579699794147707 ], [ -8.547222950585434, 40.579264711378883 ], [ -8.54944359848796, 40.579264711378883 ], [ -8.54944359848796, 40.579699794147707 ], [ -8.550183814455467, 40.579699794147707 ], [ -8.550183814455467, 40.580134874086838 ], [ -8.550924030422976, 40.580134874086838 ], [ -8.550924030422976, 40.58056995119626 ], [ -8.551664246390486, 40.58056995119626 ], [ -8.551664246390486, 40.581005025475967 ], [ -8.552404462357993, 40.581005025475967 ], [ -8.552404462357993, 40.581440096925959 ], [ -8.553884894293011, 40.581440096925959 ], [ -8.553884894293011, 40.581875165546229 ], [ -8.554625110260519, 40.581875165546229 ], [ -8.554625110260519, 40.582310231336763 ], [ -8.555365326228026, 40.582310231336763 ], [ -8.555365326228026, 40.582745294297553 ], [ -8.556105542195535, 40.582745294297553 ], [ -8.556105542195535, 40.583615411729902 ], [ -8.556845758163044, 40.583615411729902 ], [ -8.556845758163044, 40.584920566655214 ], [ -8.557585974130552, 40.584920566655214 ], [ -8.557585974130552, 40.585790655789864 ], [ -8.558326190098061, 40.585790655789864 ], [ -8.558326190098061, 40.587095768268377 ], [ -8.559066406065568, 40.587095768268377 ], [ -8.559066406065568, 40.587530800101604 ], [ -8.559066406065568, 40.588400855278593 ], [ -8.558326190098061, 40.588400855278593 ], [ -8.558326190098061, 40.590140931674519 ], [ -8.557585974130552, 40.590140931674519 ], [ -8.557585974130552, 40.591445959257968 ], [ -8.556845758163044, 40.591445959257968 ], [ -8.556845758163044, 40.593185956417564 ], [ -8.556105542195535, 40.593185956417564 ], [ -8.556105542195535, 40.594925908298656 ], [ -8.556845758163044, 40.594925908298656 ], [ -8.556845758163044, 40.596665814900831 ], [ -8.557585974130552, 40.596665814900831 ], [ -8.557585974130552, 40.597535751222196 ], [ -8.558326190098061, 40.597535751222196 ], [ -8.558326190098061, 40.597970715137919 ], [ -8.559806622033076, 40.597970715137919 ], [ -8.559806622033076, 40.59840567622367 ], [ -8.561287053968092, 40.59840567622367 ], [ -8.561287053968092, 40.597535751222196 ], [ -8.562027269935601, 40.597535751222196 ], [ -8.562027269935601, 40.596665814900831 ], [ -8.562767485903109, 40.596665814900831 ], [ -8.562767485903109, 40.59623084249521 ], [ -8.567208781708159, 40.59623084249521 ], [ -8.567208781708159, 40.596665814900831 ], [ -8.567948997675668, 40.596665814900831 ], [ -8.567948997675668, 40.597535751222196 ], [ -8.568689213643177, 40.597535751222196 ], [ -8.568689213643177, 40.59840567622367 ], [ -8.569429429610686, 40.59840567622367 ], [ -8.569429429610686, 40.599710542500972 ], [ -8.570169645578193, 40.599710542500972 ], [ -8.570169645578193, 40.600580439202481 ], [ -8.570909861545701, 40.600580439202481 ], [ -8.570909861545701, 40.601885263029587 ], [ -8.570169645578193, 40.601885263029587 ], [ -8.570169645578193, 40.60319006138635 ], [ -8.569429429610686, 40.60319006138635 ], [ -8.569429429610686, 40.604059912807244 ], [ -8.568689213643177, 40.604059912807244 ], [ -8.568689213643177, 40.60492975290785 ], [ -8.567948997675668, 40.60492975290785 ], [ -8.567948997675668, 40.60579958168811 ], [ -8.567208781708159, 40.60579958168811 ], [ -8.567208781708159, 40.607974104111925 ], [ -8.566468565740651, 40.607974104111925 ], [ -8.566468565740651, 40.61101831663953 ], [ -8.565728349773142, 40.61101831663953 ], [ -8.565728349773142, 40.611453192822808 ], [ -8.564988133805635, 40.611453192822808 ], [ -8.564988133805635, 40.61232293669881 ], [ -8.564247917838125, 40.61232293669881 ], [ -8.564247917838125, 40.612757804391528 ], [ -8.563507701870618, 40.612757804391528 ], [ -8.563507701870618, 40.613192669254026 ], [ -8.562767485903109, 40.613192669254026 ], [ -8.562767485903109, 40.613627531286319 ], [ -8.562027269935601, 40.613627531286319 ], [ -8.562027269935601, 40.614062390488392 ], [ -8.561287053968092, 40.614062390488392 ], [ -8.561287053968092, 40.614497246860239 ], [ -8.560546838000585, 40.614497246860239 ], [ -8.560546838000585, 40.614932100401859 ], [ -8.559806622033076, 40.614932100401859 ], [ -8.559806622033076, 40.615366951113238 ], [ -8.559066406065568, 40.615366951113238 ], [ -8.559066406065568, 40.615801798994376 ], [ -8.557585974130552, 40.615801798994376 ], [ -8.557585974130552, 40.615366951113238 ], [ -8.556105542195535, 40.615366951113238 ], [ -8.556105542195535, 40.614932100401859 ], [ -8.555365326228026, 40.614932100401859 ], [ -8.555365326228026, 40.614497246860239 ], [ -8.553884894293011, 40.614497246860239 ], [ -8.553884894293011, 40.614062390488392 ], [ -8.550924030422976, 40.614062390488392 ], [ -8.550924030422976, 40.614497246860239 ], [ -8.548703382520451, 40.614497246860239 ], [ -8.548703382520451, 40.614932100401859 ], [ -8.547222950585434, 40.614932100401859 ], [ -8.547222950585434, 40.614062390488392 ], [ -8.546482734617927, 40.614062390488392 ], [ -8.546482734617927, 40.613627531286319 ], [ -8.545742518650417, 40.613627531286319 ], [ -8.545742518650417, 40.612757804391528 ], [ -8.545002302682908, 40.612757804391528 ], [ -8.545002302682908, 40.611888066175908 ], [ -8.544262086715401, 40.611888066175908 ], [ -8.544262086715401, 40.609713671108629 ], [ -8.540561006877859, 40.609713671108629 ], [ -8.540561006877859, 40.61014855578243 ], [ -8.538340358975335, 40.61014855578243 ], [ -8.538340358975335, 40.609713671108629 ], [ -8.537600143007827, 40.609713671108629 ], [ -8.537600143007827, 40.609278783604672 ], [ -8.536119711072811, 40.609278783604672 ], [ -8.536119711072811, 40.608843893270567 ], [ -8.535379495105303, 40.608843893270567 ], [ -8.535379495105303, 40.608409000106313 ], [ -8.534639279137794, 40.608409000106313 ], [ -8.534639279137794, 40.606669399147982 ], [ -8.533899063170285, 40.606669399147982 ], [ -8.533899063170285, 40.60492975290785 ], [ -8.533158847202776, 40.60492975290785 ], [ -8.533158847202776, 40.604494834272586 ], [ -8.533899063170285, 40.604494834272586 ], [ -8.533899063170285, 40.60319006138635 ], [ -8.534639279137794, 40.60319006138635 ], [ -8.534639279137794, 40.601885263029587 ], [ -8.535379495105303, 40.601885263029587 ], [ -8.535379495105303, 40.600145492266726 ], [ -8.534639279137794, 40.600145492266726 ], [ -8.534639279137794, 40.599710542500972 ], [ -8.533158847202776, 40.599710542500972 ], [ -8.533158847202776, 40.598840634479423 ], [ -8.532418631235267, 40.598840634479423 ], [ -8.532418631235267, 40.597100784476496 ], [ -8.531678415267759, 40.597100784476496 ], [ -8.531678415267759, 40.594490924573257 ], [ -8.532418631235267, 40.594490924573257 ], [ -8.532418631235267, 40.593185956417564 ], [ -8.533158847202776, 40.593185956417564 ], [ -8.533158847202776, 40.592315963497541 ], [ -8.533899063170285, 40.592315963497541 ], [ -8.533899063170285, 40.591010952893363 ], [ -8.534639279137794, 40.591010952893363 ], [ -8.534639279137794, 40.590575943698873 ], [ -8.539820790910351, 40.590575943698873 ], [ -8.539820790910351, 40.591445959257968 ], [ -8.540561006877859, 40.591445959257968 ], [ -8.540561006877859, 40.592315963497541 ], [ -8.541301222845368, 40.592315963497541 ], [ -8.541301222845368, 40.593620948632704 ], [ -8.542041438812877, 40.593620948632704 ], [ -8.542041438812877, 40.594490924573257 ], [ -8.542781654780384, 40.594490924573257 ], [ -8.542781654780384, 40.59623084249521 ], [ -8.542041438812877, 40.59623084249521 ], [ -8.542041438812877, 40.597535751222196 ], [ -8.541301222845368, 40.597535751222196 ], [ -8.541301222845368, 40.598840634479423 ], [ -8.540561006877859, 40.598840634479423 ], [ -8.540561006877859, 40.599275589905197 ], [ -8.542781654780384, 40.599275589905197 ], [ -8.542781654780384, 40.598840634479423 ], [ -8.546482734617927, 40.598840634479423 ], [ -8.546482734617927, 40.59840567622367 ], [ -8.545742518650417, 40.59840567622367 ], [ -8.545742518650417, 40.59623084249521 ], [ -8.545002302682908, 40.59623084249521 ], [ -8.545002302682908, 40.594055938017945 ], [ -8.544262086715401, 40.594055938017945 ], [ -8.544262086715401, 40.593185956417564 ], [ -8.545002302682908, 40.593185956417564 ], [ -8.545002302682908, 40.591010952893363 ], [ -8.545742518650417, 40.591010952893363 ], [ -8.545742518650417, 40.588835878622341 ], [ -8.545002302682908, 40.588835878622341 ], [ -8.545002302682908, 40.588400855278593 ], [ -8.544262086715401, 40.588400855278593 ], [ -8.544262086715401, 40.587530800101604 ], [ -8.543521870747893, 40.587530800101604 ], [ -8.543521870747893, 40.586660733605349 ], [ -8.542781654780384, 40.586660733605349 ], [ -8.542781654780384, 40.582310231336763 ], [ -8.543521870747893, 40.582310231336763 ] ] ], [ [ [ -8.434710123524168, 42.447563293235106 ], [ -8.43396990755666, 42.447563293235106 ], [ -8.43396990755666, 42.44714058776438 ], [ -8.433229691589151, 42.44714058776438 ], [ -8.433229691589151, 42.44671787944128 ], [ -8.432489475621644, 42.44671787944128 ], [ -8.432489475621644, 42.446295168265841 ], [ -8.426567747881576, 42.446295168265841 ], [ -8.426567747881576, 42.44671787944128 ], [ -8.42434709997905, 42.44671787944128 ], [ -8.42434709997905, 42.446295168265841 ], [ -8.423606884011543, 42.446295168265841 ], [ -8.423606884011543, 42.445872454238042 ], [ -8.422866668044033, 42.445872454238042 ], [ -8.422866668044033, 42.445449737357904 ], [ -8.421386236109019, 42.445449737357904 ], [ -8.421386236109019, 42.445027017625421 ], [ -8.420646020141509, 42.445027017625421 ], [ -8.420646020141509, 42.44418156960343 ], [ -8.419905804174, 42.44418156960343 ], [ -8.419905804174, 42.443336110172119 ], [ -8.419165588206493, 42.443336110172119 ], [ -8.419165588206493, 42.442490639331517 ], [ -8.418425372238985, 42.442490639331517 ], [ -8.418425372238985, 42.441645157081645 ], [ -8.417685156271476, 42.441645157081645 ], [ -8.417685156271476, 42.440799663422538 ], [ -8.416944940303967, 42.440799663422538 ], [ -8.416944940303967, 42.439954158354219 ], [ -8.41620472433646, 42.439954158354219 ], [ -8.41620472433646, 42.439108641876722 ], [ -8.415464508368952, 42.439108641876722 ], [ -8.415464508368952, 42.434458097312834 ], [ -8.41620472433646, 42.434458097312834 ], [ -8.41620472433646, 42.433612506676447 ], [ -8.416944940303967, 42.433612506676447 ], [ -8.416944940303967, 42.432766904631094 ], [ -8.417685156271476, 42.432766904631094 ], [ -8.417685156271476, 42.43192129117682 ], [ -8.418425372238985, 42.43192129117682 ], [ -8.418425372238985, 42.431498480171356 ], [ -8.419165588206493, 42.431498480171356 ], [ -8.419165588206493, 42.43192129117682 ], [ -8.422866668044033, 42.43192129117682 ], [ -8.422866668044033, 42.431498480171356 ], [ -8.423606884011543, 42.431498480171356 ], [ -8.423606884011543, 42.43107566631366 ], [ -8.42434709997905, 42.43107566631366 ], [ -8.42434709997905, 42.430230030041642 ], [ -8.425087315946559, 42.430230030041642 ], [ -8.425087315946559, 42.429384382360801 ], [ -8.427307963849083, 42.429384382360801 ], [ -8.427307963849083, 42.42980720762732 ], [ -8.429528611751611, 42.42980720762732 ], [ -8.429528611751611, 42.430230030041642 ], [ -8.431749259654135, 42.430230030041642 ], [ -8.431749259654135, 42.43065284960376 ], [ -8.432489475621644, 42.43065284960376 ], [ -8.432489475621644, 42.431498480171356 ], [ -8.433229691589151, 42.431498480171356 ], [ -8.433229691589151, 42.432766904631094 ], [ -8.43396990755666, 42.432766904631094 ], [ -8.43396990755666, 42.434035303420757 ], [ -8.434710123524168, 42.434035303420757 ], [ -8.434710123524168, 42.435303676540258 ], [ -8.435450339491677, 42.435303676540258 ], [ -8.435450339491677, 42.436572023989484 ], [ -8.436190555459184, 42.436572023989484 ], [ -8.436190555459184, 42.437417574694329 ], [ -8.436930771426693, 42.437417574694329 ], [ -8.436930771426693, 42.437840345768343 ], [ -8.43841120336171, 42.437840345768343 ], [ -8.43841120336171, 42.438263113990082 ], [ -8.440631851264234, 42.438263113990082 ], [ -8.440631851264234, 42.438685879359547 ], [ -8.44285249916676, 42.438685879359547 ], [ -8.44285249916676, 42.439108641876722 ], [ -8.444332931101776, 42.439108641876722 ], [ -8.444332931101776, 42.439531401541615 ], [ -8.445073147069284, 42.439531401541615 ], [ -8.445073147069284, 42.44122241167824 ], [ -8.445813363036793, 42.44122241167824 ], [ -8.445813363036793, 42.445027017625421 ], [ -8.445073147069284, 42.445027017625421 ], [ -8.445073147069284, 42.44671787944128 ], [ -8.444332931101776, 42.44671787944128 ], [ -8.444332931101776, 42.44714058776438 ], [ -8.44285249916676, 42.44714058776438 ], [ -8.44285249916676, 42.447563293235106 ], [ -8.439891635296727, 42.447563293235106 ], [ -8.439891635296727, 42.447985995853479 ], [ -8.437670987394201, 42.447985995853479 ], [ -8.437670987394201, 42.448408695619484 ], [ -8.435450339491677, 42.448408695619484 ], [ -8.435450339491677, 42.447985995853479 ], [ -8.434710123524168, 42.447985995853479 ], [ -8.434710123524168, 42.447563293235106 ] ] ], [ [ [ -5.724039250508648, 43.536943031704851 ], [ -5.724039250508648, 43.536527753207956 ], [ -5.72255881857363, 43.536527753207956 ], [ -5.72255881857363, 43.535697187634213 ], [ -5.721818602606122, 43.535697187634213 ], [ -5.721818602606122, 43.534866610620547 ], [ -5.721078386638613, 43.534866610620547 ], [ -5.721078386638613, 43.533620723650237 ], [ -5.720338170671106, 43.533620723650237 ], [ -5.720338170671106, 43.532790118036843 ], [ -5.719597954703597, 43.532790118036843 ], [ -5.719597954703597, 43.531959500983589 ], [ -5.718857738736089, 43.531959500983589 ], [ -5.718857738736089, 43.530713553953994 ], [ -5.718117522768581, 43.530713553953994 ], [ -5.718117522768581, 43.529882908301154 ], [ -5.717377306801072, 43.529882908301154 ], [ -5.717377306801072, 43.529052251208505 ], [ -5.716637090833564, 43.529052251208505 ], [ -5.716637090833564, 43.527806244119944 ], [ -5.715896874866057, 43.527806244119944 ], [ -5.715896874866057, 43.526975558427864 ], [ -5.715156658898548, 43.526975558427864 ], [ -5.715156658898548, 43.525314152724491 ], [ -5.715896874866057, 43.525314152724491 ], [ -5.715896874866057, 43.521575822586357 ], [ -5.716637090833564, 43.521575822586357 ], [ -5.716637090833564, 43.520329661061893 ], [ -5.718117522768581, 43.520329661061893 ], [ -5.718117522768581, 43.519914268167263 ], [ -5.718857738736089, 43.519914268167263 ], [ -5.718857738736089, 43.519498872412733 ], [ -5.719597954703597, 43.519498872412733 ], [ -5.719597954703597, 43.519083473798304 ], [ -5.720338170671106, 43.519083473798304 ], [ -5.720338170671106, 43.518668072323983 ], [ -5.721078386638613, 43.518668072323983 ], [ -5.721078386638613, 43.518252667989771 ], [ -5.721818602606122, 43.518252667989771 ], [ -5.721818602606122, 43.517837260795666 ], [ -5.72255881857363, 43.517837260795666 ], [ -5.72255881857363, 43.51742185074167 ], [ -5.723299034541139, 43.51742185074167 ], [ -5.723299034541139, 43.517006437827789 ], [ -5.724039250508648, 43.517006437827789 ], [ -5.724039250508648, 43.516591022054023 ], [ -5.724779466476156, 43.516591022054023 ], [ -5.724779466476156, 43.516175603420372 ], [ -5.727000114378681, 43.516175603420372 ], [ -5.727000114378681, 43.515760181926844 ], [ -5.728480546313697, 43.515760181926844 ], [ -5.728480546313697, 43.51534475757343 ], [ -5.730701194216222, 43.51534475757343 ], [ -5.730701194216222, 43.514929330360154 ], [ -5.733662058086256, 43.514929330360154 ], [ -5.733662058086256, 43.51534475757343 ], [ -5.734402274053765, 43.51534475757343 ], [ -5.734402274053765, 43.515760181926844 ], [ -5.735142490021273, 43.515760181926844 ], [ -5.735142490021273, 43.516175603420372 ], [ -5.73588270598878, 43.516175603420372 ], [ -5.73588270598878, 43.516591022054023 ], [ -5.73662292195629, 43.516591022054023 ], [ -5.73662292195629, 43.517006437827789 ], [ -5.737363137923798, 43.517006437827789 ], [ -5.737363137923798, 43.51742185074167 ], [ -5.738103353891305, 43.51742185074167 ], [ -5.738103353891305, 43.517837260795666 ], [ -5.739583785826321, 43.517837260795666 ], [ -5.739583785826321, 43.518252667989771 ], [ -5.74032400179383, 43.518252667989771 ], [ -5.74032400179383, 43.518668072323983 ], [ -5.741064217761339, 43.518668072323983 ], [ -5.741064217761339, 43.519083473798304 ], [ -5.741804433728848, 43.519083473798304 ], [ -5.741804433728848, 43.519498872412733 ], [ -5.742544649696356, 43.519498872412733 ], [ -5.742544649696356, 43.519914268167263 ], [ -5.743284865663864, 43.519914268167263 ], [ -5.743284865663864, 43.520329661061893 ], [ -5.744025081631372, 43.520329661061893 ], [ -5.744025081631372, 43.520745051096618 ], [ -5.744765297598882, 43.520745051096618 ], [ -5.744765297598882, 43.529052251208505 ], [ -5.744025081631372, 43.529052251208505 ], [ -5.744025081631372, 43.529882908301154 ], [ -5.743284865663864, 43.529882908301154 ], [ -5.743284865663864, 43.530713553953994 ], [ -5.742544649696356, 43.530713553953994 ], [ -5.742544649696356, 43.531544188167018 ], [ -5.741804433728848, 43.531544188167018 ], [ -5.741804433728848, 43.531959500983589 ], [ -5.741064217761339, 43.531959500983589 ], [ -5.741064217761339, 43.532790118036843 ], [ -5.74032400179383, 43.532790118036843 ], [ -5.74032400179383, 43.533620723650237 ], [ -5.739583785826321, 43.533620723650237 ], [ -5.739583785826321, 43.53403602216698 ], [ -5.738843569858814, 43.53403602216698 ], [ -5.738843569858814, 43.534451317823752 ], [ -5.738103353891305, 43.534451317823752 ], [ -5.738103353891305, 43.534866610620547 ], [ -5.737363137923798, 43.534866610620547 ], [ -5.737363137923798, 43.535281900557365 ], [ -5.73662292195629, 43.535281900557365 ], [ -5.73662292195629, 43.535697187634213 ], [ -5.73588270598878, 43.535697187634213 ], [ -5.73588270598878, 43.536112471851069 ], [ -5.735142490021273, 43.536112471851069 ], [ -5.735142490021273, 43.536527753207956 ], [ -5.734402274053765, 43.536527753207956 ], [ -5.734402274053765, 43.536943031704851 ], [ -5.733662058086256, 43.536943031704851 ], [ -5.733662058086256, 43.537358307341755 ], [ -5.732921842118747, 43.537358307341755 ], [ -5.732921842118747, 43.537773580118674 ], [ -5.729960978248714, 43.537773580118674 ], [ -5.729960978248714, 43.537358307341755 ], [ -5.727000114378681, 43.537358307341755 ], [ -5.727000114378681, 43.536943031704851 ], [ -5.724039250508648, 43.536943031704851 ] ] ], [ [ [ -5.821007542252239, 43.550230433520795 ], [ -5.821007542252239, 43.549400056708208 ], [ -5.82026732628473, 43.549400056708208 ], [ -5.82026732628473, 43.546908857629347 ], [ -5.819527110317222, 43.546908857629347 ], [ -5.819527110317222, 43.54192615058799 ], [ -5.818786894349714, 43.54192615058799 ], [ -5.818786894349714, 43.541510906411077 ], [ -5.818046678382206, 43.541510906411077 ], [ -5.818046678382206, 43.541095659374164 ], [ -5.817306462414698, 43.541095659374164 ], [ -5.817306462414698, 43.540680409477226 ], [ -5.816566246447189, 43.540680409477226 ], [ -5.816566246447189, 43.539434642626411 ], [ -5.815826030479681, 43.539434642626411 ], [ -5.815826030479681, 43.537773580118674 ], [ -5.815085814512173, 43.537773580118674 ], [ -5.815085814512173, 43.536527753207956 ], [ -5.815826030479681, 43.536527753207956 ], [ -5.815826030479681, 43.535281900557365 ], [ -5.816566246447189, 43.535281900557365 ], [ -5.816566246447189, 43.53403602216698 ], [ -5.817306462414698, 43.53403602216698 ], [ -5.817306462414698, 43.533205422273518 ], [ -5.818046678382206, 43.533205422273518 ], [ -5.818046678382206, 43.531959500983589 ], [ -5.821007542252239, 43.531959500983589 ], [ -5.821007542252239, 43.53237481094019 ], [ -5.823968406122273, 43.53237481094019 ], [ -5.823968406122273, 43.531959500983589 ], [ -5.824708622089781, 43.531959500983589 ], [ -5.824708622089781, 43.531544188167018 ], [ -5.82544883805729, 43.531544188167018 ], [ -5.82544883805729, 43.531128872490477 ], [ -5.826189054024797, 43.531128872490477 ], [ -5.826189054024797, 43.530713553953994 ], [ -5.827669485959815, 43.530713553953994 ], [ -5.827669485959815, 43.530298232557548 ], [ -5.828409701927322, 43.530298232557548 ], [ -5.828409701927322, 43.529882908301154 ], [ -5.829149917894831, 43.529882908301154 ], [ -5.829149917894831, 43.529467581184797 ], [ -5.829890133862339, 43.529467581184797 ], [ -5.829890133862339, 43.529052251208505 ], [ -5.830630349829847, 43.529052251208505 ], [ -5.830630349829847, 43.528636918372264 ], [ -5.832110781764865, 43.528636918372264 ], [ -5.832110781764865, 43.529052251208505 ], [ -5.832850997732372, 43.529052251208505 ], [ -5.832850997732372, 43.529467581184797 ], [ -5.833591213699881, 43.529467581184797 ], [ -5.833591213699881, 43.529882908301154 ], [ -5.834331429667389, 43.529882908301154 ], [ -5.834331429667389, 43.530298232557548 ], [ -5.835071645634897, 43.530298232557548 ], [ -5.835071645634897, 43.530713553953994 ], [ -5.835811861602406, 43.530713553953994 ], [ -5.835811861602406, 43.531544188167018 ], [ -5.836552077569914, 43.531544188167018 ], [ -5.836552077569914, 43.531959500983589 ], [ -5.837292293537423, 43.531959500983589 ], [ -5.837292293537423, 43.53237481094019 ], [ -5.838032509504931, 43.53237481094019 ], [ -5.838032509504931, 43.532790118036843 ], [ -5.83877272547244, 43.532790118036843 ], [ -5.83877272547244, 43.533205422273518 ], [ -5.841733589342473, 43.533205422273518 ], [ -5.841733589342473, 43.532790118036843 ], [ -5.842473805309981, 43.532790118036843 ], [ -5.842473805309981, 43.53237481094019 ], [ -5.843954237244998, 43.53237481094019 ], [ -5.843954237244998, 43.531959500983589 ], [ -5.846174885147523, 43.531959500983589 ], [ -5.846174885147523, 43.53237481094019 ], [ -5.846915101115031, 43.53237481094019 ], [ -5.846915101115031, 43.532790118036843 ], [ -5.847655317082539, 43.532790118036843 ], [ -5.847655317082539, 43.533620723650237 ], [ -5.848395533050048, 43.533620723650237 ], [ -5.848395533050048, 43.53403602216698 ], [ -5.849135749017555, 43.53403602216698 ], [ -5.849135749017555, 43.534451317823752 ], [ -5.849875964985064, 43.534451317823752 ], [ -5.849875964985064, 43.534866610620547 ], [ -5.850616180952573, 43.534866610620547 ], [ -5.850616180952573, 43.535281900557365 ], [ -5.85135639692008, 43.535281900557365 ], [ -5.85135639692008, 43.536943031704851 ], [ -5.852096612887589, 43.536943031704851 ], [ -5.852096612887589, 43.542756630361758 ], [ -5.852836828855097, 43.542756630361758 ], [ -5.852836828855097, 43.544002328572311 ], [ -5.852096612887589, 43.544002328572311 ], [ -5.852096612887589, 43.54607843505606 ], [ -5.85135639692008, 43.54607843505606 ], [ -5.85135639692008, 43.54773926876247 ], [ -5.850616180952573, 43.54773926876247 ], [ -5.850616180952573, 43.549400056708208 ], [ -5.849875964985064, 43.549400056708208 ], [ -5.849875964985064, 43.550230433520795 ], [ -5.849135749017555, 43.550230433520795 ], [ -5.849135749017555, 43.550645617637002 ], [ -5.847655317082539, 43.550645617637002 ], [ -5.847655317082539, 43.551060798893154 ], [ -5.846915101115031, 43.551060798893154 ], [ -5.846915101115031, 43.551475977289243 ], [ -5.844694453212505, 43.551475977289243 ], [ -5.844694453212505, 43.551060798893154 ], [ -5.842473805309981, 43.551060798893154 ], [ -5.842473805309981, 43.550645617637002 ], [ -5.840993373374964, 43.550645617637002 ], [ -5.840993373374964, 43.550230433520795 ], [ -5.83877272547244, 43.550230433520795 ], [ -5.83877272547244, 43.549815246544526 ], [ -5.837292293537423, 43.549815246544526 ], [ -5.837292293537423, 43.549400056708208 ], [ -5.835071645634897, 43.549400056708208 ], [ -5.835071645634897, 43.548984864011857 ], [ -5.833591213699881, 43.548984864011857 ], [ -5.833591213699881, 43.548569668455436 ], [ -5.831370565797356, 43.548569668455436 ], [ -5.831370565797356, 43.54815447003898 ], [ -5.830630349829847, 43.54815447003898 ], [ -5.830630349829847, 43.549400056708208 ], [ -5.829890133862339, 43.549400056708208 ], [ -5.829890133862339, 43.550230433520795 ], [ -5.829149917894831, 43.550230433520795 ], [ -5.829149917894831, 43.551060798893154 ], [ -5.828409701927322, 43.551060798893154 ], [ -5.828409701927322, 43.551891152825284 ], [ -5.822487974187256, 43.551891152825284 ], [ -5.822487974187256, 43.551060798893154 ], [ -5.821747758219748, 43.551060798893154 ], [ -5.821747758219748, 43.550230433520795 ], [ -5.821007542252239, 43.550230433520795 ] ] ], [ [ [ -0.277530161582322, 35.824969885320684 ], [ -0.276789945614814, 35.824969885320684 ], [ -0.276789945614814, 35.824505411354338 ], [ -0.276049729647306, 35.824505411354338 ], [ -0.276049729647306, 35.824040934669902 ], [ -0.274569297712289, 35.824040934669902 ], [ -0.274569297712289, 35.8235764552674 ], [ -0.271608433842256, 35.8235764552674 ], [ -0.271608433842256, 35.82311197314683 ], [ -0.269387785939731, 35.82311197314683 ], [ -0.269387785939731, 35.822647488308213 ], [ -0.266426922069697, 35.822647488308213 ], [ -0.266426922069697, 35.822183000751579 ], [ -0.264206274167172, 35.822183000751579 ], [ -0.264206274167172, 35.821718510476927 ], [ -0.261245410297139, 35.821718510476927 ], [ -0.261245410297139, 35.821254017484272 ], [ -0.260505194329631, 35.821254017484272 ], [ -0.260505194329631, 35.820325023345006 ], [ -0.259764978362122, 35.820325023345006 ], [ -0.259764978362122, 35.819860522198454 ], [ -0.259024762394614, 35.819860522198454 ], [ -0.259024762394614, 35.818931511751508 ], [ -0.258284546427106, 35.818931511751508 ], [ -0.258284546427106, 35.818467002451158 ], [ -0.257544330459597, 35.818467002451158 ], [ -0.257544330459597, 35.818002490432896 ], [ -0.256804114492089, 35.818002490432896 ], [ -0.256804114492089, 35.81753797569678 ], [ -0.253103034654547, 35.81753797569678 ], [ -0.253103034654547, 35.817073458242774 ], [ -0.248661738849497, 35.817073458242774 ], [ -0.248661738849497, 35.816608938070921 ], [ -0.246441090946972, 35.816608938070921 ], [ -0.246441090946972, 35.817073458242774 ], [ -0.245700874979464, 35.817073458242774 ], [ -0.245700874979464, 35.81753797569678 ], [ -0.244960659011956, 35.81753797569678 ], [ -0.244960659011956, 35.818002490432896 ], [ -0.244220443044447, 35.818002490432896 ], [ -0.244220443044447, 35.818467002451158 ], [ -0.243480227076939, 35.818467002451158 ], [ -0.243480227076939, 35.818931511751508 ], [ -0.242740011109431, 35.818931511751508 ], [ -0.242740011109431, 35.81939601833394 ], [ -0.239779147239397, 35.81939601833394 ], [ -0.239779147239397, 35.818931511751508 ], [ -0.237558499336872, 35.818931511751508 ], [ -0.237558499336872, 35.818467002451158 ], [ -0.236078067401856, 35.818467002451158 ], [ -0.236078067401856, 35.818002490432896 ], [ -0.234597635466839, 35.818002490432896 ], [ -0.234597635466839, 35.81753797569678 ], [ -0.232376987564314, 35.81753797569678 ], [ -0.232376987564314, 35.817073458242774 ], [ -0.231636771596806, 35.817073458242774 ], [ -0.231636771596806, 35.816144415181228 ], [ -0.230896555629297, 35.816144415181228 ], [ -0.230896555629297, 35.815215361248384 ], [ -0.230156339661789, 35.815215361248384 ], [ -0.230156339661789, 35.814286296444358 ], [ -0.229416123694281, 35.814286296444358 ], [ -0.229416123694281, 35.813821759965677 ], [ -0.228675907726772, 35.813821759965677 ], [ -0.228675907726772, 35.813357220769255 ], [ -0.227195475791756, 35.813357220769255 ], [ -0.227195475791756, 35.812892678855093 ], [ -0.225715043856739, 35.812892678855093 ], [ -0.225715043856739, 35.812428134223211 ], [ -0.224234611921722, 35.812428134223211 ], [ -0.224234611921722, 35.810569928518746 ], [ -0.223494395954214, 35.810569928518746 ], [ -0.223494395954214, 35.805924224024189 ], [ -0.224234611921722, 35.805924224024189 ], [ -0.224234611921722, 35.803601269869652 ], [ -0.224974827889231, 35.803601269869652 ], [ -0.224974827889231, 35.803136670886389 ], [ -0.225715043856739, 35.803136670886389 ], [ -0.225715043856739, 35.80220746476764 ], [ -0.226455259824247, 35.80220746476764 ], [ -0.226455259824247, 35.801742857632192 ], [ -0.227195475791756, 35.801742857632192 ], [ -0.227195475791756, 35.801278247779365 ], [ -0.228675907726772, 35.801278247779365 ], [ -0.228675907726772, 35.800813635209181 ], [ -0.233117203531822, 35.800813635209181 ], [ -0.233117203531822, 35.800349019921647 ], [ -0.233857419499331, 35.800349019921647 ], [ -0.233857419499331, 35.800813635209181 ], [ -0.234597635466839, 35.800813635209181 ], [ -0.234597635466839, 35.801278247779365 ], [ -0.236078067401856, 35.801278247779365 ], [ -0.236078067401856, 35.801742857632192 ], [ -0.236818283369364, 35.801742857632192 ], [ -0.236818283369364, 35.80220746476764 ], [ -0.237558499336872, 35.80220746476764 ], [ -0.237558499336872, 35.802672069185711 ], [ -0.239038931271889, 35.802672069185711 ], [ -0.239038931271889, 35.801278247779365 ], [ -0.239779147239397, 35.801278247779365 ], [ -0.239779147239397, 35.799884401916799 ], [ -0.240519363206906, 35.799884401916799 ], [ -0.240519363206906, 35.798955157755167 ], [ -0.241259579174414, 35.798955157755167 ], [ -0.241259579174414, 35.798490531598425 ], [ -0.241999795141922, 35.798490531598425 ], [ -0.241999795141922, 35.798025902724412 ], [ -0.243480227076939, 35.798025902724412 ], [ -0.243480227076939, 35.797561271133148 ], [ -0.246441090946972, 35.797561271133148 ], [ -0.246441090946972, 35.798025902724412 ], [ -0.247181306914481, 35.798025902724412 ], [ -0.247181306914481, 35.798490531598425 ], [ -0.247921522881989, 35.798490531598425 ], [ -0.247921522881989, 35.798955157755167 ], [ -0.251622602719531, 35.798955157755167 ], [ -0.251622602719531, 35.798490531598425 ], [ -0.254583466589564, 35.798490531598425 ], [ -0.254583466589564, 35.798025902724412 ], [ -0.258284546427106, 35.798025902724412 ], [ -0.258284546427106, 35.797561271133148 ], [ -0.261985626264647, 35.797561271133148 ], [ -0.261985626264647, 35.798025902724412 ], [ -0.264206274167172, 35.798025902724412 ], [ -0.264206274167172, 35.798490531598425 ], [ -0.266426922069697, 35.798490531598425 ], [ -0.266426922069697, 35.798955157755167 ], [ -0.267167138037206, 35.798955157755167 ], [ -0.267167138037206, 35.799419781194644 ], [ -0.267907354004714, 35.799419781194644 ], [ -0.267907354004714, 35.799884401916799 ], [ -0.268647569972222, 35.799884401916799 ], [ -0.268647569972222, 35.800349019921647 ], [ -0.269387785939731, 35.800349019921647 ], [ -0.269387785939731, 35.800813635209181 ], [ -0.270128001907239, 35.800813635209181 ], [ -0.270128001907239, 35.801278247779365 ], [ -0.270868217874747, 35.801278247779365 ], [ -0.270868217874747, 35.801742857632192 ], [ -0.271608433842256, 35.801742857632192 ], [ -0.271608433842256, 35.80220746476764 ], [ -0.272348649809764, 35.80220746476764 ], [ -0.272348649809764, 35.803136670886389 ], [ -0.273088865777272, 35.803136670886389 ], [ -0.273088865777272, 35.803601269869652 ], [ -0.273829081744781, 35.803601269869652 ], [ -0.273829081744781, 35.804065866135467 ], [ -0.275309513679797, 35.804065866135467 ], [ -0.275309513679797, 35.803136670886389 ], [ -0.276049729647306, 35.803136670886389 ], [ -0.276049729647306, 35.80220746476764 ], [ -0.276789945614814, 35.80220746476764 ], [ -0.276789945614814, 35.801278247779365 ], [ -0.277530161582322, 35.801278247779365 ], [ -0.277530161582322, 35.800813635209181 ], [ -0.282711673354881, 35.800813635209181 ], [ -0.282711673354881, 35.801742857632192 ], [ -0.283451889322389, 35.801742857632192 ], [ -0.283451889322389, 35.802672069185711 ], [ -0.284192105289897, 35.802672069185711 ], [ -0.284192105289897, 35.803136670886389 ], [ -0.284932321257406, 35.803136670886389 ], [ -0.284932321257406, 35.804995050514783 ], [ -0.285672537224914, 35.804995050514783 ], [ -0.285672537224914, 35.811499036806339 ], [ -0.286412753192422, 35.811499036806339 ], [ -0.286412753192422, 35.81753797569678 ], [ -0.287152969159931, 35.81753797569678 ], [ -0.287152969159931, 35.821254017484272 ], [ -0.286412753192422, 35.821254017484272 ], [ -0.286412753192422, 35.822183000751579 ], [ -0.285672537224914, 35.822183000751579 ], [ -0.285672537224914, 35.822647488308213 ], [ -0.284932321257406, 35.822647488308213 ], [ -0.284932321257406, 35.82311197314683 ], [ -0.284192105289897, 35.82311197314683 ], [ -0.284192105289897, 35.8235764552674 ], [ -0.283451889322389, 35.8235764552674 ], [ -0.283451889322389, 35.824040934669902 ], [ -0.282711673354881, 35.824040934669902 ], [ -0.282711673354881, 35.824505411354338 ], [ -0.281971457387372, 35.824505411354338 ], [ -0.281971457387372, 35.824969885320684 ], [ -0.281231241419864, 35.824969885320684 ], [ -0.281231241419864, 35.82543435656892 ], [ -0.280491025452356, 35.82543435656892 ], [ -0.280491025452356, 35.825898825099053 ], [ -0.278270377549831, 35.825898825099053 ], [ -0.278270377549831, 35.82543435656892 ], [ -0.277530161582322, 35.82543435656892 ], [ -0.277530161582322, 35.824969885320684 ] ] ], [ [ [ 2.932786489501323, 36.14573332913487 ], [ 2.932786489501323, 36.145270739546369 ], [ 2.933526705468831, 36.145270739546369 ], [ 2.933526705468831, 36.144345552185356 ], [ 2.93426692143634, 36.144345552185356 ], [ 2.93426692143634, 36.143882954412867 ], [ 2.935007137403848, 36.143882954412867 ], [ 2.935007137403848, 36.142032536043331 ], [ 2.935747353371357, 36.142032536043331 ], [ 2.935747353371357, 36.136943660476909 ], [ 2.935007137403848, 36.136943660476909 ], [ 2.935007137403848, 36.136481019058579 ], [ 2.93426692143634, 36.136481019058579 ], [ 2.93426692143634, 36.135555728038689 ], [ 2.933526705468831, 36.135555728038689 ], [ 2.933526705468831, 36.135093078437173 ], [ 2.932786489501323, 36.135093078437173 ], [ 2.932786489501323, 36.13463042610794 ], [ 2.932046273533815, 36.13463042610794 ], [ 2.932046273533815, 36.134167771051025 ], [ 2.931306057566307, 36.134167771051025 ], [ 2.931306057566307, 36.13370511326643 ], [ 2.930565841598798, 36.13370511326643 ], [ 2.930565841598798, 36.133242452754182 ], [ 2.928345193696273, 36.133242452754182 ], [ 2.928345193696273, 36.13370511326643 ], [ 2.926864761761257, 36.13370511326643 ], [ 2.926864761761257, 36.134167771051025 ], [ 2.926124545793748, 36.134167771051025 ], [ 2.926124545793748, 36.13463042610794 ], [ 2.92538432982624, 36.13463042610794 ], [ 2.92538432982624, 36.135555728038689 ], [ 2.924644113858732, 36.135555728038689 ], [ 2.924644113858732, 36.136018374912496 ], [ 2.923903897891223, 36.136018374912496 ], [ 2.923903897891223, 36.136943660476909 ], [ 2.923163681923715, 36.136943660476909 ], [ 2.923163681923715, 36.137868935130264 ], [ 2.922423465956207, 36.137868935130264 ], [ 2.922423465956207, 36.138794198872496 ], [ 2.921683249988698, 36.138794198872496 ], [ 2.921683249988698, 36.144345552185356 ], [ 2.922423465956207, 36.144345552185356 ], [ 2.922423465956207, 36.145270739546369 ], [ 2.923163681923715, 36.145270739546369 ], [ 2.923163681923715, 36.14573332913487 ], [ 2.923903897891223, 36.14573332913487 ], [ 2.923903897891223, 36.146658500127771 ], [ 2.928345193696273, 36.146658500127771 ], [ 2.928345193696273, 36.146195915995342 ], [ 2.932046273533815, 36.146195915995342 ], [ 2.932046273533815, 36.14573332913487 ], [ 2.932786489501323, 36.14573332913487 ] ] ], [ [ [ 3.127463288956015, 36.688306303054155 ], [ 3.127463288956015, 36.687387561947112 ], [ 3.128203504923524, 36.687387561947112 ], [ 3.128203504923524, 36.68692818727758 ], [ 3.128943720891032, 36.68692818727758 ], [ 3.128943720891032, 36.68600942970653 ], [ 3.12968393685854, 36.68600942970653 ], [ 3.12968393685854, 36.685090661159613 ], [ 3.130424152826048, 36.685090661159613 ], [ 3.130424152826048, 36.684171881636921 ], [ 3.131164368793557, 36.684171881636921 ], [ 3.131164368793557, 36.683253091138575 ], [ 3.131904584761065, 36.683253091138575 ], [ 3.131904584761065, 36.682334289664659 ], [ 3.132644800728573, 36.682334289664659 ], [ 3.132644800728573, 36.681415477215303 ], [ 3.133385016696082, 36.681415477215303 ], [ 3.133385016696082, 36.680956066874856 ], [ 3.13412523266359, 36.680956066874856 ], [ 3.13412523266359, 36.678199547212365 ], [ 3.133385016696082, 36.678199547212365 ], [ 3.133385016696082, 36.67452403401316 ], [ 3.132644800728573, 36.67452403401316 ], [ 3.132644800728573, 36.674064582516735 ], [ 3.131164368793557, 36.674064582516735 ], [ 3.131164368793557, 36.673605128276698 ], [ 3.130424152826048, 36.673605128276698 ], [ 3.130424152826048, 36.673145671293035 ], [ 3.128943720891032, 36.673145671293035 ], [ 3.128943720891032, 36.672686211565782 ], [ 3.128203504923524, 36.672686211565782 ], [ 3.128203504923524, 36.672226749094932 ], [ 3.126723072988507, 36.672226749094932 ], [ 3.126723072988507, 36.671767283880513 ], [ 3.120061129280932, 36.671767283880513 ], [ 3.120061129280932, 36.672226749094932 ], [ 3.119320913313424, 36.672226749094932 ], [ 3.119320913313424, 36.672686211565782 ], [ 3.118580697345915, 36.672686211565782 ], [ 3.118580697345915, 36.673145671293035 ], [ 3.117840481378407, 36.673145671293035 ], [ 3.117840481378407, 36.673605128276698 ], [ 3.117100265410898, 36.673605128276698 ], [ 3.117100265410898, 36.674064582516735 ], [ 3.11636004944339, 36.674064582516735 ], [ 3.11636004944339, 36.674983482765938 ], [ 3.115619833475882, 36.674983482765938 ], [ 3.115619833475882, 36.675442928775055 ], [ 3.114879617508374, 36.675442928775055 ], [ 3.114879617508374, 36.675902372040525 ], [ 3.114139401540865, 36.675902372040525 ], [ 3.114139401540865, 36.676361812562291 ], [ 3.113399185573357, 36.676361812562291 ], [ 3.113399185573357, 36.676821250340389 ], [ 3.112658969605848, 36.676821250340389 ], [ 3.112658969605848, 36.677280685374775 ], [ 3.11191875363834, 36.677280685374775 ], [ 3.11191875363834, 36.677740117665422 ], [ 3.111178537670832, 36.677740117665422 ], [ 3.111178537670832, 36.679577819390644 ], [ 3.110438321703324, 36.679577819390644 ], [ 3.110438321703324, 36.681415477215303 ], [ 3.109698105735816, 36.681415477215303 ], [ 3.109698105735816, 36.682334289664659 ], [ 3.110438321703324, 36.682334289664659 ], [ 3.110438321703324, 36.684171881636921 ], [ 3.111178537670832, 36.684171881636921 ], [ 3.111178537670832, 36.685550046805048 ], [ 3.11191875363834, 36.685550046805048 ], [ 3.11191875363834, 36.68600942970653 ], [ 3.112658969605848, 36.68600942970653 ], [ 3.112658969605848, 36.686468809864046 ], [ 3.113399185573357, 36.686468809864046 ], [ 3.113399185573357, 36.68692818727758 ], [ 3.114139401540865, 36.68692818727758 ], [ 3.114139401540865, 36.687387561947112 ], [ 3.114879617508374, 36.687387561947112 ], [ 3.114879617508374, 36.687846933872635 ], [ 3.115619833475882, 36.687846933872635 ], [ 3.115619833475882, 36.688306303054155 ], [ 3.11636004944339, 36.688306303054155 ], [ 3.11636004944339, 36.688765669491623 ], [ 3.117840481378407, 36.688765669491623 ], [ 3.117840481378407, 36.689225033185046 ], [ 3.118580697345915, 36.689225033185046 ], [ 3.118580697345915, 36.689684394134424 ], [ 3.119320913313424, 36.689684394134424 ], [ 3.119320913313424, 36.689225033185046 ], [ 3.126723072988507, 36.689225033185046 ], [ 3.126723072988507, 36.688306303054155 ], [ 3.127463288956015, 36.688306303054155 ] ] ], [ [ [ -1.900083562360591, 36.972128759221675 ], [ -1.899343346393083, 36.972128759221675 ], [ -1.899343346393083, 36.971213420184398 ], [ -1.898603130425575, 36.971213420184398 ], [ -1.898603130425575, 36.96984039098858 ], [ -1.897862914458066, 36.96984039098858 ], [ -1.897862914458066, 36.968925024431591 ], [ -1.897122698490558, 36.968925024431591 ], [ -1.897122698490558, 36.968467337025196 ], [ -1.897862914458066, 36.968467337025196 ], [ -1.897862914458066, 36.96572115479708 ], [ -1.898603130425575, 36.96572115479708 ], [ -1.898603130425575, 36.963432593931294 ], [ -1.899343346393083, 36.963432593931294 ], [ -1.899343346393083, 36.961601695706641 ], [ -1.900083562360591, 36.961601695706641 ], [ -1.900083562360591, 36.96068623008393 ], [ -1.900823778328099, 36.96068623008393 ], [ -1.900823778328099, 36.960228493144996 ], [ -1.901563994295608, 36.960228493144996 ], [ -1.901563994295608, 36.959313011012128 ], [ -1.902304210263116, 36.959313011012128 ], [ -1.902304210263116, 36.958855265818187 ], [ -1.903784642198133, 36.958855265818187 ], [ -1.903784642198133, 36.959313011012128 ], [ -1.906745506068166, 36.959313011012128 ], [ -1.906745506068166, 36.959770753454407 ], [ -1.908966153970691, 36.959770753454407 ], [ -1.908966153970691, 36.960228493144996 ], [ -1.9097063699382, 36.960228493144996 ], [ -1.9097063699382, 36.961143964271145 ], [ -1.910446585905708, 36.961143964271145 ], [ -1.910446585905708, 36.961601695706641 ], [ -1.911186801873216, 36.961601695706641 ], [ -1.911186801873216, 36.962059424390425 ], [ -1.911927017840724, 36.962059424390425 ], [ -1.911927017840724, 36.962974873502759 ], [ -1.912667233808233, 36.962974873502759 ], [ -1.912667233808233, 36.970755746537762 ], [ -1.911927017840724, 36.970755746537762 ], [ -1.911927017840724, 36.971671091079031 ], [ -1.911186801873216, 36.971671091079031 ], [ -1.911186801873216, 36.972128759221675 ], [ -1.910446585905708, 36.972128759221675 ], [ -1.910446585905708, 36.973044087250884 ], [ -1.9097063699382, 36.973044087250884 ], [ -1.9097063699382, 36.973501747137441 ], [ -1.90526507413315, 36.973501747137441 ], [ -1.90526507413315, 36.97395940427193 ], [ -1.900823778328099, 36.97395940427193 ], [ -1.900823778328099, 36.973044087250884 ], [ -1.900083562360591, 36.973044087250884 ], [ -1.900083562360591, 36.972128759221675 ] ] ], [ [ [ -3.473042493315802, 40.252593405012497 ], [ -3.473042493315802, 40.252156201901066 ], [ -3.471562061380785, 40.252156201901066 ], [ -3.471562061380785, 40.251718995965156 ], [ -3.470081629445768, 40.251718995965156 ], [ -3.470081629445768, 40.251281787204768 ], [ -3.468601197510752, 40.251281787204768 ], [ -3.468601197510752, 40.250844575619915 ], [ -3.467860981543244, 40.250844575619915 ], [ -3.467860981543244, 40.249532923918622 ], [ -3.467120765575736, 40.249532923918622 ], [ -3.467120765575736, 40.246909544256376 ], [ -3.466380549608227, 40.246909544256376 ], [ -3.466380549608227, 40.243411546540848 ], [ -3.467120765575736, 40.243411546540848 ], [ -3.467120765575736, 40.241662479898736 ], [ -3.467860981543244, 40.241662479898736 ], [ -3.467860981543244, 40.240350650261888 ], [ -3.468601197510752, 40.240350650261888 ], [ -3.468601197510752, 40.238601504539439 ], [ -3.469341413478261, 40.238601504539439 ], [ -3.469341413478261, 40.238164211048165 ], [ -3.470081629445768, 40.238164211048165 ], [ -3.470081629445768, 40.237726914732633 ], [ -3.470821845413277, 40.237726914732633 ], [ -3.470821845413277, 40.237289615592864 ], [ -3.472302277348294, 40.237289615592864 ], [ -3.472302277348294, 40.236852313628852 ], [ -3.475263141218327, 40.236852313628852 ], [ -3.475263141218327, 40.237289615592864 ], [ -3.477483789120852, 40.237289615592864 ], [ -3.477483789120852, 40.237726914732633 ], [ -3.478964221055869, 40.237726914732633 ], [ -3.478964221055869, 40.238164211048165 ], [ -3.481184868958394, 40.238164211048165 ], [ -3.481184868958394, 40.238601504539439 ], [ -3.482665300893411, 40.238601504539439 ], [ -3.482665300893411, 40.239038795206454 ], [ -3.483405516860918, 40.239038795206454 ], [ -3.483405516860918, 40.23991336806769 ], [ -3.484145732828428, 40.23991336806769 ], [ -3.484145732828428, 40.240350650261888 ], [ -3.484885948795936, 40.240350650261888 ], [ -3.484885948795936, 40.241225206177418 ], [ -3.485626164763444, 40.241225206177418 ], [ -3.485626164763444, 40.246472304427243 ], [ -3.484885948795936, 40.246472304427243 ], [ -3.484885948795936, 40.247784015441454 ], [ -3.484145732828428, 40.247784015441454 ], [ -3.484145732828428, 40.249095701035969 ], [ -3.483405516860918, 40.249095701035969 ], [ -3.483405516860918, 40.250407361210598 ], [ -3.482665300893411, 40.250407361210598 ], [ -3.482665300893411, 40.251718995965156 ], [ -3.481925084925902, 40.251718995965156 ], [ -3.481925084925902, 40.252156201901066 ], [ -3.481184868958394, 40.252156201901066 ], [ -3.481184868958394, 40.252593405012497 ], [ -3.480444652990886, 40.252593405012497 ], [ -3.480444652990886, 40.253030605299436 ], [ -3.478964221055869, 40.253030605299436 ], [ -3.478964221055869, 40.253467802761868 ], [ -3.476743573153344, 40.253467802761868 ], [ -3.476743573153344, 40.253030605299436 ], [ -3.475263141218327, 40.253030605299436 ], [ -3.475263141218327, 40.252593405012497 ], [ -3.473042493315802, 40.252593405012497 ] ] ], [ [ [ 1.233990844069696, 41.191210796962274 ], [ 1.233990844069696, 41.19077971606238 ], [ 1.234731060037205, 41.19077971606238 ], [ 1.234731060037205, 41.190348632324053 ], [ 1.235471276004713, 41.190348632324053 ], [ 1.235471276004713, 41.189917545747278 ], [ 1.236211491972221, 41.189917545747278 ], [ 1.236211491972221, 41.189486456332077 ], [ 1.236951707939729, 41.189486456332077 ], [ 1.236951707939729, 41.189055364078449 ], [ 1.237691923907238, 41.189055364078449 ], [ 1.237691923907238, 41.18819317105595 ], [ 1.238432139874746, 41.18819317105595 ], [ 1.238432139874746, 41.187762070287071 ], [ 1.239172355842254, 41.187762070287071 ], [ 1.239172355842254, 41.187330966679809 ], [ 1.239912571809763, 41.187330966679809 ], [ 1.239912571809763, 41.186899860234142 ], [ 1.240652787777271, 41.186899860234142 ], [ 1.240652787777271, 41.186468750950077 ], [ 1.24139300374478, 41.186468750950077 ], [ 1.24139300374478, 41.186037638827635 ], [ 1.242133219712288, 41.186037638827635 ], [ 1.242133219712288, 41.185606523866817 ], [ 1.242873435679796, 41.185606523866817 ], [ 1.242873435679796, 41.18474428543005 ], [ 1.243613651647304, 41.18474428543005 ], [ 1.243613651647304, 41.18388203563984 ], [ 1.244353867614813, 41.18388203563984 ], [ 1.244353867614813, 41.179570616388638 ], [ 1.245094083582321, 41.179570616388638 ], [ 1.245094083582321, 41.177845969215618 ], [ 1.245834299549829, 41.177845969215618 ], [ 1.245834299549829, 41.176552454033988 ], [ 1.246574515517338, 41.176552454033988 ], [ 1.246574515517338, 41.175258913308078 ], [ 1.247314731484846, 41.175258913308078 ], [ 1.247314731484846, 41.173102955333569 ], [ 1.246574515517338, 41.173102955333569 ], [ 1.246574515517338, 41.171809346490335 ], [ 1.245834299549829, 41.171809346490335 ], [ 1.245834299549829, 41.170515712103381 ], [ 1.245094083582321, 41.170515712103381 ], [ 1.245094083582321, 41.169653274987866 ], [ 1.244353867614813, 41.169653274987866 ], [ 1.244353867614813, 41.16922205217287 ], [ 1.242873435679796, 41.16922205217287 ], [ 1.242873435679796, 41.168790826519711 ], [ 1.238432139874746, 41.168790826519711 ], [ 1.238432139874746, 41.168359598028403 ], [ 1.236211491972221, 41.168359598028403 ], [ 1.236211491972221, 41.168790826519711 ], [ 1.235471276004713, 41.168790826519711 ], [ 1.235471276004713, 41.16922205217287 ], [ 1.234731060037205, 41.16922205217287 ], [ 1.234731060037205, 41.169653274987866 ], [ 1.233990844069696, 41.169653274987866 ], [ 1.233990844069696, 41.170084494964705 ], [ 1.233250628102188, 41.170084494964705 ], [ 1.233250628102188, 41.170515712103381 ], [ 1.232510412134679, 41.170515712103381 ], [ 1.232510412134679, 41.170946926403879 ], [ 1.231770196167171, 41.170946926403879 ], [ 1.231770196167171, 41.170515712103381 ], [ 1.228809332297138, 41.170515712103381 ], [ 1.228809332297138, 41.170084494964705 ], [ 1.226588684394613, 41.170084494964705 ], [ 1.226588684394613, 41.170946926403879 ], [ 1.225848468427105, 41.170946926403879 ], [ 1.225848468427105, 41.171378137866199 ], [ 1.225108252459596, 41.171378137866199 ], [ 1.225108252459596, 41.172240552276278 ], [ 1.224368036492088, 41.172240552276278 ], [ 1.224368036492088, 41.171378137866199 ], [ 1.223627820524579, 41.171378137866199 ], [ 1.223627820524579, 41.170946926403879 ], [ 1.222887604557071, 41.170946926403879 ], [ 1.222887604557071, 41.170515712103381 ], [ 1.217706092784513, 41.170515712103381 ], [ 1.217706092784513, 41.171809346490335 ], [ 1.216965876817005, 41.171809346490335 ], [ 1.216965876817005, 41.173102955333569 ], [ 1.216225660849496, 41.173102955333569 ], [ 1.216225660849496, 41.174396538632941 ], [ 1.215485444881988, 41.174396538632941 ], [ 1.215485444881988, 41.175258913308078 ], [ 1.214745228914479, 41.175258913308078 ], [ 1.214745228914479, 41.176552454033988 ], [ 1.214005012946971, 41.176552454033988 ], [ 1.214005012946971, 41.177845969215618 ], [ 1.213264796979463, 41.177845969215618 ], [ 1.213264796979463, 41.180432922945414 ], [ 1.214005012946971, 41.180432922945414 ], [ 1.214005012946971, 41.181726361493268 ], [ 1.214745228914479, 41.181726361493268 ], [ 1.214745228914479, 41.183019774496231 ], [ 1.215485444881988, 41.183019774496231 ], [ 1.215485444881988, 41.184313161954123 ], [ 1.216225660849496, 41.184313161954123 ], [ 1.216225660849496, 41.185175406067621 ], [ 1.216965876817005, 41.185175406067621 ], [ 1.216965876817005, 41.186468750950077 ], [ 1.217706092784513, 41.186468750950077 ], [ 1.217706092784513, 41.187330966679809 ], [ 1.218446308752021, 41.187330966679809 ], [ 1.218446308752021, 41.187762070287071 ], [ 1.21918652471953, 41.187762070287071 ], [ 1.21918652471953, 41.18819317105595 ], [ 1.219926740687038, 41.18819317105595 ], [ 1.219926740687038, 41.188624268986402 ], [ 1.221407172622054, 41.188624268986402 ], [ 1.221407172622054, 41.189055364078449 ], [ 1.222887604557071, 41.189055364078449 ], [ 1.222887604557071, 41.188624268986402 ], [ 1.225108252459596, 41.188624268986402 ], [ 1.225108252459596, 41.18819317105595 ], [ 1.227328900362121, 41.18819317105595 ], [ 1.227328900362121, 41.189917545747278 ], [ 1.22806911632963, 41.189917545747278 ], [ 1.22806911632963, 41.19077971606238 ], [ 1.229549548264646, 41.19077971606238 ], [ 1.229549548264646, 41.191210796962274 ], [ 1.230289764232154, 41.191210796962274 ], [ 1.230289764232154, 41.191641875023713 ], [ 1.231029980199663, 41.191641875023713 ], [ 1.231029980199663, 41.192072950246711 ], [ 1.232510412134679, 41.192072950246711 ], [ 1.232510412134679, 41.191641875023713 ], [ 1.233250628102188, 41.191641875023713 ], [ 1.233250628102188, 41.191210796962274 ], [ 1.233990844069696, 41.191210796962274 ] ] ], [ [ [ -1.486302836523432, 41.4815425255157 ], [ -1.484822404588416, 41.4815425255157 ], [ -1.484822404588416, 41.481113361833017 ], [ -1.483341972653399, 41.481113361833017 ], [ -1.483341972653399, 41.4806841953082 ], [ -1.481861540718382, 41.4806841953082 ], [ -1.481861540718382, 41.480255025941226 ], [ -1.481121324750874, 41.480255025941226 ], [ -1.481121324750874, 41.478538320052081 ], [ -1.480381108783366, 41.478538320052081 ], [ -1.480381108783366, 41.476392373743145 ], [ -1.479640892815857, 41.476392373743145 ], [ -1.479640892815857, 41.475104771852692 ], [ -1.480381108783366, 41.475104771852692 ], [ -1.480381108783366, 41.47295871186062 ], [ -1.481121324750874, 41.47295871186062 ], [ -1.481121324750874, 41.47081258081743 ], [ -1.481861540718382, 41.47081258081743 ], [ -1.481861540718382, 41.469954108505995 ], [ -1.48260175668589, 41.469954108505995 ], [ -1.48260175668589, 41.469524868087262 ], [ -1.484082188620908, 41.469524868087262 ], [ -1.484082188620908, 41.469095624826537 ], [ -1.486302836523432, 41.469095624826537 ], [ -1.486302836523432, 41.468666378723803 ], [ -1.487783268458449, 41.468666378723803 ], [ -1.487783268458449, 41.468237129779084 ], [ -1.490744132328482, 41.468237129779084 ], [ -1.490744132328482, 41.468666378723803 ], [ -1.491484348295991, 41.468666378723803 ], [ -1.491484348295991, 41.469095624826537 ], [ -1.492964780231007, 41.469095624826537 ], [ -1.492964780231007, 41.469524868087262 ], [ -1.493704996198516, 41.469524868087262 ], [ -1.493704996198516, 41.47038334608272 ], [ -1.494445212166024, 41.47038334608272 ], [ -1.494445212166024, 41.472100267969438 ], [ -1.495185428133532, 41.472100267969438 ], [ -1.495185428133532, 41.474246356382039 ], [ -1.495925644101041, 41.474246356382039 ], [ -1.495925644101041, 41.475533975324922 ], [ -1.495185428133532, 41.475533975324922 ], [ -1.495185428133532, 41.478109136474494 ], [ -1.494445212166024, 41.478109136474494 ], [ -1.494445212166024, 41.480255025941226 ], [ -1.493704996198516, 41.480255025941226 ], [ -1.493704996198516, 41.4806841953082 ], [ -1.492964780231007, 41.4806841953082 ], [ -1.492964780231007, 41.481113361833017 ], [ -1.491484348295991, 41.481113361833017 ], [ -1.491484348295991, 41.4815425255157 ], [ -1.490744132328482, 41.4815425255157 ], [ -1.490744132328482, 41.481971686356232 ], [ -1.490003916360974, 41.481971686356232 ], [ -1.490003916360974, 41.482400844354615 ], [ -1.487783268458449, 41.482400844354615 ], [ -1.487783268458449, 41.481971686356232 ], [ -1.486302836523432, 41.481971686356232 ], [ -1.486302836523432, 41.4815425255157 ] ] ], [ [ [ 0.185104818110386, 41.933152185371853 ], [ 0.185104818110386, 41.932726025795461 ], [ 0.185845034077895, 41.932726025795461 ], [ 0.185845034077895, 41.932299863371739 ], [ 0.186585250045403, 41.932299863371739 ], [ 0.186585250045403, 41.931021359016711 ], [ 0.187325466012912, 41.931021359016711 ], [ 0.187325466012912, 41.929742829035931 ], [ 0.18806568198042, 41.929742829035931 ], [ 0.18806568198042, 41.928464273429555 ], [ 0.188805897947928, 41.928464273429555 ], [ 0.188805897947928, 41.92761188878891 ], [ 0.189546113915437, 41.92761188878891 ], [ 0.189546113915437, 41.926333290473444 ], [ 0.190286329882945, 41.926333290473444 ], [ 0.190286329882945, 41.925480877360194 ], [ 0.189546113915437, 41.925480877360194 ], [ 0.189546113915437, 41.924202236335979 ], [ 0.188805897947928, 41.924202236335979 ], [ 0.188805897947928, 41.922923569686702 ], [ 0.18806568198042, 41.922923569686702 ], [ 0.18806568198042, 41.921644877412461 ], [ 0.187325466012912, 41.921644877412461 ], [ 0.187325466012912, 41.920366159513392 ], [ 0.186585250045403, 41.920366159513392 ], [ 0.186585250045403, 41.919087415989608 ], [ 0.185845034077895, 41.919087415989608 ], [ 0.185845034077895, 41.918661162453994 ], [ 0.185104818110386, 41.918661162453994 ], [ 0.185104818110386, 41.918234906071213 ], [ 0.184364602142878, 41.918234906071213 ], [ 0.184364602142878, 41.917808646841237 ], [ 0.182884170207862, 41.917808646841237 ], [ 0.182884170207862, 41.917382384764132 ], [ 0.182143954240353, 41.917382384764132 ], [ 0.182143954240353, 41.916956119839853 ], [ 0.181403738272845, 41.916956119839853 ], [ 0.181403738272845, 41.916529852068429 ], [ 0.179923306337828, 41.916529852068429 ], [ 0.179923306337828, 41.916956119839853 ], [ 0.17918309037032, 41.916956119839853 ], [ 0.17918309037032, 41.917382384764132 ], [ 0.177702658435303, 41.917382384764132 ], [ 0.177702658435303, 41.917808646841237 ], [ 0.176962442467795, 41.917808646841237 ], [ 0.176962442467795, 41.918234906071213 ], [ 0.175482010532778, 41.918234906071213 ], [ 0.175482010532778, 41.918661162453994 ], [ 0.17474179456527, 41.918661162453994 ], [ 0.17474179456527, 41.919087415989608 ], [ 0.174001578597761, 41.919087415989608 ], [ 0.174001578597761, 41.920366159513392 ], [ 0.173261362630253, 41.920366159513392 ], [ 0.173261362630253, 41.921644877412461 ], [ 0.172521146662745, 41.921644877412461 ], [ 0.172521146662745, 41.922497341775838 ], [ 0.171780930695237, 41.922497341775838 ], [ 0.171780930695237, 41.925907085340441 ], [ 0.172521146662745, 41.925907085340441 ], [ 0.172521146662745, 41.928464273429555 ], [ 0.173261362630253, 41.928464273429555 ], [ 0.173261362630253, 41.931021359016711 ], [ 0.174001578597761, 41.931021359016711 ], [ 0.174001578597761, 41.931873698100702 ], [ 0.17474179456527, 41.931873698100702 ], [ 0.17474179456527, 41.932299863371739 ], [ 0.176222226500287, 41.932299863371739 ], [ 0.176222226500287, 41.932726025795461 ], [ 0.177702658435303, 41.932726025795461 ], [ 0.177702658435303, 41.933152185371853 ], [ 0.17918309037032, 41.933152185371853 ], [ 0.17918309037032, 41.933578342100922 ], [ 0.180663522305336, 41.933578342100922 ], [ 0.180663522305336, 41.934004495982656 ], [ 0.182884170207862, 41.934004495982656 ], [ 0.182884170207862, 41.933578342100922 ], [ 0.18362438617537, 41.933578342100922 ], [ 0.18362438617537, 41.933152185371853 ], [ 0.185104818110386, 41.933152185371853 ] ] ] ] } }
]
}
