{
"type": "FeatureCollection",
"name": "spain_fires_nrt_ba",
"crs": { "type": "name", "properties": { "name": "urn:ogc:def:crs:OGC:1.3:CRS84" } },
"features": [
{ "type": "Feature", "properties": { }, "geometry": { "type": "MultiPolygon", "coordinates": [ [ [ [ -0.278270377549831, 35.825898825099053 ], [ -0.278270377549831, 35.82543435656892 ], [ -0.277530161582322, 35.82543435656892 ], [ -0.277530161582322, 35.824969885320684 ], [ -0.276789945614814, 35.824969885320684 ], [ -0.276789945614814, 35.824505411354338 ], [ -0.276049729647306, 35.824505411354338 ], [ -0.276049729647306, 35.824040934669902 ], [ -0.273088865777272, 35.824040934669902 ], [ -0.273088865777272, 35.8235764552674 ], [ -0.268647569972222, 35.8235764552674 ], [ -0.268647569972222, 35.82311197314683 ], [ -0.264946490134681, 35.82311197314683 ], [ -0.264946490134681, 35.822647488308213 ], [ -0.264206274167172, 35.822647488308213 ], [ -0.264206274167172, 35.822183000751579 ], [ -0.263466058199664, 35.822183000751579 ], [ -0.263466058199664, 35.821718510476927 ], [ -0.262725842232156, 35.821718510476927 ], [ -0.262725842232156, 35.821254017484272 ], [ -0.261985626264647, 35.821254017484272 ], [ -0.261985626264647, 35.820789521773627 ], [ -0.260505194329631, 35.820789521773627 ], [ -0.260505194329631, 35.820325023345006 ], [ -0.259764978362122, 35.820325023345006 ], [ -0.259764978362122, 35.819860522198454 ], [ -0.259024762394614, 35.819860522198454 ], [ -0.259024762394614, 35.81939601833394 ], [ -0.258284546427106, 35.81939601833394 ], [ -0.258284546427106, 35.818931511751508 ], [ -0.256804114492089, 35.818931511751508 ], [ -0.256804114492089, 35.818467002451158 ], [ -0.255323682557072, 35.818467002451158 ], [ -0.255323682557072, 35.818002490432896 ], [ -0.253103034654547, 35.818002490432896 ], [ -0.253103034654547, 35.81753797569678 ], [ -0.251622602719531, 35.81753797569678 ], [ -0.251622602719531, 35.817073458242774 ], [ -0.250142170784514, 35.817073458242774 ], [ -0.250142170784514, 35.816608938070921 ], [ -0.247921522881989, 35.816608938070921 ], [ -0.247921522881989, 35.817073458242774 ], [ -0.247181306914481, 35.817073458242774 ], [ -0.247181306914481, 35.81753797569678 ], [ -0.245700874979464, 35.81753797569678 ], [ -0.245700874979464, 35.818002490432896 ], [ -0.244960659011956, 35.818002490432896 ], [ -0.244960659011956, 35.818467002451158 ], [ -0.244220443044447, 35.818467002451158 ], [ -0.244220443044447, 35.818931511751508 ], [ -0.242740011109431, 35.818931511751508 ], [ -0.242740011109431, 35.81939601833394 ], [ -0.239779147239397, 35.81939601833394 ], [ -0.239779147239397, 35.818931511751508 ], [ -0.237558499336872, 35.818931511751508 ], [ -0.237558499336872, 35.818467002451158 ], [ -0.236078067401856, 35.818467002451158 ], [ -0.236078067401856, 35.818002490432896 ], [ -0.234597635466839, 35.818002490432896 ], [ -0.234597635466839, 35.81753797569678 ], [ -0.232376987564314, 35.81753797569678 ], [ -0.232376987564314, 35.817073458242774 ], [ -0.231636771596806, 35.817073458242774 ], [ -0.231636771596806, 35.816144415181228 ], [ -0.230896555629297, 35.816144415181228 ], [ -0.230896555629297, 35.815215361248384 ], [ -0.230156339661789, 35.815215361248384 ], [ -0.230156339661789, 35.814286296444358 ], [ -0.229416123694281, 35.814286296444358 ], [ -0.229416123694281, 35.813821759965677 ], [ -0.228675907726772, 35.813821759965677 ], [ -0.228675907726772, 35.813357220769255 ], [ -0.227195475791756, 35.813357220769255 ], [ -0.227195475791756, 35.812892678855093 ], [ -0.225715043856739, 35.812892678855093 ], [ -0.225715043856739, 35.812428134223211 ], [ -0.224234611921722, 35.812428134223211 ], [ -0.224234611921722, 35.810569928518746 ], [ -0.223494395954214, 35.810569928518746 ], [ -0.223494395954214, 35.805924224024189 ], [ -0.224234611921722, 35.805924224024189 ], [ -0.224234611921722, 35.803601269869652 ], [ -0.224974827889231, 35.803601269869652 ], [ -0.224974827889231, 35.803136670886389 ], [ -0.225715043856739, 35.803136670886389 ], [ -0.225715043856739, 35.80220746476764 ], [ -0.226455259824247, 35.80220746476764 ], [ -0.226455259824247, 35.801742857632192 ], [ -0.227195475791756, 35.801742857632192 ], [ -0.227195475791756, 35.801278247779365 ], [ -0.227935691759264, 35.801278247779365 ], [ -0.227935691759264, 35.800813635209181 ], [ -0.230896555629297, 35.800813635209181 ], [ -0.230896555629297, 35.800349019921647 ], [ -0.233117203531822, 35.800349019921647 ], [ -0.233117203531822, 35.799884401916799 ], [ -0.234597635466839, 35.799884401916799 ], [ -0.234597635466839, 35.800349019921647 ], [ -0.235337851434347, 35.800349019921647 ], [ -0.235337851434347, 35.800813635209181 ], [ -0.236078067401856, 35.800813635209181 ], [ -0.236078067401856, 35.801278247779365 ], [ -0.236818283369364, 35.801278247779365 ], [ -0.236818283369364, 35.801742857632192 ], [ -0.237558499336872, 35.801742857632192 ], [ -0.237558499336872, 35.80220746476764 ], [ -0.238298715304381, 35.80220746476764 ], [ -0.238298715304381, 35.800813635209181 ], [ -0.239038931271889, 35.800813635209181 ], [ -0.239038931271889, 35.799884401916799 ], [ -0.239779147239397, 35.799884401916799 ], [ -0.239779147239397, 35.798955157755167 ], [ -0.240519363206906, 35.798955157755167 ], [ -0.240519363206906, 35.798025902724412 ], [ -0.241259579174414, 35.798025902724412 ], [ -0.241259579174414, 35.797561271133148 ], [ -0.244220443044447, 35.797561271133148 ], [ -0.244220443044447, 35.798025902724412 ], [ -0.246441090946972, 35.798025902724412 ], [ -0.246441090946972, 35.798490531598425 ], [ -0.248661738849497, 35.798490531598425 ], [ -0.248661738849497, 35.798955157755167 ], [ -0.252362818687039, 35.798955157755167 ], [ -0.252362818687039, 35.798490531598425 ], [ -0.253843250622056, 35.798490531598425 ], [ -0.253843250622056, 35.798025902724412 ], [ -0.255323682557072, 35.798025902724412 ], [ -0.255323682557072, 35.797561271133148 ], [ -0.256063898524581, 35.797561271133148 ], [ -0.256063898524581, 35.797096636824634 ], [ -0.257544330459597, 35.797096636824634 ], [ -0.257544330459597, 35.796631999798905 ], [ -0.259024762394614, 35.796631999798905 ], [ -0.259024762394614, 35.796167360055968 ], [ -0.261245410297139, 35.796167360055968 ], [ -0.261245410297139, 35.796631999798905 ], [ -0.261985626264647, 35.796631999798905 ], [ -0.261985626264647, 35.797096636824634 ], [ -0.262725842232156, 35.797096636824634 ], [ -0.262725842232156, 35.797561271133148 ], [ -0.263466058199664, 35.797561271133148 ], [ -0.263466058199664, 35.798025902724412 ], [ -0.264206274167172, 35.798025902724412 ], [ -0.264206274167172, 35.798490531598425 ], [ -0.264946490134681, 35.798490531598425 ], [ -0.264946490134681, 35.798955157755167 ], [ -0.265686706102189, 35.798955157755167 ], [ -0.265686706102189, 35.799419781194644 ], [ -0.266426922069697, 35.799419781194644 ], [ -0.266426922069697, 35.799884401916799 ], [ -0.267167138037206, 35.799884401916799 ], [ -0.267167138037206, 35.800349019921647 ], [ -0.267907354004714, 35.800349019921647 ], [ -0.267907354004714, 35.800813635209181 ], [ -0.268647569972222, 35.800813635209181 ], [ -0.268647569972222, 35.801278247779365 ], [ -0.269387785939731, 35.801278247779365 ], [ -0.269387785939731, 35.801742857632192 ], [ -0.270128001907239, 35.801742857632192 ], [ -0.270128001907239, 35.80220746476764 ], [ -0.270868217874747, 35.80220746476764 ], [ -0.270868217874747, 35.802672069185711 ], [ -0.271608433842256, 35.802672069185711 ], [ -0.271608433842256, 35.803601269869652 ], [ -0.272348649809764, 35.803601269869652 ], [ -0.272348649809764, 35.804065866135467 ], [ -0.273088865777272, 35.804065866135467 ], [ -0.273088865777272, 35.804530459683846 ], [ -0.274569297712289, 35.804530459683846 ], [ -0.274569297712289, 35.804065866135467 ], [ -0.275309513679797, 35.804065866135467 ], [ -0.275309513679797, 35.803136670886389 ], [ -0.276049729647306, 35.803136670886389 ], [ -0.276049729647306, 35.80220746476764 ], [ -0.276789945614814, 35.80220746476764 ], [ -0.276789945614814, 35.801278247779365 ], [ -0.277530161582322, 35.801278247779365 ], [ -0.277530161582322, 35.800813635209181 ], [ -0.282711673354881, 35.800813635209181 ], [ -0.282711673354881, 35.801742857632192 ], [ -0.283451889322389, 35.801742857632192 ], [ -0.283451889322389, 35.802672069185711 ], [ -0.284192105289897, 35.802672069185711 ], [ -0.284192105289897, 35.803136670886389 ], [ -0.284932321257406, 35.803136670886389 ], [ -0.284932321257406, 35.804995050514783 ], [ -0.285672537224914, 35.804995050514783 ], [ -0.285672537224914, 35.811499036806339 ], [ -0.286412753192422, 35.811499036806339 ], [ -0.286412753192422, 35.81753797569678 ], [ -0.287152969159931, 35.81753797569678 ], [ -0.287152969159931, 35.821254017484272 ], [ -0.286412753192422, 35.821254017484272 ], [ -0.286412753192422, 35.822183000751579 ], [ -0.285672537224914, 35.822183000751579 ], [ -0.285672537224914, 35.822647488308213 ], [ -0.284932321257406, 35.822647488308213 ], [ -0.284932321257406, 35.82311197314683 ], [ -0.284192105289897, 35.82311197314683 ], [ -0.284192105289897, 35.8235764552674 ], [ -0.283451889322389, 35.8235764552674 ], [ -0.283451889322389, 35.824040934669902 ], [ -0.282711673354881, 35.824040934669902 ], [ -0.282711673354881, 35.824505411354338 ], [ -0.281971457387372, 35.824505411354338 ], [ -0.281971457387372, 35.824969885320684 ], [ -0.281231241419864, 35.824969885320684 ], [ -0.281231241419864, 35.82543435656892 ], [ -0.280491025452356, 35.82543435656892 ], [ -0.280491025452356, 35.825898825099053 ], [ -0.278270377549831, 35.825898825099053 ] ] ], [ [ [ 1.499728376405188, 42.912909054468159 ], [ 1.499728376405188, 42.912489503006078 ], [ 1.501208808340205, 42.912489503006078 ], [ 1.501208808340205, 42.912069948687886 ], [ 1.502689240275221, 42.912069948687886 ], [ 1.502689240275221, 42.911650391513561 ], [ 1.504169672210238, 42.911650391513561 ], [ 1.504169672210238, 42.911230831483131 ], [ 1.505650104145255, 42.911230831483131 ], [ 1.505650104145255, 42.910811268596582 ], [ 1.507130536080271, 42.910811268596582 ], [ 1.507130536080271, 42.910391702853921 ], [ 1.508610968015288, 42.910391702853921 ], [ 1.508610968015288, 42.909972134255163 ], [ 1.510091399950305, 42.909972134255163 ], [ 1.510091399950305, 42.910391702853921 ], [ 1.51231204785283, 42.910391702853921 ], [ 1.51231204785283, 42.910811268596582 ], [ 1.515272911722863, 42.910811268596582 ], [ 1.515272911722863, 42.910391702853921 ], [ 1.516013127690371, 42.910391702853921 ], [ 1.516013127690371, 42.9095525628003 ], [ 1.51675334365788, 42.9095525628003 ], [ 1.51675334365788, 42.908713411322275 ], [ 1.517493559625388, 42.908713411322275 ], [ 1.517493559625388, 42.907874248419873 ], [ 1.518233775592897, 42.907874248419873 ], [ 1.518233775592897, 42.90367826254311 ], [ 1.519714207527913, 42.90367826254311 ], [ 1.519714207527913, 42.903258648247061 ], [ 1.521934855430438, 42.903258648247061 ], [ 1.521934855430438, 42.902839031094977 ], [ 1.523415287365455, 42.902839031094977 ], [ 1.523415287365455, 42.902419411086825 ], [ 1.524155503332963, 42.902419411086825 ], [ 1.524155503332963, 42.901160533926102 ], [ 1.524895719300472, 42.901160533926102 ], [ 1.524895719300472, 42.899062348204183 ], [ 1.52563593526798, 42.899062348204183 ], [ 1.52563593526798, 42.898223053923232 ], [ 1.524895719300472, 42.898223053923232 ], [ 1.524895719300472, 42.896544431089147 ], [ 1.524155503332963, 42.896544431089147 ], [ 1.524155503332963, 42.894865762558986 ], [ 1.523415287365455, 42.894865762558986 ], [ 1.523415287365455, 42.894446088286458 ], [ 1.522675071397946, 42.894446088286458 ], [ 1.522675071397946, 42.894026411157938 ], [ 1.52119463946293, 42.894026411157938 ], [ 1.52119463946293, 42.893606731173428 ], [ 1.520454423495422, 42.893606731173428 ], [ 1.520454423495422, 42.89318704833294 ], [ 1.519714207527913, 42.89318704833294 ], [ 1.519714207527913, 42.892767362636476 ], [ 1.518973991560405, 42.892767362636476 ], [ 1.518973991560405, 42.892347674084029 ], [ 1.518233775592897, 42.892347674084029 ], [ 1.518233775592897, 42.891927982675604 ], [ 1.517493559625388, 42.891927982675604 ], [ 1.517493559625388, 42.891508288411217 ], [ 1.516013127690371, 42.891508288411217 ], [ 1.516013127690371, 42.891088591290853 ], [ 1.514532695755355, 42.891088591290853 ], [ 1.514532695755355, 42.891508288411217 ], [ 1.51231204785283, 42.891508288411217 ], [ 1.51231204785283, 42.891927982675604 ], [ 1.509351183982796, 42.891927982675604 ], [ 1.509351183982796, 42.892347674084029 ], [ 1.507130536080271, 42.892347674084029 ], [ 1.507130536080271, 42.892767362636476 ], [ 1.504169672210238, 42.892767362636476 ], [ 1.504169672210238, 42.89318704833294 ], [ 1.501208808340205, 42.89318704833294 ], [ 1.501208808340205, 42.892767362636476 ], [ 1.49898816043768, 42.892767362636476 ], [ 1.49898816043768, 42.892347674084029 ], [ 1.496027296567646, 42.892347674084029 ], [ 1.496027296567646, 42.892767362636476 ], [ 1.49454686463263, 42.892767362636476 ], [ 1.49454686463263, 42.89318704833294 ], [ 1.493066432697613, 42.89318704833294 ], [ 1.493066432697613, 42.893606731173428 ], [ 1.491586000762597, 42.893606731173428 ], [ 1.491586000762597, 42.894026411157938 ], [ 1.49010556882758, 42.894026411157938 ], [ 1.49010556882758, 42.89318704833294 ], [ 1.489365352860071, 42.89318704833294 ], [ 1.489365352860071, 42.892347674084029 ], [ 1.488625136892563, 42.892347674084029 ], [ 1.488625136892563, 42.891508288411217 ], [ 1.487884920925055, 42.891508288411217 ], [ 1.487884920925055, 42.891088591290853 ], [ 1.48566427302253, 42.891088591290853 ], [ 1.48566427302253, 42.891508288411217 ], [ 1.483443625120005, 42.891508288411217 ], [ 1.483443625120005, 42.891927982675604 ], [ 1.481963193184988, 42.891927982675604 ], [ 1.481963193184988, 42.892347674084029 ], [ 1.48122297721748, 42.892347674084029 ], [ 1.48122297721748, 42.893606731173428 ], [ 1.480482761249971, 42.893606731173428 ], [ 1.480482761249971, 42.894865762558986 ], [ 1.479742545282463, 42.894865762558986 ], [ 1.479742545282463, 42.894446088286458 ], [ 1.478262113347446, 42.894446088286458 ], [ 1.478262113347446, 42.894026411157938 ], [ 1.47678168141243, 42.894026411157938 ], [ 1.47678168141243, 42.894446088286458 ], [ 1.476041465444922, 42.894446088286458 ], [ 1.476041465444922, 42.894865762558986 ], [ 1.474561033509905, 42.894865762558986 ], [ 1.474561033509905, 42.895285433975523 ], [ 1.473820817542397, 42.895285433975523 ], [ 1.473820817542397, 42.89570510253607 ], [ 1.473080601574888, 42.89570510253607 ], [ 1.473080601574888, 42.898223053923232 ], [ 1.47234038560738, 42.898223053923232 ], [ 1.47234038560738, 42.901160533926102 ], [ 1.471600169639871, 42.901160533926102 ], [ 1.471600169639871, 42.90367826254311 ], [ 1.470859953672363, 42.90367826254311 ], [ 1.470859953672363, 42.904517482567016 ], [ 1.471600169639871, 42.904517482567016 ], [ 1.471600169639871, 42.905776291182399 ], [ 1.47234038560738, 42.905776291182399 ], [ 1.47234038560738, 42.906615482645627 ], [ 1.473080601574888, 42.906615482645627 ], [ 1.473080601574888, 42.907874248419873 ], [ 1.473820817542397, 42.907874248419873 ], [ 1.473820817542397, 42.908713411322275 ], [ 1.474561033509905, 42.908713411322275 ], [ 1.474561033509905, 42.9095525628003 ], [ 1.480482761249971, 42.9095525628003 ], [ 1.480482761249971, 42.909972134255163 ], [ 1.48122297721748, 42.909972134255163 ], [ 1.48122297721748, 42.910391702853921 ], [ 1.481963193184988, 42.910391702853921 ], [ 1.481963193184988, 42.910811268596582 ], [ 1.482703409152497, 42.910811268596582 ], [ 1.482703409152497, 42.911230831483131 ], [ 1.484183841087513, 42.911230831483131 ], [ 1.484183841087513, 42.911650391513561 ], [ 1.48566427302253, 42.911650391513561 ], [ 1.48566427302253, 42.911230831483131 ], [ 1.486404488990039, 42.911230831483131 ], [ 1.486404488990039, 42.910811268596582 ], [ 1.487144704957546, 42.910811268596582 ], [ 1.487144704957546, 42.910391702853921 ], [ 1.487884920925055, 42.910391702853921 ], [ 1.487884920925055, 42.909972134255163 ], [ 1.488625136892563, 42.909972134255163 ], [ 1.488625136892563, 42.9095525628003 ], [ 1.489365352860071, 42.9095525628003 ], [ 1.489365352860071, 42.909132988489333 ], [ 1.49010556882758, 42.909132988489333 ], [ 1.49010556882758, 42.9095525628003 ], [ 1.490845784795088, 42.9095525628003 ], [ 1.490845784795088, 42.909972134255163 ], [ 1.491586000762597, 42.909972134255163 ], [ 1.491586000762597, 42.910391702853921 ], [ 1.492326216730105, 42.910391702853921 ], [ 1.492326216730105, 42.910811268596582 ], [ 1.493066432697613, 42.910811268596582 ], [ 1.493066432697613, 42.911230831483131 ], [ 1.493806648665121, 42.911230831483131 ], [ 1.493806648665121, 42.911650391513561 ], [ 1.495287080600138, 42.911650391513561 ], [ 1.495287080600138, 42.912069948687886 ], [ 1.496027296567646, 42.912069948687886 ], [ 1.496027296567646, 42.912489503006078 ], [ 1.496767512535155, 42.912489503006078 ], [ 1.496767512535155, 42.912909054468159 ], [ 1.499728376405188, 42.912909054468159 ] ] ] ] } }
]
}
