{
"type": "FeatureCollection",
"name": "spain_fires_nrt_ba",
"crs": { "type": "name", "properties": { "name": "urn:ogc:def:crs:OGC:1.3:CRS84" } },
"features": [
{ "type": "Feature", "properties": { }, "geometry": { "type": "MultiPolygon", "coordinates": [ [ [ [ -0.390783204611098, 35.464655053821886 ], [ -0.390042988643589, 35.464655053821886 ], [ -0.390042988643589, 35.46418848049013 ], [ -0.389302772676081, 35.46418848049013 ], [ -0.389302772676081, 35.462788744255754 ], [ -0.388562556708572, 35.462788744255754 ], [ -0.388562556708572, 35.460922391385814 ], [ -0.387822340741064, 35.460922391385814 ], [ -0.387822340741064, 35.459055995213049 ], [ -0.387082124773556, 35.459055995213049 ], [ -0.387082124773556, 35.457656169666578 ], [ -0.387822340741064, 35.457656169666578 ], [ -0.387822340741064, 35.455789697716206 ], [ -0.388562556708572, 35.455789697716206 ], [ -0.388562556708572, 35.454389815337642 ], [ -0.389302772676081, 35.454389815337642 ], [ -0.389302772676081, 35.453923182465687 ], [ -0.390042988643589, 35.453923182465687 ], [ -0.390042988643589, 35.453456546887523 ], [ -0.391523420578606, 35.453456546887523 ], [ -0.391523420578606, 35.452989908603179 ], [ -0.392263636546114, 35.452989908603179 ], [ -0.392263636546114, 35.452523267612655 ], [ -0.393003852513623, 35.452523267612655 ], [ -0.393003852513623, 35.452056623916008 ], [ -0.394484284448639, 35.452056623916008 ], [ -0.394484284448639, 35.451589977513187 ], [ -0.396704932351164, 35.451589977513187 ], [ -0.396704932351164, 35.452056623916008 ], [ -0.398925580253689, 35.452056623916008 ], [ -0.398925580253689, 35.452523267612655 ], [ -0.400406012188706, 35.452523267612655 ], [ -0.400406012188706, 35.452989908603179 ], [ -0.401146228156214, 35.452989908603179 ], [ -0.401146228156214, 35.453456546887523 ], [ -0.401886444123722, 35.453456546887523 ], [ -0.401886444123722, 35.454856445503403 ], [ -0.402626660091231, 35.454856445503403 ], [ -0.402626660091231, 35.45625631976322 ], [ -0.403366876058739, 35.45625631976322 ], [ -0.403366876058739, 35.457656169666578 ], [ -0.404107092026248, 35.457656169666578 ], [ -0.404107092026248, 35.459989198712222 ], [ -0.403366876058739, 35.459989198712222 ], [ -0.403366876058739, 35.461388983662978 ], [ -0.402626660091231, 35.461388983662978 ], [ -0.402626660091231, 35.462788744255754 ], [ -0.401146228156214, 35.462788744255754 ], [ -0.401146228156214, 35.463255325707053 ], [ -0.400406012188706, 35.463255325707053 ], [ -0.400406012188706, 35.463721904451859 ], [ -0.398925580253689, 35.463721904451859 ], [ -0.398925580253689, 35.46418848049013 ], [ -0.398185364286181, 35.46418848049013 ], [ -0.398185364286181, 35.464655053821886 ], [ -0.397445148318673, 35.464655053821886 ], [ -0.397445148318673, 35.465121624447079 ], [ -0.395964716383656, 35.465121624447079 ], [ -0.395964716383656, 35.465588192365715 ], [ -0.395224500416148, 35.465588192365715 ], [ -0.395224500416148, 35.46605475757778 ], [ -0.393003852513623, 35.46605475757778 ], [ -0.393003852513623, 35.465588192365715 ], [ -0.391523420578606, 35.465588192365715 ], [ -0.391523420578606, 35.465121624447079 ], [ -0.390783204611098, 35.465121624447079 ], [ -0.390783204611098, 35.464655053821886 ] ] ], [ [ [ -0.337487654950497, 35.812892678855093 ], [ -0.336007223015481, 35.812892678855093 ], [ -0.336007223015481, 35.811034484021377 ], [ -0.335267007047972, 35.811034484021377 ], [ -0.335267007047972, 35.809176245705025 ], [ -0.334526791080464, 35.809176245705025 ], [ -0.334526791080464, 35.808711679331893 ], [ -0.335267007047972, 35.808711679331893 ], [ -0.335267007047972, 35.805459638628236 ], [ -0.336007223015481, 35.805459638628236 ], [ -0.336007223015481, 35.80220746476764 ], [ -0.336747438982989, 35.80220746476764 ], [ -0.336747438982989, 35.800349019921647 ], [ -0.338227870918006, 35.800349019921647 ], [ -0.338227870918006, 35.799884401916799 ], [ -0.339708302853023, 35.799884401916799 ], [ -0.339708302853023, 35.799419781194644 ], [ -0.342669166723056, 35.799419781194644 ], [ -0.342669166723056, 35.799884401916799 ], [ -0.344889814625581, 35.799884401916799 ], [ -0.344889814625581, 35.800349019921647 ], [ -0.346370246560597, 35.800349019921647 ], [ -0.346370246560597, 35.800813635209181 ], [ -0.348590894463122, 35.800813635209181 ], [ -0.348590894463122, 35.801742857632192 ], [ -0.349331110430631, 35.801742857632192 ], [ -0.349331110430631, 35.802672069185711 ], [ -0.350071326398139, 35.802672069185711 ], [ -0.350071326398139, 35.803601269869652 ], [ -0.350811542365647, 35.803601269869652 ], [ -0.350811542365647, 35.804530459683846 ], [ -0.351551758333156, 35.804530459683846 ], [ -0.351551758333156, 35.805459638628236 ], [ -0.352291974300664, 35.805459638628236 ], [ -0.352291974300664, 35.806388806702657 ], [ -0.353032190268173, 35.806388806702657 ], [ -0.353032190268173, 35.80685338666359 ], [ -0.352291974300664, 35.80685338666359 ], [ -0.352291974300664, 35.810569928518746 ], [ -0.351551758333156, 35.810569928518746 ], [ -0.351551758333156, 35.812428134223211 ], [ -0.350071326398139, 35.812428134223211 ], [ -0.350071326398139, 35.812892678855093 ], [ -0.347850678495614, 35.812892678855093 ], [ -0.347850678495614, 35.813357220769255 ], [ -0.345630030593089, 35.813357220769255 ], [ -0.345630030593089, 35.813821759965677 ], [ -0.343409382690564, 35.813821759965677 ], [ -0.343409382690564, 35.814286296444358 ], [ -0.340448518820531, 35.814286296444358 ], [ -0.340448518820531, 35.813821759965677 ], [ -0.338968086885514, 35.813821759965677 ], [ -0.338968086885514, 35.813357220769255 ], [ -0.337487654950497, 35.813357220769255 ], [ -0.337487654950497, 35.812892678855093 ] ] ], [ [ [ -0.276049729647306, 35.824505411354338 ], [ -0.276049729647306, 35.824040934669902 ], [ -0.274569297712289, 35.824040934669902 ], [ -0.274569297712289, 35.8235764552674 ], [ -0.272348649809764, 35.8235764552674 ], [ -0.272348649809764, 35.82311197314683 ], [ -0.270128001907239, 35.82311197314683 ], [ -0.270128001907239, 35.822647488308213 ], [ -0.267167138037206, 35.822647488308213 ], [ -0.267167138037206, 35.822183000751579 ], [ -0.264946490134681, 35.822183000751579 ], [ -0.264946490134681, 35.821718510476927 ], [ -0.262725842232156, 35.821718510476927 ], [ -0.262725842232156, 35.821254017484272 ], [ -0.260505194329631, 35.821254017484272 ], [ -0.260505194329631, 35.820789521773627 ], [ -0.259764978362122, 35.820789521773627 ], [ -0.259764978362122, 35.819860522198454 ], [ -0.259024762394614, 35.819860522198454 ], [ -0.259024762394614, 35.81939601833394 ], [ -0.258284546427106, 35.81939601833394 ], [ -0.258284546427106, 35.818467002451158 ], [ -0.257544330459597, 35.818467002451158 ], [ -0.257544330459597, 35.818002490432896 ], [ -0.256804114492089, 35.818002490432896 ], [ -0.256804114492089, 35.81753797569678 ], [ -0.253103034654547, 35.81753797569678 ], [ -0.253103034654547, 35.817073458242774 ], [ -0.252362818687039, 35.817073458242774 ], [ -0.252362818687039, 35.816608938070921 ], [ -0.251622602719531, 35.816608938070921 ], [ -0.251622602719531, 35.816144415181228 ], [ -0.250882386752022, 35.816144415181228 ], [ -0.250882386752022, 35.815215361248384 ], [ -0.250142170784514, 35.815215361248384 ], [ -0.250142170784514, 35.814750830205249 ], [ -0.249401954817006, 35.814750830205249 ], [ -0.249401954817006, 35.814286296444358 ], [ -0.248661738849497, 35.814286296444358 ], [ -0.248661738849497, 35.813821759965677 ], [ -0.247921522881989, 35.813821759965677 ], [ -0.247921522881989, 35.814286296444358 ], [ -0.247181306914481, 35.814286296444358 ], [ -0.247181306914481, 35.815215361248384 ], [ -0.246441090946972, 35.815215361248384 ], [ -0.246441090946972, 35.816144415181228 ], [ -0.245700874979464, 35.816144415181228 ], [ -0.245700874979464, 35.817073458242774 ], [ -0.234597635466839, 35.817073458242774 ], [ -0.234597635466839, 35.816608938070921 ], [ -0.233857419499331, 35.816608938070921 ], [ -0.233857419499331, 35.816144415181228 ], [ -0.233117203531822, 35.816144415181228 ], [ -0.233117203531822, 35.815679889573708 ], [ -0.232376987564314, 35.815679889573708 ], [ -0.232376987564314, 35.815215361248384 ], [ -0.231636771596806, 35.815215361248384 ], [ -0.231636771596806, 35.814750830205249 ], [ -0.230896555629297, 35.814750830205249 ], [ -0.230896555629297, 35.814286296444358 ], [ -0.230156339661789, 35.814286296444358 ], [ -0.230156339661789, 35.813821759965677 ], [ -0.229416123694281, 35.813821759965677 ], [ -0.229416123694281, 35.812428134223211 ], [ -0.228675907726772, 35.812428134223211 ], [ -0.228675907726772, 35.810569928518746 ], [ -0.227935691759264, 35.810569928518746 ], [ -0.227935691759264, 35.809176245705025 ], [ -0.227195475791756, 35.809176245705025 ], [ -0.227195475791756, 35.80731796390701 ], [ -0.227935691759264, 35.80731796390701 ], [ -0.227935691759264, 35.805924224024189 ], [ -0.228675907726772, 35.805924224024189 ], [ -0.228675907726772, 35.804530459683846 ], [ -0.229416123694281, 35.804530459683846 ], [ -0.229416123694281, 35.803601269869652 ], [ -0.230156339661789, 35.803601269869652 ], [ -0.230156339661789, 35.803136670886389 ], [ -0.230896555629297, 35.803136670886389 ], [ -0.230896555629297, 35.802672069185711 ], [ -0.231636771596806, 35.802672069185711 ], [ -0.231636771596806, 35.80220746476764 ], [ -0.232376987564314, 35.80220746476764 ], [ -0.232376987564314, 35.801742857632192 ], [ -0.237558499336872, 35.801742857632192 ], [ -0.237558499336872, 35.80220746476764 ], [ -0.238298715304381, 35.80220746476764 ], [ -0.238298715304381, 35.802672069185711 ], [ -0.239038931271889, 35.802672069185711 ], [ -0.239038931271889, 35.800813635209181 ], [ -0.239779147239397, 35.800813635209181 ], [ -0.239779147239397, 35.799884401916799 ], [ -0.240519363206906, 35.799884401916799 ], [ -0.240519363206906, 35.799419781194644 ], [ -0.241259579174414, 35.799419781194644 ], [ -0.241259579174414, 35.798955157755167 ], [ -0.242740011109431, 35.798955157755167 ], [ -0.242740011109431, 35.798490531598425 ], [ -0.245700874979464, 35.798490531598425 ], [ -0.245700874979464, 35.798955157755167 ], [ -0.247921522881989, 35.798955157755167 ], [ -0.247921522881989, 35.799419781194644 ], [ -0.249401954817006, 35.799419781194644 ], [ -0.249401954817006, 35.799884401916799 ], [ -0.250882386752022, 35.799884401916799 ], [ -0.250882386752022, 35.799419781194644 ], [ -0.252362818687039, 35.799419781194644 ], [ -0.252362818687039, 35.798955157755167 ], [ -0.253843250622056, 35.798955157755167 ], [ -0.253843250622056, 35.798490531598425 ], [ -0.255323682557072, 35.798490531598425 ], [ -0.255323682557072, 35.798025902724412 ], [ -0.261245410297139, 35.798025902724412 ], [ -0.261245410297139, 35.798490531598425 ], [ -0.266426922069697, 35.798490531598425 ], [ -0.266426922069697, 35.799419781194644 ], [ -0.267167138037206, 35.799419781194644 ], [ -0.267167138037206, 35.799884401916799 ], [ -0.267907354004714, 35.799884401916799 ], [ -0.267907354004714, 35.800349019921647 ], [ -0.268647569972222, 35.800349019921647 ], [ -0.268647569972222, 35.801278247779365 ], [ -0.269387785939731, 35.801278247779365 ], [ -0.269387785939731, 35.801742857632192 ], [ -0.270128001907239, 35.801742857632192 ], [ -0.270128001907239, 35.80220746476764 ], [ -0.270868217874747, 35.80220746476764 ], [ -0.270868217874747, 35.803136670886389 ], [ -0.271608433842256, 35.803136670886389 ], [ -0.271608433842256, 35.803601269869652 ], [ -0.272348649809764, 35.803601269869652 ], [ -0.272348649809764, 35.804530459683846 ], [ -0.273088865777272, 35.804530459683846 ], [ -0.273088865777272, 35.804995050514783 ], [ -0.273829081744781, 35.804995050514783 ], [ -0.273829081744781, 35.804065866135467 ], [ -0.274569297712289, 35.804065866135467 ], [ -0.274569297712289, 35.803136670886389 ], [ -0.275309513679797, 35.803136670886389 ], [ -0.275309513679797, 35.80220746476764 ], [ -0.276049729647306, 35.80220746476764 ], [ -0.276049729647306, 35.801742857632192 ], [ -0.276789945614814, 35.801742857632192 ], [ -0.276789945614814, 35.801278247779365 ], [ -0.278270377549831, 35.801278247779365 ], [ -0.278270377549831, 35.800813635209181 ], [ -0.279010593517339, 35.800813635209181 ], [ -0.279010593517339, 35.800349019921647 ], [ -0.280491025452356, 35.800349019921647 ], [ -0.280491025452356, 35.800813635209181 ], [ -0.281231241419864, 35.800813635209181 ], [ -0.281231241419864, 35.801278247779365 ], [ -0.282711673354881, 35.801278247779365 ], [ -0.282711673354881, 35.801742857632192 ], [ -0.283451889322389, 35.801742857632192 ], [ -0.283451889322389, 35.80220746476764 ], [ -0.284192105289897, 35.80220746476764 ], [ -0.284192105289897, 35.804065866135467 ], [ -0.284932321257406, 35.804065866135467 ], [ -0.284932321257406, 35.806388806702657 ], [ -0.285672537224914, 35.806388806702657 ], [ -0.285672537224914, 35.808711679331893 ], [ -0.286412753192422, 35.808711679331893 ], [ -0.286412753192422, 35.811034484021377 ], [ -0.287152969159931, 35.811034484021377 ], [ -0.287152969159931, 35.821254017484272 ], [ -0.286412753192422, 35.821254017484272 ], [ -0.286412753192422, 35.822183000751579 ], [ -0.285672537224914, 35.822183000751579 ], [ -0.285672537224914, 35.822647488308213 ], [ -0.284932321257406, 35.822647488308213 ], [ -0.284932321257406, 35.82311197314683 ], [ -0.284192105289897, 35.82311197314683 ], [ -0.284192105289897, 35.8235764552674 ], [ -0.283451889322389, 35.8235764552674 ], [ -0.283451889322389, 35.824040934669902 ], [ -0.282711673354881, 35.824040934669902 ], [ -0.282711673354881, 35.824505411354338 ], [ -0.281971457387372, 35.824505411354338 ], [ -0.281971457387372, 35.824969885320684 ], [ -0.281231241419864, 35.824969885320684 ], [ -0.281231241419864, 35.82543435656892 ], [ -0.280491025452356, 35.82543435656892 ], [ -0.280491025452356, 35.825898825099053 ], [ -0.278270377549831, 35.825898825099053 ], [ -0.278270377549831, 35.82543435656892 ], [ -0.277530161582322, 35.82543435656892 ], [ -0.277530161582322, 35.824969885320684 ], [ -0.276789945614814, 35.824969885320684 ], [ -0.276789945614814, 35.824505411354338 ], [ -0.276049729647306, 35.824505411354338 ] ] ], [ [ [ -3.103674725529143, 37.522524271234403 ], [ -3.103674725529143, 37.521615593512799 ], [ -3.102934509561635, 37.521615593512799 ], [ -3.102934509561635, 37.520706904724392 ], [ -3.102194293594127, 37.520706904724392 ], [ -3.102194293594127, 37.519343850791721 ], [ -3.101454077626618, 37.519343850791721 ], [ -3.101454077626618, 37.51843513433672 ], [ -3.10071386165911, 37.51843513433672 ], [ -3.10071386165911, 37.513436996023515 ], [ -3.101454077626618, 37.513436996023515 ], [ -3.101454077626618, 37.509347361146169 ], [ -3.102194293594127, 37.509347361146169 ], [ -3.102194293594127, 37.505257502191753 ], [ -3.102934509561635, 37.505257502191753 ], [ -3.102934509561635, 37.50434861421698 ], [ -3.103674725529143, 37.50434861421698 ], [ -3.103674725529143, 37.503439715177187 ], [ -3.104414941496652, 37.503439715177187 ], [ -3.104414941496652, 37.50253080507246 ], [ -3.10515515746416, 37.50253080507246 ], [ -3.10515515746416, 37.502076345870776 ], [ -3.105895373431669, 37.502076345870776 ], [ -3.105895373431669, 37.501167419168851 ], [ -3.106635589399176, 37.501167419168851 ], [ -3.106635589399176, 37.500258481402234 ], [ -3.110336669236718, 37.500258481402234 ], [ -3.110336669236718, 37.500712951668618 ], [ -3.113297533106751, 37.500712951668618 ], [ -3.113297533106751, 37.501167419168851 ], [ -3.116258396976785, 37.501167419168851 ], [ -3.116258396976785, 37.501621883902907 ], [ -3.11847904487931, 37.501621883902907 ], [ -3.11847904487931, 37.50253080507246 ], [ -3.119219260846818, 37.50253080507246 ], [ -3.119219260846818, 37.502985261507924 ], [ -3.119959476814327, 37.502985261507924 ], [ -3.119959476814327, 37.503894166080194 ], [ -3.120699692781835, 37.503894166080194 ], [ -3.120699692781835, 37.507984099725057 ], [ -3.119959476814327, 37.507984099725057 ], [ -3.119959476814327, 37.510710597669828 ], [ -3.119219260846818, 37.510710597669828 ], [ -3.119219260846818, 37.513436996023515 ], [ -3.11847904487931, 37.513436996023515 ], [ -3.11847904487931, 37.516617668227383 ], [ -3.117738828911802, 37.516617668227383 ], [ -3.117738828911802, 37.51888949394754 ], [ -3.116998612944293, 37.51888949394754 ], [ -3.116998612944293, 37.519343850791721 ], [ -3.116258396976785, 37.519343850791721 ], [ -3.116258396976785, 37.520252556180161 ], [ -3.115518181009276, 37.520252556180161 ], [ -3.115518181009276, 37.521161250501933 ], [ -3.114777965041768, 37.521161250501933 ], [ -3.114777965041768, 37.522069933756967 ], [ -3.11403774907426, 37.522069933756967 ], [ -3.11403774907426, 37.522524271234403 ], [ -3.113297533106751, 37.522524271234403 ], [ -3.113297533106751, 37.523432937889133 ], [ -3.111817101171734, 37.523432937889133 ], [ -3.111817101171734, 37.522978605945134 ], [ -3.107375805366685, 37.522978605945134 ], [ -3.107375805366685, 37.522524271234403 ], [ -3.103674725529143, 37.522524271234403 ] ] ], [ [ [ -3.379775281409752, 37.899573195524589 ], [ -3.379775281409752, 37.899121163939569 ], [ -3.379035065442244, 37.899121163939569 ], [ -3.379035065442244, 37.898669129578352 ], [ -3.37607420157221, 37.898669129578352 ], [ -3.37607420157221, 37.899121163939569 ], [ -3.370892689799652, 37.899121163939569 ], [ -3.370892689799652, 37.899573195524589 ], [ -3.367931825929619, 37.899573195524589 ], [ -3.367931825929619, 37.898669129578352 ], [ -3.36719160996211, 37.898669129578352 ], [ -3.36719160996211, 37.897765052527355 ], [ -3.366451393994602, 37.897765052527355 ], [ -3.366451393994602, 37.89640891612963 ], [ -3.365711178027094, 37.89640891612963 ], [ -3.365711178027094, 37.895504811317146 ], [ -3.364970962059585, 37.895504811317146 ], [ -3.364970962059585, 37.894600695400214 ], [ -3.36275031415706, 37.894600695400214 ], [ -3.36275031415706, 37.894148633277602 ], [ -3.360529666254535, 37.894148633277602 ], [ -3.360529666254535, 37.893696568378921 ], [ -3.359049234319519, 37.893696568378921 ], [ -3.359049234319519, 37.892792430253373 ], [ -3.35830901835201, 37.892792430253373 ], [ -3.35830901835201, 37.892340357026534 ], [ -3.357568802384502, 37.892340357026534 ], [ -3.357568802384502, 37.891436202244741 ], [ -3.356828586416993, 37.891436202244741 ], [ -3.356828586416993, 37.887819472078093 ], [ -3.357568802384502, 37.887819472078093 ], [ -3.357568802384502, 37.885106807864069 ], [ -3.35830901835201, 37.885106807864069 ], [ -3.35830901835201, 37.884654687446172 ], [ -3.359789450287027, 37.884654687446172 ], [ -3.359789450287027, 37.88420256425244 ], [ -3.361269882222043, 37.88420256425244 ], [ -3.361269882222043, 37.88375043828286 ], [ -3.36275031415706, 37.88375043828286 ], [ -3.36275031415706, 37.883298309537473 ], [ -3.363490530124568, 37.883298309537473 ], [ -3.363490530124568, 37.882846178016266 ], [ -3.364230746092077, 37.882846178016266 ], [ -3.364230746092077, 37.881941906646468 ], [ -3.364970962059585, 37.881941906646468 ], [ -3.364970962059585, 37.881037624173572 ], [ -3.365711178027094, 37.881037624173572 ], [ -3.365711178027094, 37.880585478773469 ], [ -3.366451393994602, 37.880585478773469 ], [ -3.366451393994602, 37.880133330597644 ], [ -3.36719160996211, 37.880133330597644 ], [ -3.36719160996211, 37.879681179646077 ], [ -3.37163290576716, 37.879681179646077 ], [ -3.37163290576716, 37.880133330597644 ], [ -3.372373121734669, 37.880133330597644 ], [ -3.372373121734669, 37.881037624173572 ], [ -3.373113337702177, 37.881037624173572 ], [ -3.373113337702177, 37.881941906646468 ], [ -3.373853553669685, 37.881941906646468 ], [ -3.373853553669685, 37.882846178016266 ], [ -3.374593769637194, 37.882846178016266 ], [ -3.374593769637194, 37.882394043719273 ], [ -3.378294849474735, 37.882394043719273 ], [ -3.378294849474735, 37.881941906646468 ], [ -3.381995929312277, 37.881941906646468 ], [ -3.381995929312277, 37.882394043719273 ], [ -3.382736145279785, 37.882394043719273 ], [ -3.382736145279785, 37.882846178016266 ], [ -3.383476361247294, 37.882846178016266 ], [ -3.383476361247294, 37.883298309537473 ], [ -3.384216577214802, 37.883298309537473 ], [ -3.384216577214802, 37.88375043828286 ], [ -3.38495679318231, 37.88375043828286 ], [ -3.38495679318231, 37.88420256425244 ], [ -3.385697009149818, 37.88420256425244 ], [ -3.385697009149818, 37.884654687446172 ], [ -3.390878520922377, 37.884654687446172 ], [ -3.390878520922377, 37.88555892550611 ], [ -3.391618736889885, 37.88555892550611 ], [ -3.391618736889885, 37.886463152462582 ], [ -3.392358952857394, 37.886463152462582 ], [ -3.392358952857394, 37.887819472078093 ], [ -3.393099168824902, 37.887819472078093 ], [ -3.393099168824902, 37.888723671275507 ], [ -3.393839384792411, 37.888723671275507 ], [ -3.393839384792411, 37.890984120689836 ], [ -3.393099168824902, 37.890984120689836 ], [ -3.393099168824902, 37.892792430253373 ], [ -3.392358952857394, 37.892792430253373 ], [ -3.392358952857394, 37.893696568378921 ], [ -3.391618736889885, 37.893696568378921 ], [ -3.391618736889885, 37.894148633277602 ], [ -3.390878520922377, 37.894148633277602 ], [ -3.390878520922377, 37.894600695400214 ], [ -3.38939808898736, 37.894600695400214 ], [ -3.38939808898736, 37.89821709244093 ], [ -3.388657873019852, 37.89821709244093 ], [ -3.388657873019852, 37.899121163939569 ], [ -3.387917657052344, 37.899121163939569 ], [ -3.387917657052344, 37.900025224333405 ], [ -3.387177441084835, 37.900025224333405 ], [ -3.387177441084835, 37.900477250365995 ], [ -3.386437225117327, 37.900477250365995 ], [ -3.386437225117327, 37.900929273622353 ], [ -3.381255713344768, 37.900929273622353 ], [ -3.381255713344768, 37.900477250365995 ], [ -3.380515497377261, 37.900477250365995 ], [ -3.380515497377261, 37.899573195524589 ], [ -3.379775281409752, 37.899573195524589 ] ] ], [ [ [ -6.16298731924109, 38.291787611549523 ], [ -6.162247103273582, 38.291787611549523 ], [ -6.162247103273582, 38.291337999374832 ], [ -6.160766671338565, 38.291337999374832 ], [ -6.160766671338565, 38.290888384414593 ], [ -6.160026455371056, 38.290888384414593 ], [ -6.160026455371056, 38.2904387666688 ], [ -6.159286239403548, 38.2904387666688 ], [ -6.159286239403548, 38.289989146137479 ], [ -6.157805807468531, 38.289989146137479 ], [ -6.157805807468531, 38.289539522820618 ], [ -6.157065591501024, 38.289539522820618 ], [ -6.157065591501024, 38.289089896718245 ], [ -6.155585159566006, 38.289089896718245 ], [ -6.155585159566006, 38.288190636156997 ], [ -6.154844943598499, 38.288190636156997 ], [ -6.154844943598499, 38.286392081608781 ], [ -6.15410472763099, 38.286392081608781 ], [ -6.15410472763099, 38.283694166223363 ], [ -6.154844943598499, 38.283694166223363 ], [ -6.154844943598499, 38.282794838811739 ], [ -6.155585159566006, 38.282794838811739 ], [ -6.155585159566006, 38.281445826804131 ], [ -6.156325375533515, 38.281445826804131 ], [ -6.156325375533515, 38.280546471539076 ], [ -6.157065591501024, 38.280546471539076 ], [ -6.157065591501024, 38.279647105132788 ], [ -6.162247103273582, 38.279647105132788 ], [ -6.162247103273582, 38.280096789728582 ], [ -6.16298731924109, 38.280096789728582 ], [ -6.16298731924109, 38.280546471539076 ], [ -6.163727535208598, 38.280546471539076 ], [ -6.163727535208598, 38.28099615056427 ], [ -6.164467751176107, 38.28099615056427 ], [ -6.164467751176107, 38.281445826804131 ], [ -6.165948183111123, 38.281445826804131 ], [ -6.165948183111123, 38.281895500258685 ], [ -6.16668839907863, 38.281895500258685 ], [ -6.16668839907863, 38.279647105132788 ], [ -6.165948183111123, 38.279647105132788 ], [ -6.165948183111123, 38.27919741775171 ], [ -6.16668839907863, 38.27919741775171 ], [ -6.16668839907863, 38.277398640374741 ], [ -6.167428615046139, 38.277398640374741 ], [ -6.167428615046139, 38.275599818434024 ], [ -6.168168831013648, 38.275599818434024 ], [ -6.168168831013648, 38.275150105985837 ], [ -6.170389478916174, 38.275150105985837 ], [ -6.170389478916174, 38.274700390752464 ], [ -6.172610126818698, 38.274700390752464 ], [ -6.172610126818698, 38.274250672733928 ], [ -6.174830774721223, 38.274250672733928 ], [ -6.174830774721223, 38.275150105985837 ], [ -6.175570990688731, 38.275150105985837 ], [ -6.175570990688731, 38.276049528097012 ], [ -6.176311206656239, 38.276049528097012 ], [ -6.176311206656239, 38.276499234974807 ], [ -6.177051422623747, 38.276499234974807 ], [ -6.177051422623747, 38.27784833889686 ], [ -6.177791638591256, 38.27784833889686 ], [ -6.177791638591256, 38.280546471539076 ], [ -6.178531854558766, 38.280546471539076 ], [ -6.178531854558766, 38.28324450391024 ], [ -6.179272070526273, 38.28324450391024 ], [ -6.179272070526273, 38.287741001698151 ], [ -6.178531854558766, 38.287741001698151 ], [ -6.178531854558766, 38.289539522820618 ], [ -6.177791638591256, 38.289539522820618 ], [ -6.177791638591256, 38.289989146137479 ], [ -6.177051422623747, 38.289989146137479 ], [ -6.177051422623747, 38.2904387666688 ], [ -6.175570990688731, 38.2904387666688 ], [ -6.175570990688731, 38.290888384414593 ], [ -6.174830774721223, 38.290888384414593 ], [ -6.174830774721223, 38.291337999374832 ], [ -6.173350342786207, 38.291337999374832 ], [ -6.173350342786207, 38.290888384414593 ], [ -6.172610126818698, 38.290888384414593 ], [ -6.172610126818698, 38.2904387666688 ], [ -6.171129694883682, 38.2904387666688 ], [ -6.171129694883682, 38.289989146137479 ], [ -6.170389478916174, 38.289989146137479 ], [ -6.170389478916174, 38.289539522820618 ], [ -6.169649262948665, 38.289539522820618 ], [ -6.169649262948665, 38.290888384414593 ], [ -6.168909046981156, 38.290888384414593 ], [ -6.168909046981156, 38.291337999374832 ], [ -6.168168831013648, 38.291337999374832 ], [ -6.168168831013648, 38.291787611549523 ], [ -6.167428615046139, 38.291787611549523 ], [ -6.167428615046139, 38.292237220938645 ], [ -6.165948183111123, 38.292237220938645 ], [ -6.165948183111123, 38.292686827542177 ], [ -6.163727535208598, 38.292686827542177 ], [ -6.163727535208598, 38.292237220938645 ], [ -6.16298731924109, 38.292237220938645 ], [ -6.16298731924109, 38.291787611549523 ] ] ], [ [ [ -0.484050416517148, 38.909593617966891 ], [ -0.481829768614623, 38.909593617966891 ], [ -0.481829768614623, 38.909147859471808 ], [ -0.479609120712098, 38.909147859471808 ], [ -0.479609120712098, 38.908702098177486 ], [ -0.478128688777081, 38.908702098177486 ], [ -0.478128688777081, 38.908256334083937 ], [ -0.477388472809573, 38.908256334083937 ], [ -0.477388472809573, 38.906473249717635 ], [ -0.476648256842064, 38.906473249717635 ], [ -0.476648256842064, 38.901569536779498 ], [ -0.477388472809573, 38.901569536779498 ], [ -0.477388472809573, 38.898002987366468 ], [ -0.478128688777081, 38.898002987366468 ], [ -0.478128688777081, 38.895327957748286 ], [ -0.478868904744589, 38.895327957748286 ], [ -0.478868904744589, 38.894882109682214 ], [ -0.479609120712098, 38.894882109682214 ], [ -0.479609120712098, 38.894436258817208 ], [ -0.480349336679606, 38.894436258817208 ], [ -0.480349336679606, 38.893990405153275 ], [ -0.481829768614623, 38.893990405153275 ], [ -0.481829768614623, 38.893544548690414 ], [ -0.484050416517148, 38.893544548690414 ], [ -0.484050416517148, 38.893990405153275 ], [ -0.486271064419673, 38.893990405153275 ], [ -0.486271064419673, 38.894436258817208 ], [ -0.488491712322198, 38.894436258817208 ], [ -0.488491712322198, 38.894882109682214 ], [ -0.490712360224723, 38.894882109682214 ], [ -0.490712360224723, 38.895327957748286 ], [ -0.492192792159739, 38.895327957748286 ], [ -0.492192792159739, 38.897111322022987 ], [ -0.492933008127248, 38.897111322022987 ], [ -0.492933008127248, 38.902461146142144 ], [ -0.492192792159739, 38.902461146142144 ], [ -0.492192792159739, 38.906027471628072 ], [ -0.491452576192231, 38.906027471628072 ], [ -0.491452576192231, 38.908702098177486 ], [ -0.490712360224723, 38.908702098177486 ], [ -0.490712360224723, 38.909147859471808 ], [ -0.489972144257214, 38.909147859471808 ], [ -0.489972144257214, 38.909593617966891 ], [ -0.488491712322198, 38.909593617966891 ], [ -0.488491712322198, 38.91003937366272 ], [ -0.487751496354689, 38.91003937366272 ], [ -0.487751496354689, 38.910485126559294 ], [ -0.486271064419673, 38.910485126559294 ], [ -0.486271064419673, 38.91003937366272 ], [ -0.484050416517148, 38.91003937366272 ], [ -0.484050416517148, 38.909593617966891 ] ] ], [ [ [ -5.723299034541139, 43.536943031704851 ], [ -5.723299034541139, 43.536112471851069 ], [ -5.72255881857363, 43.536112471851069 ], [ -5.72255881857363, 43.535281900557365 ], [ -5.721818602606122, 43.535281900557365 ], [ -5.721818602606122, 43.534451317823752 ], [ -5.721078386638613, 43.534451317823752 ], [ -5.721078386638613, 43.533620723650237 ], [ -5.720338170671106, 43.533620723650237 ], [ -5.720338170671106, 43.532790118036843 ], [ -5.719597954703597, 43.532790118036843 ], [ -5.719597954703597, 43.531959500983589 ], [ -5.718857738736089, 43.531959500983589 ], [ -5.718857738736089, 43.531128872490477 ], [ -5.718117522768581, 43.531128872490477 ], [ -5.718117522768581, 43.530713553953994 ], [ -5.717377306801072, 43.530713553953994 ], [ -5.717377306801072, 43.529052251208505 ], [ -5.718117522768581, 43.529052251208505 ], [ -5.718117522768581, 43.526144861296039 ], [ -5.718857738736089, 43.526144861296039 ], [ -5.718857738736089, 43.523237331246925 ], [ -5.719597954703597, 43.523237331246925 ], [ -5.719597954703597, 43.520745051096618 ], [ -5.720338170671106, 43.520745051096618 ], [ -5.720338170671106, 43.519914268167263 ], [ -5.721078386638613, 43.519914268167263 ], [ -5.721078386638613, 43.519498872412733 ], [ -5.721818602606122, 43.519498872412733 ], [ -5.721818602606122, 43.518668072323983 ], [ -5.72255881857363, 43.518668072323983 ], [ -5.72255881857363, 43.517837260795666 ], [ -5.723299034541139, 43.517837260795666 ], [ -5.723299034541139, 43.517006437827789 ], [ -5.724039250508648, 43.517006437827789 ], [ -5.724039250508648, 43.516591022054023 ], [ -5.726259898411173, 43.516591022054023 ], [ -5.726259898411173, 43.516175603420372 ], [ -5.727740330346189, 43.516175603420372 ], [ -5.727740330346189, 43.515760181926844 ], [ -5.729220762281205, 43.515760181926844 ], [ -5.729220762281205, 43.51534475757343 ], [ -5.730701194216222, 43.51534475757343 ], [ -5.730701194216222, 43.514929330360154 ], [ -5.733662058086256, 43.514929330360154 ], [ -5.733662058086256, 43.51534475757343 ], [ -5.734402274053765, 43.51534475757343 ], [ -5.734402274053765, 43.515760181926844 ], [ -5.73588270598878, 43.515760181926844 ], [ -5.73588270598878, 43.516175603420372 ], [ -5.73662292195629, 43.516175603420372 ], [ -5.73662292195629, 43.516591022054023 ], [ -5.737363137923798, 43.516591022054023 ], [ -5.737363137923798, 43.517006437827789 ], [ -5.738103353891305, 43.517006437827789 ], [ -5.738103353891305, 43.51742185074167 ], [ -5.738843569858814, 43.51742185074167 ], [ -5.738843569858814, 43.517837260795666 ], [ -5.739583785826321, 43.517837260795666 ], [ -5.739583785826321, 43.518252667989771 ], [ -5.741064217761339, 43.518252667989771 ], [ -5.741064217761339, 43.518668072323983 ], [ -5.741804433728848, 43.518668072323983 ], [ -5.741804433728848, 43.519083473798304 ], [ -5.742544649696356, 43.519083473798304 ], [ -5.742544649696356, 43.519498872412733 ], [ -5.743284865663864, 43.519498872412733 ], [ -5.743284865663864, 43.520745051096618 ], [ -5.744025081631372, 43.520745051096618 ], [ -5.744025081631372, 43.522406582636464 ], [ -5.744765297598882, 43.522406582636464 ], [ -5.744765297598882, 43.524898794148825 ], [ -5.744025081631372, 43.524898794148825 ], [ -5.744025081631372, 43.527390902703871 ], [ -5.743284865663864, 43.527390902703871 ], [ -5.743284865663864, 43.529467581184797 ], [ -5.742544649696356, 43.529467581184797 ], [ -5.742544649696356, 43.530298232557548 ], [ -5.741804433728848, 43.530298232557548 ], [ -5.741804433728848, 43.531128872490477 ], [ -5.741064217761339, 43.531128872490477 ], [ -5.741064217761339, 43.531959500983589 ], [ -5.74032400179383, 43.531959500983589 ], [ -5.74032400179383, 43.532790118036843 ], [ -5.739583785826321, 43.532790118036843 ], [ -5.739583785826321, 43.53403602216698 ], [ -5.738843569858814, 43.53403602216698 ], [ -5.738843569858814, 43.534451317823752 ], [ -5.738103353891305, 43.534451317823752 ], [ -5.738103353891305, 43.534866610620547 ], [ -5.73588270598878, 43.534866610620547 ], [ -5.73588270598878, 43.535281900557365 ], [ -5.734402274053765, 43.535281900557365 ], [ -5.734402274053765, 43.535697187634213 ], [ -5.732921842118747, 43.535697187634213 ], [ -5.732921842118747, 43.536112471851069 ], [ -5.730701194216222, 43.536112471851069 ], [ -5.730701194216222, 43.536527753207956 ], [ -5.729220762281205, 43.536527753207956 ], [ -5.729220762281205, 43.536943031704851 ], [ -5.727740330346189, 43.536943031704851 ], [ -5.727740330346189, 43.537358307341755 ], [ -5.726259898411173, 43.537358307341755 ], [ -5.726259898411173, 43.537773580118674 ], [ -5.724779466476156, 43.537773580118674 ], [ -5.724779466476156, 43.537358307341755 ], [ -5.724039250508648, 43.537358307341755 ], [ -5.724039250508648, 43.536943031704851 ], [ -5.723299034541139, 43.536943031704851 ] ] ], [ [ [ -5.840253157407456, 43.550645617637002 ], [ -5.840253157407456, 43.550230433520795 ], [ -5.83877272547244, 43.550230433520795 ], [ -5.83877272547244, 43.549815246544526 ], [ -5.836552077569914, 43.549815246544526 ], [ -5.836552077569914, 43.549400056708208 ], [ -5.835071645634897, 43.549400056708208 ], [ -5.835071645634897, 43.548984864011857 ], [ -5.832850997732372, 43.548984864011857 ], [ -5.832850997732372, 43.548569668455436 ], [ -5.831370565797356, 43.548569668455436 ], [ -5.831370565797356, 43.54815447003898 ], [ -5.829149917894831, 43.54815447003898 ], [ -5.829149917894831, 43.54773926876247 ], [ -5.827669485959815, 43.54773926876247 ], [ -5.827669485959815, 43.547324064625933 ], [ -5.82544883805729, 43.547324064625933 ], [ -5.82544883805729, 43.546908857629347 ], [ -5.823228190154764, 43.546908857629347 ], [ -5.823228190154764, 43.546493647772721 ], [ -5.822487974187256, 43.546493647772721 ], [ -5.822487974187256, 43.54607843505606 ], [ -5.821747758219748, 43.54607843505606 ], [ -5.821747758219748, 43.545248001042651 ], [ -5.821007542252239, 43.545248001042651 ], [ -5.821007542252239, 43.544417555589114 ], [ -5.82026732628473, 43.544417555589114 ], [ -5.82026732628473, 43.543171865958641 ], [ -5.819527110317222, 43.543171865958641 ], [ -5.819527110317222, 43.542341391904877 ], [ -5.818786894349714, 43.542341391904877 ], [ -5.818786894349714, 43.541510906411077 ], [ -5.818046678382206, 43.541510906411077 ], [ -5.818046678382206, 43.540265156720295 ], [ -5.817306462414698, 43.540265156720295 ], [ -5.817306462414698, 43.539434642626411 ], [ -5.816566246447189, 43.539434642626411 ], [ -5.816566246447189, 43.53860411709254 ], [ -5.815826030479681, 43.53860411709254 ], [ -5.815826030479681, 43.537358307341755 ], [ -5.815085814512173, 43.537358307341755 ], [ -5.815085814512173, 43.536527753207956 ], [ -5.815826030479681, 43.536527753207956 ], [ -5.815826030479681, 43.535281900557365 ], [ -5.816566246447189, 43.535281900557365 ], [ -5.816566246447189, 43.53403602216698 ], [ -5.817306462414698, 43.53403602216698 ], [ -5.817306462414698, 43.533205422273518 ], [ -5.818046678382206, 43.533205422273518 ], [ -5.818046678382206, 43.531959500983589 ], [ -5.821007542252239, 43.531959500983589 ], [ -5.821007542252239, 43.53237481094019 ], [ -5.823968406122273, 43.53237481094019 ], [ -5.823968406122273, 43.531959500983589 ], [ -5.82544883805729, 43.531959500983589 ], [ -5.82544883805729, 43.531544188167018 ], [ -5.826189054024797, 43.531544188167018 ], [ -5.826189054024797, 43.531128872490477 ], [ -5.827669485959815, 43.531128872490477 ], [ -5.827669485959815, 43.530713553953994 ], [ -5.829149917894831, 43.530713553953994 ], [ -5.829149917894831, 43.531128872490477 ], [ -5.831370565797356, 43.531128872490477 ], [ -5.831370565797356, 43.531544188167018 ], [ -5.832850997732372, 43.531544188167018 ], [ -5.832850997732372, 43.531959500983589 ], [ -5.835071645634897, 43.531959500983589 ], [ -5.835071645634897, 43.53237481094019 ], [ -5.837292293537423, 43.53237481094019 ], [ -5.837292293537423, 43.532790118036843 ], [ -5.839512941439948, 43.532790118036843 ], [ -5.839512941439948, 43.533205422273518 ], [ -5.841733589342473, 43.533205422273518 ], [ -5.841733589342473, 43.532790118036843 ], [ -5.842473805309981, 43.532790118036843 ], [ -5.842473805309981, 43.53237481094019 ], [ -5.843954237244998, 43.53237481094019 ], [ -5.843954237244998, 43.531959500983589 ], [ -5.846174885147523, 43.531959500983589 ], [ -5.846174885147523, 43.53237481094019 ], [ -5.846915101115031, 43.53237481094019 ], [ -5.846915101115031, 43.533205422273518 ], [ -5.847655317082539, 43.533205422273518 ], [ -5.847655317082539, 43.533620723650237 ], [ -5.848395533050048, 43.533620723650237 ], [ -5.848395533050048, 43.53403602216698 ], [ -5.849135749017555, 43.53403602216698 ], [ -5.849135749017555, 43.534451317823752 ], [ -5.849875964985064, 43.534451317823752 ], [ -5.849875964985064, 43.535281900557365 ], [ -5.850616180952573, 43.535281900557365 ], [ -5.850616180952573, 43.539019381289471 ], [ -5.85135639692008, 43.539019381289471 ], [ -5.85135639692008, 43.542756630361758 ], [ -5.852096612887589, 43.542756630361758 ], [ -5.852096612887589, 43.546493647772721 ], [ -5.85135639692008, 43.546493647772721 ], [ -5.85135639692008, 43.54815447003898 ], [ -5.850616180952573, 43.54815447003898 ], [ -5.850616180952573, 43.549815246544526 ], [ -5.849875964985064, 43.549815246544526 ], [ -5.849875964985064, 43.550230433520795 ], [ -5.849135749017555, 43.550230433520795 ], [ -5.849135749017555, 43.550645617637002 ], [ -5.847655317082539, 43.550645617637002 ], [ -5.847655317082539, 43.551060798893154 ], [ -5.846915101115031, 43.551060798893154 ], [ -5.846915101115031, 43.551475977289243 ], [ -5.844694453212505, 43.551475977289243 ], [ -5.844694453212505, 43.551060798893154 ], [ -5.842473805309981, 43.551060798893154 ], [ -5.842473805309981, 43.550645617637002 ], [ -5.840253157407456, 43.550645617637002 ] ] ], [ [ [ 0.541888914449404, 35.790126796138338 ], [ 0.542629130416912, 35.790126796138338 ], [ 0.542629130416912, 35.789662118356006 ], [ 0.54336934638442, 35.789662118356006 ], [ 0.54336934638442, 35.789197437856686 ], [ 0.544109562351929, 35.789197437856686 ], [ 0.544109562351929, 35.788732754640378 ], [ 0.544849778319437, 35.788732754640378 ], [ 0.544849778319437, 35.788268068707133 ], [ 0.545589994286945, 35.788268068707133 ], [ 0.545589994286945, 35.787803380056921 ], [ 0.546330210254454, 35.787803380056921 ], [ 0.546330210254454, 35.786873994605742 ], [ 0.547070426221962, 35.786873994605742 ], [ 0.547070426221962, 35.785015191100669 ], [ 0.54781064218947, 35.785015191100669 ], [ 0.54781064218947, 35.782691625590473 ], [ 0.547070426221962, 35.782691625590473 ], [ 0.547070426221962, 35.78083272428038 ], [ 0.546330210254454, 35.78083272428038 ], [ 0.546330210254454, 35.77897377950292 ], [ 0.545589994286945, 35.77897377950292 ], [ 0.545589994286945, 35.777579542394932 ], [ 0.544109562351929, 35.777579542394932 ], [ 0.544109562351929, 35.777114791259052 ], [ 0.541888914449404, 35.777114791259052 ], [ 0.541888914449404, 35.776650037406554 ], [ 0.540408482514387, 35.776650037406554 ], [ 0.540408482514387, 35.776185280837481 ], [ 0.537447618644354, 35.776185280837481 ], [ 0.537447618644354, 35.776650037406554 ], [ 0.535967186709337, 35.776650037406554 ], [ 0.535967186709337, 35.777114791259052 ], [ 0.535226970741829, 35.777114791259052 ], [ 0.535226970741829, 35.777579542394932 ], [ 0.53448675477432, 35.777579542394932 ], [ 0.53448675477432, 35.778044290814222 ], [ 0.533746538806812, 35.778044290814222 ], [ 0.533746538806812, 35.779903257325017 ], [ 0.533006322839304, 35.779903257325017 ], [ 0.533006322839304, 35.784550483432255 ], [ 0.533746538806812, 35.784550483432255 ], [ 0.533746538806812, 35.788268068707133 ], [ 0.53448675477432, 35.788268068707133 ], [ 0.53448675477432, 35.788732754640378 ], [ 0.535226970741829, 35.788732754640378 ], [ 0.535226970741829, 35.789197437856686 ], [ 0.535967186709337, 35.789197437856686 ], [ 0.535967186709337, 35.789662118356006 ], [ 0.536707402676845, 35.789662118356006 ], [ 0.536707402676845, 35.790126796138338 ], [ 0.537447618644354, 35.790126796138338 ], [ 0.537447618644354, 35.790591471203676 ], [ 0.538187834611862, 35.790591471203676 ], [ 0.538187834611862, 35.791056143551991 ], [ 0.53892805057937, 35.791056143551991 ], [ 0.53892805057937, 35.791520813183269 ], [ 0.539668266546879, 35.791520813183269 ], [ 0.539668266546879, 35.791056143551991 ], [ 0.540408482514387, 35.791056143551991 ], [ 0.540408482514387, 35.790591471203676 ], [ 0.541888914449404, 35.790591471203676 ], [ 0.541888914449404, 35.790126796138338 ] ] ], [ [ [ 1.247314731484846, 36.132779789514281 ], [ 1.247314731484846, 36.131854454851599 ], [ 1.248054947452355, 36.131854454851599 ], [ 1.248054947452355, 36.130466432400581 ], [ 1.248795163419863, 36.130466432400581 ], [ 1.248795163419863, 36.129541070462068 ], [ 1.249535379387371, 36.129541070462068 ], [ 1.249535379387371, 36.128615697613419 ], [ 1.25027559535488, 36.128615697613419 ], [ 1.25027559535488, 36.124914097119721 ], [ 1.249535379387371, 36.124914097119721 ], [ 1.249535379387371, 36.123988669722088 ], [ 1.248795163419863, 36.123988669722088 ], [ 1.248795163419863, 36.123063231414996 ], [ 1.248054947452355, 36.123063231414996 ], [ 1.248054947452355, 36.122600508170429 ], [ 1.247314731484846, 36.122600508170429 ], [ 1.247314731484846, 36.121675053499345 ], [ 1.246574515517338, 36.121675053499345 ], [ 1.246574515517338, 36.121212322072857 ], [ 1.245834299549829, 36.121212322072857 ], [ 1.245834299549829, 36.120286851038067 ], [ 1.244353867614813, 36.120286851038067 ], [ 1.244353867614813, 36.119824111429786 ], [ 1.242133219712288, 36.119824111429786 ], [ 1.242133219712288, 36.119361369094264 ], [ 1.238432139874746, 36.119361369094264 ], [ 1.238432139874746, 36.119824111429786 ], [ 1.237691923907238, 36.119824111429786 ], [ 1.237691923907238, 36.120286851038067 ], [ 1.236951707939729, 36.120286851038067 ], [ 1.236951707939729, 36.121212322072857 ], [ 1.236211491972221, 36.121212322072857 ], [ 1.236211491972221, 36.121675053499345 ], [ 1.235471276004713, 36.121675053499345 ], [ 1.235471276004713, 36.122137782198543 ], [ 1.234731060037205, 36.122137782198543 ], [ 1.234731060037205, 36.123525951932208 ], [ 1.233990844069696, 36.123525951932208 ], [ 1.233990844069696, 36.129078385401499 ], [ 1.234731060037205, 36.129078385401499 ], [ 1.234731060037205, 36.130003752795091 ], [ 1.235471276004713, 36.130003752795091 ], [ 1.235471276004713, 36.130466432400581 ], [ 1.236211491972221, 36.130466432400581 ], [ 1.236211491972221, 36.131391783428839 ], [ 1.236951707939729, 36.131391783428839 ], [ 1.236951707939729, 36.132317123546741 ], [ 1.237691923907238, 36.132317123546741 ], [ 1.237691923907238, 36.132779789514281 ], [ 1.238432139874746, 36.132779789514281 ], [ 1.238432139874746, 36.13370511326643 ], [ 1.239172355842254, 36.13370511326643 ], [ 1.239172355842254, 36.134167771051025 ], [ 1.239912571809763, 36.134167771051025 ], [ 1.239912571809763, 36.135093078437173 ], [ 1.245094083582321, 36.135093078437173 ], [ 1.245094083582321, 36.13463042610794 ], [ 1.245834299549829, 36.13463042610794 ], [ 1.245834299549829, 36.13370511326643 ], [ 1.246574515517338, 36.13370511326643 ], [ 1.246574515517338, 36.132779789514281 ], [ 1.247314731484846, 36.132779789514281 ] ] ], [ [ [ 2.926864761761257, 36.147583660208454 ], [ 2.928345193696273, 36.147583660208454 ], [ 2.928345193696273, 36.147121081532141 ], [ 2.929085409663781, 36.147121081532141 ], [ 2.929085409663781, 36.146658500127771 ], [ 2.930565841598798, 36.146658500127771 ], [ 2.930565841598798, 36.146195915995342 ], [ 2.931306057566307, 36.146195915995342 ], [ 2.931306057566307, 36.14573332913487 ], [ 2.932786489501323, 36.14573332913487 ], [ 2.932786489501323, 36.145270739546369 ], [ 2.933526705468831, 36.145270739546369 ], [ 2.933526705468831, 36.14480814722986 ], [ 2.93426692143634, 36.14480814722986 ], [ 2.93426692143634, 36.144345552185356 ], [ 2.935007137403848, 36.144345552185356 ], [ 2.935007137403848, 36.142957750683983 ], [ 2.935747353371357, 36.142957750683983 ], [ 2.935747353371357, 36.141107310491023 ], [ 2.936487569338865, 36.141107310491023 ], [ 2.936487569338865, 36.139256826651881 ], [ 2.937227785306373, 36.139256826651881 ], [ 2.937227785306373, 36.136943660476909 ], [ 2.936487569338865, 36.136943660476909 ], [ 2.936487569338865, 36.135555728038689 ], [ 2.935747353371357, 36.135555728038689 ], [ 2.935747353371357, 36.13463042610794 ], [ 2.935007137403848, 36.13463042610794 ], [ 2.935007137403848, 36.13370511326643 ], [ 2.93426692143634, 36.13370511326643 ], [ 2.93426692143634, 36.132779789514281 ], [ 2.932786489501323, 36.132779789514281 ], [ 2.932786489501323, 36.132317123546741 ], [ 2.930565841598798, 36.132317123546741 ], [ 2.930565841598798, 36.131854454851599 ], [ 2.929085409663781, 36.131854454851599 ], [ 2.929085409663781, 36.132317123546741 ], [ 2.926864761761257, 36.132317123546741 ], [ 2.926864761761257, 36.132779789514281 ], [ 2.924644113858732, 36.132779789514281 ], [ 2.924644113858732, 36.133242452754182 ], [ 2.923163681923715, 36.133242452754182 ], [ 2.923163681923715, 36.134167771051025 ], [ 2.922423465956207, 36.134167771051025 ], [ 2.922423465956207, 36.135093078437173 ], [ 2.921683249988698, 36.135093078437173 ], [ 2.921683249988698, 36.136018374912496 ], [ 2.92094303402119, 36.136018374912496 ], [ 2.92094303402119, 36.136481019058579 ], [ 2.920202818053682, 36.136481019058579 ], [ 2.920202818053682, 36.137868935130264 ], [ 2.919462602086173, 36.137868935130264 ], [ 2.919462602086173, 36.140644693623038 ], [ 2.918722386118665, 36.140644693623038 ], [ 2.918722386118665, 36.143420353912397 ], [ 2.917982170151157, 36.143420353912397 ], [ 2.917982170151157, 36.143882954412867 ], [ 2.918722386118665, 36.143882954412867 ], [ 2.918722386118665, 36.14573332913487 ], [ 2.919462602086173, 36.14573332913487 ], [ 2.919462602086173, 36.147583660208454 ], [ 2.92094303402119, 36.147583660208454 ], [ 2.92094303402119, 36.148046236156667 ], [ 2.921683249988698, 36.148046236156667 ], [ 2.921683249988698, 36.148508809376793 ], [ 2.923163681923715, 36.148508809376793 ], [ 2.923163681923715, 36.148971379868819 ], [ 2.924644113858732, 36.148971379868819 ], [ 2.924644113858732, 36.148508809376793 ], [ 2.926124545793748, 36.148508809376793 ], [ 2.926124545793748, 36.148046236156667 ], [ 2.926864761761257, 36.148046236156667 ], [ 2.926864761761257, 36.147583660208454 ] ] ], [ [ [ 3.744063189890458, 36.186892875113685 ], [ 3.744063189890458, 36.186430528374551 ], [ 3.744803405857966, 36.186430528374551 ], [ 3.744803405857966, 36.185968178906165 ], [ 3.745543621825474, 36.185968178906165 ], [ 3.745543621825474, 36.186430528374551 ], [ 3.747024053760491, 36.186430528374551 ], [ 3.747024053760491, 36.186892875113685 ], [ 3.749244701663016, 36.186892875113685 ], [ 3.749244701663016, 36.187355219123539 ], [ 3.751465349565541, 36.187355219123539 ], [ 3.751465349565541, 36.187817560404099 ], [ 3.752945781500558, 36.187817560404099 ], [ 3.752945781500558, 36.187355219123539 ], [ 3.753685997468065, 36.187355219123539 ], [ 3.753685997468065, 36.186892875113685 ], [ 3.754426213435575, 36.186892875113685 ], [ 3.754426213435575, 36.185968178906165 ], [ 3.755166429403083, 36.185968178906165 ], [ 3.755166429403083, 36.185043471781654 ], [ 3.755906645370591, 36.185043471781654 ], [ 3.755906645370591, 36.184118753740272 ], [ 3.756646861338099, 36.184118753740272 ], [ 3.756646861338099, 36.183656390625785 ], [ 3.757387077305608, 36.183656390625785 ], [ 3.757387077305608, 36.181344534115965 ], [ 3.756646861338099, 36.181344534115965 ], [ 3.756646861338099, 36.175795800126778 ], [ 3.755906645370591, 36.175795800126778 ], [ 3.755906645370591, 36.173483711649958 ], [ 3.755166429403083, 36.173483711649958 ], [ 3.755166429403083, 36.173021285767938 ], [ 3.754426213435575, 36.173021285767938 ], [ 3.754426213435575, 36.17209642581733 ], [ 3.753685997468065, 36.17209642581733 ], [ 3.753685997468065, 36.171171554951435 ], [ 3.751465349565541, 36.171171554951435 ], [ 3.751465349565541, 36.170709115425268 ], [ 3.747764269728, 36.170709115425268 ], [ 3.747764269728, 36.171171554951435 ], [ 3.747024053760491, 36.171171554951435 ], [ 3.747024053760491, 36.171633991748799 ], [ 3.745543621825474, 36.171633991748799 ], [ 3.745543621825474, 36.17209642581733 ], [ 3.744803405857966, 36.17209642581733 ], [ 3.744803405857966, 36.172558857157064 ], [ 3.743322973922949, 36.172558857157064 ], [ 3.743322973922949, 36.173021285767938 ], [ 3.742582757955441, 36.173021285767938 ], [ 3.742582757955441, 36.173483711649958 ], [ 3.741102326020424, 36.173483711649958 ], [ 3.741102326020424, 36.174408555227394 ], [ 3.740362110052916, 36.174408555227394 ], [ 3.740362110052916, 36.176258209635364 ], [ 3.739621894085408, 36.176258209635364 ], [ 3.739621894085408, 36.177645421787389 ], [ 3.738881678117899, 36.177645421787389 ], [ 3.738881678117899, 36.178107820380092 ], [ 3.738141462150391, 36.178107820380092 ], [ 3.738141462150391, 36.178570216243784 ], [ 3.737401246182882, 36.178570216243784 ], [ 3.737401246182882, 36.17903260937846 ], [ 3.735920814247866, 36.17903260937846 ], [ 3.735920814247866, 36.182269284907314 ], [ 3.735180598280357, 36.182269284907314 ], [ 3.735180598280357, 36.185505826708528 ], [ 3.735920814247866, 36.185505826708528 ], [ 3.735920814247866, 36.185968178906165 ], [ 3.736661030215375, 36.185968178906165 ], [ 3.736661030215375, 36.186430528374551 ], [ 3.737401246182882, 36.186430528374551 ], [ 3.737401246182882, 36.186892875113685 ], [ 3.738141462150391, 36.186892875113685 ], [ 3.738141462150391, 36.187355219123539 ], [ 3.738881678117899, 36.187355219123539 ], [ 3.738881678117899, 36.187817560404099 ], [ 3.739621894085408, 36.187817560404099 ], [ 3.739621894085408, 36.188279898955365 ], [ 3.741842541987933, 36.188279898955365 ], [ 3.741842541987933, 36.187817560404099 ], [ 3.742582757955441, 36.187817560404099 ], [ 3.742582757955441, 36.187355219123539 ], [ 3.743322973922949, 36.187355219123539 ], [ 3.743322973922949, 36.186892875113685 ], [ 3.744063189890458, 36.186892875113685 ] ] ], [ [ [ 3.142267608306182, 36.604196059893432 ], [ 3.142267608306182, 36.603736188775677 ], [ 3.14300782427369, 36.603736188775677 ], [ 3.14300782427369, 36.602816438315351 ], [ 3.143748040241198, 36.602816438315351 ], [ 3.143748040241198, 36.601896676888721 ], [ 3.144488256208707, 36.601896676888721 ], [ 3.144488256208707, 36.598677425537396 ], [ 3.145228472176215, 36.598677425537396 ], [ 3.145228472176215, 36.595458039854627 ], [ 3.144488256208707, 36.595458039854627 ], [ 3.144488256208707, 36.594538190701364 ], [ 3.143748040241198, 36.594538190701364 ], [ 3.143748040241198, 36.593618330582743 ], [ 3.14300782427369, 36.593618330582743 ], [ 3.14300782427369, 36.593158396411461 ], [ 3.142267608306182, 36.593158396411461 ], [ 3.142267608306182, 36.592238519845012 ], [ 3.141527392338674, 36.592238519845012 ], [ 3.141527392338674, 36.591778577449873 ], [ 3.13412523266359, 36.591778577449873 ], [ 3.13412523266359, 36.592238519845012 ], [ 3.133385016696082, 36.592238519845012 ], [ 3.133385016696082, 36.592698459498877 ], [ 3.132644800728573, 36.592698459498877 ], [ 3.132644800728573, 36.593158396411461 ], [ 3.131164368793557, 36.593158396411461 ], [ 3.131164368793557, 36.593618330582743 ], [ 3.130424152826048, 36.593618330582743 ], [ 3.130424152826048, 36.594538190701364 ], [ 3.12968393685854, 36.594538190701364 ], [ 3.12968393685854, 36.596837793024264 ], [ 3.128943720891032, 36.596837793024264 ], [ 3.128943720891032, 36.600976904495894 ], [ 3.12968393685854, 36.600976904495894 ], [ 3.12968393685854, 36.601896676888721 ], [ 3.130424152826048, 36.601896676888721 ], [ 3.130424152826048, 36.603276314916315 ], [ 3.131164368793557, 36.603276314916315 ], [ 3.131164368793557, 36.604196059893432 ], [ 3.131904584761065, 36.604196059893432 ], [ 3.131904584761065, 36.604655928269572 ], [ 3.133385016696082, 36.604655928269572 ], [ 3.133385016696082, 36.605115793904091 ], [ 3.135605664598607, 36.605115793904091 ], [ 3.135605664598607, 36.605575656796958 ], [ 3.13856652846864, 36.605575656796958 ], [ 3.13856652846864, 36.606035516948175 ], [ 3.140046960403657, 36.606035516948175 ], [ 3.140046960403657, 36.605575656796958 ], [ 3.140787176371165, 36.605575656796958 ], [ 3.140787176371165, 36.605115793904091 ], [ 3.141527392338674, 36.605115793904091 ], [ 3.141527392338674, 36.604196059893432 ], [ 3.142267608306182, 36.604196059893432 ] ] ], [ [ [ 2.88985396338584, 36.610633967666281 ], [ 2.88985396338584, 36.61017413493235 ], [ 2.890594179353348, 36.61017413493235 ], [ 2.890594179353348, 36.606495374357721 ], [ 2.891334395320857, 36.606495374357721 ], [ 2.891334395320857, 36.605115793904091 ], [ 2.892814827255873, 36.605115793904091 ], [ 2.892814827255873, 36.605575656796958 ], [ 2.893555043223381, 36.605575656796958 ], [ 2.893555043223381, 36.606035516948175 ], [ 2.895035475158398, 36.606035516948175 ], [ 2.895035475158398, 36.605575656796958 ], [ 2.895775691125907, 36.605575656796958 ], [ 2.895775691125907, 36.605115793904091 ], [ 2.896515907093415, 36.605115793904091 ], [ 2.896515907093415, 36.604655928269572 ], [ 2.897256123060923, 36.604655928269572 ], [ 2.897256123060923, 36.604196059893432 ], [ 2.897996339028431, 36.604196059893432 ], [ 2.897996339028431, 36.603736188775677 ], [ 2.89873655499594, 36.603736188775677 ], [ 2.89873655499594, 36.603276314916315 ], [ 2.899476770963448, 36.603276314916315 ], [ 2.899476770963448, 36.602816438315351 ], [ 2.900216986930956, 36.602816438315351 ], [ 2.900216986930956, 36.602356558972815 ], [ 2.901697418865973, 36.602356558972815 ], [ 2.901697418865973, 36.601896676888721 ], [ 2.902437634833482, 36.601896676888721 ], [ 2.902437634833482, 36.600057121136963 ], [ 2.90317785080099, 36.600057121136963 ], [ 2.90317785080099, 36.598217521521264 ], [ 2.903918066768498, 36.598217521521264 ], [ 2.903918066768498, 36.597757614763687 ], [ 2.90317785080099, 36.597757614763687 ], [ 2.90317785080099, 36.596377878042439 ], [ 2.902437634833482, 36.596377878042439 ], [ 2.902437634833482, 36.595458039854627 ], [ 2.901697418865973, 36.595458039854627 ], [ 2.901697418865973, 36.594078262012708 ], [ 2.900957202898465, 36.594078262012708 ], [ 2.900957202898465, 36.593158396411461 ], [ 2.900216986930956, 36.593158396411461 ], [ 2.900216986930956, 36.592698459498877 ], [ 2.899476770963448, 36.592698459498877 ], [ 2.899476770963448, 36.593158396411461 ], [ 2.896515907093415, 36.593158396411461 ], [ 2.896515907093415, 36.593618330582743 ], [ 2.89429525919089, 36.593618330582743 ], [ 2.89429525919089, 36.594078262012708 ], [ 2.891334395320857, 36.594078262012708 ], [ 2.891334395320857, 36.594538190701364 ], [ 2.889113747418332, 36.594538190701364 ], [ 2.889113747418332, 36.596377878042439 ], [ 2.888373531450823, 36.596377878042439 ], [ 2.888373531450823, 36.598217521521264 ], [ 2.887633315483315, 36.598217521521264 ], [ 2.887633315483315, 36.596377878042439 ], [ 2.886893099515807, 36.596377878042439 ], [ 2.886893099515807, 36.594078262012708 ], [ 2.886152883548299, 36.594078262012708 ], [ 2.886152883548299, 36.592238519845012 ], [ 2.88541266758079, 36.592238519845012 ], [ 2.88541266758079, 36.591318632313481 ], [ 2.884672451613281, 36.591318632313481 ], [ 2.884672451613281, 36.590858684435844 ], [ 2.883932235645773, 36.590858684435844 ], [ 2.883932235645773, 36.590398733816969 ], [ 2.883192019678265, 36.590398733816969 ], [ 2.883192019678265, 36.58993878045689 ], [ 2.882451803710757, 36.58993878045689 ], [ 2.882451803710757, 36.589478824355602 ], [ 2.88097137177574, 36.589478824355602 ], [ 2.88097137177574, 36.589018865513104 ], [ 2.880231155808231, 36.589018865513104 ], [ 2.880231155808231, 36.588558903929453 ], [ 2.879490939840723, 36.588558903929453 ], [ 2.879490939840723, 36.588098939604613 ], [ 2.878010507905707, 36.588098939604613 ], [ 2.878010507905707, 36.588558903929453 ], [ 2.875049644035673, 36.588558903929453 ], [ 2.875049644035673, 36.589018865513104 ], [ 2.874309428068165, 36.589018865513104 ], [ 2.874309428068165, 36.589478824355602 ], [ 2.873569212100656, 36.589478824355602 ], [ 2.873569212100656, 36.58993878045689 ], [ 2.872828996133148, 36.58993878045689 ], [ 2.872828996133148, 36.590398733816969 ], [ 2.87208878016564, 36.590398733816969 ], [ 2.87208878016564, 36.590858684435844 ], [ 2.871348564198132, 36.590858684435844 ], [ 2.871348564198132, 36.591318632313481 ], [ 2.870608348230624, 36.591318632313481 ], [ 2.870608348230624, 36.591778577449873 ], [ 2.869868132263115, 36.591778577449873 ], [ 2.869868132263115, 36.592698459498877 ], [ 2.869127916295606, 36.592698459498877 ], [ 2.869127916295606, 36.594998116648675 ], [ 2.868387700328098, 36.594998116648675 ], [ 2.868387700328098, 36.597297705264687 ], [ 2.86764748436059, 36.597297705264687 ], [ 2.86764748436059, 36.600976904495894 ], [ 2.868387700328098, 36.600976904495894 ], [ 2.868387700328098, 36.602816438315351 ], [ 2.869127916295606, 36.602816438315351 ], [ 2.869127916295606, 36.604655928269572 ], [ 2.869868132263115, 36.604655928269572 ], [ 2.869868132263115, 36.605115793904091 ], [ 2.870608348230624, 36.605115793904091 ], [ 2.870608348230624, 36.605575656796958 ], [ 2.87208878016564, 36.605575656796958 ], [ 2.87208878016564, 36.606035516948175 ], [ 2.873569212100656, 36.606035516948175 ], [ 2.873569212100656, 36.606495374357721 ], [ 2.87653007597069, 36.606495374357721 ], [ 2.87653007597069, 36.606035516948175 ], [ 2.878010507905707, 36.606035516948175 ], [ 2.878010507905707, 36.605575656796958 ], [ 2.878750723873215, 36.605575656796958 ], [ 2.878750723873215, 36.605115793904091 ], [ 2.880231155808231, 36.605115793904091 ], [ 2.880231155808231, 36.604655928269572 ], [ 2.88097137177574, 36.604655928269572 ], [ 2.88097137177574, 36.605575656796958 ], [ 2.880231155808231, 36.605575656796958 ], [ 2.880231155808231, 36.607415080951746 ], [ 2.88097137177574, 36.607415080951746 ], [ 2.88097137177574, 36.608794620279923 ], [ 2.881711587743248, 36.608794620279923 ], [ 2.881711587743248, 36.61017413493235 ], [ 2.882451803710757, 36.61017413493235 ], [ 2.882451803710757, 36.610633967666281 ], [ 2.883192019678265, 36.610633967666281 ], [ 2.883192019678265, 36.611093797658391 ], [ 2.884672451613281, 36.611093797658391 ], [ 2.884672451613281, 36.611553624908673 ], [ 2.88541266758079, 36.611553624908673 ], [ 2.88541266758079, 36.612013449417155 ], [ 2.886893099515807, 36.612013449417155 ], [ 2.886893099515807, 36.611553624908673 ], [ 2.887633315483315, 36.611553624908673 ], [ 2.887633315483315, 36.611093797658391 ], [ 2.889113747418332, 36.611093797658391 ], [ 2.889113747418332, 36.610633967666281 ], [ 2.88985396338584, 36.610633967666281 ] ], [ [ 2.887633315483315, 36.598677425537396 ], [ 2.888373531450823, 36.598677425537396 ], [ 2.888373531450823, 36.600976904495894 ], [ 2.889113747418332, 36.600976904495894 ], [ 2.889113747418332, 36.601896676888721 ], [ 2.888373531450823, 36.601896676888721 ], [ 2.888373531450823, 36.601436792063076 ], [ 2.886152883548299, 36.601436792063076 ], [ 2.886152883548299, 36.600517014187183 ], [ 2.886893099515807, 36.600517014187183 ], [ 2.886893099515807, 36.598217521521264 ], [ 2.887633315483315, 36.598217521521264 ], [ 2.887633315483315, 36.598677425537396 ] ] ], [ [ [ 4.492421533041384, 36.617990918514735 ], [ 4.493161749008892, 36.617990918514735 ], [ 4.493161749008892, 36.617071338045776 ], [ 4.4939019649764, 36.617071338045776 ], [ 4.4939019649764, 36.612473271183767 ], [ 4.494642180943909, 36.612473271183767 ], [ 4.494642180943909, 36.607415080951746 ], [ 4.4939019649764, 36.607415080951746 ], [ 4.4939019649764, 36.60695522902558 ], [ 4.493161749008892, 36.60695522902558 ], [ 4.493161749008892, 36.606035516948175 ], [ 4.492421533041384, 36.606035516948175 ], [ 4.492421533041384, 36.605115793904091 ], [ 4.482058509496267, 36.605115793904091 ], [ 4.482058509496267, 36.605575656796958 ], [ 4.48057807756125, 36.605575656796958 ], [ 4.48057807756125, 36.606035516948175 ], [ 4.479097645626233, 36.606035516948175 ], [ 4.479097645626233, 36.606495374357721 ], [ 4.477617213691217, 36.606495374357721 ], [ 4.477617213691217, 36.60695522902558 ], [ 4.476136781756201, 36.60695522902558 ], [ 4.476136781756201, 36.607415080951746 ], [ 4.474656349821183, 36.607415080951746 ], [ 4.474656349821183, 36.607874930136198 ], [ 4.473175917886167, 36.607874930136198 ], [ 4.473175917886167, 36.610633967666281 ], [ 4.472435701918658, 36.610633967666281 ], [ 4.472435701918658, 36.614772338888798 ], [ 4.473175917886167, 36.614772338888798 ], [ 4.473175917886167, 36.615232144204093 ], [ 4.473916133853675, 36.615232144204093 ], [ 4.473916133853675, 36.615691946777453 ], [ 4.474656349821183, 36.615691946777453 ], [ 4.474656349821183, 36.616611543698312 ], [ 4.475396565788692, 36.616611543698312 ], [ 4.475396565788692, 36.617071338045776 ], [ 4.476136781756201, 36.617071338045776 ], [ 4.476136781756201, 36.617990918514735 ], [ 4.476876997723709, 36.617990918514735 ], [ 4.476876997723709, 36.61845070463621 ], [ 4.479097645626233, 36.61845070463621 ], [ 4.479097645626233, 36.618910488015651 ], [ 4.48057807756125, 36.618910488015651 ], [ 4.48057807756125, 36.619370268653043 ], [ 4.482058509496267, 36.619370268653043 ], [ 4.482058509496267, 36.619830046548387 ], [ 4.483538941431283, 36.619830046548387 ], [ 4.483538941431283, 36.620289821701661 ], [ 4.488720453203842, 36.620289821701661 ], [ 4.488720453203842, 36.619830046548387 ], [ 4.490941101106367, 36.619830046548387 ], [ 4.490941101106367, 36.619370268653043 ], [ 4.491681317073875, 36.619370268653043 ], [ 4.491681317073875, 36.618910488015651 ], [ 4.492421533041384, 36.618910488015651 ], [ 4.492421533041384, 36.617990918514735 ] ] ], [ [ [ 3.128203504923524, 36.68692818727758 ], [ 3.128943720891032, 36.68692818727758 ], [ 3.128943720891032, 36.68600942970653 ], [ 3.12968393685854, 36.68600942970653 ], [ 3.12968393685854, 36.685090661159613 ], [ 3.130424152826048, 36.685090661159613 ], [ 3.130424152826048, 36.684171881636921 ], [ 3.131164368793557, 36.684171881636921 ], [ 3.131164368793557, 36.683253091138575 ], [ 3.131904584761065, 36.683253091138575 ], [ 3.131904584761065, 36.682334289664659 ], [ 3.132644800728573, 36.682334289664659 ], [ 3.132644800728573, 36.681415477215303 ], [ 3.133385016696082, 36.681415477215303 ], [ 3.133385016696082, 36.680956066874856 ], [ 3.13412523266359, 36.680956066874856 ], [ 3.13412523266359, 36.675902372040525 ], [ 3.133385016696082, 36.675902372040525 ], [ 3.133385016696082, 36.674983482765938 ], [ 3.132644800728573, 36.674983482765938 ], [ 3.132644800728573, 36.67452403401316 ], [ 3.131904584761065, 36.67452403401316 ], [ 3.131904584761065, 36.673605128276698 ], [ 3.131164368793557, 36.673605128276698 ], [ 3.131164368793557, 36.673145671293035 ], [ 3.12968393685854, 36.673145671293035 ], [ 3.12968393685854, 36.672686211565782 ], [ 3.128203504923524, 36.672686211565782 ], [ 3.128203504923524, 36.672226749094932 ], [ 3.125982857020999, 36.672226749094932 ], [ 3.125982857020999, 36.671767283880513 ], [ 3.123762209118474, 36.671767283880513 ], [ 3.123762209118474, 36.672226749094932 ], [ 3.122281777183456, 36.672226749094932 ], [ 3.122281777183456, 36.672686211565782 ], [ 3.121541561215949, 36.672686211565782 ], [ 3.121541561215949, 36.673145671293035 ], [ 3.120801345248441, 36.673145671293035 ], [ 3.120801345248441, 36.673605128276698 ], [ 3.120061129280932, 36.673605128276698 ], [ 3.120061129280932, 36.674064582516735 ], [ 3.118580697345915, 36.674064582516735 ], [ 3.118580697345915, 36.67452403401316 ], [ 3.117840481378407, 36.67452403401316 ], [ 3.117840481378407, 36.674983482765938 ], [ 3.117100265410898, 36.674983482765938 ], [ 3.117100265410898, 36.675442928775055 ], [ 3.11636004944339, 36.675442928775055 ], [ 3.11636004944339, 36.675902372040525 ], [ 3.114879617508374, 36.675902372040525 ], [ 3.114879617508374, 36.676361812562291 ], [ 3.114139401540865, 36.676361812562291 ], [ 3.114139401540865, 36.676821250340389 ], [ 3.113399185573357, 36.676821250340389 ], [ 3.113399185573357, 36.677280685374775 ], [ 3.112658969605848, 36.677280685374775 ], [ 3.112658969605848, 36.677740117665422 ], [ 3.111178537670832, 36.677740117665422 ], [ 3.111178537670832, 36.681415477215303 ], [ 3.110438321703324, 36.681415477215303 ], [ 3.110438321703324, 36.684171881636921 ], [ 3.111178537670832, 36.684171881636921 ], [ 3.111178537670832, 36.684631272770233 ], [ 3.11191875363834, 36.684631272770233 ], [ 3.11191875363834, 36.685090661159613 ], [ 3.112658969605848, 36.685090661159613 ], [ 3.112658969605848, 36.68600942970653 ], [ 3.113399185573357, 36.68600942970653 ], [ 3.113399185573357, 36.686468809864046 ], [ 3.114139401540865, 36.686468809864046 ], [ 3.114139401540865, 36.68692818727758 ], [ 3.114879617508374, 36.68692818727758 ], [ 3.114879617508374, 36.687387561947112 ], [ 3.115619833475882, 36.687387561947112 ], [ 3.115619833475882, 36.687846933872635 ], [ 3.11636004944339, 36.687846933872635 ], [ 3.11636004944339, 36.688306303054155 ], [ 3.117100265410898, 36.688306303054155 ], [ 3.117100265410898, 36.688765669491623 ], [ 3.117840481378407, 36.688765669491623 ], [ 3.117840481378407, 36.689225033185046 ], [ 3.118580697345915, 36.689225033185046 ], [ 3.118580697345915, 36.689684394134424 ], [ 3.119320913313424, 36.689684394134424 ], [ 3.119320913313424, 36.689225033185046 ], [ 3.126723072988507, 36.689225033185046 ], [ 3.126723072988507, 36.688306303054155 ], [ 3.127463288956015, 36.688306303054155 ], [ 3.127463288956015, 36.687387561947112 ], [ 3.128203504923524, 36.687387561947112 ], [ 3.128203504923524, 36.68692818727758 ] ] ] ] } }
]
}
