{
"type": "FeatureCollection",
"name": "spain_fires_modis_ba",
"crs": { "type": "name", "properties": { "name": "urn:ogc:def:crs:OGC:1.3:CRS84" } },
"features": [
{ "type": "Feature", "properties": { }, "geometry": { "type": "MultiPolygon", "coordinates": [ [ [ [ -8.525016471560185, 39.170326338800976 ], [ -8.525016471560185, 39.168105728012641 ], [ -8.525756687527693, 39.168105728012641 ], [ -8.525756687527693, 39.167661597441182 ], [ -8.5264969034952, 39.167661597441182 ], [ -8.5264969034952, 39.167217464065139 ], [ -8.529457767365233, 39.167217464065139 ], [ -8.529457767365233, 39.167661597441182 ], [ -8.530197983332743, 39.167661597441182 ], [ -8.530197983332743, 39.169882222252546 ], [ -8.529457767365233, 39.169882222252546 ], [ -8.529457767365233, 39.170770452544787 ], [ -8.525756687527693, 39.170770452544787 ], [ -8.525756687527693, 39.170326338800976 ], [ -8.525016471560185, 39.170326338800976 ] ] ], [ [ [ -4.942371188819846, 39.954204489679 ], [ -4.941630972852337, 39.954204489679 ], [ -4.941630972852337, 39.953765364801768 ], [ -4.940890756884829, 39.953765364801768 ], [ -4.940890756884829, 39.95288710658911 ], [ -4.940150540917322, 39.95288710658911 ], [ -4.940150540917322, 39.950252264285922 ], [ -4.940890756884829, 39.950252264285922 ], [ -4.940890756884829, 39.949813114034292 ], [ -4.942371188819846, 39.949813114034292 ], [ -4.942371188819846, 39.949373960963335 ], [ -4.943851620754862, 39.949373960963335 ], [ -4.943851620754862, 39.948934805073044 ], [ -4.945332052689879, 39.948934805073044 ], [ -4.945332052689879, 39.948495646363433 ], [ -4.946072268657388, 39.948495646363433 ], [ -4.946072268657388, 39.948056484834503 ], [ -4.946812484624897, 39.948056484834503 ], [ -4.946812484624897, 39.947617320486259 ], [ -4.948292916559913, 39.947617320486259 ], [ -4.948292916559913, 39.947178153318724 ], [ -4.94977334849493, 39.947178153318724 ], [ -4.94977334849493, 39.947617320486259 ], [ -4.950513564462438, 39.947617320486259 ], [ -4.950513564462438, 39.948056484834503 ], [ -4.951253780429946, 39.948056484834503 ], [ -4.951253780429946, 39.948934805073044 ], [ -4.951993996397453, 39.948934805073044 ], [ -4.951993996397453, 39.949373960963335 ], [ -4.952734212364962, 39.949373960963335 ], [ -4.952734212364962, 39.949813114034292 ], [ -4.953474428332471, 39.949813114034292 ], [ -4.953474428332471, 39.951569698124686 ], [ -4.952734212364962, 39.951569698124686 ], [ -4.952734212364962, 39.952447973253676 ], [ -4.951993996397453, 39.952447973253676 ], [ -4.951993996397453, 39.953326237105131 ], [ -4.951253780429946, 39.953326237105131 ], [ -4.951253780429946, 39.953765364801768 ], [ -4.950513564462438, 39.953765364801768 ], [ -4.950513564462438, 39.954643611736806 ], [ -4.94977334849493, 39.954643611736806 ], [ -4.94977334849493, 39.955082730975199 ], [ -4.949033132527421, 39.955082730975199 ], [ -4.949033132527421, 39.955521847394145 ], [ -4.948292916559913, 39.955521847394145 ], [ -4.948292916559913, 39.955960960993671 ], [ -4.947552700592405, 39.955960960993671 ], [ -4.947552700592405, 39.956400071773743 ], [ -4.944591836722371, 39.956400071773743 ], [ -4.944591836722371, 39.955960960993671 ], [ -4.942371188819846, 39.955960960993671 ], [ -4.942371188819846, 39.954204489679 ] ] ], [ [ [ -7.049025832348566, 40.57186787137136 ], [ -7.048285616381058, 40.57186787137136 ], [ -7.048285616381058, 40.567516407018786 ], [ -7.049025832348566, 40.567516407018786 ], [ -7.049025832348566, 40.566646080193919 ], [ -7.049766048316074, 40.566646080193919 ], [ -7.049766048316074, 40.565775742051066 ], [ -7.050506264283582, 40.565775742051066 ], [ -7.050506264283582, 40.564905392590255 ], [ -7.051246480251091, 40.564905392590255 ], [ -7.051246480251091, 40.56447021361565 ], [ -7.0519866962186, 40.56447021361565 ], [ -7.0519866962186, 40.563599847178047 ], [ -7.052726912186108, 40.563599847178047 ], [ -7.052726912186108, 40.562729469422628 ], [ -7.053467128153617, 40.562729469422628 ], [ -7.053467128153617, 40.561859080349471 ], [ -7.054207344121125, 40.561859080349471 ], [ -7.054207344121125, 40.560553475519065 ], [ -7.054947560088633, 40.560553475519065 ], [ -7.054947560088633, 40.559683058151755 ], [ -7.055687776056141, 40.559683058151755 ], [ -7.055687776056141, 40.558377410880389 ], [ -7.05642799202365, 40.558377410880389 ], [ -7.05642799202365, 40.557071738144685 ], [ -7.057168207991158, 40.557071738144685 ], [ -7.057168207991158, 40.55533080155287 ], [ -7.057908423958666, 40.55533080155287 ], [ -7.057908423958666, 40.5457548411229 ], [ -7.057168207991158, 40.5457548411229 ], [ -7.057168207991158, 40.543578295507814 ], [ -7.05642799202365, 40.543578295507814 ], [ -7.05642799202365, 40.541401679164174 ], [ -7.055687776056141, 40.541401679164174 ], [ -7.055687776056141, 40.53966033516528 ], [ -7.054947560088633, 40.53966033516528 ], [ -7.054947560088633, 40.537483591512391 ], [ -7.054207344121125, 40.537483591512391 ], [ -7.054207344121125, 40.535306777133307 ], [ -7.053467128153617, 40.535306777133307 ], [ -7.053467128153617, 40.533129892028903 ], [ -7.052726912186108, 40.533129892028903 ], [ -7.052726912186108, 40.525292520060276 ], [ -7.053467128153617, 40.525292520060276 ], [ -7.053467128153617, 40.522679859057675 ], [ -7.054207344121125, 40.522679859057675 ], [ -7.054207344121125, 40.520502563762967 ], [ -7.054947560088633, 40.520502563762967 ], [ -7.054947560088633, 40.518760676609062 ], [ -7.055687776056141, 40.518760676609062 ], [ -7.055687776056141, 40.517454231541663 ], [ -7.05642799202365, 40.517454231541663 ], [ -7.05642799202365, 40.516147761015645 ], [ -7.057168207991158, 40.516147761015645 ], [ -7.057168207991158, 40.515276766521374 ], [ -7.057908423958666, 40.515276766521374 ], [ -7.057908423958666, 40.51484126503118 ], [ -7.058648639926175, 40.51484126503118 ], [ -7.058648639926175, 40.513970253564722 ], [ -7.061609503796208, 40.513970253564722 ], [ -7.061609503796208, 40.514405760712293 ], [ -7.062349719763716, 40.514405760712293 ], [ -7.062349719763716, 40.51484126503118 ], [ -7.063089935731225, 40.51484126503118 ], [ -7.063089935731225, 40.515276766521374 ], [ -7.063830151698734, 40.515276766521374 ], [ -7.063830151698734, 40.515712265182863 ], [ -7.064570367666241, 40.515712265182863 ], [ -7.064570367666241, 40.516583254019714 ], [ -7.06531058363375, 40.516583254019714 ], [ -7.06531058363375, 40.517018744195049 ], [ -7.066050799601257, 40.517018744195049 ], [ -7.066050799601257, 40.517889716059535 ], [ -7.066791015568766, 40.517889716059535 ], [ -7.066791015568766, 40.518760676609062 ], [ -7.067531231536274, 40.518760676609062 ], [ -7.067531231536274, 40.519631625843552 ], [ -7.068271447503782, 40.519631625843552 ], [ -7.068271447503782, 40.520502563762967 ], [ -7.069011663471291, 40.520502563762967 ], [ -7.069011663471291, 40.529211320615801 ], [ -7.068271447503782, 40.529211320615801 ], [ -7.068271447503782, 40.532259118184236 ], [ -7.067531231536274, 40.532259118184236 ], [ -7.067531231536274, 40.534000654557651 ], [ -7.066791015568766, 40.534000654557651 ], [ -7.066791015568766, 40.536177511372024 ], [ -7.066050799601257, 40.536177511372024 ], [ -7.066050799601257, 40.53791894590109 ], [ -7.06531058363375, 40.53791894590109 ], [ -7.06531058363375, 40.540095675408644 ], [ -7.064570367666241, 40.540095675408644 ], [ -7.064570367666241, 40.54314297789734 ], [ -7.063830151698734, 40.54314297789734 ], [ -7.063830151698734, 40.546190141758423 ], [ -7.064570367666241, 40.546190141758423 ], [ -7.064570367666241, 40.548366602498156 ], [ -7.06531058363375, 40.548366602498156 ], [ -7.06531058363375, 40.549672444991458 ], [ -7.066050799601257, 40.549672444991458 ], [ -7.066050799601257, 40.55097826202163 ], [ -7.066791015568766, 40.55097826202163 ], [ -7.066791015568766, 40.551848792562147 ], [ -7.067531231536274, 40.551848792562147 ], [ -7.067531231536274, 40.553154567153378 ], [ -7.068271447503782, 40.553154567153378 ], [ -7.068271447503782, 40.554895560331595 ], [ -7.067531231536274, 40.554895560331595 ], [ -7.067531231536274, 40.556201275507455 ], [ -7.066791015568766, 40.556201275507455 ], [ -7.066791015568766, 40.557506965219275 ], [ -7.066050799601257, 40.557506965219275 ], [ -7.066050799601257, 40.558377410880389 ], [ -7.06531058363375, 40.558377410880389 ], [ -7.06531058363375, 40.559683058151755 ], [ -7.064570367666241, 40.559683058151755 ], [ -7.064570367666241, 40.560553475519065 ], [ -7.063830151698734, 40.560553475519065 ], [ -7.063830151698734, 40.561859080349471 ], [ -7.063089935731225, 40.561859080349471 ], [ -7.063089935731225, 40.562729469422628 ], [ -7.062349719763716, 40.562729469422628 ], [ -7.062349719763716, 40.564035031811571 ], [ -7.061609503796208, 40.564035031811571 ], [ -7.061609503796208, 40.564905392590255 ], [ -7.0608692878287, 40.564905392590255 ], [ -7.0608692878287, 40.565775742051066 ], [ -7.060129071861191, 40.565775742051066 ], [ -7.060129071861191, 40.5670812450211 ], [ -7.059388855893682, 40.5670812450211 ], [ -7.059388855893682, 40.567516407018786 ], [ -7.058648639926175, 40.567516407018786 ], [ -7.058648639926175, 40.568386722525602 ], [ -7.057908423958666, 40.568386722525602 ], [ -7.057908423958666, 40.569257026714325 ], [ -7.057168207991158, 40.569257026714325 ], [ -7.057168207991158, 40.570127319584898 ], [ -7.05642799202365, 40.570127319584898 ], [ -7.05642799202365, 40.570997601137258 ], [ -7.055687776056141, 40.570997601137258 ], [ -7.055687776056141, 40.571432737669092 ], [ -7.054947560088633, 40.571432737669092 ], [ -7.054947560088633, 40.572303002244048 ], [ -7.054207344121125, 40.572303002244048 ], [ -7.054207344121125, 40.572738130287142 ], [ -7.053467128153617, 40.572738130287142 ], [ -7.053467128153617, 40.573173255500663 ], [ -7.050506264283582, 40.573173255500663 ], [ -7.050506264283582, 40.572738130287142 ], [ -7.049025832348566, 40.572738130287142 ], [ -7.049025832348566, 40.57186787137136 ] ] ], [ [ [ -8.260019155192202, 41.176983628599459 ], [ -8.260019155192202, 41.176552454033988 ], [ -8.258538723257185, 41.176552454033988 ], [ -8.258538723257185, 41.176121276630262 ], [ -8.257798507289676, 41.176121276630262 ], [ -8.257798507289676, 41.175690096388287 ], [ -8.257058291322169, 41.175690096388287 ], [ -8.257058291322169, 41.175258913308078 ], [ -8.25631807535466, 41.175258913308078 ], [ -8.25631807535466, 41.174396538632941 ], [ -8.25557785938715, 41.174396538632941 ], [ -8.25557785938715, 41.173965347038035 ], [ -8.254837643419643, 41.173965347038035 ], [ -8.254837643419643, 41.173102955333569 ], [ -8.254097427452134, 41.173102955333569 ], [ -8.254097427452134, 41.172240552276278 ], [ -8.253357211484627, 41.172240552276278 ], [ -8.253357211484627, 41.171378137866199 ], [ -8.252616995517117, 41.171378137866199 ], [ -8.252616995517117, 41.167065895525631 ], [ -8.253357211484627, 41.167065895525631 ], [ -8.253357211484627, 41.165340919121533 ], [ -8.254097427452134, 41.165340919121533 ], [ -8.254097427452134, 41.164047157018338 ], [ -8.254837643419643, 41.164047157018338 ], [ -8.254837643419643, 41.162753369372361 ], [ -8.25557785938715, 41.162753369372361 ], [ -8.25557785938715, 41.16145955618375 ], [ -8.25631807535466, 41.16145955618375 ], [ -8.25631807535466, 41.161028279444778 ], [ -8.257058291322169, 41.161028279444778 ], [ -8.257058291322169, 41.160165717452678 ], [ -8.257798507289676, 41.160165717452678 ], [ -8.257798507289676, 41.159734432199578 ], [ -8.258538723257185, 41.159734432199578 ], [ -8.258538723257185, 41.159303144108449 ], [ -8.259278939224693, 41.159303144108449 ], [ -8.259278939224693, 41.158871853179285 ], [ -8.260759371159709, 41.158871853179285 ], [ -8.260759371159709, 41.158440559412114 ], [ -8.262239803094726, 41.158440559412114 ], [ -8.262239803094726, 41.158009262806921 ], [ -8.265200666964759, 41.158009262806921 ], [ -8.265200666964759, 41.158440559412114 ], [ -8.266681098899776, 41.158440559412114 ], [ -8.266681098899776, 41.158871853179285 ], [ -8.267421314867285, 41.158871853179285 ], [ -8.267421314867285, 41.159303144108449 ], [ -8.268161530834792, 41.159303144108449 ], [ -8.268161530834792, 41.159734432199578 ], [ -8.268901746802301, 41.159734432199578 ], [ -8.268901746802301, 41.160165717452678 ], [ -8.269641962769809, 41.160165717452678 ], [ -8.269641962769809, 41.160596999867749 ], [ -8.270382178737316, 41.160596999867749 ], [ -8.270382178737316, 41.16145955618375 ], [ -8.271122394704825, 41.16145955618375 ], [ -8.271122394704825, 41.16361589730775 ], [ -8.270382178737316, 41.16361589730775 ], [ -8.270382178737316, 41.16490966792523 ], [ -8.269641962769809, 41.16490966792523 ], [ -8.269641962769809, 41.167065895525631 ], [ -8.268901746802301, 41.167065895525631 ], [ -8.268901746802301, 41.16922205217287 ], [ -8.269641962769809, 41.16922205217287 ], [ -8.269641962769809, 41.173102955333569 ], [ -8.268901746802301, 41.173102955333569 ], [ -8.268901746802301, 41.174396538632941 ], [ -8.268161530834792, 41.174396538632941 ], [ -8.268161530834792, 41.175690096388287 ], [ -8.267421314867285, 41.175690096388287 ], [ -8.267421314867285, 41.176552454033988 ], [ -8.266681098899776, 41.176552454033988 ], [ -8.266681098899776, 41.176983628599459 ], [ -8.265940882932266, 41.176983628599459 ], [ -8.265940882932266, 41.177414800326673 ], [ -8.265200666964759, 41.177414800326673 ], [ -8.265200666964759, 41.177845969215618 ], [ -8.261499587127219, 41.177845969215618 ], [ -8.261499587127219, 41.177414800326673 ], [ -8.260759371159709, 41.177414800326673 ], [ -8.260759371159709, 41.176983628599459 ], [ -8.260019155192202, 41.176983628599459 ] ] ], [ [ [ -8.142324816358375, 41.426156947550986 ], [ -8.142324816358375, 41.422720625785097 ], [ -8.143065032325884, 41.422720625785097 ], [ -8.143065032325884, 41.422291072777895 ], [ -8.144545464260901, 41.422291072777895 ], [ -8.144545464260901, 41.423150175950873 ], [ -8.145285680228408, 41.423150175950873 ], [ -8.145285680228408, 41.424438809399597 ], [ -8.146025896195917, 41.424438809399597 ], [ -8.146025896195917, 41.426586474985179 ], [ -8.145285680228408, 41.426586474985179 ], [ -8.145285680228408, 41.427445521329155 ], [ -8.143805248293392, 41.427445521329155 ], [ -8.143805248293392, 41.427015999577911 ], [ -8.143065032325884, 41.427015999577911 ], [ -8.143065032325884, 41.426156947550986 ], [ -8.142324816358375, 41.426156947550986 ] ] ], [ [ [ -8.391037381441175, 41.724420511162222 ], [ -8.391037381441175, 41.723992959801322 ], [ -8.391777597408684, 41.723992959801322 ], [ -8.391777597408684, 41.724420511162222 ], [ -8.391037381441175, 41.724420511162222 ] ] ], [ [ [ -8.396218893213735, 41.728268345383739 ], [ -8.395478677246228, 41.728268345383739 ], [ -8.395478677246228, 41.727840819628213 ], [ -8.394738461278719, 41.727840819628213 ], [ -8.394738461278719, 41.726985759581986 ], [ -8.393998245311209, 41.726985759581986 ], [ -8.393998245311209, 41.726558225291278 ], [ -8.3932580293437, 41.726558225291278 ], [ -8.3932580293437, 41.725703148174766 ], [ -8.392517813376193, 41.725703148174766 ], [ -8.392517813376193, 41.725275605348941 ], [ -8.391777597408684, 41.725275605348941 ], [ -8.391777597408684, 41.724420511162222 ], [ -8.392517813376193, 41.724420511162222 ], [ -8.392517813376193, 41.724848059678102 ], [ -8.394738461278719, 41.724848059678102 ], [ -8.394738461278719, 41.724420511162222 ], [ -8.396218893213735, 41.724420511162222 ], [ -8.396218893213735, 41.724848059678102 ], [ -8.397699325148752, 41.724848059678102 ], [ -8.397699325148752, 41.725275605348941 ], [ -8.398439541116259, 41.725275605348941 ], [ -8.398439541116259, 41.726558225291278 ], [ -8.399179757083768, 41.726558225291278 ], [ -8.399179757083768, 41.727413291027624 ], [ -8.399919973051277, 41.727413291027624 ], [ -8.399919973051277, 41.728268345383739 ], [ -8.400660189018785, 41.728268345383739 ], [ -8.400660189018785, 41.728695868294203 ], [ -8.401400404986292, 41.728695868294203 ], [ -8.401400404986292, 41.729123388359596 ], [ -8.398439541116259, 41.729123388359596 ], [ -8.398439541116259, 41.729550905579913 ], [ -8.397699325148752, 41.729550905579913 ], [ -8.397699325148752, 41.729123388359596 ], [ -8.396959109181244, 41.729123388359596 ], [ -8.396959109181244, 41.728695868294203 ], [ -8.396218893213735, 41.728695868294203 ], [ -8.396218893213735, 41.728268345383739 ] ] ], [ [ [ -8.402140620953801, 41.729123388359596 ], [ -8.402140620953801, 41.729550905579913 ], [ -8.401400404986292, 41.729550905579913 ], [ -8.401400404986292, 41.729123388359596 ], [ -8.402140620953801, 41.729123388359596 ] ] ], [ [ [ -6.594533228298449, 41.885831090504105 ], [ -6.59379301233094, 41.885831090504105 ], [ -6.59379301233094, 41.884978136454862 ], [ -6.598234308135991, 41.884978136454862 ], [ -6.598234308135991, 41.885404614902889 ], [ -6.599714740071007, 41.885404614902889 ], [ -6.599714740071007, 41.886257563258503 ], [ -6.598974524103498, 41.886257563258503 ], [ -6.598974524103498, 41.886684033166077 ], [ -6.596753876200973, 41.886684033166077 ], [ -6.596753876200973, 41.886257563258503 ], [ -6.594533228298449, 41.886257563258503 ], [ -6.594533228298449, 41.885831090504105 ] ] ] ] } }
]
}
