{
"type": "FeatureCollection",
"name": "spain_fires_modis_ba",
"crs": { "type": "name", "properties": { "name": "urn:ogc:def:crs:OGC:1.3:CRS84" } },
"features": [
{ "type": "Feature", "properties": { }, "geometry": { "type": "Polygon", "coordinates": [ [ [ -3.742481105488836, 37.256264629998903 ], [ -3.741000673553819, 37.256264629998903 ], [ -3.741000673553819, 37.255808676022696 ], [ -3.741740889521328, 37.255808676022696 ], [ -3.741740889521328, 37.255352719286762 ], [ -3.742481105488836, 37.255352719286762 ], [ -3.742481105488836, 37.256264629998903 ] ] ] } }
]
}
