{
"type": "FeatureCollection",
"name": "spain_fires_modis_ba",
"crs": { "type": "name", "properties": { "name": "urn:ogc:def:crs:OGC:1.3:CRS84" } },
"features": [
{ "type": "Feature", "properties": { }, "geometry": { "type": "Polygon", "coordinates": [ [ [ 4.073459295431667, 36.457358187966165 ], [ 4.074939727366683, 36.457358187966165 ], [ 4.074939727366683, 36.456897442954713 ], [ 4.075679943334192, 36.456897442954713 ], [ 4.075679943334192, 36.452289842289474 ], [ 4.074939727366683, 36.452289842289474 ], [ 4.074939727366683, 36.449985939311325 ], [ 4.074199511399175, 36.449985939311325 ], [ 4.074199511399175, 36.449525150504279 ], [ 4.073459295431667, 36.449525150504279 ], [ 4.073459295431667, 36.449064358960101 ], [ 4.072719079464158, 36.449064358960101 ], [ 4.072719079464158, 36.448603564678841 ], [ 4.070498431561633, 36.448603564678841 ], [ 4.070498431561633, 36.449525150504279 ], [ 4.069758215594124, 36.449525150504279 ], [ 4.069758215594124, 36.450907508714053 ], [ 4.070498431561633, 36.450907508714053 ], [ 4.070498431561633, 36.451829067168177 ], [ 4.071238647529142, 36.451829067168177 ], [ 4.071238647529142, 36.452750614673583 ], [ 4.071978863496649, 36.452750614673583 ], [ 4.071978863496649, 36.45643669520593 ], [ 4.072719079464158, 36.45643669520593 ], [ 4.072719079464158, 36.456897442954713 ], [ 4.073459295431667, 36.456897442954713 ], [ 4.073459295431667, 36.457358187966165 ] ] ] } }
]
}
