{
"type": "FeatureCollection",
"name": "spain_fires_nrt_ba",
"crs": { "type": "name", "properties": { "name": "urn:ogc:def:crs:OGC:1.3:CRS84" } },
"features": [
{ "type": "Feature", "properties": { }, "geometry": { "type": "MultiPolygon", "coordinates": [ [ [ [ -7.009054170103116, 40.646668764038097 ], [ -7.008313954135607, 40.646668764038097 ], [ -7.008313954135607, 40.645364814795364 ], [ -7.007573738168099, 40.645364814795364 ], [ -7.007573738168099, 40.644495501146707 ], [ -7.005353090265574, 40.644495501146707 ], [ -7.005353090265574, 40.644930159386377 ], [ -7.003872658330558, 40.644930159386377 ], [ -7.003872658330558, 40.644495501146707 ], [ -7.003132442363049, 40.644495501146707 ], [ -7.003132442363049, 40.644060840076335 ], [ -7.001652010428034, 40.644060840076335 ], [ -7.001652010428034, 40.643626176175282 ], [ -7.000911794460524, 40.643626176175282 ], [ -7.000911794460524, 40.64275683988118 ], [ -7.000171578493016, 40.64275683988118 ], [ -7.000171578493016, 40.639279381478829 ], [ -6.999431362525508, 40.639279381478829 ], [ -6.999431362525508, 40.637105877982393 ], [ -7.000171578493016, 40.637105877982393 ], [ -7.000171578493016, 40.636671168791352 ], [ -7.000911794460524, 40.636671168791352 ], [ -7.000911794460524, 40.636236456769744 ], [ -7.001652010428034, 40.636236456769744 ], [ -7.001652010428034, 40.635801741917568 ], [ -7.002392226395541, 40.635801741917568 ], [ -7.002392226395541, 40.635367024234846 ], [ -7.003132442363049, 40.635367024234846 ], [ -7.003132442363049, 40.63493230372157 ], [ -7.003872658330558, 40.63493230372157 ], [ -7.003872658330558, 40.634497580377754 ], [ -7.004612874298066, 40.634497580377754 ], [ -7.004612874298066, 40.631019691728483 ], [ -7.005353090265574, 40.631019691728483 ], [ -7.005353090265574, 40.628845919331788 ], [ -7.006833522200592, 40.628845919331788 ], [ -7.006833522200592, 40.628411156361068 ], [ -7.007573738168099, 40.628411156361068 ], [ -7.007573738168099, 40.627976390559908 ], [ -7.009054170103116, 40.627976390559908 ], [ -7.009054170103116, 40.627541621928309 ], [ -7.009794386070625, 40.627541621928309 ], [ -7.009794386070625, 40.627106850466298 ], [ -7.010534602038133, 40.627106850466298 ], [ -7.010534602038133, 40.625802519097704 ], [ -7.01127481800564, 40.625802519097704 ], [ -7.01127481800564, 40.624932950699943 ], [ -7.01201503397315, 40.624932950699943 ], [ -7.01201503397315, 40.623628576875404 ], [ -7.012755249940658, 40.623628576875404 ], [ -7.012755249940658, 40.622758980173842 ], [ -7.016456329778198, 40.622758980173842 ], [ -7.016456329778198, 40.622324177577525 ], [ -7.017196545745708, 40.622324177577525 ], [ -7.017196545745708, 40.621454563893835 ], [ -7.017936761713217, 40.621454563893835 ], [ -7.017936761713217, 40.620584938888804 ], [ -7.018676977680724, 40.620584938888804 ], [ -7.018676977680724, 40.620150122140799 ], [ -7.022378057518266, 40.620150122140799 ], [ -7.022378057518266, 40.619280480153847 ], [ -7.017936761713217, 40.619280480153847 ], [ -7.017936761713217, 40.6188456549149 ], [ -7.017196545745708, 40.6188456549149 ], [ -7.017196545745708, 40.617975995946139 ], [ -7.016456329778198, 40.617975995946139 ], [ -7.016456329778198, 40.617106325656245 ], [ -7.015716113810691, 40.617106325656245 ], [ -7.015716113810691, 40.616671486265886 ], [ -7.014975897843183, 40.616671486265886 ], [ -7.014975897843183, 40.615801798994376 ], [ -7.015716113810691, 40.615801798994376 ], [ -7.015716113810691, 40.61232293669881 ], [ -7.016456329778198, 40.61232293669881 ], [ -7.016456329778198, 40.610583437626062 ], [ -7.017196545745708, 40.610583437626062 ], [ -7.017196545745708, 40.61014855578243 ], [ -7.019417193648233, 40.61014855578243 ], [ -7.019417193648233, 40.609713671108629 ], [ -7.021637841550757, 40.609713671108629 ], [ -7.021637841550757, 40.609278783604672 ], [ -7.023118273485775, 40.609278783604672 ], [ -7.023118273485775, 40.609713671108629 ], [ -7.023858489453282, 40.609713671108629 ], [ -7.023858489453282, 40.610583437626062 ], [ -7.024598705420791, 40.610583437626062 ], [ -7.024598705420791, 40.611453192822808 ], [ -7.0253389213883, 40.611453192822808 ], [ -7.0253389213883, 40.611888066175908 ], [ -7.026079137355808, 40.611888066175908 ], [ -7.026079137355808, 40.614497246860239 ], [ -7.029040001225841, 40.614497246860239 ], [ -7.029040001225841, 40.61014855578243 ], [ -7.029780217193349, 40.61014855578243 ], [ -7.029780217193349, 40.609278783604672 ], [ -7.030520433160858, 40.609278783604672 ], [ -7.030520433160858, 40.607974104111925 ], [ -7.029040001225841, 40.607974104111925 ], [ -7.029040001225841, 40.607539205287395 ], [ -7.028299785258333, 40.607539205287395 ], [ -7.028299785258333, 40.607104303632752 ], [ -7.027559569290825, 40.607104303632752 ], [ -7.027559569290825, 40.604494834272586 ], [ -7.026819353323316, 40.604494834272586 ], [ -7.026819353323316, 40.602320198645224 ], [ -7.026079137355808, 40.602320198645224 ], [ -7.026079137355808, 40.601450324583922 ], [ -7.0253389213883, 40.601450324583922 ], [ -7.0253389213883, 40.601015383308209 ], [ -7.024598705420791, 40.601015383308209 ], [ -7.024598705420791, 40.600580439202481 ], [ -7.023858489453282, 40.600580439202481 ], [ -7.023858489453282, 40.599710542500972 ], [ -7.023118273485775, 40.599710542500972 ], [ -7.023118273485775, 40.599275589905197 ], [ -7.022378057518266, 40.599275589905197 ], [ -7.022378057518266, 40.598840634479423 ], [ -7.021637841550757, 40.598840634479423 ], [ -7.021637841550757, 40.597970715137919 ], [ -7.02089762558325, 40.597970715137919 ], [ -7.02089762558325, 40.595795867259639 ], [ -7.021637841550757, 40.595795867259639 ], [ -7.021637841550757, 40.591010952893363 ], [ -7.022378057518266, 40.591010952893363 ], [ -7.022378057518266, 40.587530800101604 ], [ -7.07419317524385, 40.587530800101604 ], [ -7.07419317524385, 40.587965829105016 ], [ -7.073452959276341, 40.587965829105016 ], [ -7.073452959276341, 40.588835878622341 ], [ -7.072712743308833, 40.588835878622341 ], [ -7.072712743308833, 40.590140931674519 ], [ -7.071972527341325, 40.590140931674519 ], [ -7.071972527341325, 40.592750961372502 ], [ -7.072712743308833, 40.592750961372502 ], [ -7.072712743308833, 40.59623084249521 ], [ -7.071972527341325, 40.59623084249521 ], [ -7.071972527341325, 40.59840567622367 ], [ -7.071232311373816, 40.59840567622367 ], [ -7.071232311373816, 40.598840634479423 ], [ -7.070492095406308, 40.598840634479423 ], [ -7.070492095406308, 40.599275589905197 ], [ -7.069751879438799, 40.599275589905197 ], [ -7.069751879438799, 40.600145492266726 ], [ -7.069011663471291, 40.600145492266726 ], [ -7.069011663471291, 40.600580439202481 ], [ -7.068271447503782, 40.600580439202481 ], [ -7.068271447503782, 40.601015383308209 ], [ -7.067531231536274, 40.601015383308209 ], [ -7.067531231536274, 40.601450324583922 ], [ -7.063089935731225, 40.601450324583922 ], [ -7.063089935731225, 40.601885263029587 ], [ -7.0608692878287, 40.601885263029587 ], [ -7.0608692878287, 40.602320198645224 ], [ -7.060129071861191, 40.602320198645224 ], [ -7.060129071861191, 40.604059912807244 ], [ -7.059388855893682, 40.604059912807244 ], [ -7.059388855893682, 40.604494834272586 ], [ -7.057908423958666, 40.604494834272586 ], [ -7.057908423958666, 40.60492975290785 ], [ -7.057168207991158, 40.60492975290785 ], [ -7.057168207991158, 40.605364668713023 ], [ -7.05642799202365, 40.605364668713023 ], [ -7.05642799202365, 40.60579958168811 ], [ -7.054947560088633, 40.60579958168811 ], [ -7.054947560088633, 40.605364668713023 ], [ -7.054207344121125, 40.605364668713023 ], [ -7.054207344121125, 40.60492975290785 ], [ -7.053467128153617, 40.60492975290785 ], [ -7.053467128153617, 40.604494834272586 ], [ -7.052726912186108, 40.604494834272586 ], [ -7.052726912186108, 40.604059912807244 ], [ -7.0519866962186, 40.604059912807244 ], [ -7.0519866962186, 40.60319006138635 ], [ -7.051246480251091, 40.60319006138635 ], [ -7.051246480251091, 40.603624988511839 ], [ -7.050506264283582, 40.603624988511839 ], [ -7.050506264283582, 40.605364668713023 ], [ -7.049766048316074, 40.605364668713023 ], [ -7.049766048316074, 40.60579958168811 ], [ -7.049025832348566, 40.60579958168811 ], [ -7.049025832348566, 40.606234491833092 ], [ -7.047545400413549, 40.606234491833092 ], [ -7.047545400413549, 40.606669399147982 ], [ -7.046805184446042, 40.606669399147982 ], [ -7.046805184446042, 40.607104303632752 ], [ -7.045324752511024, 40.607104303632752 ], [ -7.045324752511024, 40.606669399147982 ], [ -7.043844320576008, 40.606669399147982 ], [ -7.043844320576008, 40.606234491833092 ], [ -7.043104104608499, 40.606234491833092 ], [ -7.043104104608499, 40.60579958168811 ], [ -7.04236388864099, 40.60579958168811 ], [ -7.04236388864099, 40.605364668713023 ], [ -7.041623672673483, 40.605364668713023 ], [ -7.041623672673483, 40.60492975290785 ], [ -7.040883456705974, 40.60492975290785 ], [ -7.040883456705974, 40.604494834272586 ], [ -7.040143240738465, 40.604494834272586 ], [ -7.040143240738465, 40.60319006138635 ], [ -7.039403024770958, 40.60319006138635 ], [ -7.039403024770958, 40.601015383308209 ], [ -7.03866280880345, 40.601015383308209 ], [ -7.03866280880345, 40.600580439202481 ], [ -7.037922592835941, 40.600580439202481 ], [ -7.037922592835941, 40.601015383308209 ], [ -7.037182376868433, 40.601015383308209 ], [ -7.037182376868433, 40.606234491833092 ], [ -7.036442160900925, 40.606234491833092 ], [ -7.036442160900925, 40.606669399147982 ], [ -7.035701944933416, 40.606669399147982 ], [ -7.035701944933416, 40.607974104111925 ], [ -7.036442160900925, 40.607974104111925 ], [ -7.036442160900925, 40.608409000106313 ], [ -7.037182376868433, 40.608409000106313 ], [ -7.037182376868433, 40.608843893270567 ], [ -7.037922592835941, 40.608843893270567 ], [ -7.037922592835941, 40.609278783604672 ], [ -7.03866280880345, 40.609278783604672 ], [ -7.03866280880345, 40.61101831663953 ], [ -7.039403024770958, 40.61101831663953 ], [ -7.039403024770958, 40.614497246860239 ], [ -7.03866280880345, 40.614497246860239 ], [ -7.03866280880345, 40.616236644045259 ], [ -7.037922592835941, 40.616236644045259 ], [ -7.037922592835941, 40.616671486265886 ], [ -7.037182376868433, 40.616671486265886 ], [ -7.037182376868433, 40.617106325656245 ], [ -7.034961728965908, 40.617106325656245 ], [ -7.034961728965908, 40.617541162216341 ], [ -7.032741081063383, 40.617541162216341 ], [ -7.032741081063383, 40.622758980173842 ], [ -7.033481297030891, 40.622758980173842 ], [ -7.033481297030891, 40.624063370980629 ], [ -7.034221512998399, 40.624063370980629 ], [ -7.034221512998399, 40.627541621928309 ], [ -7.033481297030891, 40.627541621928309 ], [ -7.033481297030891, 40.629280679472053 ], [ -7.032741081063383, 40.629280679472053 ], [ -7.032741081063383, 40.630150191261208 ], [ -7.032000865095874, 40.630150191261208 ], [ -7.032000865095874, 40.630584942910076 ], [ -7.031260649128366, 40.630584942910076 ], [ -7.031260649128366, 40.631454437716407 ], [ -7.030520433160858, 40.631454437716407 ], [ -7.030520433160858, 40.631889180873834 ], [ -7.029780217193349, 40.631889180873834 ], [ -7.029780217193349, 40.632758658697185 ], [ -7.029040001225841, 40.632758658697185 ], [ -7.029040001225841, 40.633193393363115 ], [ -7.028299785258333, 40.633193393363115 ], [ -7.028299785258333, 40.63362812519852 ], [ -7.027559569290825, 40.63362812519852 ], [ -7.027559569290825, 40.634497580377754 ], [ -7.023858489453282, 40.634497580377754 ], [ -7.023858489453282, 40.634062854203393 ], [ -7.023118273485775, 40.634062854203393 ], [ -7.023118273485775, 40.637540584342858 ], [ -7.023858489453282, 40.637540584342858 ], [ -7.023858489453282, 40.639714073686328 ], [ -7.023118273485775, 40.639714073686328 ], [ -7.023118273485775, 40.640148763063195 ], [ -7.022378057518266, 40.640148763063195 ], [ -7.022378057518266, 40.641018133325083 ], [ -7.021637841550757, 40.641018133325083 ], [ -7.021637841550757, 40.641887492264424 ], [ -7.02089762558325, 40.641887492264424 ], [ -7.02089762558325, 40.642322167488132 ], [ -7.017936761713217, 40.642322167488132 ], [ -7.017936761713217, 40.645799467373649 ], [ -7.017196545745708, 40.645799467373649 ], [ -7.017196545745708, 40.646668764038097 ], [ -7.016456329778198, 40.646668764038097 ], [ -7.016456329778198, 40.647538049379655 ], [ -7.015716113810691, 40.647538049379655 ], [ -7.015716113810691, 40.647972687804348 ], [ -7.014975897843183, 40.647972687804348 ], [ -7.014975897843183, 40.648407323398295 ], [ -7.009794386070625, 40.648407323398295 ], [ -7.009794386070625, 40.647538049379655 ], [ -7.009054170103116, 40.647538049379655 ], [ -7.009054170103116, 40.646668764038097 ] ] ], [ [ [ -8.199321445856517, 41.17267175522403 ], [ -8.19858122988901, 41.17267175522403 ], [ -8.19858122988901, 41.171378137866199 ], [ -8.197841013921501, 41.171378137866199 ], [ -8.197841013921501, 41.16922205217287 ], [ -8.197100797953992, 41.16922205217287 ], [ -8.197100797953992, 41.167065895525631 ], [ -8.196360581986484, 41.167065895525631 ], [ -8.196360581986484, 41.164047157018338 ], [ -8.197100797953992, 41.164047157018338 ], [ -8.197100797953992, 41.162322101147552 ], [ -8.197841013921501, 41.162322101147552 ], [ -8.197841013921501, 41.16145955618375 ], [ -8.19858122988901, 41.16145955618375 ], [ -8.19858122988901, 41.160596999867749 ], [ -8.199321445856517, 41.160596999867749 ], [ -8.199321445856517, 41.160165717452678 ], [ -8.200061661824025, 41.160165717452678 ], [ -8.200061661824025, 41.159734432199578 ], [ -8.200801877791534, 41.159734432199578 ], [ -8.200801877791534, 41.159303144108449 ], [ -8.201542093759043, 41.159303144108449 ], [ -8.201542093759043, 41.158871853179285 ], [ -8.205243173596585, 41.158871853179285 ], [ -8.205243173596585, 41.158440559412114 ], [ -8.208204037466617, 41.158440559412114 ], [ -8.208204037466617, 41.158009262806921 ], [ -8.211905117304159, 41.158009262806921 ], [ -8.211905117304159, 41.157577963363728 ], [ -8.2156061971417, 41.157577963363728 ], [ -8.2156061971417, 41.157146661082542 ], [ -8.218567061011735, 41.157146661082542 ], [ -8.218567061011735, 41.158009262806921 ], [ -8.219307276979244, 41.158009262806921 ], [ -8.219307276979244, 41.158440559412114 ], [ -8.220047492946753, 41.158440559412114 ], [ -8.220047492946753, 41.159303144108449 ], [ -8.22078770891426, 41.159303144108449 ], [ -8.22078770891426, 41.160165717452678 ], [ -8.221527924881768, 41.160165717452678 ], [ -8.221527924881768, 41.161028279444778 ], [ -8.222268140849275, 41.161028279444778 ], [ -8.222268140849275, 41.16145955618375 ], [ -8.223008356816784, 41.16145955618375 ], [ -8.223008356816784, 41.162322101147552 ], [ -8.223748572784293, 41.162322101147552 ], [ -8.223748572784293, 41.163184634759098 ], [ -8.224488788751801, 41.163184634759098 ], [ -8.224488788751801, 41.166634655681783 ], [ -8.223748572784293, 41.166634655681783 ], [ -8.223748572784293, 41.169653274987866 ], [ -8.223008356816784, 41.169653274987866 ], [ -8.223008356816784, 41.170084494964705 ], [ -8.221527924881768, 41.170084494964705 ], [ -8.221527924881768, 41.170515712103381 ], [ -8.22078770891426, 41.170515712103381 ], [ -8.22078770891426, 41.170946926403879 ], [ -8.217826845044225, 41.170946926403879 ], [ -8.217826845044225, 41.170515712103381 ], [ -8.216346413109209, 41.170515712103381 ], [ -8.216346413109209, 41.170946926403879 ], [ -8.2156061971417, 41.170946926403879 ], [ -8.2156061971417, 41.171378137866199 ], [ -8.214865981174192, 41.171378137866199 ], [ -8.214865981174192, 41.172240552276278 ], [ -8.213385549239176, 41.172240552276278 ], [ -8.213385549239176, 41.17267175522403 ], [ -8.21116490133665, 41.17267175522403 ], [ -8.21116490133665, 41.173102955333569 ], [ -8.208204037466617, 41.173102955333569 ], [ -8.208204037466617, 41.173534152604915 ], [ -8.205243173596585, 41.173534152604915 ], [ -8.205243173596585, 41.173965347038035 ], [ -8.201542093759043, 41.173965347038035 ], [ -8.201542093759043, 41.173534152604915 ], [ -8.200801877791534, 41.173534152604915 ], [ -8.200801877791534, 41.173102955333569 ], [ -8.199321445856517, 41.173102955333569 ], [ -8.199321445856517, 41.17267175522403 ] ] ], [ [ [ -8.260019155192202, 41.185606523866817 ], [ -8.259278939224693, 41.185606523866817 ], [ -8.259278939224693, 41.185175406067621 ], [ -8.258538723257185, 41.185175406067621 ], [ -8.258538723257185, 41.18474428543005 ], [ -8.257798507289676, 41.18474428543005 ], [ -8.257798507289676, 41.18388203563984 ], [ -8.257058291322169, 41.18388203563984 ], [ -8.257058291322169, 41.183450906487195 ], [ -8.25631807535466, 41.183450906487195 ], [ -8.25631807535466, 41.181295218148961 ], [ -8.25557785938715, 41.181295218148961 ], [ -8.25557785938715, 41.179139458852809 ], [ -8.254837643419643, 41.179139458852809 ], [ -8.254837643419643, 41.176983628599459 ], [ -8.254097427452134, 41.176983628599459 ], [ -8.254097427452134, 41.176121276630262 ], [ -8.253357211484627, 41.176121276630262 ], [ -8.253357211484627, 41.180001771086182 ], [ -8.252616995517117, 41.180001771086182 ], [ -8.252616995517117, 41.18086407196634 ], [ -8.251876779549608, 41.18086407196634 ], [ -8.251876779549608, 41.181726361493268 ], [ -8.251136563582101, 41.181726361493268 ], [ -8.251136563582101, 41.182588639666911 ], [ -8.250396347614593, 41.182588639666911 ], [ -8.250396347614593, 41.183019774496231 ], [ -8.245214835842035, 41.183019774496231 ], [ -8.245214835842035, 41.182157501999257 ], [ -8.244474619874525, 41.182157501999257 ], [ -8.244474619874525, 41.181726361493268 ], [ -8.243734403907018, 41.181726361493268 ], [ -8.243734403907018, 41.181295218148961 ], [ -8.242253971972001, 41.181295218148961 ], [ -8.242253971972001, 41.181726361493268 ], [ -8.240033324069477, 41.181726361493268 ], [ -8.240033324069477, 41.182157501999257 ], [ -8.238552892134461, 41.182157501999257 ], [ -8.238552892134461, 41.181726361493268 ], [ -8.237812676166952, 41.181726361493268 ], [ -8.237812676166952, 41.181295218148961 ], [ -8.237072460199443, 41.181295218148961 ], [ -8.237072460199443, 41.180432922945414 ], [ -8.236332244231935, 41.180432922945414 ], [ -8.236332244231935, 41.179570616388638 ], [ -8.235592028264426, 41.179570616388638 ], [ -8.235592028264426, 41.174396538632941 ], [ -8.236332244231935, 41.174396538632941 ], [ -8.236332244231935, 41.173534152604915 ], [ -8.237072460199443, 41.173534152604915 ], [ -8.237072460199443, 41.173102955333569 ], [ -8.237812676166952, 41.173102955333569 ], [ -8.237812676166952, 41.172240552276278 ], [ -8.242253971972001, 41.172240552276278 ], [ -8.242253971972001, 41.17267175522403 ], [ -8.244474619874525, 41.17267175522403 ], [ -8.244474619874525, 41.170515712103381 ], [ -8.243734403907018, 41.170515712103381 ], [ -8.243734403907018, 41.170946926403879 ], [ -8.242994187939509, 41.170946926403879 ], [ -8.242994187939509, 41.171378137866199 ], [ -8.242253971972001, 41.171378137866199 ], [ -8.242253971972001, 41.171809346490335 ], [ -8.237812676166952, 41.171809346490335 ], [ -8.237812676166952, 41.171378137866199 ], [ -8.237072460199443, 41.171378137866199 ], [ -8.237072460199443, 41.170515712103381 ], [ -8.236332244231935, 41.170515712103381 ], [ -8.236332244231935, 41.169653274987866 ], [ -8.235592028264426, 41.169653274987866 ], [ -8.235592028264426, 41.16922205217287 ], [ -8.234851812296917, 41.16922205217287 ], [ -8.234851812296917, 41.16490966792523 ], [ -8.234111596329409, 41.16490966792523 ], [ -8.234111596329409, 41.164478413890819 ], [ -8.232631164394391, 41.164478413890819 ], [ -8.232631164394391, 41.164047157018338 ], [ -8.231890948426884, 41.164047157018338 ], [ -8.231890948426884, 41.16361589730775 ], [ -8.231150732459376, 41.16361589730775 ], [ -8.231150732459376, 41.162753369372361 ], [ -8.230410516491867, 41.162753369372361 ], [ -8.230410516491867, 41.161028279444778 ], [ -8.22967030052436, 41.161028279444778 ], [ -8.22967030052436, 41.159303144108449 ], [ -8.230410516491867, 41.159303144108449 ], [ -8.230410516491867, 41.158009262806921 ], [ -8.231150732459376, 41.158009262806921 ], [ -8.231150732459376, 41.157146661082542 ], [ -8.231890948426884, 41.157146661082542 ], [ -8.231890948426884, 41.155852737211028 ], [ -8.232631164394391, 41.155852737211028 ], [ -8.232631164394391, 41.154990107106769 ], [ -8.235592028264426, 41.154990107106769 ], [ -8.235592028264426, 41.155421423577877 ], [ -8.237072460199443, 41.155421423577877 ], [ -8.237072460199443, 41.155852737211028 ], [ -8.239293108101968, 41.155852737211028 ], [ -8.239293108101968, 41.154990107106769 ], [ -8.240033324069477, 41.154990107106769 ], [ -8.240033324069477, 41.15412746565066 ], [ -8.240773540036985, 41.15412746565066 ], [ -8.240773540036985, 41.153264812842743 ], [ -8.241513756004492, 41.153264812842743 ], [ -8.241513756004492, 41.152402148683045 ], [ -8.242253971972001, 41.152402148683045 ], [ -8.242253971972001, 41.151539473171617 ], [ -8.243734403907018, 41.151539473171617 ], [ -8.243734403907018, 41.15110813115902 ], [ -8.245214835842035, 41.15110813115902 ], [ -8.245214835842035, 41.150676786308516 ], [ -8.246695267777051, 41.150676786308516 ], [ -8.246695267777051, 41.150245438620097 ], [ -8.248175699712068, 41.150245438620097 ], [ -8.248175699712068, 41.148951378527457 ], [ -8.248915915679575, 41.148951378527457 ], [ -8.248915915679575, 41.148088657609591 ], [ -8.249656131647084, 41.148088657609591 ], [ -8.249656131647084, 41.147657292893854 ], [ -8.250396347614593, 41.147657292893854 ], [ -8.250396347614593, 41.147225925340237 ], [ -8.251136563582101, 41.147225925340237 ], [ -8.251136563582101, 41.146794554948762 ], [ -8.252616995517117, 41.146794554948762 ], [ -8.252616995517117, 41.14636318171943 ], [ -8.254097427452134, 41.14636318171943 ], [ -8.254097427452134, 41.146794554948762 ], [ -8.254837643419643, 41.146794554948762 ], [ -8.254837643419643, 41.147225925340237 ], [ -8.25631807535466, 41.147225925340237 ], [ -8.25631807535466, 41.147657292893854 ], [ -8.257058291322169, 41.147657292893854 ], [ -8.257058291322169, 41.148088657609591 ], [ -8.257798507289676, 41.148088657609591 ], [ -8.257798507289676, 41.149814088093777 ], [ -8.258538723257185, 41.149814088093777 ], [ -8.258538723257185, 41.15110813115902 ], [ -8.259278939224693, 41.15110813115902 ], [ -8.259278939224693, 41.151539473171617 ], [ -8.260019155192202, 41.151539473171617 ], [ -8.260019155192202, 41.15110813115902 ], [ -8.262980019062233, 41.15110813115902 ], [ -8.262980019062233, 41.150676786308516 ], [ -8.263720235029743, 41.150676786308516 ], [ -8.263720235029743, 41.15110813115902 ], [ -8.265200666964759, 41.15110813115902 ], [ -8.265200666964759, 41.151539473171617 ], [ -8.266681098899776, 41.151539473171617 ], [ -8.266681098899776, 41.151970812346292 ], [ -8.268161530834792, 41.151970812346292 ], [ -8.268161530834792, 41.152402148683045 ], [ -8.269641962769809, 41.152402148683045 ], [ -8.269641962769809, 41.152833482181855 ], [ -8.270382178737316, 41.152833482181855 ], [ -8.270382178737316, 41.153264812842743 ], [ -8.271862610672335, 41.153264812842743 ], [ -8.271862610672335, 41.153696140665687 ], [ -8.273343042607351, 41.153696140665687 ], [ -8.273343042607351, 41.15412746565066 ], [ -8.274823474542368, 41.15412746565066 ], [ -8.274823474542368, 41.154558787797704 ], [ -8.275563690509877, 41.154558787797704 ], [ -8.275563690509877, 41.154990107106769 ], [ -8.277044122444893, 41.154990107106769 ], [ -8.277044122444893, 41.155421423577877 ], [ -8.27852455437991, 41.155421423577877 ], [ -8.27852455437991, 41.156284048006185 ], [ -8.279264770347419, 41.156284048006185 ], [ -8.279264770347419, 41.15671535596335 ], [ -8.280004986314927, 41.15671535596335 ], [ -8.280004986314927, 41.157577963363728 ], [ -8.280745202282434, 41.157577963363728 ], [ -8.280745202282434, 41.158440559412114 ], [ -8.281485418249941, 41.158440559412114 ], [ -8.281485418249941, 41.162753369372361 ], [ -8.280745202282434, 41.162753369372361 ], [ -8.280745202282434, 41.163184634759098 ], [ -8.280004986314927, 41.163184634759098 ], [ -8.280004986314927, 41.16361589730775 ], [ -8.279264770347419, 41.16361589730775 ], [ -8.279264770347419, 41.164478413890819 ], [ -8.27852455437991, 41.164478413890819 ], [ -8.27852455437991, 41.16490966792523 ], [ -8.277784338412401, 41.16490966792523 ], [ -8.277784338412401, 41.165340919121533 ], [ -8.277044122444893, 41.165340919121533 ], [ -8.277044122444893, 41.165772167479723 ], [ -8.276303906477384, 41.165772167479723 ], [ -8.276303906477384, 41.166203412999813 ], [ -8.275563690509877, 41.166203412999813 ], [ -8.275563690509877, 41.167497132531359 ], [ -8.276303906477384, 41.167497132531359 ], [ -8.276303906477384, 41.167928366698952 ], [ -8.277044122444893, 41.167928366698952 ], [ -8.277044122444893, 41.167497132531359 ], [ -8.277784338412401, 41.167497132531359 ], [ -8.277784338412401, 41.167065895525631 ], [ -8.279264770347419, 41.167065895525631 ], [ -8.279264770347419, 41.166634655681783 ], [ -8.280745202282434, 41.166634655681783 ], [ -8.280745202282434, 41.167065895525631 ], [ -8.281485418249941, 41.167065895525631 ], [ -8.281485418249941, 41.167497132531359 ], [ -8.28296585018496, 41.167497132531359 ], [ -8.28296585018496, 41.167928366698952 ], [ -8.283706066152467, 41.167928366698952 ], [ -8.283706066152467, 41.168359598028403 ], [ -8.284446282119974, 41.168359598028403 ], [ -8.284446282119974, 41.172240552276278 ], [ -8.285186498087484, 41.172240552276278 ], [ -8.285186498087484, 41.174396538632941 ], [ -8.284446282119974, 41.174396538632941 ], [ -8.284446282119974, 41.175258913308078 ], [ -8.283706066152467, 41.175258913308078 ], [ -8.283706066152467, 41.176121276630262 ], [ -8.28296585018496, 41.176121276630262 ], [ -8.28296585018496, 41.176552454033988 ], [ -8.282225634217451, 41.176552454033988 ], [ -8.282225634217451, 41.176983628599459 ], [ -8.281485418249941, 41.176983628599459 ], [ -8.281485418249941, 41.177414800326673 ], [ -8.280745202282434, 41.177414800326673 ], [ -8.280745202282434, 41.177845969215618 ], [ -8.279264770347419, 41.177845969215618 ], [ -8.279264770347419, 41.178277135266292 ], [ -8.27852455437991, 41.178277135266292 ], [ -8.27852455437991, 41.178708298478696 ], [ -8.277044122444893, 41.178708298478696 ], [ -8.277044122444893, 41.179139458852809 ], [ -8.275563690509877, 41.179139458852809 ], [ -8.275563690509877, 41.179570616388638 ], [ -8.274823474542368, 41.179570616388638 ], [ -8.274823474542368, 41.180001771086182 ], [ -8.27408325857486, 41.180001771086182 ], [ -8.27408325857486, 41.180432922945414 ], [ -8.273343042607351, 41.180432922945414 ], [ -8.273343042607351, 41.18086407196634 ], [ -8.272602826639844, 41.18086407196634 ], [ -8.272602826639844, 41.181726361493268 ], [ -8.271862610672335, 41.181726361493268 ], [ -8.271862610672335, 41.182588639666911 ], [ -8.271122394704825, 41.182588639666911 ], [ -8.271122394704825, 41.183450906487195 ], [ -8.270382178737316, 41.183450906487195 ], [ -8.270382178737316, 41.18388203563984 ], [ -8.269641962769809, 41.18388203563984 ], [ -8.269641962769809, 41.18474428543005 ], [ -8.268901746802301, 41.18474428543005 ], [ -8.268901746802301, 41.185606523866817 ], [ -8.268161530834792, 41.185606523866817 ], [ -8.268161530834792, 41.186037638827635 ], [ -8.267421314867285, 41.186037638827635 ], [ -8.267421314867285, 41.186899860234142 ], [ -8.266681098899776, 41.186899860234142 ], [ -8.266681098899776, 41.187330966679809 ], [ -8.261499587127219, 41.187330966679809 ], [ -8.261499587127219, 41.186899860234142 ], [ -8.260759371159709, 41.186899860234142 ], [ -8.260759371159709, 41.186468750950077 ], [ -8.260019155192202, 41.186468750950077 ], [ -8.260019155192202, 41.185606523866817 ] ] ], [ [ [ -7.977256655604017, 41.409403161326757 ], [ -7.977256655604017, 41.408973520238099 ], [ -7.976516439636508, 41.408973520238099 ], [ -7.976516439636508, 41.408543876308194 ], [ -7.975776223669, 41.408543876308194 ], [ -7.975776223669, 41.408114229537027 ], [ -7.975036007701493, 41.408114229537027 ], [ -7.975036007701493, 41.407684579924627 ], [ -7.974295791733984, 41.407684579924627 ], [ -7.974295791733984, 41.406825272176128 ], [ -7.973555575766476, 41.406825272176128 ], [ -7.973555575766476, 41.406395614040044 ], [ -7.972815359798967, 41.406395614040044 ], [ -7.972815359798967, 41.405965953062726 ], [ -7.972075143831458, 41.405965953062726 ], [ -7.972075143831458, 41.404676953083538 ], [ -7.971334927863952, 41.404676953083538 ], [ -7.971334927863952, 41.402958246667872 ], [ -7.970594711896443, 41.402958246667872 ], [ -7.970594711896443, 41.401669187023749 ], [ -7.971334927863952, 41.401669187023749 ], [ -7.971334927863952, 41.400380101809176 ], [ -7.972075143831458, 41.400380101809176 ], [ -7.972075143831458, 41.399520697460403 ], [ -7.972815359798967, 41.399520697460403 ], [ -7.972815359798967, 41.398231569628763 ], [ -7.973555575766476, 41.398231569628763 ], [ -7.973555575766476, 41.397372136868739 ], [ -7.974295791733984, 41.397372136868739 ], [ -7.974295791733984, 41.396082966420416 ], [ -7.975036007701493, 41.396082966420416 ], [ -7.975036007701493, 41.395223505249398 ], [ -7.975776223669, 41.395223505249398 ], [ -7.975776223669, 41.393934292184802 ], [ -7.976516439636508, 41.393934292184802 ], [ -7.976516439636508, 41.393074802603067 ], [ -7.977256655604017, 41.393074802603067 ], [ -7.977256655604017, 41.391785546922605 ], [ -7.980957735441558, 41.391785546922605 ], [ -7.980957735441558, 41.392215301657131 ], [ -7.983178383344084, 41.392215301657131 ], [ -7.983178383344084, 41.392645053550623 ], [ -7.984658815279101, 41.392645053550623 ], [ -7.984658815279101, 41.393074802603067 ], [ -7.985399031246608, 41.393074802603067 ], [ -7.985399031246608, 41.393934292184802 ], [ -7.986139247214117, 41.393934292184802 ], [ -7.986139247214117, 41.394364032714066 ], [ -7.986879463181626, 41.394364032714066 ], [ -7.986879463181626, 41.394793770402273 ], [ -7.987619679149135, 41.394793770402273 ], [ -7.987619679149135, 41.395223505249398 ], [ -7.988359895116642, 41.395223505249398 ], [ -7.988359895116642, 41.396942416227063 ], [ -7.989100111084151, 41.396942416227063 ], [ -7.989100111084151, 41.398661281747103 ], [ -7.98984032705166, 41.398661281747103 ], [ -7.98984032705166, 41.399520697460403 ], [ -7.989100111084151, 41.399520697460403 ], [ -7.989100111084151, 41.400809799721856 ], [ -7.988359895116642, 41.400809799721856 ], [ -7.988359895116642, 41.401669187023749 ], [ -7.987619679149135, 41.401669187023749 ], [ -7.987619679149135, 41.402958246667872 ], [ -7.986879463181626, 41.402958246667872 ], [ -7.986879463181626, 41.404247280741401 ], [ -7.986139247214117, 41.404247280741401 ], [ -7.986139247214117, 41.40553628924421 ], [ -7.985399031246608, 41.40553628924421 ], [ -7.985399031246608, 41.406395614040044 ], [ -7.984658815279101, 41.406395614040044 ], [ -7.984658815279101, 41.407684579924627 ], [ -7.983918599311592, 41.407684579924627 ], [ -7.983918599311592, 41.408543876308194 ], [ -7.983178383344084, 41.408543876308194 ], [ -7.983178383344084, 41.408973520238099 ], [ -7.982438167376577, 41.408973520238099 ], [ -7.982438167376577, 41.409403161326757 ], [ -7.981697951409068, 41.409403161326757 ], [ -7.981697951409068, 41.409832799574154 ], [ -7.980217519474051, 41.409832799574154 ], [ -7.980217519474051, 41.410262434980304 ], [ -7.978737087539034, 41.410262434980304 ], [ -7.978737087539034, 41.409832799574154 ], [ -7.977996871571526, 41.409832799574154 ], [ -7.977996871571526, 41.409403161326757 ], [ -7.977256655604017, 41.409403161326757 ] ] ], [ [ [ -7.308101420976484, 41.65982803860782 ], [ -7.307361205008974, 41.65982803860782 ], [ -7.307361205008974, 41.658544087366508 ], [ -7.306620989041465, 41.658544087366508 ], [ -7.306620989041465, 41.657688105650976 ], [ -7.307361205008974, 41.657688105650976 ], [ -7.307361205008974, 41.656832112558433 ], [ -7.308101420976484, 41.656832112558433 ], [ -7.308101420976484, 41.655548101587804 ], [ -7.308841636943991, 41.655548101587804 ], [ -7.308841636943991, 41.65426406501912 ], [ -7.3095818529115, 41.65426406501912 ], [ -7.3095818529115, 41.653836047141134 ], [ -7.308101420976484, 41.653836047141134 ], [ -7.308101420976484, 41.65340802641893 ], [ -7.306620989041465, 41.65340802641893 ], [ -7.306620989041465, 41.652980002852523 ], [ -7.305880773073959, 41.652980002852523 ], [ -7.305880773073959, 41.652123947187128 ], [ -7.30514055710645, 41.652123947187128 ], [ -7.30514055710645, 41.650411801726115 ], [ -7.304400341138942, 41.650411801726115 ], [ -7.304400341138942, 41.647843498209653 ], [ -7.30514055710645, 41.647843498209653 ], [ -7.30514055710645, 41.646559308055487 ], [ -7.305880773073959, 41.646559308055487 ], [ -7.305880773073959, 41.64570316706542 ], [ -7.306620989041465, 41.64570316706542 ], [ -7.306620989041465, 41.644418934249479 ], [ -7.30514055710645, 41.644418934249479 ], [ -7.30514055710645, 41.643990850955952 ], [ -7.303660125171433, 41.643990850955952 ], [ -7.303660125171433, 41.643562764818363 ], [ -7.302919909203924, 41.643562764818363 ], [ -7.302919909203924, 41.642278489341024 ], [ -7.302179693236416, 41.642278489341024 ], [ -7.302179693236416, 41.640994188267015 ], [ -7.301439477268909, 41.640994188267015 ], [ -7.301439477268909, 41.641422291469091 ], [ -7.299959045333891, 41.641422291469091 ], [ -7.299959045333891, 41.641850391827084 ], [ -7.299218829366383, 41.641850391827084 ], [ -7.299218829366383, 41.643134675836656 ], [ -7.298478613398874, 41.643134675836656 ], [ -7.298478613398874, 41.644418934249479 ], [ -7.297738397431368, 41.644418934249479 ], [ -7.297738397431368, 41.64570316706542 ], [ -7.296998181463858, 41.64570316706542 ], [ -7.296998181463858, 41.646131238982505 ], [ -7.297738397431368, 41.646131238982505 ], [ -7.297738397431368, 41.646559308055487 ], [ -7.298478613398874, 41.646559308055487 ], [ -7.298478613398874, 41.646987374284336 ], [ -7.299218829366383, 41.646987374284336 ], [ -7.299218829366383, 41.647415437669054 ], [ -7.299959045333891, 41.647415437669054 ], [ -7.299959045333891, 41.647843498209653 ], [ -7.3006992613014, 41.647843498209653 ], [ -7.3006992613014, 41.648271555906099 ], [ -7.301439477268909, 41.648271555906099 ], [ -7.301439477268909, 41.648699610758413 ], [ -7.302179693236416, 41.648699610758413 ], [ -7.302179693236416, 41.650411801726115 ], [ -7.301439477268909, 41.650411801726115 ], [ -7.301439477268909, 41.65340802641893 ], [ -7.3006992613014, 41.65340802641893 ], [ -7.3006992613014, 41.655548101587804 ], [ -7.301439477268909, 41.655548101587804 ], [ -7.301439477268909, 41.655976108088915 ], [ -7.302179693236416, 41.655976108088915 ], [ -7.302179693236416, 41.656404111745786 ], [ -7.303660125171433, 41.656404111745786 ], [ -7.303660125171433, 41.658116097930872 ], [ -7.304400341138942, 41.658116097930872 ], [ -7.304400341138942, 41.65982803860782 ], [ -7.30514055710645, 41.65982803860782 ], [ -7.30514055710645, 41.661111964250644 ], [ -7.304400341138942, 41.661111964250644 ], [ -7.304400341138942, 41.661967900457732 ], [ -7.303660125171433, 41.661967900457732 ], [ -7.303660125171433, 41.663251783436081 ], [ -7.302919909203924, 41.663251783436081 ], [ -7.302919909203924, 41.664107691200066 ], [ -7.302179693236416, 41.664107691200066 ], [ -7.302179693236416, 41.665391531513578 ], [ -7.297738397431368, 41.665391531513578 ], [ -7.297738397431368, 41.671382447831043 ], [ -7.298478613398874, 41.671382447831043 ], [ -7.298478613398874, 41.670954543725458 ], [ -7.3006992613014, 41.670954543725458 ], [ -7.3006992613014, 41.670526636775463 ], [ -7.302919909203924, 41.670526636775463 ], [ -7.302919909203924, 41.670098726981067 ], [ -7.30514055710645, 41.670098726981067 ], [ -7.30514055710645, 41.669670814342268 ], [ -7.308101420976484, 41.669670814342268 ], [ -7.308101420976484, 41.670526636775463 ], [ -7.308841636943991, 41.670526636775463 ], [ -7.308841636943991, 41.671810349092219 ], [ -7.3095818529115, 41.671810349092219 ], [ -7.3095818529115, 41.673094035809228 ], [ -7.310322068879008, 41.673094035809228 ], [ -7.310322068879008, 41.673949812731749 ], [ -7.311062284846517, 41.673949812731749 ], [ -7.311062284846517, 41.675233456782202 ], [ -7.310322068879008, 41.675233456782202 ], [ -7.310322068879008, 41.6769449423604 ], [ -7.3095818529115, 41.6769449423604 ], [ -7.3095818529115, 41.67822852667706 ], [ -7.308841636943991, 41.67822852667706 ], [ -7.308841636943991, 41.678656382426972 ], [ -7.308101420976484, 41.678656382426972 ], [ -7.308101420976484, 41.679084235332382 ], [ -7.306620989041465, 41.679084235332382 ], [ -7.306620989041465, 41.679512085393299 ], [ -7.30514055710645, 41.679512085393299 ], [ -7.30514055710645, 41.679939932609699 ], [ -7.304400341138942, 41.679939932609699 ], [ -7.304400341138942, 41.680367776981598 ], [ -7.302919909203924, 41.680367776981598 ], [ -7.302919909203924, 41.680795618508981 ], [ -7.302179693236416, 41.680795618508981 ], [ -7.302179693236416, 41.681223457191848 ], [ -7.3006992613014, 41.681223457191848 ], [ -7.3006992613014, 41.681651293030178 ], [ -7.298478613398874, 41.681651293030178 ], [ -7.298478613398874, 41.681223457191848 ], [ -7.297738397431368, 41.681223457191848 ], [ -7.297738397431368, 41.680795618508981 ], [ -7.296998181463858, 41.680795618508981 ], [ -7.296998181463858, 41.680367776981598 ], [ -7.296257965496349, 41.680367776981598 ], [ -7.296257965496349, 41.679939932609699 ], [ -7.289596021788776, 41.679939932609699 ], [ -7.289596021788776, 41.680367776981598 ], [ -7.288855805821266, 41.680367776981598 ], [ -7.288855805821266, 41.680795618508981 ], [ -7.288115589853758, 41.680795618508981 ], [ -7.288115589853758, 41.681223457191848 ], [ -7.287375373886249, 41.681223457191848 ], [ -7.287375373886249, 41.681651293030178 ], [ -7.286635157918742, 41.681651293030178 ], [ -7.286635157918742, 41.682934783477975 ], [ -7.285894941951232, 41.682934783477975 ], [ -7.285894941951232, 41.683790429553788 ], [ -7.285154725983725, 41.683790429553788 ], [ -7.285154725983725, 41.685073877333323 ], [ -7.284414510016216, 41.685073877333323 ], [ -7.284414510016216, 41.685501687570714 ], [ -7.282934078081201, 41.685501687570714 ], [ -7.282934078081201, 41.685929494963503 ], [ -7.277012350341132, 41.685929494963503 ], [ -7.277012350341132, 41.686357299511734 ], [ -7.274791702438608, 41.686357299511734 ], [ -7.274791702438608, 41.687212900074421 ], [ -7.274051486471099, 41.687212900074421 ], [ -7.274051486471099, 41.68764069608887 ], [ -7.273311270503592, 41.68764069608887 ], [ -7.273311270503592, 41.68849627958398 ], [ -7.268129758731034, 41.68849627958398 ], [ -7.268129758731034, 41.688924067064612 ], [ -7.267389542763524, 41.688924067064612 ], [ -7.267389542763524, 41.689351851700636 ], [ -7.266649326796015, 41.689351851700636 ], [ -7.266649326796015, 41.689779633492044 ], [ -7.265909110828508, 41.689779633492044 ], [ -7.265909110828508, 41.690207412438824 ], [ -7.265168894861, 41.690207412438824 ], [ -7.265168894861, 41.69063518854098 ], [ -7.262948246958475, 41.69063518854098 ], [ -7.262948246958475, 41.690207412438824 ], [ -7.262208030990966, 41.690207412438824 ], [ -7.262208030990966, 41.689779633492044 ], [ -7.261467815023457, 41.689779633492044 ], [ -7.261467815023457, 41.689351851700636 ], [ -7.259987383088441, 41.689351851700636 ], [ -7.259987383088441, 41.688068489258725 ], [ -7.259247167120933, 41.688068489258725 ], [ -7.259247167120933, 41.685929494963503 ], [ -7.258506951153424, 41.685929494963503 ], [ -7.258506951153424, 41.684646064251368 ], [ -7.259247167120933, 41.684646064251368 ], [ -7.259247167120933, 41.682934783477975 ], [ -7.259987383088441, 41.682934783477975 ], [ -7.259987383088441, 41.681651293030178 ], [ -7.26072759905595, 41.681651293030178 ], [ -7.26072759905595, 41.681223457191848 ], [ -7.262208030990966, 41.681223457191848 ], [ -7.262208030990966, 41.680795618508981 ], [ -7.264428678893493, 41.680795618508981 ], [ -7.264428678893493, 41.680367776981598 ], [ -7.265168894861, 41.680367776981598 ], [ -7.265168894861, 41.67822852667706 ], [ -7.264428678893493, 41.67822852667706 ], [ -7.264428678893493, 41.675233456782202 ], [ -7.263688462925984, 41.675233456782202 ], [ -7.263688462925984, 41.674805578276505 ], [ -7.261467815023457, 41.674805578276505 ], [ -7.261467815023457, 41.675233456782202 ], [ -7.259247167120933, 41.675233456782202 ], [ -7.259247167120933, 41.675661332443447 ], [ -7.2562863032509, 41.675661332443447 ], [ -7.2562863032509, 41.67608920526024 ], [ -7.255546087283391, 41.67608920526024 ], [ -7.255546087283391, 41.675233456782202 ], [ -7.254805871315884, 41.675233456782202 ], [ -7.254805871315884, 41.674377696926349 ], [ -7.254065655348375, 41.674377696926349 ], [ -7.254065655348375, 41.673094035809228 ], [ -7.253325439380866, 41.673094035809228 ], [ -7.253325439380866, 41.672238247508979 ], [ -7.252585223413358, 41.672238247508979 ], [ -7.252585223413358, 41.669242898859089 ], [ -7.253325439380866, 41.669242898859089 ], [ -7.253325439380866, 41.667103278777439 ], [ -7.254065655348375, 41.667103278777439 ], [ -7.254065655348375, 41.666675346228011 ], [ -7.255546087283391, 41.666675346228011 ], [ -7.255546087283391, 41.66624741083421 ], [ -7.2562863032509, 41.66624741083421 ], [ -7.2562863032509, 41.66581947259607 ], [ -7.257766735185917, 41.66581947259607 ], [ -7.257766735185917, 41.665391531513578 ], [ -7.258506951153424, 41.665391531513578 ], [ -7.258506951153424, 41.66496358758674 ], [ -7.259987383088441, 41.66496358758674 ], [ -7.259987383088441, 41.664535640815579 ], [ -7.26072759905595, 41.664535640815579 ], [ -7.26072759905595, 41.664107691200066 ], [ -7.262208030990966, 41.664107691200066 ], [ -7.262208030990966, 41.658544087366508 ], [ -7.26072759905595, 41.658544087366508 ], [ -7.26072759905595, 41.658972073957891 ], [ -7.259247167120933, 41.658972073957891 ], [ -7.259247167120933, 41.659400057705 ], [ -7.257766735185917, 41.659400057705 ], [ -7.257766735185917, 41.65982803860782 ], [ -7.255546087283391, 41.65982803860782 ], [ -7.255546087283391, 41.660256016666388 ], [ -7.254065655348375, 41.660256016666388 ], [ -7.254065655348375, 41.660683991880653 ], [ -7.252585223413358, 41.660683991880653 ], [ -7.252585223413358, 41.661111964250644 ], [ -7.250364575510833, 41.661111964250644 ], [ -7.250364575510833, 41.661539933776339 ], [ -7.249624359543326, 41.661539933776339 ], [ -7.249624359543326, 41.661111964250644 ], [ -7.248884143575816, 41.661111964250644 ], [ -7.248884143575816, 41.660256016666388 ], [ -7.248143927608307, 41.660256016666388 ], [ -7.248143927608307, 41.659400057705 ], [ -7.2474037116408, 41.659400057705 ], [ -7.2474037116408, 41.658116097930872 ], [ -7.246663495673292, 41.658116097930872 ], [ -7.246663495673292, 41.657260110526828 ], [ -7.245923279705783, 41.657260110526828 ], [ -7.245923279705783, 41.655548101587804 ], [ -7.246663495673292, 41.655548101587804 ], [ -7.246663495673292, 41.654692080052904 ], [ -7.2474037116408, 41.654692080052904 ], [ -7.2474037116408, 41.65340802641893 ], [ -7.248143927608307, 41.65340802641893 ], [ -7.248143927608307, 41.652123947187128 ], [ -7.2474037116408, 41.652123947187128 ], [ -7.2474037116408, 41.651695915088148 ], [ -7.245923279705783, 41.651695915088148 ], [ -7.245923279705783, 41.651267880144985 ], [ -7.245183063738274, 41.651267880144985 ], [ -7.245183063738274, 41.650839842357641 ], [ -7.243702631803258, 41.650839842357641 ], [ -7.243702631803258, 41.650411801726115 ], [ -7.242962415835749, 41.650411801726115 ], [ -7.242962415835749, 41.649983758250436 ], [ -7.241481983900733, 41.649983758250436 ], [ -7.241481983900733, 41.649555711930574 ], [ -7.240001551965716, 41.649555711930574 ], [ -7.240001551965716, 41.649127662766567 ], [ -7.239261335998209, 41.649127662766567 ], [ -7.239261335998209, 41.648699610758413 ], [ -7.237780904063192, 41.648699610758413 ], [ -7.237780904063192, 41.648271555906099 ], [ -7.237040688095683, 41.648271555906099 ], [ -7.237040688095683, 41.647415437669054 ], [ -7.236300472128176, 41.647415437669054 ], [ -7.236300472128176, 41.646131238982505 ], [ -7.235560256160666, 41.646131238982505 ], [ -7.235560256160666, 41.64527509230421 ], [ -7.234820040193158, 41.64527509230421 ], [ -7.234820040193158, 41.643990850955952 ], [ -7.234079824225649, 41.643990850955952 ], [ -7.234079824225649, 41.642706584010881 ], [ -7.233339608258142, 41.642706584010881 ], [ -7.233339608258142, 41.641850391827084 ], [ -7.232599392290632, 41.641850391827084 ], [ -7.232599392290632, 41.641422291469091 ], [ -7.233339608258142, 41.641422291469091 ], [ -7.233339608258142, 41.639709861596501 ], [ -7.234079824225649, 41.639709861596501 ], [ -7.234079824225649, 41.637997386219226 ], [ -7.234820040193158, 41.637997386219226 ], [ -7.234820040193158, 41.636712999824013 ], [ -7.235560256160666, 41.636712999824013 ], [ -7.235560256160666, 41.63542858783272 ], [ -7.236300472128176, 41.63542858783272 ], [ -7.236300472128176, 41.635000444814295 ], [ -7.237780904063192, 41.635000444814295 ], [ -7.237780904063192, 41.634572298951888 ], [ -7.2385211200307, 41.634572298951888 ], [ -7.2385211200307, 41.634144150245497 ], [ -7.240001551965716, 41.634144150245497 ], [ -7.240001551965716, 41.633715998695116 ], [ -7.241481983900733, 41.633715998695116 ], [ -7.241481983900733, 41.633287844300781 ], [ -7.242222199868242, 41.633287844300781 ], [ -7.242222199868242, 41.631147029669641 ], [ -7.242962415835749, 41.631147029669641 ], [ -7.242962415835749, 41.625580578888915 ], [ -7.243702631803258, 41.625580578888915 ], [ -7.243702631803258, 41.624724159187288 ], [ -7.244442847770767, 41.624724159187288 ], [ -7.244442847770767, 41.624295945070664 ], [ -7.245183063738274, 41.624295945070664 ], [ -7.245183063738274, 41.621726600650035 ], [ -7.244442847770767, 41.621726600650035 ], [ -7.244442847770767, 41.617015869981323 ], [ -7.245183063738274, 41.617015869981323 ], [ -7.245183063738274, 41.614446235492629 ], [ -7.245923279705783, 41.614446235492629 ], [ -7.245923279705783, 41.613589667913033 ], [ -7.246663495673292, 41.613589667913033 ], [ -7.246663495673292, 41.613161379857637 ], [ -7.2474037116408, 41.613161379857637 ], [ -7.2474037116408, 41.612733088958493 ], [ -7.248143927608307, 41.612733088958493 ], [ -7.248143927608307, 41.612304795215636 ], [ -7.248884143575816, 41.612304795215636 ], [ -7.248884143575816, 41.611876498629051 ], [ -7.249624359543326, 41.611876498629051 ], [ -7.249624359543326, 41.611019896924738 ], [ -7.258506951153424, 41.611019896924738 ], [ -7.258506951153424, 41.611448199198755 ], [ -7.265909110828508, 41.611448199198755 ], [ -7.265909110828508, 41.611876498629051 ], [ -7.271090622601067, 41.611876498629051 ], [ -7.271090622601067, 41.612304795215636 ], [ -7.271830838568575, 41.612304795215636 ], [ -7.271830838568575, 41.612733088958493 ], [ -7.272571054536084, 41.612733088958493 ], [ -7.272571054536084, 41.613161379857637 ], [ -7.273311270503592, 41.613161379857637 ], [ -7.273311270503592, 41.613589667913033 ], [ -7.274051486471099, 41.613589667913033 ], [ -7.274051486471099, 41.614017953124694 ], [ -7.274791702438608, 41.614017953124694 ], [ -7.274791702438608, 41.614446235492629 ], [ -7.277012350341132, 41.614446235492629 ], [ -7.277012350341132, 41.614017953124694 ], [ -7.279232998243658, 41.614017953124694 ], [ -7.279232998243658, 41.613589667913033 ], [ -7.280713430178675, 41.613589667913033 ], [ -7.280713430178675, 41.613161379857637 ], [ -7.283674294048708, 41.613161379857637 ], [ -7.283674294048708, 41.613589667913033 ], [ -7.284414510016216, 41.613589667913033 ], [ -7.284414510016216, 41.614446235492629 ], [ -7.285154725983725, 41.614446235492629 ], [ -7.285154725983725, 41.615302791697232 ], [ -7.285894941951232, 41.615302791697232 ], [ -7.285894941951232, 41.616159336526813 ], [ -7.286635157918742, 41.616159336526813 ], [ -7.286635157918742, 41.616587604675956 ], [ -7.287375373886249, 41.616587604675956 ], [ -7.287375373886249, 41.61744413244292 ], [ -7.288115589853758, 41.61744413244292 ], [ -7.288115589853758, 41.618300648834762 ], [ -7.288855805821266, 41.618300648834762 ], [ -7.288855805821266, 41.618728902764992 ], [ -7.290336237756283, 41.618728902764992 ], [ -7.290336237756283, 41.619157153851425 ], [ -7.2918166696913, 41.619157153851425 ], [ -7.2918166696913, 41.61958540209406 ], [ -7.294037317593825, 41.61958540209406 ], [ -7.294037317593825, 41.620870129759105 ], [ -7.294777533561333, 41.620870129759105 ], [ -7.294777533561333, 41.623011285657654 ], [ -7.29551774952884, 41.623011285657654 ], [ -7.29551774952884, 41.625152370460036 ], [ -7.294777533561333, 41.625152370460036 ], [ -7.294777533561333, 41.629006143939918 ], [ -7.29551774952884, 41.629006143939918 ], [ -7.29551774952884, 41.629434326773719 ], [ -7.296257965496349, 41.629434326773719 ], [ -7.296257965496349, 41.629006143939918 ], [ -7.296998181463858, 41.629006143939918 ], [ -7.296998181463858, 41.628577958262206 ], [ -7.297738397431368, 41.628577958262206 ], [ -7.297738397431368, 41.628149769740574 ], [ -7.298478613398874, 41.628149769740574 ], [ -7.298478613398874, 41.627721578375045 ], [ -7.299959045333891, 41.627721578375045 ], [ -7.299959045333891, 41.627293384165597 ], [ -7.3006992613014, 41.627293384165597 ], [ -7.3006992613014, 41.626865187112266 ], [ -7.301439477268909, 41.626865187112266 ], [ -7.301439477268909, 41.62643698721503 ], [ -7.302179693236416, 41.62643698721503 ], [ -7.302179693236416, 41.62600878447391 ], [ -7.302919909203924, 41.62600878447391 ], [ -7.302919909203924, 41.625580578888915 ], [ -7.303660125171433, 41.625580578888915 ], [ -7.303660125171433, 41.625152370460036 ], [ -7.30514055710645, 41.625152370460036 ], [ -7.30514055710645, 41.624724159187288 ], [ -7.305880773073959, 41.624724159187288 ], [ -7.305880773073959, 41.624295945070664 ], [ -7.307361205008974, 41.624295945070664 ], [ -7.307361205008974, 41.624724159187288 ], [ -7.308101420976484, 41.624724159187288 ], [ -7.308101420976484, 41.625152370460036 ], [ -7.3095818529115, 41.625152370460036 ], [ -7.3095818529115, 41.625580578888915 ], [ -7.311062284846517, 41.625580578888915 ], [ -7.311062284846517, 41.62600878447391 ], [ -7.311802500814026, 41.62600878447391 ], [ -7.311802500814026, 41.62643698721503 ], [ -7.313282932749041, 41.62643698721503 ], [ -7.313282932749041, 41.626865187112266 ], [ -7.31402314871655, 41.626865187112266 ], [ -7.31402314871655, 41.627293384165597 ], [ -7.314763364684058, 41.627293384165597 ], [ -7.314763364684058, 41.628149769740574 ], [ -7.315503580651567, 41.628149769740574 ], [ -7.315503580651567, 41.629006143939918 ], [ -7.316243796619077, 41.629006143939918 ], [ -7.316243796619077, 41.629862506763594 ], [ -7.316984012586582, 41.629862506763594 ], [ -7.316984012586582, 41.629434326773719 ], [ -7.317724228554091, 41.629434326773719 ], [ -7.317724228554091, 41.629006143939918 ], [ -7.319204660489108, 41.629006143939918 ], [ -7.319204660489108, 41.628577958262206 ], [ -7.319944876456617, 41.628577958262206 ], [ -7.319944876456617, 41.628149769740574 ], [ -7.335489411774292, 41.628149769740574 ], [ -7.335489411774292, 41.628577958262206 ], [ -7.336229627741799, 41.628577958262206 ], [ -7.336229627741799, 41.629006143939918 ], [ -7.336969843709308, 41.629006143939918 ], [ -7.336969843709308, 41.629434326773719 ], [ -7.337710059676816, 41.629434326773719 ], [ -7.337710059676816, 41.629862506763594 ], [ -7.338450275644325, 41.629862506763594 ], [ -7.338450275644325, 41.630290683909543 ], [ -7.339190491611832, 41.630290683909543 ], [ -7.339190491611832, 41.629862506763594 ], [ -7.339930707579341, 41.629862506763594 ], [ -7.339930707579341, 41.629434326773719 ], [ -7.34067092354685, 41.629434326773719 ], [ -7.34067092354685, 41.629006143939918 ], [ -7.345852435319407, 41.629006143939918 ], [ -7.345852435319407, 41.630290683909543 ], [ -7.346592651286916, 41.630290683909543 ], [ -7.346592651286916, 41.631147029669641 ], [ -7.347332867254425, 41.631147029669641 ], [ -7.347332867254425, 41.632003364053958 ], [ -7.348073083221933, 41.632003364053958 ], [ -7.348073083221933, 41.633287844300781 ], [ -7.34955351515695, 41.633287844300781 ], [ -7.34955351515695, 41.633715998695116 ], [ -7.350293731124458, 41.633715998695116 ], [ -7.350293731124458, 41.634144150245497 ], [ -7.351033947091967, 41.634144150245497 ], [ -7.351033947091967, 41.634572298951888 ], [ -7.351774163059476, 41.634572298951888 ], [ -7.351774163059476, 41.635000444814295 ], [ -7.353254594994493, 41.635000444814295 ], [ -7.353254594994493, 41.63542858783272 ], [ -7.353994810962, 41.63542858783272 ], [ -7.353994810962, 41.637141131466429 ], [ -7.354735026929507, 41.637141131466429 ], [ -7.354735026929507, 41.640994188267015 ], [ -7.355475242897016, 41.640994188267015 ], [ -7.355475242897016, 41.644418934249479 ], [ -7.354735026929507, 41.644418934249479 ], [ -7.354735026929507, 41.64527509230421 ], [ -7.353994810962, 41.64527509230421 ], [ -7.353994810962, 41.64570316706542 ], [ -7.353254594994493, 41.64570316706542 ], [ -7.353254594994493, 41.646131238982505 ], [ -7.352514379026983, 41.646131238982505 ], [ -7.352514379026983, 41.646559308055487 ], [ -7.351774163059476, 41.646559308055487 ], [ -7.351774163059476, 41.646987374284336 ], [ -7.351033947091967, 41.646987374284336 ], [ -7.351033947091967, 41.647415437669054 ], [ -7.350293731124458, 41.647415437669054 ], [ -7.350293731124458, 41.651267880144985 ], [ -7.34955351515695, 41.651267880144985 ], [ -7.34955351515695, 41.652980002852523 ], [ -7.348073083221933, 41.652980002852523 ], [ -7.348073083221933, 41.65340802641893 ], [ -7.345852435319407, 41.65340802641893 ], [ -7.345852435319407, 41.653836047141134 ], [ -7.344372003384392, 41.653836047141134 ], [ -7.344372003384392, 41.65426406501912 ], [ -7.342151355481866, 41.65426406501912 ], [ -7.342151355481866, 41.654692080052904 ], [ -7.339930707579341, 41.654692080052904 ], [ -7.339930707579341, 41.65512009224247 ], [ -7.337710059676816, 41.65512009224247 ], [ -7.337710059676816, 41.655548101587804 ], [ -7.335489411774292, 41.655548101587804 ], [ -7.335489411774292, 41.655976108088915 ], [ -7.334749195806785, 41.655976108088915 ], [ -7.334749195806785, 41.656832112558433 ], [ -7.334008979839275, 41.656832112558433 ], [ -7.334008979839275, 41.657688105650976 ], [ -7.333268763871766, 41.657688105650976 ], [ -7.333268763871766, 41.658544087366508 ], [ -7.332528547904259, 41.658544087366508 ], [ -7.332528547904259, 41.659400057705 ], [ -7.33178833193675, 41.659400057705 ], [ -7.33178833193675, 41.660256016666388 ], [ -7.331048115969241, 41.660256016666388 ], [ -7.331048115969241, 41.661111964250644 ], [ -7.330307900001734, 41.661111964250644 ], [ -7.330307900001734, 41.661967900457732 ], [ -7.329567684034225, 41.661967900457732 ], [ -7.329567684034225, 41.66239586429483 ], [ -7.327347036131699, 41.66239586429483 ], [ -7.327347036131699, 41.661967900457732 ], [ -7.323645956294158, 41.661967900457732 ], [ -7.323645956294158, 41.661539933776339 ], [ -7.319204660489108, 41.661539933776339 ], [ -7.319204660489108, 41.661111964250644 ], [ -7.316984012586582, 41.661111964250644 ], [ -7.316984012586582, 41.661539933776339 ], [ -7.316243796619077, 41.661539933776339 ], [ -7.316243796619077, 41.66239586429483 ], [ -7.315503580651567, 41.66239586429483 ], [ -7.315503580651567, 41.663251783436081 ], [ -7.310322068879008, 41.663251783436081 ], [ -7.310322068879008, 41.66282382528761 ], [ -7.3095818529115, 41.66282382528761 ], [ -7.3095818529115, 41.661967900457732 ], [ -7.308841636943991, 41.661967900457732 ], [ -7.308841636943991, 41.660683991880653 ], [ -7.308101420976484, 41.660683991880653 ], [ -7.308101420976484, 41.65982803860782 ] ], [ [ -7.315503580651567, 41.644847014698897 ], [ -7.315503580651567, 41.64527509230421 ], [ -7.316984012586582, 41.64527509230421 ], [ -7.316984012586582, 41.643562764818363 ], [ -7.31402314871655, 41.643562764818363 ], [ -7.31402314871655, 41.643990850955952 ], [ -7.311802500814026, 41.643990850955952 ], [ -7.311802500814026, 41.644418934249479 ], [ -7.31402314871655, 41.644418934249479 ], [ -7.31402314871655, 41.644847014698897 ], [ -7.315503580651567, 41.644847014698897 ] ], [ [ -7.316984012586582, 41.64570316706542 ], [ -7.317724228554091, 41.64570316706542 ], [ -7.317724228554091, 41.64527509230421 ], [ -7.316984012586582, 41.64527509230421 ], [ -7.316984012586582, 41.64570316706542 ] ], [ [ -7.285894941951232, 41.641850391827084 ], [ -7.286635157918742, 41.641850391827084 ], [ -7.286635157918742, 41.642278489341024 ], [ -7.288855805821266, 41.642278489341024 ], [ -7.288855805821266, 41.6405660822209 ], [ -7.288115589853758, 41.6405660822209 ], [ -7.288115589853758, 41.640994188267015 ], [ -7.285894941951232, 41.640994188267015 ], [ -7.285894941951232, 41.641850391827084 ] ], [ [ -7.259987383088441, 41.649555711930574 ], [ -7.259247167120933, 41.649555711930574 ], [ -7.259247167120933, 41.649983758250436 ], [ -7.259987383088441, 41.649983758250436 ], [ -7.259987383088441, 41.649555711930574 ] ], [ [ -7.265168894861, 41.65340802641893 ], [ -7.265909110828508, 41.65340802641893 ], [ -7.265909110828508, 41.652551976441927 ], [ -7.266649326796015, 41.652551976441927 ], [ -7.266649326796015, 41.651695915088148 ], [ -7.265168894861, 41.651695915088148 ], [ -7.265168894861, 41.651267880144985 ], [ -7.262208030990966, 41.651267880144985 ], [ -7.262208030990966, 41.652980002852523 ], [ -7.262948246958475, 41.652980002852523 ], [ -7.262948246958475, 41.656404111745786 ], [ -7.263688462925984, 41.656404111745786 ], [ -7.263688462925984, 41.65512009224247 ], [ -7.264428678893493, 41.65512009224247 ], [ -7.264428678893493, 41.65426406501912 ], [ -7.265168894861, 41.65426406501912 ], [ -7.265168894861, 41.65340802641893 ] ], [ [ -7.262948246958475, 41.656832112558433 ], [ -7.262208030990966, 41.656832112558433 ], [ -7.262208030990966, 41.657260110526828 ], [ -7.262948246958475, 41.657260110526828 ], [ -7.262948246958475, 41.656832112558433 ] ] ], [ [ [ -0.935582156697232, 35.573758764450957 ], [ -0.934841940729723, 35.573758764450957 ], [ -0.934841940729723, 35.57282688256965 ], [ -0.934101724762215, 35.57282688256965 ], [ -0.934101724762215, 35.572360937563893 ], [ -0.933361508794706, 35.572360937563893 ], [ -0.933361508794706, 35.571894989848083 ], [ -0.932621292827198, 35.571894989848083 ], [ -0.932621292827198, 35.570963086286405 ], [ -0.93188107685969, 35.570963086286405 ], [ -0.93188107685969, 35.570497130440543 ], [ -0.931140860892182, 35.570497130440543 ], [ -0.931140860892182, 35.5700311718847 ], [ -0.930400644924673, 35.5700311718847 ], [ -0.930400644924673, 35.56909924664312 ], [ -0.929660428957165, 35.56909924664312 ], [ -0.929660428957165, 35.563507467562687 ], [ -0.928920212989657, 35.563507467562687 ], [ -0.928920212989657, 35.56257546644526 ], [ -0.929660428957165, 35.56257546644526 ], [ -0.929660428957165, 35.56164345448888 ], [ -0.930400644924673, 35.56164345448888 ], [ -0.930400644924673, 35.561177444446159 ], [ -0.931140860892182, 35.561177444446159 ], [ -0.931140860892182, 35.560245416231631 ], [ -0.93188107685969, 35.560245416231631 ], [ -0.93188107685969, 35.559779398059881 ], [ -0.932621292827198, 35.559779398059881 ], [ -0.932621292827198, 35.559313377178498 ], [ -0.933361508794706, 35.559313377178498 ], [ -0.933361508794706, 35.558847353587474 ], [ -0.934841940729723, 35.558847353587474 ], [ -0.934841940729723, 35.558381327286853 ], [ -0.935582156697232, 35.558381327286853 ], [ -0.935582156697232, 35.557915298276626 ], [ -0.937062588632248, 35.557915298276626 ], [ -0.937062588632248, 35.557449266556823 ], [ -0.938543020567265, 35.557449266556823 ], [ -0.938543020567265, 35.557915298276626 ], [ -0.94076366846979, 35.557915298276626 ], [ -0.94076366846979, 35.558381327286853 ], [ -0.942244100404807, 35.558381327286853 ], [ -0.942244100404807, 35.558847353587474 ], [ -0.943724532339823, 35.558847353587474 ], [ -0.943724532339823, 35.559313377178498 ], [ -0.94520496427484, 35.559313377178498 ], [ -0.94520496427484, 35.559779398059881 ], [ -0.946685396209857, 35.559779398059881 ], [ -0.946685396209857, 35.56164345448888 ], [ -0.947425612177365, 35.56164345448888 ], [ -0.947425612177365, 35.56304146835884 ], [ -0.948165828144873, 35.56304146835884 ], [ -0.948165828144873, 35.564439457841075 ], [ -0.947425612177365, 35.564439457841075 ], [ -0.947425612177365, 35.568633279957403 ], [ -0.946685396209857, 35.568633279957403 ], [ -0.946685396209857, 35.5700311718847 ], [ -0.945945180242348, 35.5700311718847 ], [ -0.945945180242348, 35.571429039422256 ], [ -0.94520496427484, 35.571429039422256 ], [ -0.94520496427484, 35.572360937563893 ], [ -0.944464748307332, 35.572360937563893 ], [ -0.944464748307332, 35.573292824865341 ], [ -0.943724532339823, 35.573292824865341 ], [ -0.943724532339823, 35.574224701326465 ], [ -0.94076366846979, 35.574224701326465 ], [ -0.94076366846979, 35.574690635491883 ], [ -0.937802804599756, 35.574690635491883 ], [ -0.937802804599756, 35.575156566947186 ], [ -0.937062588632248, 35.575156566947186 ], [ -0.937062588632248, 35.574690635491883 ], [ -0.93632237266474, 35.574690635491883 ], [ -0.93632237266474, 35.574224701326465 ], [ -0.935582156697232, 35.574224701326465 ], [ -0.935582156697232, 35.573758764450957 ] ] ], [ [ [ 0.544849778319437, 35.789197437856686 ], [ 0.546330210254454, 35.789197437856686 ], [ 0.546330210254454, 35.787803380056921 ], [ 0.547070426221962, 35.787803380056921 ], [ 0.547070426221962, 35.786409297804781 ], [ 0.54781064218947, 35.786409297804781 ], [ 0.54781064218947, 35.785015191100669 ], [ 0.548550858156979, 35.785015191100669 ], [ 0.548550858156979, 35.784085773047011 ], [ 0.54781064218947, 35.784085773047011 ], [ 0.54781064218947, 35.782226904338074 ], [ 0.547070426221962, 35.782226904338074 ], [ 0.547070426221962, 35.780367992161054 ], [ 0.546330210254454, 35.780367992161054 ], [ 0.546330210254454, 35.77897377950292 ], [ 0.545589994286945, 35.77897377950292 ], [ 0.545589994286945, 35.778509036516901 ], [ 0.544849778319437, 35.778509036516901 ], [ 0.544849778319437, 35.778044290814222 ], [ 0.544109562351929, 35.778044290814222 ], [ 0.544109562351929, 35.777579542394932 ], [ 0.542629130416912, 35.777579542394932 ], [ 0.542629130416912, 35.777114791259052 ], [ 0.541888914449404, 35.777114791259052 ], [ 0.541888914449404, 35.776650037406554 ], [ 0.541148698481895, 35.776650037406554 ], [ 0.541148698481895, 35.776185280837481 ], [ 0.539668266546879, 35.776185280837481 ], [ 0.539668266546879, 35.776650037406554 ], [ 0.53892805057937, 35.776650037406554 ], [ 0.53892805057937, 35.777114791259052 ], [ 0.538187834611862, 35.777114791259052 ], [ 0.538187834611862, 35.777579542394932 ], [ 0.537447618644354, 35.777579542394932 ], [ 0.537447618644354, 35.778044290814222 ], [ 0.536707402676845, 35.778044290814222 ], [ 0.536707402676845, 35.778509036516901 ], [ 0.535967186709337, 35.778509036516901 ], [ 0.535967186709337, 35.77897377950292 ], [ 0.535226970741829, 35.77897377950292 ], [ 0.535226970741829, 35.779438519772313 ], [ 0.53448675477432, 35.779438519772313 ], [ 0.53448675477432, 35.78083272428038 ], [ 0.533746538806812, 35.78083272428038 ], [ 0.533746538806812, 35.783156344126112 ], [ 0.533006322839304, 35.783156344126112 ], [ 0.533006322839304, 35.785944598286946 ], [ 0.533746538806812, 35.785944598286946 ], [ 0.533746538806812, 35.787803380056921 ], [ 0.53448675477432, 35.787803380056921 ], [ 0.53448675477432, 35.788732754640378 ], [ 0.535226970741829, 35.788732754640378 ], [ 0.535226970741829, 35.789197437856686 ], [ 0.536707402676845, 35.789197437856686 ], [ 0.536707402676845, 35.789662118356006 ], [ 0.538187834611862, 35.789662118356006 ], [ 0.538187834611862, 35.790126796138338 ], [ 0.539668266546879, 35.790126796138338 ], [ 0.539668266546879, 35.790591471203676 ], [ 0.542629130416912, 35.790591471203676 ], [ 0.542629130416912, 35.790126796138338 ], [ 0.544109562351929, 35.790126796138338 ], [ 0.544109562351929, 35.789662118356006 ], [ 0.544849778319437, 35.789662118356006 ], [ 0.544849778319437, 35.789197437856686 ] ] ], [ [ [ -0.276789945614814, 35.824505411354338 ], [ -0.276049729647306, 35.824505411354338 ], [ -0.276049729647306, 35.824040934669902 ], [ -0.274569297712289, 35.824040934669902 ], [ -0.274569297712289, 35.8235764552674 ], [ -0.272348649809764, 35.8235764552674 ], [ -0.272348649809764, 35.82311197314683 ], [ -0.270128001907239, 35.82311197314683 ], [ -0.270128001907239, 35.822647488308213 ], [ -0.267167138037206, 35.822647488308213 ], [ -0.267167138037206, 35.822183000751579 ], [ -0.264946490134681, 35.822183000751579 ], [ -0.264946490134681, 35.821718510476927 ], [ -0.262725842232156, 35.821718510476927 ], [ -0.262725842232156, 35.821254017484272 ], [ -0.260505194329631, 35.821254017484272 ], [ -0.260505194329631, 35.820789521773627 ], [ -0.259764978362122, 35.820789521773627 ], [ -0.259764978362122, 35.819860522198454 ], [ -0.259024762394614, 35.819860522198454 ], [ -0.259024762394614, 35.818931511751508 ], [ -0.258284546427106, 35.818931511751508 ], [ -0.258284546427106, 35.818467002451158 ], [ -0.257544330459597, 35.818467002451158 ], [ -0.257544330459597, 35.81753797569678 ], [ -0.255323682557072, 35.81753797569678 ], [ -0.255323682557072, 35.817073458242774 ], [ -0.252362818687039, 35.817073458242774 ], [ -0.252362818687039, 35.816608938070921 ], [ -0.251622602719531, 35.816608938070921 ], [ -0.251622602719531, 35.815679889573708 ], [ -0.250882386752022, 35.815679889573708 ], [ -0.250882386752022, 35.815215361248384 ], [ -0.250142170784514, 35.815215361248384 ], [ -0.250142170784514, 35.814286296444358 ], [ -0.249401954817006, 35.814286296444358 ], [ -0.249401954817006, 35.813821759965677 ], [ -0.248661738849497, 35.813821759965677 ], [ -0.248661738849497, 35.812892678855093 ], [ -0.247921522881989, 35.812892678855093 ], [ -0.247921522881989, 35.812428134223211 ], [ -0.247181306914481, 35.812428134223211 ], [ -0.247181306914481, 35.811963586873631 ], [ -0.246441090946972, 35.811963586873631 ], [ -0.246441090946972, 35.811034484021377 ], [ -0.244960659011956, 35.811034484021377 ], [ -0.244960659011956, 35.810569928518746 ], [ -0.243480227076939, 35.810569928518746 ], [ -0.243480227076939, 35.810105370298473 ], [ -0.241999795141922, 35.810105370298473 ], [ -0.241999795141922, 35.812892678855093 ], [ -0.241259579174414, 35.812892678855093 ], [ -0.241259579174414, 35.813821759965677 ], [ -0.240519363206906, 35.813821759965677 ], [ -0.240519363206906, 35.814750830205249 ], [ -0.239779147239397, 35.814750830205249 ], [ -0.239779147239397, 35.815215361248384 ], [ -0.239038931271889, 35.815215361248384 ], [ -0.239038931271889, 35.815679889573708 ], [ -0.235337851434347, 35.815679889573708 ], [ -0.235337851434347, 35.815215361248384 ], [ -0.231636771596806, 35.815215361248384 ], [ -0.231636771596806, 35.814750830205249 ], [ -0.230896555629297, 35.814750830205249 ], [ -0.230896555629297, 35.813357220769255 ], [ -0.230156339661789, 35.813357220769255 ], [ -0.230156339661789, 35.812428134223211 ], [ -0.229416123694281, 35.812428134223211 ], [ -0.229416123694281, 35.811034484021377 ], [ -0.228675907726772, 35.811034484021377 ], [ -0.228675907726772, 35.810105370298473 ], [ -0.227935691759264, 35.810105370298473 ], [ -0.227935691759264, 35.809176245705025 ], [ -0.227195475791756, 35.809176245705025 ], [ -0.227195475791756, 35.80731796390701 ], [ -0.227935691759264, 35.80731796390701 ], [ -0.227935691759264, 35.805924224024189 ], [ -0.228675907726772, 35.805924224024189 ], [ -0.228675907726772, 35.804530459683846 ], [ -0.229416123694281, 35.804530459683846 ], [ -0.229416123694281, 35.803601269869652 ], [ -0.230156339661789, 35.803601269869652 ], [ -0.230156339661789, 35.803136670886389 ], [ -0.230896555629297, 35.803136670886389 ], [ -0.230896555629297, 35.802672069185711 ], [ -0.231636771596806, 35.802672069185711 ], [ -0.231636771596806, 35.80220746476764 ], [ -0.232376987564314, 35.80220746476764 ], [ -0.232376987564314, 35.801742857632192 ], [ -0.237558499336872, 35.801742857632192 ], [ -0.237558499336872, 35.80220746476764 ], [ -0.238298715304381, 35.80220746476764 ], [ -0.238298715304381, 35.802672069185711 ], [ -0.239038931271889, 35.802672069185711 ], [ -0.239038931271889, 35.803601269869652 ], [ -0.239779147239397, 35.803601269869652 ], [ -0.239779147239397, 35.802672069185711 ], [ -0.240519363206906, 35.802672069185711 ], [ -0.240519363206906, 35.801742857632192 ], [ -0.241259579174414, 35.801742857632192 ], [ -0.241259579174414, 35.800349019921647 ], [ -0.241999795141922, 35.800349019921647 ], [ -0.241999795141922, 35.799419781194644 ], [ -0.247921522881989, 35.799419781194644 ], [ -0.247921522881989, 35.800349019921647 ], [ -0.248661738849497, 35.800349019921647 ], [ -0.248661738849497, 35.800813635209181 ], [ -0.249401954817006, 35.800813635209181 ], [ -0.249401954817006, 35.801278247779365 ], [ -0.250882386752022, 35.801278247779365 ], [ -0.250882386752022, 35.800813635209181 ], [ -0.251622602719531, 35.800813635209181 ], [ -0.251622602719531, 35.800349019921647 ], [ -0.252362818687039, 35.800349019921647 ], [ -0.252362818687039, 35.799884401916799 ], [ -0.253103034654547, 35.799884401916799 ], [ -0.253103034654547, 35.799419781194644 ], [ -0.253843250622056, 35.799419781194644 ], [ -0.253843250622056, 35.798955157755167 ], [ -0.254583466589564, 35.798955157755167 ], [ -0.254583466589564, 35.798490531598425 ], [ -0.255323682557072, 35.798490531598425 ], [ -0.255323682557072, 35.798025902724412 ], [ -0.261245410297139, 35.798025902724412 ], [ -0.261245410297139, 35.798490531598425 ], [ -0.266426922069697, 35.798490531598425 ], [ -0.266426922069697, 35.799419781194644 ], [ -0.267167138037206, 35.799419781194644 ], [ -0.267167138037206, 35.799884401916799 ], [ -0.267907354004714, 35.799884401916799 ], [ -0.267907354004714, 35.800349019921647 ], [ -0.268647569972222, 35.800349019921647 ], [ -0.268647569972222, 35.801278247779365 ], [ -0.269387785939731, 35.801278247779365 ], [ -0.269387785939731, 35.801742857632192 ], [ -0.270128001907239, 35.801742857632192 ], [ -0.270128001907239, 35.80220746476764 ], [ -0.270868217874747, 35.80220746476764 ], [ -0.270868217874747, 35.803136670886389 ], [ -0.271608433842256, 35.803136670886389 ], [ -0.271608433842256, 35.803601269869652 ], [ -0.272348649809764, 35.803601269869652 ], [ -0.272348649809764, 35.804530459683846 ], [ -0.273088865777272, 35.804530459683846 ], [ -0.273088865777272, 35.804995050514783 ], [ -0.273829081744781, 35.804995050514783 ], [ -0.273829081744781, 35.804065866135467 ], [ -0.274569297712289, 35.804065866135467 ], [ -0.274569297712289, 35.803136670886389 ], [ -0.275309513679797, 35.803136670886389 ], [ -0.275309513679797, 35.80220746476764 ], [ -0.276049729647306, 35.80220746476764 ], [ -0.276049729647306, 35.801742857632192 ], [ -0.276789945614814, 35.801742857632192 ], [ -0.276789945614814, 35.801278247779365 ], [ -0.278270377549831, 35.801278247779365 ], [ -0.278270377549831, 35.800813635209181 ], [ -0.279010593517339, 35.800813635209181 ], [ -0.279010593517339, 35.800349019921647 ], [ -0.280491025452356, 35.800349019921647 ], [ -0.280491025452356, 35.800813635209181 ], [ -0.281231241419864, 35.800813635209181 ], [ -0.281231241419864, 35.801278247779365 ], [ -0.281971457387372, 35.801278247779365 ], [ -0.281971457387372, 35.801742857632192 ], [ -0.282711673354881, 35.801742857632192 ], [ -0.282711673354881, 35.80220746476764 ], [ -0.283451889322389, 35.80220746476764 ], [ -0.283451889322389, 35.802672069185711 ], [ -0.284192105289897, 35.802672069185711 ], [ -0.284192105289897, 35.803601269869652 ], [ -0.284932321257406, 35.803601269869652 ], [ -0.284932321257406, 35.804995050514783 ], [ -0.285672537224914, 35.804995050514783 ], [ -0.285672537224914, 35.811499036806339 ], [ -0.286412753192422, 35.811499036806339 ], [ -0.286412753192422, 35.81753797569678 ], [ -0.287152969159931, 35.81753797569678 ], [ -0.287152969159931, 35.821254017484272 ], [ -0.286412753192422, 35.821254017484272 ], [ -0.286412753192422, 35.822183000751579 ], [ -0.285672537224914, 35.822183000751579 ], [ -0.285672537224914, 35.822647488308213 ], [ -0.284932321257406, 35.822647488308213 ], [ -0.284932321257406, 35.82311197314683 ], [ -0.284192105289897, 35.82311197314683 ], [ -0.284192105289897, 35.8235764552674 ], [ -0.283451889322389, 35.8235764552674 ], [ -0.283451889322389, 35.824040934669902 ], [ -0.282711673354881, 35.824040934669902 ], [ -0.282711673354881, 35.824505411354338 ], [ -0.281971457387372, 35.824505411354338 ], [ -0.281971457387372, 35.824969885320684 ], [ -0.281231241419864, 35.824969885320684 ], [ -0.281231241419864, 35.82543435656892 ], [ -0.280491025452356, 35.82543435656892 ], [ -0.280491025452356, 35.825898825099053 ], [ -0.278270377549831, 35.825898825099053 ], [ -0.278270377549831, 35.82543435656892 ], [ -0.277530161582322, 35.82543435656892 ], [ -0.277530161582322, 35.824969885320684 ], [ -0.276789945614814, 35.824969885320684 ], [ -0.276789945614814, 35.824505411354338 ] ] ], [ [ [ 0.131069052482278, 36.025368224819253 ], [ 0.131069052482278, 36.024904926423396 ], [ 0.131809268449787, 36.024904926423396 ], [ 0.131809268449787, 36.024441625303204 ], [ 0.133289700384803, 36.024441625303204 ], [ 0.133289700384803, 36.023515014889895 ], [ 0.134029916352311, 36.023515014889895 ], [ 0.134029916352311, 36.02119844118188 ], [ 0.13477013231982, 36.02119844118188 ], [ 0.13477013231982, 36.01934513317952 ], [ 0.135510348287328, 36.01934513317952 ], [ 0.135510348287328, 36.017491781590657 ], [ 0.136250564254836, 36.017491781590657 ], [ 0.136250564254836, 36.013321581157236 ], [ 0.135510348287328, 36.013321581157236 ], [ 0.135510348287328, 36.011468087918502 ], [ 0.13477013231982, 36.011468087918502 ], [ 0.13477013231982, 36.011004707799003 ], [ 0.133289700384803, 36.011004707799003 ], [ 0.133289700384803, 36.010541324955597 ], [ 0.132549484417295, 36.010541324955597 ], [ 0.132549484417295, 36.010077939388303 ], [ 0.128108188612245, 36.010077939388303 ], [ 0.128108188612245, 36.010541324955597 ], [ 0.12588754070972, 36.010541324955597 ], [ 0.12588754070972, 36.011004707799003 ], [ 0.123666892807195, 36.011004707799003 ], [ 0.123666892807195, 36.011468087918502 ], [ 0.12144624490467, 36.011468087918502 ], [ 0.12144624490467, 36.01239483998576 ], [ 0.120706028937161, 36.01239483998576 ], [ 0.120706028937161, 36.014711672484637 ], [ 0.119965812969653, 36.014711672484637 ], [ 0.119965812969653, 36.016565089451568 ], [ 0.119225597002145, 36.016565089451568 ], [ 0.119225597002145, 36.01934513317952 ], [ 0.119965812969653, 36.01934513317952 ], [ 0.119965812969653, 36.022125078837831 ], [ 0.120706028937161, 36.022125078837831 ], [ 0.120706028937161, 36.024441625303204 ], [ 0.12144624490467, 36.024441625303204 ], [ 0.12144624490467, 36.025368224819253 ], [ 0.122186460872178, 36.025368224819253 ], [ 0.122186460872178, 36.025831520490769 ], [ 0.122926676839686, 36.025831520490769 ], [ 0.122926676839686, 36.026294813437936 ], [ 0.124407108774703, 36.026294813437936 ], [ 0.124407108774703, 36.026758103660718 ], [ 0.127367972644737, 36.026758103660718 ], [ 0.127367972644737, 36.026294813437936 ], [ 0.128108188612245, 36.026294813437936 ], [ 0.128108188612245, 36.025831520490769 ], [ 0.129588620547261, 36.025831520490769 ], [ 0.129588620547261, 36.025368224819253 ], [ 0.131069052482278, 36.025368224819253 ] ] ], [ [ [ 1.245834299549829, 36.135093078437173 ], [ 1.245834299549829, 36.134167771051025 ], [ 1.246574515517338, 36.134167771051025 ], [ 1.246574515517338, 36.133242452754182 ], [ 1.247314731484846, 36.133242452754182 ], [ 1.247314731484846, 36.131854454851599 ], [ 1.248054947452355, 36.131854454851599 ], [ 1.248054947452355, 36.130929109278505 ], [ 1.248795163419863, 36.130929109278505 ], [ 1.248795163419863, 36.130003752795091 ], [ 1.249535379387371, 36.130003752795091 ], [ 1.249535379387371, 36.123988669722088 ], [ 1.248795163419863, 36.123988669722088 ], [ 1.248795163419863, 36.123063231414996 ], [ 1.248054947452355, 36.123063231414996 ], [ 1.248054947452355, 36.122137782198543 ], [ 1.247314731484846, 36.122137782198543 ], [ 1.247314731484846, 36.121212322072857 ], [ 1.246574515517338, 36.121212322072857 ], [ 1.246574515517338, 36.120286851038067 ], [ 1.245834299549829, 36.120286851038067 ], [ 1.245834299549829, 36.119361369094264 ], [ 1.245094083582321, 36.119361369094264 ], [ 1.245094083582321, 36.118898624031523 ], [ 1.239912571809763, 36.118898624031523 ], [ 1.239912571809763, 36.119361369094264 ], [ 1.239172355842254, 36.119361369094264 ], [ 1.239172355842254, 36.119824111429786 ], [ 1.238432139874746, 36.119824111429786 ], [ 1.238432139874746, 36.120286851038067 ], [ 1.237691923907238, 36.120286851038067 ], [ 1.237691923907238, 36.120749587919107 ], [ 1.236951707939729, 36.120749587919107 ], [ 1.236951707939729, 36.117510372480098 ], [ 1.236211491972221, 36.117510372480098 ], [ 1.236211491972221, 36.117047616508593 ], [ 1.235471276004713, 36.117047616508593 ], [ 1.235471276004713, 36.11658485780994 ], [ 1.234731060037205, 36.11658485780994 ], [ 1.234731060037205, 36.116122096384153 ], [ 1.233990844069696, 36.116122096384153 ], [ 1.233990844069696, 36.115196565351212 ], [ 1.233250628102188, 36.115196565351212 ], [ 1.233250628102188, 36.114733795744087 ], [ 1.231029980199663, 36.114733795744087 ], [ 1.231029980199663, 36.115196565351212 ], [ 1.229549548264646, 36.115196565351212 ], [ 1.229549548264646, 36.115659332231232 ], [ 1.228809332297138, 36.115659332231232 ], [ 1.228809332297138, 36.116122096384153 ], [ 1.22806911632963, 36.116122096384153 ], [ 1.22806911632963, 36.11658485780994 ], [ 1.227328900362121, 36.11658485780994 ], [ 1.227328900362121, 36.120286851038067 ], [ 1.226588684394613, 36.120286851038067 ], [ 1.226588684394613, 36.122600508170429 ], [ 1.227328900362121, 36.122600508170429 ], [ 1.227328900362121, 36.123063231414996 ], [ 1.22806911632963, 36.123063231414996 ], [ 1.22806911632963, 36.123988669722088 ], [ 1.228809332297138, 36.123988669722088 ], [ 1.228809332297138, 36.124451384784592 ], [ 1.229549548264646, 36.124451384784592 ], [ 1.229549548264646, 36.124914097119721 ], [ 1.232510412134679, 36.124914097119721 ], [ 1.232510412134679, 36.124451384784592 ], [ 1.233250628102188, 36.124451384784592 ], [ 1.233250628102188, 36.125376806727459 ], [ 1.232510412134679, 36.125376806727459 ], [ 1.232510412134679, 36.126302217760696 ], [ 1.231770196167171, 36.126302217760696 ], [ 1.231770196167171, 36.131854454851599 ], [ 1.232510412134679, 36.131854454851599 ], [ 1.232510412134679, 36.132779789514281 ], [ 1.233250628102188, 36.132779789514281 ], [ 1.233250628102188, 36.13370511326643 ], [ 1.233990844069696, 36.13370511326643 ], [ 1.233990844069696, 36.13463042610794 ], [ 1.234731060037205, 36.13463042610794 ], [ 1.234731060037205, 36.135555728038689 ], [ 1.235471276004713, 36.135555728038689 ], [ 1.235471276004713, 36.136481019058579 ], [ 1.236211491972221, 36.136481019058579 ], [ 1.236211491972221, 36.13740629916748 ], [ 1.237691923907238, 36.13740629916748 ], [ 1.237691923907238, 36.137868935130264 ], [ 1.242133219712288, 36.137868935130264 ], [ 1.242133219712288, 36.138331568365288 ], [ 1.243613651647304, 36.138331568365288 ], [ 1.243613651647304, 36.13740629916748 ], [ 1.244353867614813, 36.13740629916748 ], [ 1.244353867614813, 36.136481019058579 ], [ 1.245094083582321, 36.136481019058579 ], [ 1.245094083582321, 36.135093078437173 ], [ 1.245834299549829, 36.135093078437173 ] ] ], [ [ [ -6.349521743053189, 41.349655801919774 ], [ -6.349521743053189, 41.348795727137578 ], [ -6.348781527085682, 41.348795727137578 ], [ -6.348781527085682, 41.347935640993398 ], [ -6.346560879183157, 41.347935640993398 ], [ -6.346560879183157, 41.347505593660586 ], [ -6.344340231280632, 41.347505593660586 ], [ -6.344340231280632, 41.347075543487286 ], [ -6.343600015313123, 41.347075543487286 ], [ -6.343600015313123, 41.346645490473527 ], [ -6.342859799345614, 41.346645490473527 ], [ -6.342859799345614, 41.342344804111178 ], [ -6.342119583378107, 41.342344804111178 ], [ -6.342119583378107, 41.338043833707694 ], [ -6.341379367410598, 41.338043833707694 ], [ -6.341379367410598, 41.336323366016011 ], [ -6.342119583378107, 41.336323366016011 ], [ -6.342119583378107, 41.335463115128135 ], [ -6.342859799345614, 41.335463115128135 ], [ -6.342859799345614, 41.334602852878966 ], [ -6.343600015313123, 41.334602852878966 ], [ -6.343600015313123, 41.334172717493914 ], [ -6.344340231280632, 41.334172717493914 ], [ -6.344340231280632, 41.333742579268552 ], [ -6.34508044724814, 41.333742579268552 ], [ -6.34508044724814, 41.333312438202881 ], [ -6.346560879183157, 41.333312438202881 ], [ -6.346560879183157, 41.332882294296923 ], [ -6.347301095150666, 41.332882294296923 ], [ -6.347301095150666, 41.331591845537318 ], [ -6.345820663215648, 41.331591845537318 ], [ -6.345820663215648, 41.331161690270235 ], [ -6.34508044724814, 41.331161690270235 ], [ -6.34508044724814, 41.330731532162872 ], [ -6.344340231280632, 41.330731532162872 ], [ -6.344340231280632, 41.330301371215249 ], [ -6.343600015313123, 41.330301371215249 ], [ -6.343600015313123, 41.329441040799239 ], [ -6.342859799345614, 41.329441040799239 ], [ -6.342859799345614, 41.327290165054983 ], [ -6.342119583378107, 41.327290165054983 ], [ -6.342119583378107, 41.3255694133356 ], [ -6.341379367410598, 41.3255694133356 ], [ -6.341379367410598, 41.323418409781972 ], [ -6.34063915144309, 41.323418409781972 ], [ -6.34063915144309, 41.319976656407619 ], [ -6.341379367410598, 41.319976656407619 ], [ -6.341379367410598, 41.318255711557249 ], [ -6.34063915144309, 41.318255711557249 ], [ -6.34063915144309, 41.317825468244379 ], [ -6.339898935475582, 41.317825468244379 ], [ -6.339898935475582, 41.317395222091427 ], [ -6.338418503540565, 41.317395222091427 ], [ -6.338418503540565, 41.316964973098372 ], [ -6.337678287573057, 41.316964973098372 ], [ -6.337678287573057, 41.316534721265214 ], [ -6.336938071605549, 41.316534721265214 ], [ -6.336938071605549, 41.315243948725325 ], [ -6.336197855638041, 41.315243948725325 ], [ -6.336197855638041, 41.313522878911229 ], [ -6.335457639670532, 41.313522878911229 ], [ -6.335457639670532, 41.311801763656462 ], [ -6.336197855638041, 41.311801763656462 ], [ -6.336197855638041, 41.310080602961357 ], [ -6.336938071605549, 41.310080602961357 ], [ -6.336938071605549, 41.308789702620011 ], [ -6.338418503540565, 41.308789702620011 ], [ -6.338418503540565, 41.308359396826262 ], [ -6.34063915144309, 41.308359396826262 ], [ -6.34063915144309, 41.307929088192537 ], [ -6.342859799345614, 41.307929088192537 ], [ -6.342859799345614, 41.30749877671883 ], [ -6.343600015313123, 41.30749877671883 ], [ -6.343600015313123, 41.307929088192537 ], [ -6.344340231280632, 41.307929088192537 ], [ -6.344340231280632, 41.308789702620011 ], [ -6.34508044724814, 41.308789702620011 ], [ -6.34508044724814, 41.309650305687569 ], [ -6.345820663215648, 41.309650305687569 ], [ -6.345820663215648, 41.31051089739514 ], [ -6.346560879183157, 41.31051089739514 ], [ -6.346560879183157, 41.310080602961357 ], [ -6.348041311118173, 41.310080602961357 ], [ -6.348041311118173, 41.309650305687569 ], [ -6.349521743053189, 41.309650305687569 ], [ -6.349521743053189, 41.305777502424441 ], [ -6.348781527085682, 41.305777502424441 ], [ -6.348781527085682, 41.303625845657749 ], [ -6.349521743053189, 41.303625845657749 ], [ -6.349521743053189, 41.303195505784643 ], [ -6.350261959020698, 41.303195505784643 ], [ -6.350261959020698, 41.302765163071626 ], [ -6.351002174988206, 41.302765163071626 ], [ -6.351002174988206, 41.302334817518691 ], [ -6.351742390955714, 41.302334817518691 ], [ -6.351742390955714, 41.301904469125873 ], [ -6.352482606923223, 41.301904469125873 ], [ -6.352482606923223, 41.301474117893157 ], [ -6.353222822890732, 41.301474117893157 ], [ -6.353222822890732, 41.301043763820552 ], [ -6.35396303885824, 41.301043763820552 ], [ -6.35396303885824, 41.30061340690807 ], [ -6.354703254825749, 41.30061340690807 ], [ -6.354703254825749, 41.301043763820552 ], [ -6.356183686760765, 41.301043763820552 ], [ -6.356183686760765, 41.301474117893157 ], [ -6.356923902728273, 41.301474117893157 ], [ -6.356923902728273, 41.301904469125873 ], [ -6.357664118695782, 41.301904469125873 ], [ -6.357664118695782, 41.302334817518691 ], [ -6.35840433466329, 41.302334817518691 ], [ -6.35840433466329, 41.303195505784643 ], [ -6.359144550630798, 41.303195505784643 ], [ -6.359144550630798, 41.304916848237561 ], [ -6.360624982565815, 41.304916848237561 ], [ -6.360624982565815, 41.304486516884211 ], [ -6.361365198533323, 41.304486516884211 ], [ -6.361365198533323, 41.302765163071626 ], [ -6.362105414500832, 41.302765163071626 ], [ -6.362105414500832, 41.301043763820552 ], [ -6.362845630468341, 41.301043763820552 ], [ -6.362845630468341, 41.30061340690807 ], [ -6.363585846435849, 41.30061340690807 ], [ -6.363585846435849, 41.300183047155706 ], [ -6.364326062403356, 41.300183047155706 ], [ -6.364326062403356, 41.299752684563465 ], [ -6.365066278370866, 41.299752684563465 ], [ -6.365066278370866, 41.299322319131363 ], [ -6.365806494338374, 41.299322319131363 ], [ -6.365806494338374, 41.298461579747588 ], [ -6.366546710305881, 41.298461579747588 ], [ -6.366546710305881, 41.298031205795915 ], [ -6.365806494338374, 41.298031205795915 ], [ -6.365806494338374, 41.295879293440038 ], [ -6.365066278370866, 41.295879293440038 ], [ -6.365066278370866, 41.295018508618931 ], [ -6.365806494338374, 41.295018508618931 ], [ -6.365806494338374, 41.288131821121894 ], [ -6.366546710305881, 41.288131821121894 ], [ -6.366546710305881, 41.286840486283602 ], [ -6.36728692627339, 41.286840486283602 ], [ -6.36728692627339, 41.285979582192901 ], [ -6.368027142240899, 41.285979582192901 ], [ -6.368027142240899, 41.285549125888011 ], [ -6.368767358208406, 41.285549125888011 ], [ -6.368767358208406, 41.284688204759199 ], [ -6.373208654013458, 41.284688204759199 ], [ -6.373208654013458, 41.283827272271687 ], [ -6.373948869980965, 41.283827272271687 ], [ -6.373948869980965, 41.281674891358975 ], [ -6.374689085948473, 41.281674891358975 ], [ -6.374689085948473, 41.280813919116419 ], [ -6.375429301915982, 41.280813919116419 ], [ -6.375429301915982, 41.279952935515368 ], [ -6.37616951788349, 41.279952935515368 ], [ -6.37616951788349, 41.27909194055588 ], [ -6.376909733850998, 41.27909194055588 ], [ -6.376909733850998, 41.278661438816741 ], [ -6.377649949818506, 41.278661438816741 ], [ -6.377649949818506, 41.277800426819674 ], [ -6.378390165786015, 41.277800426819674 ], [ -6.378390165786015, 41.276939403464283 ], [ -6.379130381753523, 41.276939403464283 ], [ -6.379130381753523, 41.276508887527228 ], [ -6.379870597721032, 41.276508887527228 ], [ -6.379870597721032, 41.276078368750596 ], [ -6.385052109493589, 41.276078368750596 ], [ -6.385052109493589, 41.275217322678678 ], [ -6.385792325461098, 41.275217322678678 ], [ -6.385792325461098, 41.274786795383392 ], [ -6.386532541428607, 41.274786795383392 ], [ -6.386532541428607, 41.273925732274193 ], [ -6.387272757396115, 41.273925732274193 ], [ -6.387272757396115, 41.273495196460289 ], [ -6.390233621266148, 41.273495196460289 ], [ -6.390233621266148, 41.273064657806863 ], [ -6.39393470110369, 41.273064657806863 ], [ -6.39393470110369, 41.272634116313917 ], [ -6.39837599690874, 41.272634116313917 ], [ -6.39837599690874, 41.273064657806863 ], [ -6.400596644811265, 41.273064657806863 ], [ -6.400596644811265, 41.273495196460289 ], [ -6.402077076746282, 41.273495196460289 ], [ -6.402077076746282, 41.274356265248564 ], [ -6.40281729271379, 41.274356265248564 ], [ -6.40281729271379, 41.275217322678678 ], [ -6.403557508681298, 41.275217322678678 ], [ -6.403557508681298, 41.276078368750596 ], [ -6.405037940616315, 41.276078368750596 ], [ -6.405037940616315, 41.275647847134415 ], [ -6.407998804486349, 41.275647847134415 ], [ -6.407998804486349, 41.276078368750596 ], [ -6.408739020453856, 41.276078368750596 ], [ -6.408739020453856, 41.276508887527228 ], [ -6.409479236421364, 41.276508887527228 ], [ -6.409479236421364, 41.276939403464283 ], [ -6.410219452388874, 41.276939403464283 ], [ -6.410219452388874, 41.277369916561767 ], [ -6.410959668356382, 41.277369916561767 ], [ -6.410959668356382, 41.280813919116419 ], [ -6.411699884323889, 41.280813919116419 ], [ -6.411699884323889, 41.28339680176844 ], [ -6.410959668356382, 41.28339680176844 ], [ -6.410959668356382, 41.283827272271687 ], [ -6.410219452388874, 41.283827272271687 ], [ -6.410219452388874, 41.284257739935278 ], [ -6.409479236421364, 41.284257739935278 ], [ -6.409479236421364, 41.284688204759199 ], [ -6.408739020453856, 41.284688204759199 ], [ -6.408739020453856, 41.285118666743436 ], [ -6.407998804486349, 41.285118666743436 ], [ -6.407998804486349, 41.285979582192901 ], [ -6.40725858851884, 41.285979582192901 ], [ -6.40725858851884, 41.287270934069397 ], [ -6.406518372551331, 41.287270934069397 ], [ -6.406518372551331, 41.290283989057983 ], [ -6.405778156583824, 41.290283989057983 ], [ -6.405778156583824, 41.291575255742757 ], [ -6.405037940616315, 41.291575255742757 ], [ -6.405037940616315, 41.292005672291495 ], [ -6.404297724648807, 41.292005672291495 ], [ -6.404297724648807, 41.292866496869678 ], [ -6.403557508681298, 41.292866496869678 ], [ -6.403557508681298, 41.293296904899108 ], [ -6.40281729271379, 41.293296904899108 ], [ -6.40281729271379, 41.29630968159087 ], [ -6.402077076746282, 41.29630968159087 ], [ -6.402077076746282, 41.30061340690807 ], [ -6.40281729271379, 41.30061340690807 ], [ -6.40281729271379, 41.304916848237561 ], [ -6.402077076746282, 41.304916848237561 ], [ -6.402077076746282, 41.305347176750963 ], [ -6.401336860778773, 41.305347176750963 ], [ -6.401336860778773, 41.305777502424441 ], [ -6.400596644811265, 41.305777502424441 ], [ -6.400596644811265, 41.306207825257957 ], [ -6.399856428843757, 41.306207825257957 ], [ -6.399856428843757, 41.306638145251547 ], [ -6.399116212876249, 41.306638145251547 ], [ -6.399116212876249, 41.307068462405169 ], [ -6.39837599690874, 41.307068462405169 ], [ -6.39837599690874, 41.30749877671883 ], [ -6.397635780941232, 41.30749877671883 ], [ -6.397635780941232, 41.308359396826262 ], [ -6.396895564973724, 41.308359396826262 ], [ -6.396895564973724, 41.309220005573778 ], [ -6.396155349006215, 41.309220005573778 ], [ -6.396155349006215, 41.310080602961357 ], [ -6.395415133038706, 41.310080602961357 ], [ -6.395415133038706, 41.310941188988927 ], [ -6.394674917071199, 41.310941188988927 ], [ -6.394674917071199, 41.311801763656462 ], [ -6.39393470110369, 41.311801763656462 ], [ -6.39393470110369, 41.312662326963917 ], [ -6.393194485136181, 41.312662326963917 ], [ -6.393194485136181, 41.313522878911229 ], [ -6.392454269168673, 41.313522878911229 ], [ -6.392454269168673, 41.314813685531881 ], [ -6.393194485136181, 41.314813685531881 ], [ -6.393194485136181, 41.315243948725325 ], [ -6.39393470110369, 41.315243948725325 ], [ -6.39393470110369, 41.316104466591995 ], [ -6.394674917071199, 41.316104466591995 ], [ -6.394674917071199, 41.316534721265214 ], [ -6.395415133038706, 41.316534721265214 ], [ -6.395415133038706, 41.316964973098372 ], [ -6.396155349006215, 41.316964973098372 ], [ -6.396155349006215, 41.318255711557249 ], [ -6.395415133038706, 41.318255711557249 ], [ -6.395415133038706, 41.322127773567708 ], [ -6.394674917071199, 41.322127773567708 ], [ -6.394674917071199, 41.323418409781972 ], [ -6.39393470110369, 41.323418409781972 ], [ -6.39393470110369, 41.323848616173059 ], [ -6.392454269168673, 41.323848616173059 ], [ -6.392454269168673, 41.324278819723972 ], [ -6.391714053201166, 41.324278819723972 ], [ -6.391714053201166, 41.32470902043471 ], [ -6.389493405298641, 41.32470902043471 ], [ -6.389493405298641, 41.323848616173059 ], [ -6.388753189331132, 41.323848616173059 ], [ -6.388753189331132, 41.323418409781972 ], [ -6.388012973363623, 41.323418409781972 ], [ -6.388012973363623, 41.322988200550711 ], [ -6.387272757396115, 41.322988200550711 ], [ -6.387272757396115, 41.322557988479296 ], [ -6.386532541428607, 41.322557988479296 ], [ -6.386532541428607, 41.322127773567708 ], [ -6.385792325461098, 41.322127773567708 ], [ -6.385792325461098, 41.322988200550711 ], [ -6.385052109493589, 41.322988200550711 ], [ -6.385052109493589, 41.323848616173059 ], [ -6.384311893526082, 41.323848616173059 ], [ -6.384311893526082, 41.324278819723972 ], [ -6.383571677558574, 41.324278819723972 ], [ -6.383571677558574, 41.325139218305239 ], [ -6.382831461591064, 41.325139218305239 ], [ -6.382831461591064, 41.325999605525752 ], [ -6.382091245623557, 41.325999605525752 ], [ -6.382091245623557, 41.326429794875708 ], [ -6.381351029656049, 41.326429794875708 ], [ -6.381351029656049, 41.327290165054983 ], [ -6.38061081368854, 41.327290165054983 ], [ -6.38061081368854, 41.327720345884302 ], [ -6.379130381753523, 41.327720345884302 ], [ -6.379130381753523, 41.327290165054983 ], [ -6.37616951788349, 41.327290165054983 ], [ -6.37616951788349, 41.326859981385461 ], [ -6.374689085948473, 41.326859981385461 ], [ -6.374689085948473, 41.327290165054983 ], [ -6.373948869980965, 41.327290165054983 ], [ -6.373948869980965, 41.327720345884302 ], [ -6.373208654013458, 41.327720345884302 ], [ -6.373208654013458, 41.328150523873376 ], [ -6.372468438045948, 41.328150523873376 ], [ -6.372468438045948, 41.32858069902224 ], [ -6.37172822207844, 41.32858069902224 ], [ -6.37172822207844, 41.329010871330865 ], [ -6.370247790143424, 41.329010871330865 ], [ -6.370247790143424, 41.334172717493914 ], [ -6.370988006110932, 41.334172717493914 ], [ -6.370988006110932, 41.335032985423709 ], [ -6.370247790143424, 41.335032985423709 ], [ -6.370247790143424, 41.336323366016011 ], [ -6.369507574175914, 41.336323366016011 ], [ -6.369507574175914, 41.337613721045287 ], [ -6.368767358208406, 41.337613721045287 ], [ -6.368767358208406, 41.33890405051141 ], [ -6.368027142240899, 41.33890405051141 ], [ -6.368027142240899, 41.342774885529344 ], [ -6.368767358208406, 41.342774885529344 ], [ -6.368767358208406, 41.344065112741362 ], [ -6.368027142240899, 41.344065112741362 ], [ -6.368027142240899, 41.344495182797836 ], [ -6.36728692627339, 41.344495182797836 ], [ -6.36728692627339, 41.344925250013866 ], [ -6.366546710305881, 41.344925250013866 ], [ -6.366546710305881, 41.345785375924613 ], [ -6.365806494338374, 41.345785375924613 ], [ -6.365806494338374, 41.346215434619296 ], [ -6.365066278370866, 41.346215434619296 ], [ -6.365066278370866, 41.347075543487286 ], [ -6.364326062403356, 41.347075543487286 ], [ -6.364326062403356, 41.347505593660586 ], [ -6.360624982565815, 41.347505593660586 ], [ -6.360624982565815, 41.347935640993398 ], [ -6.359144550630798, 41.347935640993398 ], [ -6.359144550630798, 41.349225765948923 ], [ -6.35840433466329, 41.349225765948923 ], [ -6.35840433466329, 41.350085835050116 ], [ -6.357664118695782, 41.350085835050116 ], [ -6.357664118695782, 41.351375917398073 ], [ -6.356923902728273, 41.351375917398073 ], [ -6.356923902728273, 41.352235958094099 ], [ -6.351742390955714, 41.352235958094099 ], [ -6.351742390955714, 41.351805939166354 ], [ -6.351002174988206, 41.351805939166354 ], [ -6.351002174988206, 41.350945892789277 ], [ -6.350261959020698, 41.350945892789277 ], [ -6.350261959020698, 41.349655801919774 ], [ -6.349521743053189, 41.349655801919774 ] ], [ [ -6.342119583378107, 41.318255711557249 ], [ -6.342119583378107, 41.317825468244379 ], [ -6.341379367410598, 41.317825468244379 ], [ -6.341379367410598, 41.318255711557249 ], [ -6.342119583378107, 41.318255711557249 ] ] ] ] } }
]
}
