{
"type": "FeatureCollection",
"name": "spain_fires_modis_ba",
"crs": { "type": "name", "properties": { "name": "urn:ogc:def:crs:OGC:1.3:CRS84" } },
"features": [
{ "type": "Feature", "properties": { }, "geometry": { "type": "MultiPolygon", "coordinates": [ [ [ [ -8.338482047748084, 41.740665354670782 ], [ -8.338482047748084, 41.739383016395223 ], [ -8.339222263715593, 41.739383016395223 ], [ -8.339222263715593, 41.738100652512934 ], [ -8.338482047748084, 41.738100652512934 ], [ -8.338482047748084, 41.734680890306066 ], [ -8.339222263715593, 41.734680890306066 ], [ -8.339222263715593, 41.734253407227037 ], [ -8.3399624796831, 41.734253407227037 ], [ -8.3399624796831, 41.735535847928716 ], [ -8.340702695650609, 41.735535847928716 ], [ -8.340702695650609, 41.737673192195146 ], [ -8.3399624796831, 41.737673192195146 ], [ -8.3399624796831, 41.739810465332269 ], [ -8.339222263715593, 41.739810465332269 ], [ -8.339222263715593, 41.740665354670782 ], [ -8.338482047748084, 41.740665354670782 ] ] ], [ [ [ -7.789241799856901, 42.583526102810062 ], [ -7.789241799856901, 42.582260733790939 ], [ -7.789982015824409, 42.582260733790939 ], [ -7.789982015824409, 42.581417140177216 ], [ -7.791462447759425, 42.581417140177216 ], [ -7.791462447759425, 42.581838938410847 ], [ -7.790722231791916, 42.581838938410847 ], [ -7.790722231791916, 42.58310431599056 ], [ -7.789982015824409, 42.58310431599056 ], [ -7.789982015824409, 42.583526102810062 ], [ -7.789241799856901, 42.583526102810062 ] ] ] ] } }
]
}
