{
"type": "FeatureCollection",
"name": "spain_fires_nrt_ba",
"crs": { "type": "name", "properties": { "name": "urn:ogc:def:crs:OGC:1.3:CRS84" } },
"features": [
{ "type": "Feature", "properties": { }, "geometry": { "type": "MultiPolygon", "coordinates": [ [ [ [ -0.935582156697232, 35.574224701326465 ], [ -0.935582156697232, 35.573758764450957 ], [ -0.934841940729723, 35.573758764450957 ], [ -0.934841940729723, 35.57282688256965 ], [ -0.934101724762215, 35.57282688256965 ], [ -0.934101724762215, 35.572360937563893 ], [ -0.933361508794706, 35.572360937563893 ], [ -0.933361508794706, 35.571894989848083 ], [ -0.932621292827198, 35.571894989848083 ], [ -0.932621292827198, 35.570963086286405 ], [ -0.93188107685969, 35.570963086286405 ], [ -0.93188107685969, 35.570497130440543 ], [ -0.931140860892182, 35.570497130440543 ], [ -0.931140860892182, 35.5700311718847 ], [ -0.930400644924673, 35.5700311718847 ], [ -0.930400644924673, 35.56909924664312 ], [ -0.929660428957165, 35.56909924664312 ], [ -0.929660428957165, 35.563507467562687 ], [ -0.928920212989657, 35.563507467562687 ], [ -0.928920212989657, 35.56257546644526 ], [ -0.929660428957165, 35.56257546644526 ], [ -0.929660428957165, 35.56164345448888 ], [ -0.930400644924673, 35.56164345448888 ], [ -0.930400644924673, 35.561177444446159 ], [ -0.931140860892182, 35.561177444446159 ], [ -0.931140860892182, 35.560245416231631 ], [ -0.93188107685969, 35.560245416231631 ], [ -0.93188107685969, 35.559779398059881 ], [ -0.932621292827198, 35.559779398059881 ], [ -0.932621292827198, 35.559313377178498 ], [ -0.933361508794706, 35.559313377178498 ], [ -0.933361508794706, 35.558847353587474 ], [ -0.934841940729723, 35.558847353587474 ], [ -0.934841940729723, 35.558381327286853 ], [ -0.935582156697232, 35.558381327286853 ], [ -0.935582156697232, 35.557915298276626 ], [ -0.937062588632248, 35.557915298276626 ], [ -0.937062588632248, 35.557449266556823 ], [ -0.938543020567265, 35.557449266556823 ], [ -0.938543020567265, 35.557915298276626 ], [ -0.94076366846979, 35.557915298276626 ], [ -0.94076366846979, 35.558381327286853 ], [ -0.942244100404807, 35.558381327286853 ], [ -0.942244100404807, 35.558847353587474 ], [ -0.943724532339823, 35.558847353587474 ], [ -0.943724532339823, 35.559313377178498 ], [ -0.94520496427484, 35.559313377178498 ], [ -0.94520496427484, 35.559779398059881 ], [ -0.946685396209857, 35.559779398059881 ], [ -0.946685396209857, 35.56164345448888 ], [ -0.947425612177365, 35.56164345448888 ], [ -0.947425612177365, 35.56304146835884 ], [ -0.948165828144873, 35.56304146835884 ], [ -0.948165828144873, 35.564439457841075 ], [ -0.947425612177365, 35.564439457841075 ], [ -0.947425612177365, 35.568633279957403 ], [ -0.946685396209857, 35.568633279957403 ], [ -0.946685396209857, 35.5700311718847 ], [ -0.945945180242348, 35.5700311718847 ], [ -0.945945180242348, 35.571429039422256 ], [ -0.94520496427484, 35.571429039422256 ], [ -0.94520496427484, 35.572360937563893 ], [ -0.944464748307332, 35.572360937563893 ], [ -0.944464748307332, 35.573292824865341 ], [ -0.943724532339823, 35.573292824865341 ], [ -0.943724532339823, 35.574224701326465 ], [ -0.94076366846979, 35.574224701326465 ], [ -0.94076366846979, 35.574690635491883 ], [ -0.937802804599756, 35.574690635491883 ], [ -0.937802804599756, 35.575156566947186 ], [ -0.937062588632248, 35.575156566947186 ], [ -0.937062588632248, 35.574690635491883 ], [ -0.93632237266474, 35.574690635491883 ], [ -0.93632237266474, 35.574224701326465 ], [ -0.935582156697232, 35.574224701326465 ] ] ], [ [ [ -0.276789945614814, 35.824969885320684 ], [ -0.276789945614814, 35.824505411354338 ], [ -0.276049729647306, 35.824505411354338 ], [ -0.276049729647306, 35.824040934669902 ], [ -0.274569297712289, 35.824040934669902 ], [ -0.274569297712289, 35.8235764552674 ], [ -0.272348649809764, 35.8235764552674 ], [ -0.272348649809764, 35.82311197314683 ], [ -0.270128001907239, 35.82311197314683 ], [ -0.270128001907239, 35.822647488308213 ], [ -0.267167138037206, 35.822647488308213 ], [ -0.267167138037206, 35.822183000751579 ], [ -0.264946490134681, 35.822183000751579 ], [ -0.264946490134681, 35.821718510476927 ], [ -0.262725842232156, 35.821718510476927 ], [ -0.262725842232156, 35.821254017484272 ], [ -0.260505194329631, 35.821254017484272 ], [ -0.260505194329631, 35.820789521773627 ], [ -0.259764978362122, 35.820789521773627 ], [ -0.259764978362122, 35.819860522198454 ], [ -0.259024762394614, 35.819860522198454 ], [ -0.259024762394614, 35.818931511751508 ], [ -0.258284546427106, 35.818931511751508 ], [ -0.258284546427106, 35.818467002451158 ], [ -0.257544330459597, 35.818467002451158 ], [ -0.257544330459597, 35.81753797569678 ], [ -0.255323682557072, 35.81753797569678 ], [ -0.255323682557072, 35.817073458242774 ], [ -0.252362818687039, 35.817073458242774 ], [ -0.252362818687039, 35.816608938070921 ], [ -0.251622602719531, 35.816608938070921 ], [ -0.251622602719531, 35.815679889573708 ], [ -0.250882386752022, 35.815679889573708 ], [ -0.250882386752022, 35.815215361248384 ], [ -0.250142170784514, 35.815215361248384 ], [ -0.250142170784514, 35.814286296444358 ], [ -0.249401954817006, 35.814286296444358 ], [ -0.249401954817006, 35.813821759965677 ], [ -0.248661738849497, 35.813821759965677 ], [ -0.248661738849497, 35.812892678855093 ], [ -0.247921522881989, 35.812892678855093 ], [ -0.247921522881989, 35.812428134223211 ], [ -0.247181306914481, 35.812428134223211 ], [ -0.247181306914481, 35.811963586873631 ], [ -0.246441090946972, 35.811963586873631 ], [ -0.246441090946972, 35.811034484021377 ], [ -0.244960659011956, 35.811034484021377 ], [ -0.244960659011956, 35.810569928518746 ], [ -0.242740011109431, 35.810569928518746 ], [ -0.242740011109431, 35.810105370298473 ], [ -0.241999795141922, 35.810105370298473 ], [ -0.241999795141922, 35.812892678855093 ], [ -0.241259579174414, 35.812892678855093 ], [ -0.241259579174414, 35.813821759965677 ], [ -0.240519363206906, 35.813821759965677 ], [ -0.240519363206906, 35.814750830205249 ], [ -0.239779147239397, 35.814750830205249 ], [ -0.239779147239397, 35.815215361248384 ], [ -0.239038931271889, 35.815215361248384 ], [ -0.239038931271889, 35.815679889573708 ], [ -0.235337851434347, 35.815679889573708 ], [ -0.235337851434347, 35.815215361248384 ], [ -0.231636771596806, 35.815215361248384 ], [ -0.231636771596806, 35.814750830205249 ], [ -0.230896555629297, 35.814750830205249 ], [ -0.230896555629297, 35.813357220769255 ], [ -0.230156339661789, 35.813357220769255 ], [ -0.230156339661789, 35.812428134223211 ], [ -0.229416123694281, 35.812428134223211 ], [ -0.229416123694281, 35.811034484021377 ], [ -0.228675907726772, 35.811034484021377 ], [ -0.228675907726772, 35.810105370298473 ], [ -0.227935691759264, 35.810105370298473 ], [ -0.227935691759264, 35.809176245705025 ], [ -0.227195475791756, 35.809176245705025 ], [ -0.227195475791756, 35.80731796390701 ], [ -0.227935691759264, 35.80731796390701 ], [ -0.227935691759264, 35.805924224024189 ], [ -0.228675907726772, 35.805924224024189 ], [ -0.228675907726772, 35.804530459683846 ], [ -0.229416123694281, 35.804530459683846 ], [ -0.229416123694281, 35.803601269869652 ], [ -0.230156339661789, 35.803601269869652 ], [ -0.230156339661789, 35.803136670886389 ], [ -0.230896555629297, 35.803136670886389 ], [ -0.230896555629297, 35.802672069185711 ], [ -0.231636771596806, 35.802672069185711 ], [ -0.231636771596806, 35.80220746476764 ], [ -0.232376987564314, 35.80220746476764 ], [ -0.232376987564314, 35.801742857632192 ], [ -0.237558499336872, 35.801742857632192 ], [ -0.237558499336872, 35.80220746476764 ], [ -0.238298715304381, 35.80220746476764 ], [ -0.238298715304381, 35.802672069185711 ], [ -0.239038931271889, 35.802672069185711 ], [ -0.239038931271889, 35.803601269869652 ], [ -0.239779147239397, 35.803601269869652 ], [ -0.239779147239397, 35.801742857632192 ], [ -0.240519363206906, 35.801742857632192 ], [ -0.240519363206906, 35.800349019921647 ], [ -0.241999795141922, 35.800349019921647 ], [ -0.241999795141922, 35.799884401916799 ], [ -0.242740011109431, 35.799884401916799 ], [ -0.242740011109431, 35.799419781194644 ], [ -0.244220443044447, 35.799419781194644 ], [ -0.244220443044447, 35.798955157755167 ], [ -0.245700874979464, 35.798955157755167 ], [ -0.245700874979464, 35.798490531598425 ], [ -0.247181306914481, 35.798490531598425 ], [ -0.247181306914481, 35.798955157755167 ], [ -0.248661738849497, 35.798955157755167 ], [ -0.248661738849497, 35.799419781194644 ], [ -0.249401954817006, 35.799419781194644 ], [ -0.249401954817006, 35.799884401916799 ], [ -0.250882386752022, 35.799884401916799 ], [ -0.250882386752022, 35.799419781194644 ], [ -0.252362818687039, 35.799419781194644 ], [ -0.252362818687039, 35.798955157755167 ], [ -0.253843250622056, 35.798955157755167 ], [ -0.253843250622056, 35.798490531598425 ], [ -0.255323682557072, 35.798490531598425 ], [ -0.255323682557072, 35.798025902724412 ], [ -0.261245410297139, 35.798025902724412 ], [ -0.261245410297139, 35.798490531598425 ], [ -0.266426922069697, 35.798490531598425 ], [ -0.266426922069697, 35.799419781194644 ], [ -0.267167138037206, 35.799419781194644 ], [ -0.267167138037206, 35.799884401916799 ], [ -0.267907354004714, 35.799884401916799 ], [ -0.267907354004714, 35.800349019921647 ], [ -0.268647569972222, 35.800349019921647 ], [ -0.268647569972222, 35.801278247779365 ], [ -0.269387785939731, 35.801278247779365 ], [ -0.269387785939731, 35.801742857632192 ], [ -0.270128001907239, 35.801742857632192 ], [ -0.270128001907239, 35.80220746476764 ], [ -0.270868217874747, 35.80220746476764 ], [ -0.270868217874747, 35.803136670886389 ], [ -0.271608433842256, 35.803136670886389 ], [ -0.271608433842256, 35.803601269869652 ], [ -0.272348649809764, 35.803601269869652 ], [ -0.272348649809764, 35.804530459683846 ], [ -0.273088865777272, 35.804530459683846 ], [ -0.273088865777272, 35.804995050514783 ], [ -0.273829081744781, 35.804995050514783 ], [ -0.273829081744781, 35.804065866135467 ], [ -0.274569297712289, 35.804065866135467 ], [ -0.274569297712289, 35.803136670886389 ], [ -0.275309513679797, 35.803136670886389 ], [ -0.275309513679797, 35.80220746476764 ], [ -0.276049729647306, 35.80220746476764 ], [ -0.276049729647306, 35.801742857632192 ], [ -0.276789945614814, 35.801742857632192 ], [ -0.276789945614814, 35.801278247779365 ], [ -0.278270377549831, 35.801278247779365 ], [ -0.278270377549831, 35.800813635209181 ], [ -0.279010593517339, 35.800813635209181 ], [ -0.279010593517339, 35.800349019921647 ], [ -0.280491025452356, 35.800349019921647 ], [ -0.280491025452356, 35.800813635209181 ], [ -0.281231241419864, 35.800813635209181 ], [ -0.281231241419864, 35.801278247779365 ], [ -0.281971457387372, 35.801278247779365 ], [ -0.281971457387372, 35.801742857632192 ], [ -0.282711673354881, 35.801742857632192 ], [ -0.282711673354881, 35.80220746476764 ], [ -0.283451889322389, 35.80220746476764 ], [ -0.283451889322389, 35.802672069185711 ], [ -0.284192105289897, 35.802672069185711 ], [ -0.284192105289897, 35.803601269869652 ], [ -0.284932321257406, 35.803601269869652 ], [ -0.284932321257406, 35.804995050514783 ], [ -0.285672537224914, 35.804995050514783 ], [ -0.285672537224914, 35.811499036806339 ], [ -0.286412753192422, 35.811499036806339 ], [ -0.286412753192422, 35.81753797569678 ], [ -0.287152969159931, 35.81753797569678 ], [ -0.287152969159931, 35.821254017484272 ], [ -0.286412753192422, 35.821254017484272 ], [ -0.286412753192422, 35.822183000751579 ], [ -0.285672537224914, 35.822183000751579 ], [ -0.285672537224914, 35.822647488308213 ], [ -0.284932321257406, 35.822647488308213 ], [ -0.284932321257406, 35.82311197314683 ], [ -0.284192105289897, 35.82311197314683 ], [ -0.284192105289897, 35.8235764552674 ], [ -0.283451889322389, 35.8235764552674 ], [ -0.283451889322389, 35.824040934669902 ], [ -0.282711673354881, 35.824040934669902 ], [ -0.282711673354881, 35.824505411354338 ], [ -0.281971457387372, 35.824505411354338 ], [ -0.281971457387372, 35.824969885320684 ], [ -0.281231241419864, 35.824969885320684 ], [ -0.281231241419864, 35.82543435656892 ], [ -0.280491025452356, 35.82543435656892 ], [ -0.280491025452356, 35.825898825099053 ], [ -0.278270377549831, 35.825898825099053 ], [ -0.278270377549831, 35.82543435656892 ], [ -0.277530161582322, 35.82543435656892 ], [ -0.277530161582322, 35.824969885320684 ], [ -0.276789945614814, 35.824969885320684 ] ] ], [ [ [ -3.12736163648941, 36.770948042677077 ], [ -3.126621420521901, 36.770948042677077 ], [ -3.126621420521901, 36.770030289841685 ], [ -3.125881204554394, 36.770030289841685 ], [ -3.125881204554394, 36.768653639990944 ], [ -3.125140988586885, 36.768653639990944 ], [ -3.125140988586885, 36.767735859692152 ], [ -3.124400772619377, 36.767735859692152 ], [ -3.124400772619377, 36.766359168646787 ], [ -3.123660556651868, 36.766359168646787 ], [ -3.123660556651868, 36.765441360885248 ], [ -3.12292034068436, 36.765441360885248 ], [ -3.12292034068436, 36.764064628646246 ], [ -3.122180124716852, 36.764064628646246 ], [ -3.122180124716852, 36.763605712407504 ], [ -3.12292034068436, 36.763605712407504 ], [ -3.12292034068436, 36.762687871691519 ], [ -3.123660556651868, 36.762687871691519 ], [ -3.123660556651868, 36.761311090021429 ], [ -3.124400772619377, 36.761311090021429 ], [ -3.124400772619377, 36.760393221844112 ], [ -3.125140988586885, 36.760393221844112 ], [ -3.125140988586885, 36.759475342682457 ], [ -3.125881204554394, 36.759475342682457 ], [ -3.125881204554394, 36.758557452536543 ], [ -3.126621420521901, 36.758557452536543 ], [ -3.126621420521901, 36.757639551406506 ], [ -3.12736163648941, 36.757639551406506 ], [ -3.12736163648941, 36.757180596722471 ], [ -3.128101852456918, 36.757180596722471 ], [ -3.128101852456918, 36.756721639292422 ], [ -3.129582284391935, 36.756721639292422 ], [ -3.129582284391935, 36.756262679116404 ], [ -3.130322500359444, 36.756262679116404 ], [ -3.130322500359444, 36.755803716194414 ], [ -3.131062716326952, 36.755803716194414 ], [ -3.131062716326952, 36.756262679116404 ], [ -3.132543148261968, 36.756262679116404 ], [ -3.132543148261968, 36.757180596722471 ], [ -3.133283364229476, 36.757180596722471 ], [ -3.133283364229476, 36.757639551406506 ], [ -3.134023580196985, 36.757639551406506 ], [ -3.134023580196985, 36.758098503344534 ], [ -3.134763796164493, 36.758098503344534 ], [ -3.134763796164493, 36.758557452536543 ], [ -3.135504012132002, 36.758557452536543 ], [ -3.135504012132002, 36.759016398982531 ], [ -3.136984444067018, 36.759016398982531 ], [ -3.136984444067018, 36.758557452536543 ], [ -3.14068552390456, 36.758557452536543 ], [ -3.14068552390456, 36.759016398982531 ], [ -3.141425739872068, 36.759016398982531 ], [ -3.141425739872068, 36.759934283636319 ], [ -3.142165955839576, 36.759934283636319 ], [ -3.142165955839576, 36.760852157305827 ], [ -3.142906171807085, 36.760852157305827 ], [ -3.142906171807085, 36.761311090021429 ], [ -3.143646387774594, 36.761311090021429 ], [ -3.143646387774594, 36.765441360885248 ], [ -3.142906171807085, 36.765441360885248 ], [ -3.142906171807085, 36.766359168646787 ], [ -3.142165955839576, 36.766359168646787 ], [ -3.142165955839576, 36.766818068408192 ], [ -3.141425739872068, 36.766818068408192 ], [ -3.141425739872068, 36.767276965423314 ], [ -3.14068552390456, 36.767276965423314 ], [ -3.14068552390456, 36.767735859692152 ], [ -3.139945307937052, 36.767735859692152 ], [ -3.139945307937052, 36.768194751214693 ], [ -3.139205091969543, 36.768194751214693 ], [ -3.139205091969543, 36.768653639990944 ], [ -3.137724660034527, 36.768653639990944 ], [ -3.137724660034527, 36.769112526020869 ], [ -3.136984444067018, 36.769112526020869 ], [ -3.136984444067018, 36.76957140930444 ], [ -3.13624422809951, 36.76957140930444 ], [ -3.13624422809951, 36.770030289841685 ], [ -3.135504012132002, 36.770030289841685 ], [ -3.135504012132002, 36.770489167632569 ], [ -3.134763796164493, 36.770489167632569 ], [ -3.134763796164493, 36.770948042677077 ], [ -3.134023580196985, 36.770948042677077 ], [ -3.134023580196985, 36.771406914975202 ], [ -3.133283364229476, 36.771406914975202 ], [ -3.133283364229476, 36.771865784526916 ], [ -3.132543148261968, 36.771865784526916 ], [ -3.132543148261968, 36.772324651332227 ], [ -3.128101852456918, 36.772324651332227 ], [ -3.128101852456918, 36.771865784526916 ], [ -3.12736163648941, 36.771865784526916 ], [ -3.12736163648941, 36.770948042677077 ] ] ], [ [ [ -1.324195539639107, 37.678198721984977 ], [ -1.324195539639107, 37.677745334176052 ], [ -1.321974891736582, 37.677745334176052 ], [ -1.321974891736582, 37.677291943596444 ], [ -1.321234675769074, 37.677291943596444 ], [ -1.321234675769074, 37.6763851541252 ], [ -1.320494459801565, 37.6763851541252 ], [ -1.320494459801565, 37.675931755233599 ], [ -1.319754243834057, 37.675931755233599 ], [ -1.319754243834057, 37.675024949138482 ], [ -1.319014027866549, 37.675024949138482 ], [ -1.319014027866549, 37.673211303700896 ], [ -1.319754243834057, 37.673211303700896 ], [ -1.319754243834057, 37.669583879839003 ], [ -1.320494459801565, 37.669583879839003 ], [ -1.320494459801565, 37.668676996168486 ], [ -1.321234675769074, 37.668676996168486 ], [ -1.321234675769074, 37.668223550177537 ], [ -1.322715107704091, 37.668223550177537 ], [ -1.322715107704091, 37.667770101416146 ], [ -1.324195539639107, 37.667770101416146 ], [ -1.324195539639107, 37.66731664988432 ], [ -1.324935755606615, 37.66731664988432 ], [ -1.324935755606615, 37.66686319558206 ], [ -1.326416187541632, 37.66686319558206 ], [ -1.326416187541632, 37.666409738509394 ], [ -1.327896619476649, 37.666409738509394 ], [ -1.327896619476649, 37.665956278666336 ], [ -1.329377051411665, 37.665956278666336 ], [ -1.329377051411665, 37.665502816052872 ], [ -1.330117267379174, 37.665502816052872 ], [ -1.330117267379174, 37.665049350669044 ], [ -1.333078131249207, 37.665049350669044 ], [ -1.333078131249207, 37.665502816052872 ], [ -1.333818347216715, 37.665502816052872 ], [ -1.333818347216715, 37.666409738509394 ], [ -1.334558563184224, 37.666409738509394 ], [ -1.334558563184224, 37.66686319558206 ], [ -1.335298779151732, 37.66686319558206 ], [ -1.335298779151732, 37.66731664988432 ], [ -1.33603899511924, 37.66731664988432 ], [ -1.33603899511924, 37.668223550177537 ], [ -1.336779211086749, 37.668223550177537 ], [ -1.336779211086749, 37.673211303700896 ], [ -1.33603899511924, 37.673211303700896 ], [ -1.33603899511924, 37.67683855024616 ], [ -1.335298779151732, 37.67683855024616 ], [ -1.335298779151732, 37.677291943596444 ], [ -1.334558563184224, 37.677291943596444 ], [ -1.334558563184224, 37.678198721984977 ], [ -1.333818347216715, 37.678198721984977 ], [ -1.333818347216715, 37.678652107023204 ], [ -1.333078131249207, 37.678652107023204 ], [ -1.333078131249207, 37.67910548929072 ], [ -1.330857483346682, 37.67910548929072 ], [ -1.330857483346682, 37.678652107023204 ], [ -1.32715640350914, 37.678652107023204 ], [ -1.32715640350914, 37.678198721984977 ], [ -1.324195539639107, 37.678198721984977 ] ] ], [ [ [ -9.007637282375619, 38.929649852880601 ], [ -9.007637282375619, 38.928758585041741 ], [ -9.006897066408111, 38.928758585041741 ], [ -9.006897066408111, 38.927867306004288 ], [ -9.006156850440602, 38.927867306004288 ], [ -9.006156850440602, 38.926976015768297 ], [ -9.005416634473093, 38.926976015768297 ], [ -9.005416634473093, 38.92608471433384 ], [ -9.004676418505586, 38.92608471433384 ], [ -9.004676418505586, 38.925193401701009 ], [ -9.003936202538076, 38.925193401701009 ], [ -9.003936202538076, 38.918062497505481 ], [ -9.004676418505586, 38.918062497505481 ], [ -9.004676418505586, 38.917171084090562 ], [ -9.005416634473093, 38.917171084090562 ], [ -9.005416634473093, 38.916725373183986 ], [ -9.006156850440602, 38.916725373183986 ], [ -9.006156850440602, 38.916279659478015 ], [ -9.006897066408111, 38.916279659478015 ], [ -9.006897066408111, 38.915388223667904 ], [ -9.007637282375619, 38.915388223667904 ], [ -9.007637282375619, 38.914942501563786 ], [ -9.014299226083194, 38.914942501563786 ], [ -9.014299226083194, 38.915388223667904 ], [ -9.018000305920735, 38.915388223667904 ], [ -9.018000305920735, 38.916725373183986 ], [ -9.018740521888244, 38.916725373183986 ], [ -9.018740521888244, 38.917616792197727 ], [ -9.019480737855751, 38.917616792197727 ], [ -9.019480737855751, 38.918953899722688 ], [ -9.020220953823259, 38.918953899722688 ], [ -9.020220953823259, 38.91984529074211 ], [ -9.020961169790768, 38.91984529074211 ], [ -9.020961169790768, 38.921182356275246 ], [ -9.020220953823259, 38.921182356275246 ], [ -9.020220953823259, 38.922519396612934 ], [ -9.019480737855751, 38.922519396612934 ], [ -9.019480737855751, 38.924302077869861 ], [ -9.018740521888244, 38.924302077869861 ], [ -9.018740521888244, 38.925639059417215 ], [ -9.018000305920735, 38.925639059417215 ], [ -9.018000305920735, 38.927421662286093 ], [ -9.017260089953226, 38.927421662286093 ], [ -9.017260089953226, 38.928312946922837 ], [ -9.016519873985718, 38.928312946922837 ], [ -9.016519873985718, 38.929204220361015 ], [ -9.015779658018211, 38.929204220361015 ], [ -9.015779658018211, 38.929649852880601 ], [ -9.015039442050702, 38.929649852880601 ], [ -9.015039442050702, 38.93054110952076 ], [ -9.011338362213161, 38.93054110952076 ], [ -9.011338362213161, 38.930095482600521 ], [ -9.008377498343128, 38.930095482600521 ], [ -9.008377498343128, 38.929649852880601 ], [ -9.007637282375619, 38.929649852880601 ] ] ], [ [ [ -3.741000673553819, 39.944103904206173 ], [ -3.741000673553819, 39.943664714484513 ], [ -3.740260457586311, 39.943664714484513 ], [ -3.740260457586311, 39.942786326583487 ], [ -3.739520241618802, 39.942786326583487 ], [ -3.739520241618802, 39.942347128404151 ], [ -3.738780025651294, 39.942347128404151 ], [ -3.738780025651294, 39.941907927405616 ], [ -3.738039809683786, 39.941907927405616 ], [ -3.738039809683786, 39.941029516950934 ], [ -3.737299593716278, 39.941029516950934 ], [ -3.737299593716278, 39.932684055212832 ], [ -3.738039809683786, 39.932684055212832 ], [ -3.738039809683786, 39.931805526355475 ], [ -3.738780025651294, 39.931805526355475 ], [ -3.738780025651294, 39.930926986222019 ], [ -3.739520241618802, 39.930926986222019 ], [ -3.739520241618802, 39.930048434812555 ], [ -3.740260457586311, 39.930048434812555 ], [ -3.740260457586311, 39.929169872127098 ], [ -3.749883265163919, 39.929169872127098 ], [ -3.749883265163919, 39.930048434812555 ], [ -3.750623481131427, 39.930048434812555 ], [ -3.750623481131427, 39.930926986222019 ], [ -3.751363697098936, 39.930926986222019 ], [ -3.751363697098936, 39.932244792193679 ], [ -3.752103913066444, 39.932244792193679 ], [ -3.752103913066444, 39.933562572794045 ], [ -3.752844129033953, 39.933562572794045 ], [ -3.752844129033953, 39.936637295527682 ], [ -3.752103913066444, 39.936637295527682 ], [ -3.752103913066444, 39.939272662211422 ], [ -3.751363697098936, 39.939272662211422 ], [ -3.751363697098936, 39.941468723587867 ], [ -3.750623481131427, 39.941468723587867 ], [ -3.750623481131427, 39.942347128404151 ], [ -3.749883265163919, 39.942347128404151 ], [ -3.749883265163919, 39.943225521943617 ], [ -3.749143049196411, 39.943225521943617 ], [ -3.749143049196411, 39.944103904206173 ], [ -3.748402833228903, 39.944103904206173 ], [ -3.748402833228903, 39.944982275191784 ], [ -3.743961537423853, 39.944982275191784 ], [ -3.743961537423853, 39.944543091108599 ], [ -3.741740889521328, 39.944543091108599 ], [ -3.741740889521328, 39.944103904206173 ], [ -3.741000673553819, 39.944103904206173 ] ] ], [ [ [ -3.471562061380785, 40.252156201901066 ], [ -3.470821845413277, 40.252156201901066 ], [ -3.470821845413277, 40.251718995965156 ], [ -3.470081629445768, 40.251718995965156 ], [ -3.470081629445768, 40.251281787204768 ], [ -3.469341413478261, 40.251281787204768 ], [ -3.469341413478261, 40.250407361210598 ], [ -3.468601197510752, 40.250407361210598 ], [ -3.468601197510752, 40.249970143976832 ], [ -3.467860981543244, 40.249970143976832 ], [ -3.467860981543244, 40.249532923918622 ], [ -3.467120765575736, 40.249532923918622 ], [ -3.467120765575736, 40.249095701035969 ], [ -3.466380549608227, 40.249095701035969 ], [ -3.466380549608227, 40.248658475328888 ], [ -3.465640333640719, 40.248658475328888 ], [ -3.465640333640719, 40.247346781261115 ], [ -3.46490011767321, 40.247346781261115 ], [ -3.46490011767321, 40.247784015441454 ], [ -3.464159901705703, 40.247784015441454 ], [ -3.464159901705703, 40.248221246797378 ], [ -3.462679469770686, 40.248221246797378 ], [ -3.462679469770686, 40.248658475328888 ], [ -3.461939253803177, 40.248658475328888 ], [ -3.461939253803177, 40.249095701035969 ], [ -3.461199037835669, 40.249095701035969 ], [ -3.461199037835669, 40.248658475328888 ], [ -3.459718605900652, 40.248658475328888 ], [ -3.459718605900652, 40.248221246797378 ], [ -3.458978389933144, 40.248221246797378 ], [ -3.458978389933144, 40.247784015441454 ], [ -3.457497957998127, 40.247784015441454 ], [ -3.457497957998127, 40.247346781261115 ], [ -3.456757742030619, 40.247346781261115 ], [ -3.456757742030619, 40.245160567993537 ], [ -3.45601752606311, 40.245160567993537 ], [ -3.45601752606311, 40.241662479898736 ], [ -3.456757742030619, 40.241662479898736 ], [ -3.456757742030619, 40.23991336806769 ], [ -3.457497957998127, 40.23991336806769 ], [ -3.457497957998127, 40.239476083049205 ], [ -3.458238173965635, 40.239476083049205 ], [ -3.458238173965635, 40.239038795206454 ], [ -3.458978389933144, 40.239038795206454 ], [ -3.458978389933144, 40.238601504539439 ], [ -3.460458821868161, 40.238601504539439 ], [ -3.460458821868161, 40.238164211048165 ], [ -3.462679469770686, 40.238164211048165 ], [ -3.462679469770686, 40.238601504539439 ], [ -3.463419685738194, 40.238601504539439 ], [ -3.463419685738194, 40.239038795206454 ], [ -3.464159901705703, 40.239038795206454 ], [ -3.464159901705703, 40.239476083049205 ], [ -3.465640333640719, 40.239476083049205 ], [ -3.465640333640719, 40.2407879296318 ], [ -3.466380549608227, 40.2407879296318 ], [ -3.466380549608227, 40.240350650261888 ], [ -3.467120765575736, 40.240350650261888 ], [ -3.467120765575736, 40.238601504539439 ], [ -3.467860981543244, 40.238601504539439 ], [ -3.467860981543244, 40.237726914732633 ], [ -3.468601197510752, 40.237726914732633 ], [ -3.468601197510752, 40.237289615592864 ], [ -3.469341413478261, 40.237289615592864 ], [ -3.469341413478261, 40.236415008840616 ], [ -3.476003357185836, 40.236415008840616 ], [ -3.476003357185836, 40.236852313628852 ], [ -3.481184868958394, 40.236852313628852 ], [ -3.481184868958394, 40.237289615592864 ], [ -3.481925084925902, 40.237289615592864 ], [ -3.481925084925902, 40.237726914732633 ], [ -3.482665300893411, 40.237726914732633 ], [ -3.482665300893411, 40.238601504539439 ], [ -3.483405516860918, 40.238601504539439 ], [ -3.483405516860918, 40.239476083049205 ], [ -3.484145732828428, 40.239476083049205 ], [ -3.484145732828428, 40.241225206177418 ], [ -3.484885948795936, 40.241225206177418 ], [ -3.484885948795936, 40.246035061773718 ], [ -3.485626164763444, 40.246035061773718 ], [ -3.485626164763444, 40.248658475328888 ], [ -3.484885948795936, 40.248658475328888 ], [ -3.484885948795936, 40.249970143976832 ], [ -3.484145732828428, 40.249970143976832 ], [ -3.484145732828428, 40.250844575619915 ], [ -3.483405516860918, 40.250844575619915 ], [ -3.483405516860918, 40.251718995965156 ], [ -3.482665300893411, 40.251718995965156 ], [ -3.482665300893411, 40.252593405012497 ], [ -3.480444652990886, 40.252593405012497 ], [ -3.480444652990886, 40.253030605299436 ], [ -3.477483789120852, 40.253030605299436 ], [ -3.477483789120852, 40.253467802761868 ], [ -3.473042493315802, 40.253467802761868 ], [ -3.473042493315802, 40.253030605299436 ], [ -3.472302277348294, 40.253030605299436 ], [ -3.472302277348294, 40.252593405012497 ], [ -3.471562061380785, 40.252593405012497 ], [ -3.471562061380785, 40.252156201901066 ] ], [ [ -3.465640333640719, 40.246035061773718 ], [ -3.465640333640719, 40.246909544256376 ], [ -3.466380549608227, 40.246909544256376 ], [ -3.466380549608227, 40.246035061773718 ], [ -3.465640333640719, 40.246035061773718 ] ] ], [ [ [ -0.321202903665314, 42.275286544650974 ], [ -0.321202903665314, 42.27486267858847 ], [ -0.320462687697806, 42.27486267858847 ], [ -0.320462687697806, 42.274014937911126 ], [ -0.319722471730297, 42.274014937911126 ], [ -0.319722471730297, 42.273167185830744 ], [ -0.318982255762789, 42.273167185830744 ], [ -0.318982255762789, 42.272743305514403 ], [ -0.318242039795281, 42.272743305514403 ], [ -0.318242039795281, 42.272319422347316 ], [ -0.316761607860264, 42.272319422347316 ], [ -0.316761607860264, 42.271895536329474 ], [ -0.315281175925247, 42.271895536329474 ], [ -0.315281175925247, 42.271471647460892 ], [ -0.313800743990231, 42.271471647460892 ], [ -0.313800743990231, 42.269352160356924 ], [ -0.313060528022722, 42.269352160356924 ], [ -0.313060528022722, 42.263841160353451 ], [ -0.313800743990231, 42.263841160353451 ], [ -0.313800743990231, 42.261721416686896 ], [ -0.314540959957739, 42.261721416686896 ], [ -0.314540959957739, 42.260025570441968 ], [ -0.315281175925247, 42.260025570441968 ], [ -0.315281175925247, 42.259177630215689 ], [ -0.316021391892756, 42.259177630215689 ], [ -0.316021391892756, 42.258753655826617 ], [ -0.317501823827772, 42.258753655826617 ], [ -0.317501823827772, 42.258329678586911 ], [ -0.318242039795281, 42.258329678586911 ], [ -0.318242039795281, 42.257057729764135 ], [ -0.318982255762789, 42.257057729764135 ], [ -0.318982255762789, 42.255785755285913 ], [ -0.319722471730297, 42.255785755285913 ], [ -0.319722471730297, 42.25451375515236 ], [ -0.320462687697806, 42.25451375515236 ], [ -0.320462687697806, 42.253241729363602 ], [ -0.321202903665314, 42.253241729363602 ], [ -0.321202903665314, 42.252393697918237 ], [ -0.326384415437872, 42.252393697918237 ], [ -0.326384415437872, 42.2528177150662 ], [ -0.327124631405381, 42.2528177150662 ], [ -0.327124631405381, 42.253665740810426 ], [ -0.327864847372889, 42.253665740810426 ], [ -0.327864847372889, 42.25451375515236 ], [ -0.328605063340398, 42.25451375515236 ], [ -0.328605063340398, 42.254937758047468 ], [ -0.329345279307906, 42.254937758047468 ], [ -0.329345279307906, 42.255361758091986 ], [ -0.330085495275414, 42.255361758091986 ], [ -0.330085495275414, 42.255785755285913 ], [ -0.331565927210431, 42.255785755285913 ], [ -0.331565927210431, 42.256209749629257 ], [ -0.333046359145447, 42.256209749629257 ], [ -0.333046359145447, 42.256633741121995 ], [ -0.333786575112956, 42.256633741121995 ], [ -0.333786575112956, 42.257057729764135 ], [ -0.335267007047972, 42.257057729764135 ], [ -0.335267007047972, 42.257481715555663 ], [ -0.336007223015481, 42.257481715555663 ], [ -0.336007223015481, 42.257905698496593 ], [ -0.337487654950497, 42.257905698496593 ], [ -0.337487654950497, 42.258329678586911 ], [ -0.338227870918006, 42.258329678586911 ], [ -0.338227870918006, 42.258753655826617 ], [ -0.338968086885514, 42.258753655826617 ], [ -0.338968086885514, 42.260449536279161 ], [ -0.339708302853023, 42.260449536279161 ], [ -0.339708302853023, 42.262145371121527 ], [ -0.340448518820531, 42.262145371121527 ], [ -0.340448518820531, 42.262569322705495 ], [ -0.339708302853023, 42.262569322705495 ], [ -0.339708302853023, 42.265960832753258 ], [ -0.338968086885514, 42.265960832753258 ], [ -0.338968086885514, 42.268928254383944 ], [ -0.338227870918006, 42.268928254383944 ], [ -0.338227870918006, 42.269352160356924 ], [ -0.337487654950497, 42.269352160356924 ], [ -0.337487654950497, 42.270199963750706 ], [ -0.336747438982989, 42.270199963750706 ], [ -0.336747438982989, 42.27104775574157 ], [ -0.336007223015481, 42.27104775574157 ], [ -0.336007223015481, 42.271471647460892 ], [ -0.334526791080464, 42.271471647460892 ], [ -0.334526791080464, 42.271895536329474 ], [ -0.333046359145447, 42.271895536329474 ], [ -0.333046359145447, 42.272319422347316 ], [ -0.330825711242922, 42.272319422347316 ], [ -0.330825711242922, 42.272743305514403 ], [ -0.330085495275414, 42.272743305514403 ], [ -0.330085495275414, 42.273591063296323 ], [ -0.329345279307906, 42.273591063296323 ], [ -0.329345279307906, 42.27486267858847 ], [ -0.328605063340398, 42.27486267858847 ], [ -0.328605063340398, 42.275710407862704 ], [ -0.327864847372889, 42.275710407862704 ], [ -0.327864847372889, 42.276558125733814 ], [ -0.322683335600331, 42.276558125733814 ], [ -0.322683335600331, 42.27613426822365 ], [ -0.321943119632822, 42.27613426822365 ], [ -0.321943119632822, 42.275286544650974 ], [ -0.321202903665314, 42.275286544650974 ] ] ], [ [ [ -5.72255881857363, 43.535697187634213 ], [ -5.721818602606122, 43.535697187634213 ], [ -5.721818602606122, 43.535281900557365 ], [ -5.721078386638613, 43.535281900557365 ], [ -5.721078386638613, 43.534866610620547 ], [ -5.720338170671106, 43.534866610620547 ], [ -5.720338170671106, 43.534451317823752 ], [ -5.719597954703597, 43.534451317823752 ], [ -5.719597954703597, 43.533620723650237 ], [ -5.718857738736089, 43.533620723650237 ], [ -5.718857738736089, 43.533205422273518 ], [ -5.718117522768581, 43.533205422273518 ], [ -5.718117522768581, 43.532790118036843 ], [ -5.717377306801072, 43.532790118036843 ], [ -5.717377306801072, 43.531959500983589 ], [ -5.716637090833564, 43.531959500983589 ], [ -5.716637090833564, 43.528221582676068 ], [ -5.715896874866057, 43.528221582676068 ], [ -5.715896874866057, 43.526144861296039 ], [ -5.716637090833564, 43.526144861296039 ], [ -5.716637090833564, 43.524898794148825 ], [ -5.717377306801072, 43.524898794148825 ], [ -5.717377306801072, 43.523652701262279 ], [ -5.718117522768581, 43.523652701262279 ], [ -5.718117522768581, 43.521991204041377 ], [ -5.718857738736089, 43.521991204041377 ], [ -5.718857738736089, 43.520745051096618 ], [ -5.719597954703597, 43.520745051096618 ], [ -5.719597954703597, 43.519914268167263 ], [ -5.720338170671106, 43.519914268167263 ], [ -5.720338170671106, 43.519498872412733 ], [ -5.721818602606122, 43.519498872412733 ], [ -5.721818602606122, 43.519083473798304 ], [ -5.72255881857363, 43.519083473798304 ], [ -5.72255881857363, 43.518668072323983 ], [ -5.724039250508648, 43.518668072323983 ], [ -5.724039250508648, 43.517837260795666 ], [ -5.724779466476156, 43.517837260795666 ], [ -5.724779466476156, 43.517006437827789 ], [ -5.725519682443664, 43.517006437827789 ], [ -5.725519682443664, 43.516175603420372 ], [ -5.726259898411173, 43.516175603420372 ], [ -5.726259898411173, 43.514929330360154 ], [ -5.727000114378681, 43.514929330360154 ], [ -5.727000114378681, 43.514513900287 ], [ -5.73144141018373, 43.514513900287 ], [ -5.73144141018373, 43.514098467353968 ], [ -5.73662292195629, 43.514098467353968 ], [ -5.73662292195629, 43.514513900287 ], [ -5.737363137923798, 43.514513900287 ], [ -5.737363137923798, 43.514929330360154 ], [ -5.738103353891305, 43.514929330360154 ], [ -5.738103353891305, 43.51534475757343 ], [ -5.739583785826321, 43.51534475757343 ], [ -5.739583785826321, 43.516591022054023 ], [ -5.74032400179383, 43.516591022054023 ], [ -5.74032400179383, 43.517837260795666 ], [ -5.741064217761339, 43.517837260795666 ], [ -5.741064217761339, 43.519083473798304 ], [ -5.741804433728848, 43.519083473798304 ], [ -5.741804433728848, 43.520329661061893 ], [ -5.744025081631372, 43.520329661061893 ], [ -5.744025081631372, 43.519914268167263 ], [ -5.744765297598882, 43.519914268167263 ], [ -5.744765297598882, 43.519498872412733 ], [ -5.746245729533897, 43.519498872412733 ], [ -5.746245729533897, 43.519914268167263 ], [ -5.747726161468914, 43.519914268167263 ], [ -5.747726161468914, 43.520329661061893 ], [ -5.748466377436422, 43.520329661061893 ], [ -5.748466377436422, 43.520745051096618 ], [ -5.74920659340393, 43.520745051096618 ], [ -5.74920659340393, 43.521160438271444 ], [ -5.749946809371439, 43.521160438271444 ], [ -5.749946809371439, 43.522406582636464 ], [ -5.750687025338948, 43.522406582636464 ], [ -5.750687025338948, 43.524068068417712 ], [ -5.751427241306456, 43.524068068417712 ], [ -5.751427241306456, 43.525729508440229 ], [ -5.750687025338948, 43.525729508440229 ], [ -5.750687025338948, 43.527390902703871 ], [ -5.749946809371439, 43.527390902703871 ], [ -5.749946809371439, 43.528636918372264 ], [ -5.74920659340393, 43.528636918372264 ], [ -5.74920659340393, 43.529052251208505 ], [ -5.748466377436422, 43.529052251208505 ], [ -5.748466377436422, 43.529467581184797 ], [ -5.746985945501407, 43.529467581184797 ], [ -5.746985945501407, 43.529882908301154 ], [ -5.746245729533897, 43.529882908301154 ], [ -5.746245729533897, 43.530298232557548 ], [ -5.744765297598882, 43.530298232557548 ], [ -5.744765297598882, 43.529882908301154 ], [ -5.744025081631372, 43.529882908301154 ], [ -5.744025081631372, 43.529467581184797 ], [ -5.743284865663864, 43.529467581184797 ], [ -5.743284865663864, 43.529052251208505 ], [ -5.742544649696356, 43.529052251208505 ], [ -5.742544649696356, 43.528636918372264 ], [ -5.741804433728848, 43.528636918372264 ], [ -5.741804433728848, 43.529467581184797 ], [ -5.741064217761339, 43.529467581184797 ], [ -5.741064217761339, 43.530298232557548 ], [ -5.74032400179383, 43.530298232557548 ], [ -5.74032400179383, 43.531128872490477 ], [ -5.739583785826321, 43.531128872490477 ], [ -5.739583785826321, 43.53237481094019 ], [ -5.738843569858814, 43.53237481094019 ], [ -5.738843569858814, 43.533205422273518 ], [ -5.738103353891305, 43.533205422273518 ], [ -5.738103353891305, 43.53403602216698 ], [ -5.737363137923798, 43.53403602216698 ], [ -5.737363137923798, 43.534866610620547 ], [ -5.73662292195629, 43.534866610620547 ], [ -5.73662292195629, 43.535697187634213 ], [ -5.735142490021273, 43.535697187634213 ], [ -5.735142490021273, 43.536112471851069 ], [ -5.732921842118747, 43.536112471851069 ], [ -5.732921842118747, 43.536527753207956 ], [ -5.730701194216222, 43.536527753207956 ], [ -5.730701194216222, 43.536943031704851 ], [ -5.728480546313697, 43.536943031704851 ], [ -5.728480546313697, 43.537358307341755 ], [ -5.727000114378681, 43.537358307341755 ], [ -5.727000114378681, 43.536943031704851 ], [ -5.724039250508648, 43.536943031704851 ], [ -5.724039250508648, 43.536527753207956 ], [ -5.72255881857363, 43.536527753207956 ], [ -5.72255881857363, 43.535697187634213 ] ] ], [ [ [ -5.82544883805729, 43.546908857629347 ], [ -5.824708622089781, 43.546908857629347 ], [ -5.824708622089781, 43.54607843505606 ], [ -5.823968406122273, 43.54607843505606 ], [ -5.823968406122273, 43.545248001042651 ], [ -5.823228190154764, 43.545248001042651 ], [ -5.823228190154764, 43.544417555589114 ], [ -5.822487974187256, 43.544417555589114 ], [ -5.822487974187256, 43.543587098695482 ], [ -5.821747758219748, 43.543587098695482 ], [ -5.821747758219748, 43.542756630361758 ], [ -5.821007542252239, 43.542756630361758 ], [ -5.821007542252239, 43.54192615058799 ], [ -5.82026732628473, 43.54192615058799 ], [ -5.82026732628473, 43.541510906411077 ], [ -5.819527110317222, 43.541510906411077 ], [ -5.819527110317222, 43.537358307341755 ], [ -5.82026732628473, 43.537358307341755 ], [ -5.82026732628473, 43.534866610620547 ], [ -5.821007542252239, 43.534866610620547 ], [ -5.821007542252239, 43.534451317823752 ], [ -5.822487974187256, 43.534451317823752 ], [ -5.822487974187256, 43.53403602216698 ], [ -5.823228190154764, 43.53403602216698 ], [ -5.823228190154764, 43.533620723650237 ], [ -5.824708622089781, 43.533620723650237 ], [ -5.824708622089781, 43.533205422273518 ], [ -5.82544883805729, 43.533205422273518 ], [ -5.82544883805729, 43.532790118036843 ], [ -5.826189054024797, 43.532790118036843 ], [ -5.826189054024797, 43.531959500983589 ], [ -5.826929269992306, 43.531959500983589 ], [ -5.826929269992306, 43.531128872490477 ], [ -5.827669485959815, 43.531128872490477 ], [ -5.827669485959815, 43.530713553953994 ], [ -5.828409701927322, 43.530713553953994 ], [ -5.828409701927322, 43.529882908301154 ], [ -5.829149917894831, 43.529882908301154 ], [ -5.829149917894831, 43.529052251208505 ], [ -5.834331429667389, 43.529052251208505 ], [ -5.834331429667389, 43.529467581184797 ], [ -5.835071645634897, 43.529467581184797 ], [ -5.835071645634897, 43.530298232557548 ], [ -5.835811861602406, 43.530298232557548 ], [ -5.835811861602406, 43.531544188167018 ], [ -5.836552077569914, 43.531544188167018 ], [ -5.836552077569914, 43.53237481094019 ], [ -5.837292293537423, 43.53237481094019 ], [ -5.837292293537423, 43.533205422273518 ], [ -5.838032509504931, 43.533205422273518 ], [ -5.838032509504931, 43.533620723650237 ], [ -5.83877272547244, 43.533620723650237 ], [ -5.83877272547244, 43.53403602216698 ], [ -5.839512941439948, 43.53403602216698 ], [ -5.839512941439948, 43.534451317823752 ], [ -5.840253157407456, 43.534451317823752 ], [ -5.840253157407456, 43.534866610620547 ], [ -5.840993373374964, 43.534866610620547 ], [ -5.840993373374964, 43.535281900557365 ], [ -5.841733589342473, 43.535281900557365 ], [ -5.841733589342473, 43.535697187634213 ], [ -5.842473805309981, 43.535697187634213 ], [ -5.842473805309981, 43.537358307341755 ], [ -5.843214021277489, 43.537358307341755 ], [ -5.843214021277489, 43.539849901103352 ], [ -5.843954237244998, 43.539849901103352 ], [ -5.843954237244998, 43.544832779745889 ], [ -5.843214021277489, 43.544832779745889 ], [ -5.843214021277489, 43.54607843505606 ], [ -5.842473805309981, 43.54607843505606 ], [ -5.842473805309981, 43.546908857629347 ], [ -5.841733589342473, 43.546908857629347 ], [ -5.841733589342473, 43.54773926876247 ], [ -5.840993373374964, 43.54773926876247 ], [ -5.840993373374964, 43.548569668455436 ], [ -5.836552077569914, 43.548569668455436 ], [ -5.836552077569914, 43.548984864011857 ], [ -5.826929269992306, 43.548984864011857 ], [ -5.826929269992306, 43.54815447003898 ], [ -5.826189054024797, 43.54815447003898 ], [ -5.826189054024797, 43.54773926876247 ], [ -5.82544883805729, 43.54773926876247 ], [ -5.82544883805729, 43.546908857629347 ] ] ], [ [ [ 3.749984917630524, 36.187355219123539 ], [ 3.750725133598033, 36.187355219123539 ], [ 3.750725133598033, 36.186892875113685 ], [ 3.751465349565541, 36.186892875113685 ], [ 3.751465349565541, 36.186430528374551 ], [ 3.75220556553305, 36.186430528374551 ], [ 3.75220556553305, 36.185968178906165 ], [ 3.752945781500558, 36.185968178906165 ], [ 3.752945781500558, 36.185043471781654 ], [ 3.753685997468065, 36.185043471781654 ], [ 3.753685997468065, 36.184581114125564 ], [ 3.754426213435575, 36.184581114125564 ], [ 3.754426213435575, 36.184118753740272 ], [ 3.755166429403083, 36.184118753740272 ], [ 3.755166429403083, 36.180419772408193 ], [ 3.755906645370591, 36.180419772408193 ], [ 3.755906645370591, 36.175795800126778 ], [ 3.755166429403083, 36.175795800126778 ], [ 3.755166429403083, 36.174870972922768 ], [ 3.754426213435575, 36.174870972922768 ], [ 3.754426213435575, 36.173483711649958 ], [ 3.753685997468065, 36.173483711649958 ], [ 3.753685997468065, 36.173021285767938 ], [ 3.75220556553305, 36.173021285767938 ], [ 3.75220556553305, 36.172558857157064 ], [ 3.750725133598033, 36.172558857157064 ], [ 3.750725133598033, 36.17209642581733 ], [ 3.749244701663016, 36.17209642581733 ], [ 3.749244701663016, 36.171633991748799 ], [ 3.747024053760491, 36.171633991748799 ], [ 3.747024053760491, 36.171171554951435 ], [ 3.744803405857966, 36.171171554951435 ], [ 3.744803405857966, 36.17209642581733 ], [ 3.744063189890458, 36.17209642581733 ], [ 3.744063189890458, 36.172558857157064 ], [ 3.743322973922949, 36.172558857157064 ], [ 3.743322973922949, 36.173483711649958 ], [ 3.742582757955441, 36.173483711649958 ], [ 3.742582757955441, 36.174408555227394 ], [ 3.741842541987933, 36.174408555227394 ], [ 3.741842541987933, 36.175333387889239 ], [ 3.741102326020424, 36.175333387889239 ], [ 3.741102326020424, 36.175795800126778 ], [ 3.740362110052916, 36.175795800126778 ], [ 3.740362110052916, 36.176720616415025 ], [ 3.739621894085408, 36.176720616415025 ], [ 3.739621894085408, 36.177645421787389 ], [ 3.738881678117899, 36.177645421787389 ], [ 3.738881678117899, 36.178570216243784 ], [ 3.738141462150391, 36.178570216243784 ], [ 3.738141462150391, 36.17903260937846 ], [ 3.737401246182882, 36.17903260937846 ], [ 3.737401246182882, 36.185043471781654 ], [ 3.738141462150391, 36.185043471781654 ], [ 3.738141462150391, 36.185968178906165 ], [ 3.738881678117899, 36.185968178906165 ], [ 3.738881678117899, 36.186430528374551 ], [ 3.739621894085408, 36.186430528374551 ], [ 3.739621894085408, 36.187355219123539 ], [ 3.740362110052916, 36.187355219123539 ], [ 3.740362110052916, 36.187817560404099 ], [ 3.741842541987933, 36.187817560404099 ], [ 3.741842541987933, 36.188279898955365 ], [ 3.744803405857966, 36.188279898955365 ], [ 3.744803405857966, 36.188742234777301 ], [ 3.748504485695508, 36.188742234777301 ], [ 3.748504485695508, 36.188279898955365 ], [ 3.749244701663016, 36.188279898955365 ], [ 3.749244701663016, 36.187817560404099 ], [ 3.749984917630524, 36.187817560404099 ], [ 3.749984917630524, 36.187355219123539 ] ] ], [ [ [ 3.865458608561824, 36.209082308706328 ], [ 3.866939040496842, 36.209082308706328 ], [ 3.866939040496842, 36.208620092988198 ], [ 3.869159688399366, 36.208620092988198 ], [ 3.869159688399366, 36.20815787454012 ], [ 3.870640120334383, 36.20815787454012 ], [ 3.870640120334383, 36.207695653362137 ], [ 3.871380336301891, 36.207695653362137 ], [ 3.871380336301891, 36.206308973448799 ], [ 3.872120552269399, 36.206308973448799 ], [ 3.872120552269399, 36.204922268966712 ], [ 3.872860768236908, 36.204922268966712 ], [ 3.872860768236908, 36.203073291439821 ], [ 3.872120552269399, 36.203073291439821 ], [ 3.872120552269399, 36.201686529632077 ], [ 3.871380336301891, 36.201686529632077 ], [ 3.871380336301891, 36.200299743256828 ], [ 3.870640120334383, 36.200299743256828 ], [ 3.870640120334383, 36.198450656541034 ], [ 3.869899904366874, 36.198450656541034 ], [ 3.869899904366874, 36.197063812843062 ], [ 3.869159688399366, 36.197063812843062 ], [ 3.869159688399366, 36.19613923672982 ], [ 3.868419472431857, 36.19613923672982 ], [ 3.868419472431857, 36.195676944578857 ], [ 3.866939040496842, 36.195676944578857 ], [ 3.866939040496842, 36.195214649698372 ], [ 3.866198824529333, 36.195214649698372 ], [ 3.866198824529333, 36.194752352088322 ], [ 3.864718392594316, 36.194752352088322 ], [ 3.864718392594316, 36.19429005174878 ], [ 3.863237960659299, 36.19429005174878 ], [ 3.863237960659299, 36.193827748679738 ], [ 3.862497744691792, 36.193827748679738 ], [ 3.862497744691792, 36.193365442881202 ], [ 3.859536880821758, 36.193365442881202 ], [ 3.859536880821758, 36.193827748679738 ], [ 3.85879666485425, 36.193827748679738 ], [ 3.85879666485425, 36.19429005174878 ], [ 3.857316232919233, 36.19429005174878 ], [ 3.857316232919233, 36.194752352088322 ], [ 3.856576016951724, 36.194752352088322 ], [ 3.856576016951724, 36.195214649698372 ], [ 3.855095585016708, 36.195214649698372 ], [ 3.855095585016708, 36.195676944578857 ], [ 3.8543553690492, 36.195676944578857 ], [ 3.8543553690492, 36.19613923672982 ], [ 3.853615153081691, 36.19613923672982 ], [ 3.853615153081691, 36.196601526151227 ], [ 3.852874937114183, 36.196601526151227 ], [ 3.852874937114183, 36.198450656541034 ], [ 3.852134721146674, 36.198450656541034 ], [ 3.852134721146674, 36.203073291439821 ], [ 3.852874937114183, 36.203073291439821 ], [ 3.852874937114183, 36.204922268966712 ], [ 3.853615153081691, 36.204922268966712 ], [ 3.853615153081691, 36.20584674135128 ], [ 3.8543553690492, 36.20584674135128 ], [ 3.8543553690492, 36.206771202816455 ], [ 3.855095585016708, 36.206771202816455 ], [ 3.855095585016708, 36.207695653362137 ], [ 3.855835800984216, 36.207695653362137 ], [ 3.855835800984216, 36.208620092988198 ], [ 3.856576016951724, 36.208620092988198 ], [ 3.856576016951724, 36.209082308706328 ], [ 3.857316232919233, 36.209082308706328 ], [ 3.857316232919233, 36.209544521694525 ], [ 3.858056448886741, 36.209544521694525 ], [ 3.858056448886741, 36.210006731952745 ], [ 3.859536880821758, 36.210006731952745 ], [ 3.859536880821758, 36.210468939481004 ], [ 3.861757528724283, 36.210468939481004 ], [ 3.861757528724283, 36.210006731952745 ], [ 3.863237960659299, 36.210006731952745 ], [ 3.863237960659299, 36.209544521694525 ], [ 3.865458608561824, 36.209544521694525 ], [ 3.865458608561824, 36.209082308706328 ] ] ], [ [ [ 4.266655662951342, 36.572918579178904 ], [ 4.268876310853867, 36.572918579178904 ], [ 4.268876310853867, 36.572458521662405 ], [ 4.271096958756392, 36.572458521662405 ], [ 4.271096958756392, 36.571538398407291 ], [ 4.2718371747239, 36.571538398407291 ], [ 4.2718371747239, 36.569238042308001 ], [ 4.272577390691408, 36.569238042308001 ], [ 4.272577390691408, 36.566937617693576 ], [ 4.273317606658916, 36.566937617693576 ], [ 4.273317606658916, 36.564637124565685 ], [ 4.274057822626425, 36.564637124565685 ], [ 4.274057822626425, 36.563256795803177 ], [ 4.273317606658916, 36.563256795803177 ], [ 4.273317606658916, 36.561876442376793 ], [ 4.272577390691408, 36.561876442376793 ], [ 4.272577390691408, 36.560035932776174 ], [ 4.271096958756392, 36.560035932776174 ], [ 4.271096958756392, 36.559575798525152 ], [ 4.270356742788883, 36.559575798525152 ], [ 4.270356742788883, 36.559115661533795 ], [ 4.268876310853867, 36.559115661533795 ], [ 4.268876310853867, 36.558655521802123 ], [ 4.26739587891885, 36.558655521802123 ], [ 4.26739587891885, 36.559115661533795 ], [ 4.265915446983834, 36.559115661533795 ], [ 4.265915446983834, 36.559575798525152 ], [ 4.265175231016325, 36.559575798525152 ], [ 4.265175231016325, 36.560035932776174 ], [ 4.262214367146291, 36.560035932776174 ], [ 4.262214367146291, 36.559575798525152 ], [ 4.259993719243767, 36.559575798525152 ], [ 4.259993719243767, 36.559115661533795 ], [ 4.259253503276258, 36.559115661533795 ], [ 4.259253503276258, 36.558655521802123 ], [ 4.25851328730875, 36.558655521802123 ], [ 4.25851328730875, 36.557735234117892 ], [ 4.257773071341242, 36.557735234117892 ], [ 4.257773071341242, 36.55727508616539 ], [ 4.257032855373733, 36.55727508616539 ], [ 4.257032855373733, 36.55635478203957 ], [ 4.252591559568684, 36.55635478203957 ], [ 4.252591559568684, 36.556814935472602 ], [ 4.251851343601174, 36.556814935472602 ], [ 4.251851343601174, 36.55727508616539 ], [ 4.251111127633667, 36.55727508616539 ], [ 4.251111127633667, 36.557735234117892 ], [ 4.250370911666158, 36.557735234117892 ], [ 4.250370911666158, 36.558655521802123 ], [ 4.24963069569865, 36.558655521802123 ], [ 4.24963069569865, 36.559575798525152 ], [ 4.248890479731142, 36.559575798525152 ], [ 4.248890479731142, 36.563716908131134 ], [ 4.24963069569865, 36.563716908131134 ], [ 4.24963069569865, 36.565557330038352 ], [ 4.250370911666158, 36.565557330038352 ], [ 4.250370911666158, 36.566937617693576 ], [ 4.251111127633667, 36.566937617693576 ], [ 4.251111127633667, 36.568777962866271 ], [ 4.251851343601174, 36.568777962866271 ], [ 4.251851343601174, 36.570158192969622 ], [ 4.252591559568684, 36.570158192969622 ], [ 4.252591559568684, 36.570618264189505 ], [ 4.253331775536191, 36.570618264189505 ], [ 4.253331775536191, 36.571078332668719 ], [ 4.254071991503699, 36.571078332668719 ], [ 4.254071991503699, 36.571538398407291 ], [ 4.254812207471208, 36.571538398407291 ], [ 4.254812207471208, 36.571998461405187 ], [ 4.255552423438716, 36.571998461405187 ], [ 4.255552423438716, 36.572458521662405 ], [ 4.257032855373733, 36.572458521662405 ], [ 4.257032855373733, 36.572918579178904 ], [ 4.257773071341242, 36.572918579178904 ], [ 4.257773071341242, 36.573378633954711 ], [ 4.25851328730875, 36.573378633954711 ], [ 4.25851328730875, 36.573838685989791 ], [ 4.259253503276258, 36.573838685989791 ], [ 4.259253503276258, 36.574298735284124 ], [ 4.262214367146291, 36.574298735284124 ], [ 4.262214367146291, 36.573838685989791 ], [ 4.264435015048816, 36.573838685989791 ], [ 4.264435015048816, 36.573378633954711 ], [ 4.266655662951342, 36.573378633954711 ], [ 4.266655662951342, 36.572918579178904 ] ] ], [ [ [ 3.143748040241198, 36.603276314916315 ], [ 3.144488256208707, 36.603276314916315 ], [ 3.144488256208707, 36.600517014187183 ], [ 3.145228472176215, 36.600517014187183 ], [ 3.145228472176215, 36.598217521521264 ], [ 3.144488256208707, 36.598217521521264 ], [ 3.144488256208707, 36.595917960319227 ], [ 3.143748040241198, 36.595917960319227 ], [ 3.143748040241198, 36.594078262012708 ], [ 3.14300782427369, 36.594078262012708 ], [ 3.14300782427369, 36.593618330582743 ], [ 3.142267608306182, 36.593618330582743 ], [ 3.142267608306182, 36.593158396411461 ], [ 3.141527392338674, 36.593158396411461 ], [ 3.141527392338674, 36.592698459498877 ], [ 3.140787176371165, 36.592698459498877 ], [ 3.140787176371165, 36.592238519845012 ], [ 3.140046960403657, 36.592238519845012 ], [ 3.140046960403657, 36.591778577449873 ], [ 3.139306744436149, 36.591778577449873 ], [ 3.139306744436149, 36.591318632313481 ], [ 3.13856652846864, 36.591318632313481 ], [ 3.13856652846864, 36.590858684435844 ], [ 3.137826312501132, 36.590858684435844 ], [ 3.137826312501132, 36.591318632313481 ], [ 3.135605664598607, 36.591318632313481 ], [ 3.135605664598607, 36.591778577449873 ], [ 3.13412523266359, 36.591778577449873 ], [ 3.13412523266359, 36.592238519845012 ], [ 3.132644800728573, 36.592238519845012 ], [ 3.132644800728573, 36.593158396411461 ], [ 3.131904584761065, 36.593158396411461 ], [ 3.131904584761065, 36.594078262012708 ], [ 3.131164368793557, 36.594078262012708 ], [ 3.131164368793557, 36.594538190701364 ], [ 3.130424152826048, 36.594538190701364 ], [ 3.130424152826048, 36.595458039854627 ], [ 3.12968393685854, 36.595458039854627 ], [ 3.12968393685854, 36.596377878042439 ], [ 3.128943720891032, 36.596377878042439 ], [ 3.128943720891032, 36.599137326812055 ], [ 3.12968393685854, 36.599137326812055 ], [ 3.12968393685854, 36.604196059893432 ], [ 3.130424152826048, 36.604196059893432 ], [ 3.130424152826048, 36.604655928269572 ], [ 3.131164368793557, 36.604655928269572 ], [ 3.131164368793557, 36.605575656796958 ], [ 3.131904584761065, 36.605575656796958 ], [ 3.131904584761065, 36.606035516948175 ], [ 3.132644800728573, 36.606035516948175 ], [ 3.132644800728573, 36.606495374357721 ], [ 3.141527392338674, 36.606495374357721 ], [ 3.141527392338674, 36.605575656796958 ], [ 3.142267608306182, 36.605575656796958 ], [ 3.142267608306182, 36.605115793904091 ], [ 3.14300782427369, 36.605115793904091 ], [ 3.14300782427369, 36.604196059893432 ], [ 3.143748040241198, 36.604196059893432 ], [ 3.143748040241198, 36.603276314916315 ] ] ], [ [ [ 4.505005204489025, 36.749836948331236 ], [ 4.505745420456534, 36.749836948331236 ], [ 4.505745420456534, 36.748459936001332 ], [ 4.506485636424041, 36.748459936001332 ], [ 4.506485636424041, 36.748918942857074 ], [ 4.50722585239155, 36.748918942857074 ], [ 4.50722585239155, 36.749377946967037 ], [ 4.507966068359059, 36.749377946967037 ], [ 4.507966068359059, 36.750295946949642 ], [ 4.508706284326567, 36.750295946949642 ], [ 4.508706284326567, 36.750754942822262 ], [ 4.509446500294075, 36.750754942822262 ], [ 4.509446500294075, 36.751672926330023 ], [ 4.512407364164109, 36.751672926330023 ], [ 4.512407364164109, 36.75121393594906 ], [ 4.514628012066634, 36.75121393594906 ], [ 4.514628012066634, 36.750754942822262 ], [ 4.51610844400165, 36.750754942822262 ], [ 4.51610844400165, 36.750295946949642 ], [ 4.516848659969158, 36.750295946949642 ], [ 4.516848659969158, 36.749377946967037 ], [ 4.517588875936666, 36.749377946967037 ], [ 4.517588875936666, 36.748459936001332 ], [ 4.518329091904175, 36.748459936001332 ], [ 4.518329091904175, 36.74754191405264 ], [ 4.519069307871684, 36.74754191405264 ], [ 4.519069307871684, 36.746623881121046 ], [ 4.519809523839192, 36.746623881121046 ], [ 4.519809523839192, 36.745705837206678 ], [ 4.5205497398067, 36.745705837206678 ], [ 4.5205497398067, 36.744787782309629 ], [ 4.521289955774209, 36.744787782309629 ], [ 4.521289955774209, 36.743869716429998 ], [ 4.522030171741717, 36.743869716429998 ], [ 4.522030171741717, 36.742951639567913 ], [ 4.522770387709225, 36.742951639567913 ], [ 4.522770387709225, 36.742033551723452 ], [ 4.523510603676733, 36.742033551723452 ], [ 4.523510603676733, 36.738820157783188 ], [ 4.522770387709225, 36.738820157783188 ], [ 4.522770387709225, 36.735606629314681 ], [ 4.522030171741717, 36.735606629314681 ], [ 4.522030171741717, 36.735147542837545 ], [ 4.521289955774209, 36.735147542837545 ], [ 4.521289955774209, 36.734688453615036 ], [ 4.5205497398067, 36.734688453615036 ], [ 4.5205497398067, 36.734229361647174 ], [ 4.519809523839192, 36.734229361647174 ], [ 4.519809523839192, 36.733770266933959 ], [ 4.519069307871684, 36.733770266933959 ], [ 4.519069307871684, 36.733311169475435 ], [ 4.518329091904175, 36.733311169475435 ], [ 4.518329091904175, 36.732852069271566 ], [ 4.517588875936666, 36.732852069271566 ], [ 4.517588875936666, 36.731933860627962 ], [ 4.516848659969158, 36.731933860627962 ], [ 4.516848659969158, 36.731015641003239 ], [ 4.51610844400165, 36.731015641003239 ], [ 4.51610844400165, 36.729638290976787 ], [ 4.515368228034141, 36.729638290976787 ], [ 4.515368228034141, 36.728720043899735 ], [ 4.514628012066634, 36.728720043899735 ], [ 4.514628012066634, 36.728260916243428 ], [ 4.505745420456534, 36.728260916243428 ], [ 4.505745420456534, 36.728720043899735 ], [ 4.505005204489025, 36.728720043899735 ], [ 4.505005204489025, 36.729179168810866 ], [ 4.503524772554009, 36.729179168810866 ], [ 4.503524772554009, 36.729638290976787 ], [ 4.502784556586501, 36.729638290976787 ], [ 4.502784556586501, 36.730097410397498 ], [ 4.502044340618992, 36.730097410397498 ], [ 4.502044340618992, 36.730556527072991 ], [ 4.501304124651484, 36.730556527072991 ], [ 4.501304124651484, 36.729638290976787 ], [ 4.500563908683975, 36.729638290976787 ], [ 4.500563908683975, 36.726424378166556 ], [ 4.499823692716467, 36.726424378166556 ], [ 4.499823692716467, 36.725965236784504 ], [ 4.49834326078145, 36.725965236784504 ], [ 4.49834326078145, 36.725506092657341 ], [ 4.496122612878925, 36.725506092657341 ], [ 4.496122612878925, 36.725046945785088 ], [ 4.493161749008892, 36.725046945785088 ], [ 4.493161749008892, 36.725506092657341 ], [ 4.492421533041384, 36.725506092657341 ], [ 4.492421533041384, 36.726424378166556 ], [ 4.491681317073875, 36.726424378166556 ], [ 4.491681317073875, 36.726883516803483 ], [ 4.490941101106367, 36.726883516803483 ], [ 4.490941101106367, 36.731933860627962 ], [ 4.491681317073875, 36.731933860627962 ], [ 4.491681317073875, 36.733311169475435 ], [ 4.490941101106367, 36.733311169475435 ], [ 4.490941101106367, 36.734688453615036 ], [ 4.490200885138858, 36.734688453615036 ], [ 4.490200885138858, 36.736065713046429 ], [ 4.48946066917135, 36.736065713046429 ], [ 4.48946066917135, 36.73698387227374 ], [ 4.488720453203842, 36.73698387227374 ], [ 4.488720453203842, 36.738361090524002 ], [ 4.487980237236333, 36.738361090524002 ], [ 4.487980237236333, 36.739738284065112 ], [ 4.487240021268826, 36.739738284065112 ], [ 4.487240021268826, 36.742492597018455 ], [ 4.487980237236333, 36.742492597018455 ], [ 4.487980237236333, 36.744328750742632 ], [ 4.488720453203842, 36.744328750742632 ], [ 4.488720453203842, 36.746164860536709 ], [ 4.48946066917135, 36.746164860536709 ], [ 4.48946066917135, 36.74754191405264 ], [ 4.490200885138858, 36.74754191405264 ], [ 4.490200885138858, 36.748918942857074 ], [ 4.491681317073875, 36.748918942857074 ], [ 4.491681317073875, 36.749377946967037 ], [ 4.492421533041384, 36.749377946967037 ], [ 4.492421533041384, 36.749836948331236 ], [ 4.493161749008892, 36.749836948331236 ], [ 4.493161749008892, 36.750295946949642 ], [ 4.494642180943909, 36.750295946949642 ], [ 4.494642180943909, 36.750754942822262 ], [ 4.495382396911417, 36.750754942822262 ], [ 4.495382396911417, 36.75121393594906 ], [ 4.496862828846433, 36.75121393594906 ], [ 4.496862828846433, 36.751672926330023 ], [ 4.497603044813942, 36.751672926330023 ], [ 4.497603044813942, 36.752131913965158 ], [ 4.501304124651484, 36.752131913965158 ], [ 4.501304124651484, 36.751672926330023 ], [ 4.502784556586501, 36.751672926330023 ], [ 4.502784556586501, 36.75121393594906 ], [ 4.504264988521517, 36.75121393594906 ], [ 4.504264988521517, 36.750754942822262 ], [ 4.505005204489025, 36.750754942822262 ], [ 4.505005204489025, 36.749836948331236 ] ] ], [ [ [ -0.244220443044447, 39.670383728522836 ], [ -0.243480227076939, 39.670383728522836 ], [ -0.243480227076939, 39.669501842176466 ], [ -0.242740011109431, 39.669501842176466 ], [ -0.242740011109431, 39.66906089478185 ], [ -0.241999795141922, 39.66906089478185 ], [ -0.241999795141922, 39.668178991549773 ], [ -0.241259579174414, 39.668178991549773 ], [ -0.241259579174414, 39.667297077060631 ], [ -0.240519363206906, 39.667297077060631 ], [ -0.240519363206906, 39.666856115594676 ], [ -0.239779147239397, 39.666856115594676 ], [ -0.239779147239397, 39.662005353731132 ], [ -0.240519363206906, 39.662005353731132 ], [ -0.240519363206906, 39.661123360444378 ], [ -0.241259579174414, 39.661123360444378 ], [ -0.241259579174414, 39.659800349408272 ], [ -0.241999795141922, 39.659800349408272 ], [ -0.241999795141922, 39.658918327980295 ], [ -0.242740011109431, 39.658918327980295 ], [ -0.242740011109431, 39.658036295295943 ], [ -0.243480227076939, 39.658036295295943 ], [ -0.243480227076939, 39.65715425135528 ], [ -0.244220443044447, 39.65715425135528 ], [ -0.244220443044447, 39.656713225163855 ], [ -0.252362818687039, 39.656713225163855 ], [ -0.252362818687039, 39.65759527473265 ], [ -0.253103034654547, 39.65759527473265 ], [ -0.253103034654547, 39.658036295295943 ], [ -0.253843250622056, 39.658036295295943 ], [ -0.253843250622056, 39.658918327980295 ], [ -0.254583466589564, 39.658918327980295 ], [ -0.254583466589564, 39.666415151314489 ], [ -0.253843250622056, 39.666415151314489 ], [ -0.253843250622056, 39.666856115594676 ], [ -0.253103034654547, 39.666856115594676 ], [ -0.253103034654547, 39.667738035712318 ], [ -0.252362818687039, 39.667738035712318 ], [ -0.252362818687039, 39.668619944572953 ], [ -0.251622602719531, 39.668619944572953 ], [ -0.251622602719531, 39.669501842176466 ], [ -0.250882386752022, 39.669501842176466 ], [ -0.250882386752022, 39.670383728522836 ], [ -0.250142170784514, 39.670383728522836 ], [ -0.250142170784514, 39.671265603611971 ], [ -0.244960659011956, 39.671265603611971 ], [ -0.244960659011956, 39.670824667474562 ], [ -0.244220443044447, 39.670824667474562 ], [ -0.244220443044447, 39.670383728522836 ] ] ], [ [ [ 1.667017185062072, 41.320406885519908 ], [ 1.667017185062072, 41.319976656407619 ], [ 1.66775740102958, 41.319976656407619 ], [ 1.66775740102958, 41.319116189662658 ], [ 1.668497616997088, 41.319116189662658 ], [ 1.668497616997088, 41.317395222091427 ], [ 1.669237832964597, 41.317395222091427 ], [ 1.669237832964597, 41.315674209078693 ], [ 1.669978048932105, 41.315674209078693 ], [ 1.669978048932105, 41.31395315062484 ], [ 1.670718264899614, 41.31395315062484 ], [ 1.670718264899614, 41.312232046730209 ], [ 1.669978048932105, 41.312232046730209 ], [ 1.669978048932105, 41.31051089739514 ], [ 1.669237832964597, 41.31051089739514 ], [ 1.669237832964597, 41.308789702620011 ], [ 1.668497616997088, 41.308789702620011 ], [ 1.668497616997088, 41.30749877671883 ], [ 1.66775740102958, 41.30749877671883 ], [ 1.66775740102958, 41.307068462405169 ], [ 1.667017185062072, 41.307068462405169 ], [ 1.667017185062072, 41.306638145251547 ], [ 1.666276969094563, 41.306638145251547 ], [ 1.666276969094563, 41.306207825257957 ], [ 1.665536753127055, 41.306207825257957 ], [ 1.665536753127055, 41.305777502424441 ], [ 1.661835673289513, 41.305777502424441 ], [ 1.661835673289513, 41.306207825257957 ], [ 1.661095457322005, 41.306207825257957 ], [ 1.661095457322005, 41.306638145251547 ], [ 1.659615025386988, 41.306638145251547 ], [ 1.659615025386988, 41.307068462405169 ], [ 1.658134593451972, 41.307068462405169 ], [ 1.658134593451972, 41.30749877671883 ], [ 1.657394377484463, 41.30749877671883 ], [ 1.657394377484463, 41.307929088192537 ], [ 1.656654161516955, 41.307929088192537 ], [ 1.656654161516955, 41.308359396826262 ], [ 1.655913945549446, 41.308359396826262 ], [ 1.655913945549446, 41.309650305687569 ], [ 1.655173729581938, 41.309650305687569 ], [ 1.655173729581938, 41.311371477742703 ], [ 1.65443351361443, 41.311371477742703 ], [ 1.65443351361443, 41.312232046730209 ], [ 1.655173729581938, 41.312232046730209 ], [ 1.655173729581938, 41.314383419498391 ], [ 1.655913945549446, 41.314383419498391 ], [ 1.655913945549446, 41.316964973098372 ], [ 1.656654161516955, 41.316964973098372 ], [ 1.656654161516955, 41.318685952030009 ], [ 1.657394377484463, 41.318685952030009 ], [ 1.657394377484463, 41.319116189662658 ], [ 1.65887480941948, 41.319116189662658 ], [ 1.65887480941948, 41.319546424455204 ], [ 1.659615025386988, 41.319546424455204 ], [ 1.659615025386988, 41.319976656407619 ], [ 1.660355241354497, 41.319976656407619 ], [ 1.660355241354497, 41.320406885519908 ], [ 1.661835673289513, 41.320406885519908 ], [ 1.661835673289513, 41.320837111792073 ], [ 1.662575889257022, 41.320837111792073 ], [ 1.662575889257022, 41.321267335224093 ], [ 1.664796537159547, 41.321267335224093 ], [ 1.664796537159547, 41.320837111792073 ], [ 1.665536753127055, 41.320837111792073 ], [ 1.665536753127055, 41.320406885519908 ], [ 1.667017185062072, 41.320406885519908 ] ] ], [ [ [ 0.366457730149928, 42.462356187696031 ], [ 0.366457730149928, 42.46193358206019 ], [ 0.368678378052454, 42.46193358206019 ], [ 0.368678378052454, 42.461510973571876 ], [ 0.369418594019962, 42.461510973571876 ], [ 0.369418594019962, 42.460243130991991 ], [ 0.37015880998747, 42.460243130991991 ], [ 0.37015880998747, 42.458552634284189 ], [ 0.370899025954978, 42.458552634284189 ], [ 0.370899025954978, 42.452212865156469 ], [ 0.37015880998747, 42.452212865156469 ], [ 0.37015880998747, 42.450099466159784 ], [ 0.369418594019962, 42.450099466159784 ], [ 0.369418594019962, 42.449676777803276 ], [ 0.368678378052454, 42.449676777803276 ], [ 0.368678378052454, 42.449254086594394 ], [ 0.367938162084945, 42.449254086594394 ], [ 0.367938162084945, 42.448831392533123 ], [ 0.367197946117437, 42.448831392533123 ], [ 0.367197946117437, 42.448408695619484 ], [ 0.366457730149928, 42.448408695619484 ], [ 0.366457730149928, 42.447985995853479 ], [ 0.36571751418242, 42.447985995853479 ], [ 0.36571751418242, 42.447563293235106 ], [ 0.364977298214912, 42.447563293235106 ], [ 0.364977298214912, 42.44714058776438 ], [ 0.364237082247403, 42.44714058776438 ], [ 0.364237082247403, 42.44671787944128 ], [ 0.362756650312387, 42.44671787944128 ], [ 0.362756650312387, 42.44714058776438 ], [ 0.362016434344878, 42.44714058776438 ], [ 0.362016434344878, 42.447563293235106 ], [ 0.36127621837737, 42.447563293235106 ], [ 0.36127621837737, 42.447985995853479 ], [ 0.359795786442353, 42.447985995853479 ], [ 0.359795786442353, 42.448408695619484 ], [ 0.359055570474845, 42.448408695619484 ], [ 0.359055570474845, 42.448831392533123 ], [ 0.358315354507337, 42.448831392533123 ], [ 0.358315354507337, 42.449254086594394 ], [ 0.35683492257232, 42.449254086594394 ], [ 0.35683492257232, 42.449676777803276 ], [ 0.356094706604812, 42.449676777803276 ], [ 0.356094706604812, 42.450099466159784 ], [ 0.355354490637303, 42.450099466159784 ], [ 0.355354490637303, 42.450522151663897 ], [ 0.353874058702287, 42.450522151663897 ], [ 0.353874058702287, 42.450944834315635 ], [ 0.353133842734778, 42.450944834315635 ], [ 0.353133842734778, 42.45136751411497 ], [ 0.35239362676727, 42.45136751411497 ], [ 0.35239362676727, 42.451790191061924 ], [ 0.351653410799762, 42.451790191061924 ], [ 0.351653410799762, 42.453058204788348 ], [ 0.350913194832253, 42.453058204788348 ], [ 0.350913194832253, 42.454748849823147 ], [ 0.350172978864745, 42.454748849823147 ], [ 0.350172978864745, 42.45643944921914 ], [ 0.350913194832253, 42.45643944921914 ], [ 0.350913194832253, 42.458552634284189 ], [ 0.351653410799762, 42.458552634284189 ], [ 0.351653410799762, 42.459397888343034 ], [ 0.35239362676727, 42.459397888343034 ], [ 0.35239362676727, 42.459820511093746 ], [ 0.353133842734778, 42.459820511093746 ], [ 0.353133842734778, 42.460243130991991 ], [ 0.353874058702287, 42.460243130991991 ], [ 0.353874058702287, 42.460665748037762 ], [ 0.354614274669795, 42.460665748037762 ], [ 0.354614274669795, 42.46108836223106 ], [ 0.355354490637303, 42.46108836223106 ], [ 0.355354490637303, 42.461510973571876 ], [ 0.356094706604812, 42.461510973571876 ], [ 0.356094706604812, 42.46193358206019 ], [ 0.35683492257232, 42.46193358206019 ], [ 0.35683492257232, 42.462356187696031 ], [ 0.357575138539828, 42.462356187696031 ], [ 0.357575138539828, 42.462778790479376 ], [ 0.358315354507337, 42.462778790479376 ], [ 0.358315354507337, 42.463201390410227 ], [ 0.362016434344878, 42.463201390410227 ], [ 0.362016434344878, 42.462778790479376 ], [ 0.364237082247403, 42.462778790479376 ], [ 0.364237082247403, 42.462356187696031 ], [ 0.366457730149928, 42.462356187696031 ] ] ], [ [ [ 0.288735053561553, 42.477145587853137 ], [ 0.288735053561553, 42.471652789997137 ], [ 0.287994837594045, 42.471652789997137 ], [ 0.287994837594045, 42.470807701384302 ], [ 0.287254621626537, 42.470807701384302 ], [ 0.287254621626537, 42.470385152799032 ], [ 0.287994837594045, 42.470385152799032 ], [ 0.287994837594045, 42.469962601361203 ], [ 0.288735053561553, 42.469962601361203 ], [ 0.288735053561553, 42.469117489927854 ], [ 0.289475269529062, 42.469117489927854 ], [ 0.289475269529062, 42.468694929932354 ], [ 0.29021548549657, 42.468694929932354 ], [ 0.29021548549657, 42.468272367084303 ], [ 0.290955701464078, 42.468272367084303 ], [ 0.290955701464078, 42.463201390410227 ], [ 0.29021548549657, 42.463201390410227 ], [ 0.29021548549657, 42.462356187696031 ], [ 0.289475269529062, 42.462356187696031 ], [ 0.289475269529062, 42.461510973571876 ], [ 0.288735053561553, 42.461510973571876 ], [ 0.288735053561553, 42.460665748037762 ], [ 0.285033973724012, 42.460665748037762 ], [ 0.285033973724012, 42.46108836223106 ], [ 0.282073109853978, 42.46108836223106 ], [ 0.282073109853978, 42.460665748037762 ], [ 0.280592677918962, 42.460665748037762 ], [ 0.280592677918962, 42.460243130991991 ], [ 0.279112245983945, 42.460243130991991 ], [ 0.279112245983945, 42.459820511093746 ], [ 0.277631814048928, 42.459820511093746 ], [ 0.277631814048928, 42.459397888343034 ], [ 0.276151382113912, 42.459397888343034 ], [ 0.276151382113912, 42.458975262739841 ], [ 0.274670950178895, 42.458975262739841 ], [ 0.274670950178895, 42.458552634284189 ], [ 0.27245030227637, 42.458552634284189 ], [ 0.27245030227637, 42.458975262739841 ], [ 0.270969870341353, 42.458975262739841 ], [ 0.270969870341353, 42.459397888343034 ], [ 0.269489438406337, 42.459397888343034 ], [ 0.269489438406337, 42.459820511093746 ], [ 0.26800900647132, 42.459820511093746 ], [ 0.26800900647132, 42.460243130991991 ], [ 0.266528574536303, 42.460243130991991 ], [ 0.266528574536303, 42.460665748037762 ], [ 0.265788358568795, 42.460665748037762 ], [ 0.265788358568795, 42.46108836223106 ], [ 0.264307926633778, 42.46108836223106 ], [ 0.264307926633778, 42.463623987488582 ], [ 0.26356771066627, 42.463623987488582 ], [ 0.26356771066627, 42.46531434727688 ], [ 0.262827494698762, 42.46531434727688 ], [ 0.262827494698762, 42.465736930092682 ], [ 0.262087278731253, 42.465736930092682 ], [ 0.262087278731253, 42.466582087166685 ], [ 0.261347062763745, 42.466582087166685 ], [ 0.261347062763745, 42.467004661424888 ], [ 0.260606846796237, 42.467004661424888 ], [ 0.260606846796237, 42.467849801383707 ], [ 0.259866630828728, 42.467849801383707 ], [ 0.259866630828728, 42.47292040152206 ], [ 0.260606846796237, 42.47292040152206 ], [ 0.260606846796237, 42.473342932991862 ], [ 0.261347062763745, 42.473342932991862 ], [ 0.261347062763745, 42.474187987373703 ], [ 0.262087278731253, 42.474187987373703 ], [ 0.262087278731253, 42.475033030345152 ], [ 0.262827494698762, 42.475033030345152 ], [ 0.262827494698762, 42.475455547551981 ], [ 0.267268790503812, 42.475455547551981 ], [ 0.267268790503812, 42.475878061906194 ], [ 0.26800900647132, 42.475878061906194 ], [ 0.26800900647132, 42.476723082056779 ], [ 0.268749222438828, 42.476723082056779 ], [ 0.268749222438828, 42.477145587853137 ], [ 0.269489438406337, 42.477145587853137 ], [ 0.269489438406337, 42.477568090796886 ], [ 0.271710086308862, 42.477568090796886 ], [ 0.271710086308862, 42.477145587853137 ], [ 0.273930734211387, 42.477145587853137 ], [ 0.273930734211387, 42.476723082056779 ], [ 0.27689159808142, 42.476723082056779 ], [ 0.27689159808142, 42.476300573407791 ], [ 0.278372030016437, 42.476300573407791 ], [ 0.278372030016437, 42.476723082056779 ], [ 0.279112245983945, 42.476723082056779 ], [ 0.279112245983945, 42.477568090796886 ], [ 0.279852461951453, 42.477568090796886 ], [ 0.279852461951453, 42.47841308812648 ], [ 0.280592677918962, 42.47841308812648 ], [ 0.280592677918962, 42.479258074045532 ], [ 0.286514405659028, 42.479258074045532 ], [ 0.286514405659028, 42.47841308812648 ], [ 0.287254621626537, 42.47841308812648 ], [ 0.287254621626537, 42.477568090796886 ], [ 0.287994837594045, 42.477568090796886 ], [ 0.287994837594045, 42.477145587853137 ], [ 0.288735053561553, 42.477145587853137 ] ] ], [ [ [ 1.160709463286371, 42.802048324755823 ], [ 1.160709463286371, 42.801628019385653 ], [ 1.161449679253879, 42.801628019385653 ], [ 1.161449679253879, 42.79742480864337 ], [ 1.160709463286371, 42.79742480864337 ], [ 1.160709463286371, 42.796584132231686 ], [ 1.159969247318863, 42.796584132231686 ], [ 1.159969247318863, 42.796163789742948 ], [ 1.159229031351354, 42.796163789742948 ], [ 1.159229031351354, 42.795743444398973 ], [ 1.158488815383846, 42.795743444398973 ], [ 1.158488815383846, 42.795323096199745 ], [ 1.157748599416338, 42.795323096199745 ], [ 1.157748599416338, 42.794902745145279 ], [ 1.157008383448829, 42.794902745145279 ], [ 1.157008383448829, 42.794482391235562 ], [ 1.156268167481321, 42.794482391235562 ], [ 1.156268167481321, 42.793641674850413 ], [ 1.155527951513813, 42.793641674850413 ], [ 1.155527951513813, 42.793221312375003 ], [ 1.154787735546304, 42.793221312375003 ], [ 1.154787735546304, 42.792800947044356 ], [ 1.154047519578796, 42.792800947044356 ], [ 1.154047519578796, 42.792380578858484 ], [ 1.153307303611288, 42.792380578858484 ], [ 1.153307303611288, 42.791960207817382 ], [ 1.152567087643779, 42.791960207817382 ], [ 1.152567087643779, 42.791539833921071 ], [ 1.151826871676271, 42.791539833921071 ], [ 1.151826871676271, 42.790699077562799 ], [ 1.151086655708763, 42.790699077562799 ], [ 1.151086655708763, 42.789437921611324 ], [ 1.150346439741254, 42.789437921611324 ], [ 1.150346439741254, 42.788597136701014 ], [ 1.149606223773746, 42.788597136701014 ], [ 1.149606223773746, 42.787335937921604 ], [ 1.148866007806238, 42.787335937921604 ], [ 1.148866007806238, 42.786495124459414 ], [ 1.143684496033679, 42.786495124459414 ], [ 1.143684496033679, 42.786915532618096 ], [ 1.142944280066171, 42.786915532618096 ], [ 1.142944280066171, 42.787335937921604 ], [ 1.142204064098663, 42.787335937921604 ], [ 1.142204064098663, 42.787756340369931 ], [ 1.141463848131154, 42.787756340369931 ], [ 1.141463848131154, 42.788176739963077 ], [ 1.140723632163646, 42.788176739963077 ], [ 1.140723632163646, 42.788597136701014 ], [ 1.139983416196138, 42.788597136701014 ], [ 1.139983416196138, 42.790699077562799 ], [ 1.139243200228629, 42.790699077562799 ], [ 1.139243200228629, 42.794902745145279 ], [ 1.138502984261121, 42.794902745145279 ], [ 1.138502984261121, 42.798685801846446 ], [ 1.139243200228629, 42.798685801846446 ], [ 1.139243200228629, 42.799526449705475 ], [ 1.139983416196138, 42.799526449705475 ], [ 1.139983416196138, 42.800367086143403 ], [ 1.140723632163646, 42.800367086143403 ], [ 1.140723632163646, 42.800787400079436 ], [ 1.141463848131154, 42.800787400079436 ], [ 1.141463848131154, 42.801207711160195 ], [ 1.142944280066171, 42.801207711160195 ], [ 1.142944280066171, 42.801628019385653 ], [ 1.145164927968696, 42.801628019385653 ], [ 1.145164927968696, 42.802048324755823 ], [ 1.146645359903713, 42.802048324755823 ], [ 1.146645359903713, 42.802468627270699 ], [ 1.148866007806238, 42.802468627270699 ], [ 1.148866007806238, 42.802888926930272 ], [ 1.151086655708763, 42.802888926930272 ], [ 1.151086655708763, 42.803309223734544 ], [ 1.153307303611288, 42.803309223734544 ], [ 1.153307303611288, 42.803729517683514 ], [ 1.155527951513813, 42.803729517683514 ], [ 1.155527951513813, 42.804149808777169 ], [ 1.158488815383846, 42.804149808777169 ], [ 1.158488815383846, 42.803729517683514 ], [ 1.159229031351354, 42.803729517683514 ], [ 1.159229031351354, 42.802888926930272 ], [ 1.159969247318863, 42.802888926930272 ], [ 1.159969247318863, 42.802048324755823 ], [ 1.160709463286371, 42.802048324755823 ] ] ] ] } }
]
}
