{
"type": "FeatureCollection",
"name": "spain_fires_nrt_ba",
"crs": { "type": "name", "properties": { "name": "urn:ogc:def:crs:OGC:1.3:CRS84" } },
"features": [
{ "type": "Feature", "properties": { }, "geometry": { "type": "MultiPolygon", "coordinates": [ [ [ [ -8.290368009860044, 37.557954069274039 ], [ -8.289627793892535, 37.557954069274039 ], [ -8.289627793892535, 37.557045823230688 ], [ -8.288887577925026, 37.557045823230688 ], [ -8.288887577925026, 37.554775159689306 ], [ -8.288147361957517, 37.554775159689306 ], [ -8.288147361957517, 37.546600198067125 ], [ -8.288887577925026, 37.546600198067125 ], [ -8.288887577925026, 37.545691813649867 ], [ -8.289627793892535, 37.545691813649867 ], [ -8.289627793892535, 37.544783418163334 ], [ -8.290368009860044, 37.544783418163334 ], [ -8.290368009860044, 37.544329216269119 ], [ -8.291108225827552, 37.544329216269119 ], [ -8.291108225827552, 37.543875011607611 ], [ -8.292588657762568, 37.543875011607611 ], [ -8.292588657762568, 37.54342080417883 ], [ -8.299250601470142, 37.54342080417883 ], [ -8.299250601470142, 37.543875011607611 ], [ -8.299990817437651, 37.543875011607611 ], [ -8.299990817437651, 37.544329216269119 ], [ -8.30073103340516, 37.544329216269119 ], [ -8.30073103340516, 37.544783418163334 ], [ -8.301471249372668, 37.544783418163334 ], [ -8.301471249372668, 37.545691813649867 ], [ -8.302211465340175, 37.545691813649867 ], [ -8.302211465340175, 37.546146007242164 ], [ -8.302951681307682, 37.546146007242164 ], [ -8.302951681307682, 37.546600198067125 ], [ -8.303691897275192, 37.546600198067125 ], [ -8.303691897275192, 37.556591696057595 ], [ -8.302951681307682, 37.556591696057595 ], [ -8.302951681307682, 37.557499947636188 ], [ -8.302211465340175, 37.557499947636188 ], [ -8.302211465340175, 37.557954069274039 ], [ -8.301471249372668, 37.557954069274039 ], [ -8.301471249372668, 37.558862304246858 ], [ -8.30073103340516, 37.558862304246858 ], [ -8.30073103340516, 37.559316417581776 ], [ -8.291108225827552, 37.559316417581776 ], [ -8.291108225827552, 37.558862304246858 ], [ -8.290368009860044, 37.558862304246858 ], [ -8.290368009860044, 37.557954069274039 ] ] ], [ [ [ -5.749946809371439, 38.955937215798798 ], [ -5.74920659340393, 38.955937215798798 ], [ -5.74920659340393, 38.95504627835259 ], [ -5.748466377436422, 38.95504627835259 ], [ -5.748466377436422, 38.954600805429166 ], [ -5.747726161468914, 38.954600805429166 ], [ -5.747726161468914, 38.953709851181756 ], [ -5.746985945501407, 38.953709851181756 ], [ -5.746985945501407, 38.949700418460793 ], [ -5.747726161468914, 38.949700418460793 ], [ -5.747726161468914, 38.948809402610443 ], [ -5.748466377436422, 38.948809402610443 ], [ -5.748466377436422, 38.947918375559787 ], [ -5.74920659340393, 38.947918375559787 ], [ -5.74920659340393, 38.947472857834384 ], [ -5.749946809371439, 38.947472857834384 ], [ -5.749946809371439, 38.946581813983435 ], [ -5.752907673241473, 38.946581813983435 ], [ -5.752907673241473, 38.946136287857918 ], [ -5.753647889208981, 38.946136287857918 ], [ -5.753647889208981, 38.943908615230264 ], [ -5.754388105176488, 38.943908615230264 ], [ -5.754388105176488, 38.942126426728613 ], [ -5.756608753079013, 38.942126426728613 ], [ -5.756608753079013, 38.941680872603342 ], [ -5.758829400981539, 38.941680872603342 ], [ -5.758829400981539, 38.941235315678156 ], [ -5.761790264851572, 38.941235315678156 ], [ -5.761790264851572, 38.942126426728613 ], [ -5.76253048081908, 38.942126426728613 ], [ -5.76253048081908, 38.943017526579339 ], [ -5.76327069678659, 38.943017526579339 ], [ -5.76327069678659, 38.94346307230478 ], [ -5.764010912754097, 38.94346307230478 ], [ -5.764010912754097, 38.950591423110779 ], [ -5.764751128721605, 38.950591423110779 ], [ -5.764751128721605, 38.953709851181756 ], [ -5.764010912754097, 38.953709851181756 ], [ -5.764010912754097, 38.954600805429166 ], [ -5.76327069678659, 38.954600805429166 ], [ -5.76327069678659, 38.955491748475801 ], [ -5.76253048081908, 38.955491748475801 ], [ -5.76253048081908, 38.956382680321582 ], [ -5.761790264851572, 38.956382680321582 ], [ -5.761790264851572, 38.957273600966431 ], [ -5.761050048884065, 38.957273600966431 ], [ -5.761050048884065, 38.957719057088489 ], [ -5.759569616949047, 38.957719057088489 ], [ -5.759569616949047, 38.957273600966431 ], [ -5.755128321143998, 38.957273600966431 ], [ -5.755128321143998, 38.956828142044124 ], [ -5.749946809371439, 38.956828142044124 ], [ -5.749946809371439, 38.955937215798798 ] ] ], [ [ [ -7.039403024770958, 40.753071938905549 ], [ -7.037922592835941, 40.753071938905549 ], [ -7.037922592835941, 40.752637985709995 ], [ -7.037182376868433, 40.752637985709995 ], [ -7.037182376868433, 40.752204029682126 ], [ -7.035701944933416, 40.752204029682126 ], [ -7.035701944933416, 40.751770070821983 ], [ -7.034221512998399, 40.751770070821983 ], [ -7.034221512998399, 40.749166258183124 ], [ -7.033481297030891, 40.749166258183124 ], [ -7.033481297030891, 40.744826343872155 ], [ -7.034221512998399, 40.744826343872155 ], [ -7.034221512998399, 40.743524314350893 ], [ -7.034961728965908, 40.743524314350893 ], [ -7.034961728965908, 40.742656280509188 ], [ -7.035701944933416, 40.742656280509188 ], [ -7.035701944933416, 40.741354208505491 ], [ -7.036442160900925, 40.741354208505491 ], [ -7.036442160900925, 40.740486146342327 ], [ -7.037182376868433, 40.740486146342327 ], [ -7.037182376868433, 40.739184031856645 ], [ -7.037922592835941, 40.739184031856645 ], [ -7.037922592835941, 40.738749988030534 ], [ -7.040143240738465, 40.738749988030534 ], [ -7.040143240738465, 40.739184031856645 ], [ -7.04236388864099, 40.739184031856645 ], [ -7.04236388864099, 40.739618072850654 ], [ -7.044584536543516, 40.739618072850654 ], [ -7.044584536543516, 40.740052111012545 ], [ -7.046064968478533, 40.740052111012545 ], [ -7.046064968478533, 40.740486146342327 ], [ -7.048285616381058, 40.740486146342327 ], [ -7.048285616381058, 40.740920178839971 ], [ -7.049766048316074, 40.740920178839971 ], [ -7.049766048316074, 40.741788235338866 ], [ -7.050506264283582, 40.741788235338866 ], [ -7.050506264283582, 40.74309029884612 ], [ -7.051246480251091, 40.74309029884612 ], [ -7.051246480251091, 40.74439233686391 ], [ -7.0519866962186, 40.74439233686391 ], [ -7.0519866962186, 40.747864313628199 ], [ -7.051246480251091, 40.747864313628199 ], [ -7.051246480251091, 40.749600234036933 ], [ -7.050506264283582, 40.749600234036933 ], [ -7.050506264283582, 40.750902144604794 ], [ -7.049766048316074, 40.750902144604794 ], [ -7.049766048316074, 40.752637985709995 ], [ -7.048285616381058, 40.752637985709995 ], [ -7.048285616381058, 40.753071938905549 ], [ -7.047545400413549, 40.753071938905549 ], [ -7.047545400413549, 40.753505889268794 ], [ -7.046064968478533, 40.753505889268794 ], [ -7.046064968478533, 40.753939836799731 ], [ -7.045324752511024, 40.753939836799731 ], [ -7.045324752511024, 40.75437378149833 ], [ -7.04236388864099, 40.75437378149833 ], [ -7.04236388864099, 40.753939836799731 ], [ -7.040883456705974, 40.753939836799731 ], [ -7.040883456705974, 40.753505889268794 ], [ -7.039403024770958, 40.753505889268794 ], [ -7.039403024770958, 40.753071938905549 ] ] ], [ [ [ -8.13122157684575, 41.098894802703406 ], [ -8.130481360878242, 41.098894802703406 ], [ -8.130481360878242, 41.098031423475675 ], [ -8.129741144910733, 41.098031423475675 ], [ -8.129741144910733, 41.097168032899141 ], [ -8.129000928943226, 41.097168032899141 ], [ -8.129000928943226, 41.096304630973869 ], [ -8.128260712975717, 41.096304630973869 ], [ -8.128260712975717, 41.095009506807152 ], [ -8.127520497008208, 41.095009506807152 ], [ -8.127520497008208, 41.094146076510221 ], [ -8.1267802810407, 41.094146076510221 ], [ -8.1267802810407, 41.088533502960537 ], [ -8.127520497008208, 41.088533502960537 ], [ -8.127520497008208, 41.08766998755037 ], [ -8.128260712975717, 41.08766998755037 ], [ -8.128260712975717, 41.086806460791983 ], [ -8.129000928943226, 41.086806460791983 ], [ -8.129000928943226, 41.085942922685405 ], [ -8.129741144910733, 41.085942922685405 ], [ -8.129741144910733, 41.085079373230698 ], [ -8.130481360878242, 41.085079373230698 ], [ -8.130481360878242, 41.084215812427892 ], [ -8.13122157684575, 41.084215812427892 ], [ -8.13122157684575, 41.083352240277058 ], [ -8.131961792813259, 41.083352240277058 ], [ -8.131961792813259, 41.08292044994613 ], [ -8.134182440715785, 41.08292044994613 ], [ -8.134182440715785, 41.08248865677821 ], [ -8.136403088618311, 41.08248865677821 ], [ -8.136403088618311, 41.082056860773321 ], [ -8.138623736520834, 41.082056860773321 ], [ -8.138623736520834, 41.081625061931426 ], [ -8.141584600390868, 41.081625061931426 ], [ -8.141584600390868, 41.082056860773321 ], [ -8.142324816358375, 41.082056860773321 ], [ -8.142324816358375, 41.08248865677821 ], [ -8.143065032325884, 41.08248865677821 ], [ -8.143065032325884, 41.08292044994613 ], [ -8.143805248293392, 41.08292044994613 ], [ -8.143805248293392, 41.083352240277058 ], [ -8.144545464260901, 41.083352240277058 ], [ -8.144545464260901, 41.083784027770974 ], [ -8.145285680228408, 41.083784027770974 ], [ -8.145285680228408, 41.084215812427892 ], [ -8.146025896195917, 41.084215812427892 ], [ -8.146025896195917, 41.089397007022427 ], [ -8.146766112163425, 41.089397007022427 ], [ -8.146766112163425, 41.089828754797736 ], [ -8.147506328130934, 41.089828754797736 ], [ -8.147506328130934, 41.090692241837125 ], [ -8.148246544098441, 41.090692241837125 ], [ -8.148246544098441, 41.09112398110117 ], [ -8.14898676006595, 41.09112398110117 ], [ -8.14898676006595, 41.091555717528109 ], [ -8.14972697603346, 41.091555717528109 ], [ -8.14972697603346, 41.09198745111793 ], [ -8.150467192000969, 41.09198745111793 ], [ -8.150467192000969, 41.096304630973869 ], [ -8.14972697603346, 41.096304630973869 ], [ -8.14972697603346, 41.097168032899141 ], [ -8.14898676006595, 41.097168032899141 ], [ -8.14898676006595, 41.097599729605996 ], [ -8.148246544098441, 41.097599729605996 ], [ -8.148246544098441, 41.098031423475675 ], [ -8.147506328130934, 41.098031423475675 ], [ -8.147506328130934, 41.098463114508135 ], [ -8.146766112163425, 41.098463114508135 ], [ -8.146766112163425, 41.098894802703406 ], [ -8.146025896195917, 41.098894802703406 ], [ -8.146025896195917, 41.09932648806145 ], [ -8.145285680228408, 41.09932648806145 ], [ -8.145285680228408, 41.10018985026592 ], [ -8.144545464260901, 41.10018985026592 ], [ -8.144545464260901, 41.100621527112303 ], [ -8.143805248293392, 41.100621527112303 ], [ -8.143805248293392, 41.101053201121459 ], [ -8.142324816358375, 41.101053201121459 ], [ -8.142324816358375, 41.101484872293369 ], [ -8.135662872650801, 41.101484872293369 ], [ -8.135662872650801, 41.101916540628046 ], [ -8.132702008780768, 41.101916540628046 ], [ -8.132702008780768, 41.101053201121459 ], [ -8.131961792813259, 41.101053201121459 ], [ -8.131961792813259, 41.099758170582298 ], [ -8.13122157684575, 41.099758170582298 ], [ -8.13122157684575, 41.098894802703406 ] ] ], [ [ [ -8.580532669123309, 41.282105373220801 ], [ -8.579792453155802, 41.282105373220801 ], [ -8.579792453155802, 41.281674891358975 ], [ -8.579052237188293, 41.281674891358975 ], [ -8.579052237188293, 41.2812444066575 ], [ -8.578312021220784, 41.2812444066575 ], [ -8.578312021220784, 41.280813919116419 ], [ -8.577571805253276, 41.280813919116419 ], [ -8.577571805253276, 41.27909194055588 ], [ -8.576831589285769, 41.27909194055588 ], [ -8.576831589285769, 41.277369916561767 ], [ -8.57609137331826, 41.277369916561767 ], [ -8.57609137331826, 41.271773024809477 ], [ -8.576831589285769, 41.271773024809477 ], [ -8.576831589285769, 41.270050807726591 ], [ -8.577571805253276, 41.270050807726591 ], [ -8.577571805253276, 41.26962024635715 ], [ -8.578312021220784, 41.26962024635715 ], [ -8.578312021220784, 41.26875911509984 ], [ -8.579052237188293, 41.26875911509984 ], [ -8.579052237188293, 41.267897972484668 ], [ -8.584973964928359, 41.267897972484668 ], [ -8.584973964928359, 41.26875911509984 ], [ -8.585714180895868, 41.26875911509984 ], [ -8.585714180895868, 41.26918968214823 ], [ -8.586454396863378, 41.26918968214823 ], [ -8.586454396863378, 41.270050807726591 ], [ -8.587194612830887, 41.270050807726591 ], [ -8.587194612830887, 41.27048136625654 ], [ -8.587934828798394, 41.27048136625654 ], [ -8.587934828798394, 41.271342474797997 ], [ -8.588675044765901, 41.271342474797997 ], [ -8.588675044765901, 41.271773024809477 ], [ -8.589415260733411, 41.271773024809477 ], [ -8.589415260733411, 41.272203571981457 ], [ -8.590155476700918, 41.272203571981457 ], [ -8.590155476700918, 41.272634116313917 ], [ -8.591635908635935, 41.272634116313917 ], [ -8.591635908635935, 41.273064657806863 ], [ -8.593116340570951, 41.273064657806863 ], [ -8.593116340570951, 41.273495196460289 ], [ -8.59385655653846, 41.273495196460289 ], [ -8.59385655653846, 41.274786795383392 ], [ -8.594596772505968, 41.274786795383392 ], [ -8.594596772505968, 41.276508887527228 ], [ -8.595336988473477, 41.276508887527228 ], [ -8.595336988473477, 41.278230934237996 ], [ -8.594596772505968, 41.278230934237996 ], [ -8.594596772505968, 41.279952935515368 ], [ -8.59385655653846, 41.279952935515368 ], [ -8.59385655653846, 41.2812444066575 ], [ -8.593116340570951, 41.2812444066575 ], [ -8.593116340570951, 41.281674891358975 ], [ -8.591635908635935, 41.281674891358975 ], [ -8.591635908635935, 41.282105373220801 ], [ -8.590155476700918, 41.282105373220801 ], [ -8.590155476700918, 41.282535852242994 ], [ -8.589415260733411, 41.282535852242994 ], [ -8.589415260733411, 41.282966328425545 ], [ -8.587934828798394, 41.282966328425545 ], [ -8.587934828798394, 41.28339680176844 ], [ -8.586454396863378, 41.28339680176844 ], [ -8.586454396863378, 41.283827272271687 ], [ -8.583493532993343, 41.283827272271687 ], [ -8.583493532993343, 41.28339680176844 ], [ -8.582753317025835, 41.28339680176844 ], [ -8.582753317025835, 41.282966328425545 ], [ -8.582013101058326, 41.282966328425545 ], [ -8.582013101058326, 41.282535852242994 ], [ -8.580532669123309, 41.282535852242994 ], [ -8.580532669123309, 41.282105373220801 ] ] ], [ [ [ -8.507251288339985, 41.29630968159087 ], [ -8.507251288339985, 41.295879293440038 ], [ -8.506511072372477, 41.295879293440038 ], [ -8.506511072372477, 41.295448902449394 ], [ -8.505770856404968, 41.295448902449394 ], [ -8.505770856404968, 41.295018508618931 ], [ -8.505030640437459, 41.295018508618931 ], [ -8.505030640437459, 41.29458811194867 ], [ -8.504290424469952, 41.29458811194867 ], [ -8.504290424469952, 41.294157712438604 ], [ -8.502809992534935, 41.294157712438604 ], [ -8.502809992534935, 41.29458811194867 ], [ -8.499108912697393, 41.29458811194867 ], [ -8.499108912697393, 41.294157712438604 ], [ -8.498368696729885, 41.294157712438604 ], [ -8.498368696729885, 41.293727310088748 ], [ -8.497628480762376, 41.293727310088748 ], [ -8.497628480762376, 41.293296904899108 ], [ -8.496888264794867, 41.293296904899108 ], [ -8.496888264794867, 41.292866496869678 ], [ -8.49614804882736, 41.292866496869678 ], [ -8.49614804882736, 41.291144836354256 ], [ -8.495407832859851, 41.291144836354256 ], [ -8.495407832859851, 41.288131821121894 ], [ -8.49614804882736, 41.288131821121894 ], [ -8.49614804882736, 41.287270934069397 ], [ -8.496888264794867, 41.287270934069397 ], [ -8.496888264794867, 41.285979582192901 ], [ -8.497628480762376, 41.285979582192901 ], [ -8.497628480762376, 41.285118666743436 ], [ -8.496888264794867, 41.285118666743436 ], [ -8.496888264794867, 41.284688204759199 ], [ -8.49614804882736, 41.284688204759199 ], [ -8.49614804882736, 41.284257739935278 ], [ -8.494667616892343, 41.284257739935278 ], [ -8.494667616892343, 41.28339680176844 ], [ -8.493927400924834, 41.28339680176844 ], [ -8.493927400924834, 41.281674891358975 ], [ -8.493187184957325, 41.281674891358975 ], [ -8.493187184957325, 41.280383428735696 ], [ -8.492446968989817, 41.280383428735696 ], [ -8.492446968989817, 41.278661438816741 ], [ -8.49170675302231, 41.278661438816741 ], [ -8.49170675302231, 41.277369916561767 ], [ -8.490966537054801, 41.277369916561767 ], [ -8.490966537054801, 41.274356265248564 ], [ -8.49170675302231, 41.274356265248564 ], [ -8.49170675302231, 41.26962024635715 ], [ -8.492446968989817, 41.26962024635715 ], [ -8.492446968989817, 41.267036818511691 ], [ -8.493187184957325, 41.267036818511691 ], [ -8.493187184957325, 41.266606237266025 ], [ -8.494667616892343, 41.266606237266025 ], [ -8.494667616892343, 41.266175653180937 ], [ -8.496888264794867, 41.266175653180937 ], [ -8.496888264794867, 41.2657450662564 ], [ -8.499108912697393, 41.2657450662564 ], [ -8.499108912697393, 41.266175653180937 ], [ -8.499849128664902, 41.266175653180937 ], [ -8.499849128664902, 41.267467396917901 ], [ -8.500589344632409, 41.267467396917901 ], [ -8.500589344632409, 41.268328545211979 ], [ -8.501329560599919, 41.268328545211979 ], [ -8.501329560599919, 41.26962024635715 ], [ -8.502069776567428, 41.26962024635715 ], [ -8.502069776567428, 41.27048136625654 ], [ -8.502809992534935, 41.27048136625654 ], [ -8.502809992534935, 41.270911921947018 ], [ -8.504290424469952, 41.270911921947018 ], [ -8.504290424469952, 41.271342474797997 ], [ -8.506511072372477, 41.271342474797997 ], [ -8.506511072372477, 41.271773024809477 ], [ -8.507991504307492, 41.271773024809477 ], [ -8.507991504307492, 41.271342474797997 ], [ -8.508731720275001, 41.271342474797997 ], [ -8.508731720275001, 41.270911921947018 ], [ -8.509471936242511, 41.270911921947018 ], [ -8.509471936242511, 41.27048136625654 ], [ -8.510212152210018, 41.27048136625654 ], [ -8.510212152210018, 41.270050807726591 ], [ -8.512432800112542, 41.270050807726591 ], [ -8.512432800112542, 41.27048136625654 ], [ -8.513173016080051, 41.27048136625654 ], [ -8.513173016080051, 41.270911921947018 ], [ -8.514653448015068, 41.270911921947018 ], [ -8.514653448015068, 41.271342474797997 ], [ -8.515393663982575, 41.271342474797997 ], [ -8.515393663982575, 41.272203571981457 ], [ -8.516133879950084, 41.272203571981457 ], [ -8.516133879950084, 41.273064657806863 ], [ -8.516874095917593, 41.273064657806863 ], [ -8.516874095917593, 41.274356265248564 ], [ -8.517614311885103, 41.274356265248564 ], [ -8.517614311885103, 41.275217322678678 ], [ -8.51835452785261, 41.275217322678678 ], [ -8.51835452785261, 41.276508887527228 ], [ -8.519094743820117, 41.276508887527228 ], [ -8.519094743820117, 41.277800426819674 ], [ -8.519834959787627, 41.277800426819674 ], [ -8.519834959787627, 41.275647847134415 ], [ -8.520575175755136, 41.275647847134415 ], [ -8.520575175755136, 41.273925732274193 ], [ -8.521315391722643, 41.273925732274193 ], [ -8.521315391722643, 41.273064657806863 ], [ -8.522055607690151, 41.273064657806863 ], [ -8.522055607690151, 41.272634116313917 ], [ -8.523536039625169, 41.272634116313917 ], [ -8.523536039625169, 41.272203571981457 ], [ -8.524276255592676, 41.272203571981457 ], [ -8.524276255592676, 41.271773024809477 ], [ -8.5264969034952, 41.271773024809477 ], [ -8.5264969034952, 41.272203571981457 ], [ -8.527237119462709, 41.272203571981457 ], [ -8.527237119462709, 41.272634116313917 ], [ -8.528717551397726, 41.272634116313917 ], [ -8.528717551397726, 41.273064657806863 ], [ -8.529457767365233, 41.273064657806863 ], [ -8.529457767365233, 41.273925732274193 ], [ -8.530197983332743, 41.273925732274193 ], [ -8.530197983332743, 41.275647847134415 ], [ -8.53093819930025, 41.275647847134415 ], [ -8.53093819930025, 41.278661438816741 ], [ -8.530197983332743, 41.278661438816741 ], [ -8.530197983332743, 41.280383428735696 ], [ -8.529457767365233, 41.280383428735696 ], [ -8.529457767365233, 41.2812444066575 ], [ -8.527977335430219, 41.2812444066575 ], [ -8.527977335430219, 41.281674891358975 ], [ -8.527237119462709, 41.281674891358975 ], [ -8.527237119462709, 41.282105373220801 ], [ -8.5264969034952, 41.282105373220801 ], [ -8.5264969034952, 41.282535852242994 ], [ -8.524276255592676, 41.282535852242994 ], [ -8.524276255592676, 41.282105373220801 ], [ -8.523536039625169, 41.282105373220801 ], [ -8.523536039625169, 41.281674891358975 ], [ -8.52279582365766, 41.281674891358975 ], [ -8.52279582365766, 41.2812444066575 ], [ -8.522055607690151, 41.2812444066575 ], [ -8.522055607690151, 41.282105373220801 ], [ -8.521315391722643, 41.282105373220801 ], [ -8.521315391722643, 41.28339680176844 ], [ -8.520575175755136, 41.28339680176844 ], [ -8.520575175755136, 41.284688204759199 ], [ -8.519834959787627, 41.284688204759199 ], [ -8.519834959787627, 41.287701379015502 ], [ -8.520575175755136, 41.287701379015502 ], [ -8.520575175755136, 41.288992696815519 ], [ -8.521315391722643, 41.288992696815519 ], [ -8.521315391722643, 41.290714414125993 ], [ -8.520575175755136, 41.290714414125993 ], [ -8.520575175755136, 41.293296904899108 ], [ -8.519834959787627, 41.293296904899108 ], [ -8.519834959787627, 41.295879293440038 ], [ -8.519094743820117, 41.295879293440038 ], [ -8.519094743820117, 41.29630968159087 ], [ -8.51835452785261, 41.29630968159087 ], [ -8.51835452785261, 41.296740066901869 ], [ -8.516133879950084, 41.296740066901869 ], [ -8.516133879950084, 41.297170449373056 ], [ -8.513913232047559, 41.297170449373056 ], [ -8.513913232047559, 41.297600829004409 ], [ -8.511692584145033, 41.297600829004409 ], [ -8.511692584145033, 41.298031205795915 ], [ -8.510952368177525, 41.298031205795915 ], [ -8.510952368177525, 41.297600829004409 ], [ -8.510212152210018, 41.297600829004409 ], [ -8.510212152210018, 41.297170449373056 ], [ -8.508731720275001, 41.297170449373056 ], [ -8.508731720275001, 41.296740066901869 ], [ -8.507991504307492, 41.296740066901869 ], [ -8.507991504307492, 41.29630968159087 ], [ -8.507251288339985, 41.29630968159087 ] ], [ [ -8.520575175755136, 41.278661438816741 ], [ -8.520575175755136, 41.278230934237996 ], [ -8.519834959787627, 41.278230934237996 ], [ -8.519834959787627, 41.278661438816741 ], [ -8.520575175755136, 41.278661438816741 ] ], [ [ -8.505770856404968, 41.281674891358975 ], [ -8.505770856404968, 41.2812444066575 ], [ -8.505030640437459, 41.2812444066575 ], [ -8.505030640437459, 41.282105373220801 ], [ -8.504290424469952, 41.282105373220801 ], [ -8.504290424469952, 41.282535852242994 ], [ -8.503550208502443, 41.282535852242994 ], [ -8.503550208502443, 41.28339680176844 ], [ -8.502809992534935, 41.28339680176844 ], [ -8.502809992534935, 41.284688204759199 ], [ -8.504290424469952, 41.284688204759199 ], [ -8.504290424469952, 41.284257739935278 ], [ -8.505030640437459, 41.284257739935278 ], [ -8.505030640437459, 41.283827272271687 ], [ -8.505770856404968, 41.283827272271687 ], [ -8.505770856404968, 41.28339680176844 ], [ -8.506511072372477, 41.28339680176844 ], [ -8.506511072372477, 41.281674891358975 ], [ -8.505770856404968, 41.281674891358975 ] ] ], [ [ [ -8.011306590109402, 41.434317482903936 ], [ -8.009826158174384, 41.434317482903936 ], [ -8.009826158174384, 41.433888006617039 ], [ -8.009085942206875, 41.433888006617039 ], [ -8.009085942206875, 41.432599560707011 ], [ -8.008345726239368, 41.432599560707011 ], [ -8.008345726239368, 41.431740582559243 ], [ -8.007605510271858, 41.431740582559243 ], [ -8.007605510271858, 41.430452094026094 ], [ -8.006865294304349, 41.430452094026094 ], [ -8.006865294304349, 41.425727417275326 ], [ -8.007605510271858, 41.425727417275326 ], [ -8.007605510271858, 41.423150175950873 ], [ -8.008345726239368, 41.423150175950873 ], [ -8.008345726239368, 41.422291072777895 ], [ -8.009085942206875, 41.422291072777895 ], [ -8.009085942206875, 41.42100239670782 ], [ -8.009826158174384, 41.42100239670782 ], [ -8.009826158174384, 41.420143265120757 ], [ -8.010566374141893, 41.420143265120757 ], [ -8.010566374141893, 41.418854546429735 ], [ -8.011306590109402, 41.418854546429735 ], [ -8.011306590109402, 41.417995386428835 ], [ -8.01204680607691, 41.417995386428835 ], [ -8.01204680607691, 41.41713621506247 ], [ -8.012787022044417, 41.41713621506247 ], [ -8.012787022044417, 41.416706625117264 ], [ -8.019448965751993, 41.416706625117264 ], [ -8.019448965751993, 41.41713621506247 ], [ -8.0201891817195, 41.41713621506247 ], [ -8.0201891817195, 41.41756580216633 ], [ -8.020929397687009, 41.41756580216633 ], [ -8.020929397687009, 41.417995386428835 ], [ -8.021669613654517, 41.417995386428835 ], [ -8.021669613654517, 41.418424967849965 ], [ -8.022409829622026, 41.418424967849965 ], [ -8.022409829622026, 41.418854546429735 ], [ -8.023150045589533, 41.418854546429735 ], [ -8.023150045589533, 41.419284122168115 ], [ -8.023890261557041, 41.419284122168115 ], [ -8.023890261557041, 41.419713695065127 ], [ -8.02463047752455, 41.419713695065127 ], [ -8.02463047752455, 41.420572832334983 ], [ -8.025370693492059, 41.420572832334983 ], [ -8.025370693492059, 41.42100239670782 ], [ -8.026110909459566, 41.42100239670782 ], [ -8.026110909459566, 41.424009267758123 ], [ -8.025370693492059, 41.424009267758123 ], [ -8.025370693492059, 41.432599560707011 ], [ -8.02463047752455, 41.432599560707011 ], [ -8.02463047752455, 41.433029045518573 ], [ -8.023890261557041, 41.433029045518573 ], [ -8.023890261557041, 41.433458527488582 ], [ -8.023150045589533, 41.433458527488582 ], [ -8.023150045589533, 41.433888006617039 ], [ -8.022409829622026, 41.433888006617039 ], [ -8.022409829622026, 41.434317482903936 ], [ -8.021669613654517, 41.434317482903936 ], [ -8.021669613654517, 41.435176426953021 ], [ -8.0201891817195, 41.435176426953021 ], [ -8.0201891817195, 41.435605894715202 ], [ -8.019448965751993, 41.435605894715202 ], [ -8.019448965751993, 41.435176426953021 ], [ -8.01574788591445, 41.435176426953021 ], [ -8.01574788591445, 41.434746956349265 ], [ -8.011306590109402, 41.434746956349265 ], [ -8.011306590109402, 41.434317482903936 ] ] ], [ [ [ -8.151207407968478, 41.530877390559667 ], [ -8.150467192000969, 41.530877390559667 ], [ -8.150467192000969, 41.530019714114516 ], [ -8.14972697603346, 41.530019714114516 ], [ -8.14972697603346, 41.529590871627825 ], [ -8.14898676006595, 41.529590871627825 ], [ -8.14898676006595, 41.529162026298401 ], [ -8.148246544098441, 41.529162026298401 ], [ -8.148246544098441, 41.528304327111378 ], [ -8.147506328130934, 41.528304327111378 ], [ -8.147506328130934, 41.527875473253786 ], [ -8.146766112163425, 41.527875473253786 ], [ -8.146766112163425, 41.527017757010462 ], [ -8.146025896195917, 41.527017757010462 ], [ -8.146025896195917, 41.526588894624751 ], [ -8.145285680228408, 41.526588894624751 ], [ -8.145285680228408, 41.526160029396337 ], [ -8.144545464260901, 41.526160029396337 ], [ -8.144545464260901, 41.523157893202345 ], [ -8.145285680228408, 41.523157893202345 ], [ -8.145285680228408, 41.517582127869545 ], [ -8.146025896195917, 41.517582127869545 ], [ -8.146025896195917, 41.517153202945671 ], [ -8.146766112163425, 41.517153202945671 ], [ -8.146766112163425, 41.516295344570203 ], [ -8.147506328130934, 41.516295344570203 ], [ -8.147506328130934, 41.515866411118594 ], [ -8.148246544098441, 41.515866411118594 ], [ -8.148246544098441, 41.515437474824431 ], [ -8.14898676006595, 41.515437474824431 ], [ -8.14898676006595, 41.515008535687706 ], [ -8.14972697603346, 41.515008535687706 ], [ -8.14972697603346, 41.514579593708405 ], [ -8.151947623935985, 41.514579593708405 ], [ -8.151947623935985, 41.515008535687706 ], [ -8.154168271838509, 41.515008535687706 ], [ -8.154168271838509, 41.515437474824431 ], [ -8.156388919741033, 41.515437474824431 ], [ -8.156388919741033, 41.515866411118594 ], [ -8.157869351676052, 41.515866411118594 ], [ -8.157869351676052, 41.516295344570203 ], [ -8.160089999578576, 41.516295344570203 ], [ -8.160089999578576, 41.516724275179222 ], [ -8.162310647481101, 41.516724275179222 ], [ -8.162310647481101, 41.517153202945671 ], [ -8.163791079416116, 41.517153202945671 ], [ -8.163791079416116, 41.517582127869545 ], [ -8.166011727318642, 41.517582127869545 ], [ -8.166011727318642, 41.518011049950822 ], [ -8.16749215925366, 41.518011049950822 ], [ -8.16749215925366, 41.518439969189508 ], [ -8.168232375221168, 41.518439969189508 ], [ -8.168232375221168, 41.521442324267234 ], [ -8.168972591188677, 41.521442324267234 ], [ -8.168972591188677, 41.524873416654962 ], [ -8.168232375221168, 41.524873416654962 ], [ -8.168232375221168, 41.525731161325233 ], [ -8.16749215925366, 41.525731161325233 ], [ -8.16749215925366, 41.526588894624751 ], [ -8.166751943286151, 41.526588894624751 ], [ -8.166751943286151, 41.527446616553476 ], [ -8.166011727318642, 41.527446616553476 ], [ -8.166011727318642, 41.528304327111378 ], [ -8.165271511351134, 41.528304327111378 ], [ -8.165271511351134, 41.529590871627825 ], [ -8.164531295383625, 41.529590871627825 ], [ -8.164531295383625, 41.530448553758461 ], [ -8.163791079416116, 41.530448553758461 ], [ -8.163791079416116, 41.531306224518111 ], [ -8.163050863448609, 41.531306224518111 ], [ -8.163050863448609, 41.531735055633817 ], [ -8.160089999578576, 41.531735055633817 ], [ -8.160089999578576, 41.532163883906755 ], [ -8.157129135708542, 41.532163883906755 ], [ -8.157129135708542, 41.532592709336924 ], [ -8.154908487806019, 41.532592709336924 ], [ -8.154908487806019, 41.533021531924341 ], [ -8.153428055871002, 41.533021531924341 ], [ -8.153428055871002, 41.532592709336924 ], [ -8.152687839903493, 41.532592709336924 ], [ -8.152687839903493, 41.531735055633817 ], [ -8.151947623935985, 41.531735055633817 ], [ -8.151947623935985, 41.531306224518111 ], [ -8.151207407968478, 41.531306224518111 ], [ -8.151207407968478, 41.530877390559667 ] ] ], [ [ [ -8.679721608769427, 41.669242898859089 ], [ -8.678981392801919, 41.669242898859089 ], [ -8.678981392801919, 41.667531208482515 ], [ -8.67824117683441, 41.667531208482515 ], [ -8.67824117683441, 41.666675346228011 ], [ -8.678981392801919, 41.666675346228011 ], [ -8.678981392801919, 41.66581947259607 ], [ -8.679721608769427, 41.66581947259607 ], [ -8.679721608769427, 41.664535640815579 ], [ -8.680461824736934, 41.664535640815579 ], [ -8.680461824736934, 41.663679738740228 ], [ -8.681202040704443, 41.663679738740228 ], [ -8.681202040704443, 41.66239586429483 ], [ -8.681942256671952, 41.66239586429483 ], [ -8.681942256671952, 41.65982803860782 ], [ -8.681202040704443, 41.65982803860782 ], [ -8.681202040704443, 41.657688105650976 ], [ -8.680461824736934, 41.657688105650976 ], [ -8.680461824736934, 41.65426406501912 ], [ -8.681202040704443, 41.65426406501912 ], [ -8.681202040704443, 41.652551976441927 ], [ -8.681942256671952, 41.652551976441927 ], [ -8.681942256671952, 41.651695915088148 ], [ -8.68268247263946, 41.651695915088148 ], [ -8.68268247263946, 41.651267880144985 ], [ -8.684162904574476, 41.651267880144985 ], [ -8.684162904574476, 41.650839842357641 ], [ -8.684903120541986, 41.650839842357641 ], [ -8.684903120541986, 41.650411801726115 ], [ -8.686383552477002, 41.650411801726115 ], [ -8.686383552477002, 41.649983758250436 ], [ -8.68712376844451, 41.649983758250436 ], [ -8.68712376844451, 41.649555711930574 ], [ -8.688604200379526, 41.649555711930574 ], [ -8.688604200379526, 41.649127662766567 ], [ -8.691565064249561, 41.649127662766567 ], [ -8.691565064249561, 41.649555711930574 ], [ -8.692305280217068, 41.649555711930574 ], [ -8.692305280217068, 41.649983758250436 ], [ -8.693785712152085, 41.649983758250436 ], [ -8.693785712152085, 41.650411801726115 ], [ -8.694525928119594, 41.650411801726115 ], [ -8.694525928119594, 41.650839842357641 ], [ -8.70044765585966, 41.650839842357641 ], [ -8.70044765585966, 41.651267880144985 ], [ -8.701187871827168, 41.651267880144985 ], [ -8.701187871827168, 41.652123947187128 ], [ -8.701928087794675, 41.652123947187128 ], [ -8.701928087794675, 41.652551976441927 ], [ -8.702668303762184, 41.652551976441927 ], [ -8.702668303762184, 41.65340802641893 ], [ -8.703408519729694, 41.65340802641893 ], [ -8.703408519729694, 41.656832112558433 ], [ -8.704148735697201, 41.656832112558433 ], [ -8.704148735697201, 41.657260110526828 ], [ -8.70488895166471, 41.657260110526828 ], [ -8.70488895166471, 41.657688105650976 ], [ -8.705629167632218, 41.657688105650976 ], [ -8.705629167632218, 41.658116097930872 ], [ -8.706369383599725, 41.658116097930872 ], [ -8.706369383599725, 41.658972073957891 ], [ -8.707109599567234, 41.658972073957891 ], [ -8.707109599567234, 41.66239586429483 ], [ -8.706369383599725, 41.66239586429483 ], [ -8.706369383599725, 41.665391531513578 ], [ -8.70488895166471, 41.665391531513578 ], [ -8.70488895166471, 41.66581947259607 ], [ -8.702668303762184, 41.66581947259607 ], [ -8.702668303762184, 41.66624741083421 ], [ -8.701187871827168, 41.66624741083421 ], [ -8.701187871827168, 41.666675346228011 ], [ -8.699707439892151, 41.666675346228011 ], [ -8.699707439892151, 41.667959135343217 ], [ -8.698967223924642, 41.667959135343217 ], [ -8.698967223924642, 41.668814980531515 ], [ -8.698227007957135, 41.668814980531515 ], [ -8.698227007957135, 41.669670814342268 ], [ -8.697486791989627, 41.669670814342268 ], [ -8.697486791989627, 41.670526636775463 ], [ -8.69674657602212, 41.670526636775463 ], [ -8.69674657602212, 41.670954543725458 ], [ -8.696006360054611, 41.670954543725458 ], [ -8.696006360054611, 41.670526636775463 ], [ -8.693045496184578, 41.670526636775463 ], [ -8.693045496184578, 41.670098726981067 ], [ -8.690824848282052, 41.670098726981067 ], [ -8.690824848282052, 41.669670814342268 ], [ -8.688604200379526, 41.669670814342268 ], [ -8.688604200379526, 41.670098726981067 ], [ -8.687863984412017, 41.670098726981067 ], [ -8.687863984412017, 41.670526636775463 ], [ -8.68712376844451, 41.670526636775463 ], [ -8.68712376844451, 41.670954543725458 ], [ -8.686383552477002, 41.670954543725458 ], [ -8.686383552477002, 41.671382447831043 ], [ -8.685643336509493, 41.671382447831043 ], [ -8.685643336509493, 41.671810349092219 ], [ -8.684903120541986, 41.671810349092219 ], [ -8.684903120541986, 41.672238247508979 ], [ -8.68268247263946, 41.672238247508979 ], [ -8.68268247263946, 41.671810349092219 ], [ -8.681942256671952, 41.671810349092219 ], [ -8.681942256671952, 41.671382447831043 ], [ -8.681202040704443, 41.671382447831043 ], [ -8.681202040704443, 41.670954543725458 ], [ -8.679721608769427, 41.670954543725458 ], [ -8.679721608769427, 41.669242898859089 ] ] ], [ [ [ -5.256222759043379, 41.910135493841686 ], [ -5.254002111140855, 41.910135493841686 ], [ -5.254002111140855, 41.909709180516423 ], [ -5.253261895173347, 41.909709180516423 ], [ -5.253261895173347, 41.909282864344092 ], [ -5.252521679205839, 41.909282864344092 ], [ -5.252521679205839, 41.908856545324682 ], [ -5.25178146323833, 41.908856545324682 ], [ -5.25178146323833, 41.908003898744688 ], [ -5.251041247270821, 41.908003898744688 ], [ -5.251041247270821, 41.90715124077645 ], [ -5.250301031303313, 41.90715124077645 ], [ -5.250301031303313, 41.898197644554962 ], [ -5.251041247270821, 41.898197644554962 ], [ -5.251041247270821, 41.897344855624759 ], [ -5.25178146323833, 41.897344855624759 ], [ -5.25178146323833, 41.89649205530678 ], [ -5.252521679205839, 41.89649205530678 ], [ -5.252521679205839, 41.896065650877382 ], [ -5.253261895173347, 41.896065650877382 ], [ -5.253261895173347, 41.89563924360106 ], [ -5.254002111140855, 41.89563924360106 ], [ -5.254002111140855, 41.895212833477814 ], [ -5.254742327108364, 41.895212833477814 ], [ -5.254742327108364, 41.89563924360106 ], [ -5.258443406945904, 41.89563924360106 ], [ -5.258443406945904, 41.895212833477814 ], [ -5.259183622913413, 41.895212833477814 ], [ -5.259183622913413, 41.89478642050765 ], [ -5.259923838880921, 41.89478642050765 ], [ -5.259923838880921, 41.894360004690576 ], [ -5.26066405484843, 41.894360004690576 ], [ -5.26066405484843, 41.893933586026584 ], [ -5.261404270815938, 41.893933586026584 ], [ -5.261404270815938, 41.893507164515697 ], [ -5.262144486783447, 41.893507164515697 ], [ -5.262144486783447, 41.893080740157906 ], [ -5.263624918718463, 41.893080740157906 ], [ -5.263624918718463, 41.893507164515697 ], [ -5.264365134685971, 41.893507164515697 ], [ -5.264365134685971, 41.893933586026584 ], [ -5.265105350653481, 41.893933586026584 ], [ -5.265105350653481, 41.894360004690576 ], [ -5.265845566620988, 41.894360004690576 ], [ -5.265845566620988, 41.89478642050765 ], [ -5.266585782588496, 41.89478642050765 ], [ -5.266585782588496, 41.895212833477814 ], [ -5.267325998556005, 41.895212833477814 ], [ -5.267325998556005, 41.896065650877382 ], [ -5.268066214523513, 41.896065650877382 ], [ -5.268066214523513, 41.898197644554962 ], [ -5.268806430491021, 41.898197644554962 ], [ -5.268806430491021, 41.904166848205861 ], [ -5.26954664645853, 41.904166848205861 ], [ -5.26954664645853, 41.905445890675445 ], [ -5.268806430491021, 41.905445890675445 ], [ -5.268806430491021, 41.905872232471246 ], [ -5.268066214523513, 41.905872232471246 ], [ -5.268066214523513, 41.906724907521763 ], [ -5.267325998556005, 41.906724907521763 ], [ -5.267325998556005, 41.907577571184092 ], [ -5.266585782588496, 41.907577571184092 ], [ -5.266585782588496, 41.908003898744688 ], [ -5.265845566620988, 41.908003898744688 ], [ -5.265845566620988, 41.908856545324682 ], [ -5.265105350653481, 41.908856545324682 ], [ -5.265105350653481, 41.909282864344092 ], [ -5.264365134685971, 41.909282864344092 ], [ -5.264365134685971, 41.910135493841686 ], [ -5.263624918718463, 41.910135493841686 ], [ -5.263624918718463, 41.910561804319869 ], [ -5.262884702750956, 41.910561804319869 ], [ -5.262884702750956, 41.911414416734971 ], [ -5.26066405484843, 41.911414416734971 ], [ -5.26066405484843, 41.910988111950957 ], [ -5.258443406945904, 41.910988111950957 ], [ -5.258443406945904, 41.910561804319869 ], [ -5.256222759043379, 41.910561804319869 ], [ -5.256222759043379, 41.910135493841686 ] ] ], [ [ [ -6.764782900825367, 42.558213843003912 ], [ -6.764782900825367, 42.557791884978592 ], [ -6.764042684857857, 42.557791884978592 ], [ -6.764042684857857, 42.557369924099952 ], [ -6.763302468890348, 42.557369924099952 ], [ -6.763302468890348, 42.556947960367992 ], [ -6.76256225292284, 42.556947960367992 ], [ -6.76256225292284, 42.555682052052248 ], [ -6.761822036955333, 42.555682052052248 ], [ -6.761822036955333, 42.553994134351697 ], [ -6.761081820987823, 42.553994134351697 ], [ -6.761081820987823, 42.55230617099852 ], [ -6.761822036955333, 42.55230617099852 ], [ -6.761822036955333, 42.550618161992951 ], [ -6.76256225292284, 42.550618161992951 ], [ -6.76256225292284, 42.548930107335231 ], [ -6.763302468890348, 42.548930107335231 ], [ -6.763302468890348, 42.547664036382848 ], [ -6.764042684857857, 42.547664036382848 ], [ -6.764042684857857, 42.547242007025581 ], [ -6.764782900825367, 42.547242007025581 ], [ -6.764782900825367, 42.546819974815079 ], [ -6.765523116792874, 42.546819974815079 ], [ -6.765523116792874, 42.546397939751351 ], [ -6.767003548727891, 42.546397939751351 ], [ -6.767003548727891, 42.545975901834403 ], [ -6.767743764695399, 42.545975901834403 ], [ -6.767743764695399, 42.545553861064228 ], [ -6.768483980662907, 42.545553861064228 ], [ -6.768483980662907, 42.54513181744084 ], [ -6.769224196630416, 42.54513181744084 ], [ -6.769224196630416, 42.544709770964246 ], [ -6.770704628565432, 42.544709770964246 ], [ -6.770704628565432, 42.544287721634426 ], [ -6.77144484453294, 42.544287721634426 ], [ -6.77144484453294, 42.544709770964246 ], [ -6.772925276467958, 42.544709770964246 ], [ -6.772925276467958, 42.54513181744084 ], [ -6.773665492435466, 42.54513181744084 ], [ -6.773665492435466, 42.545553861064228 ], [ -6.775145924370483, 42.545553861064228 ], [ -6.775145924370483, 42.545975901834403 ], [ -6.775886140337991, 42.545975901834403 ], [ -6.775886140337991, 42.546397939751351 ], [ -6.776626356305498, 42.546397939751351 ], [ -6.776626356305498, 42.546819974815079 ], [ -6.778106788240516, 42.546819974815079 ], [ -6.778106788240516, 42.547242007025581 ], [ -6.778847004208023, 42.547242007025581 ], [ -6.778847004208023, 42.547664036382848 ], [ -6.779587220175531, 42.547664036382848 ], [ -6.779587220175531, 42.54850808653768 ], [ -6.780327436143041, 42.54850808653768 ], [ -6.780327436143041, 42.550196152608407 ], [ -6.781067652110549, 42.550196152608407 ], [ -6.781067652110549, 42.55230617099852 ], [ -6.780327436143041, 42.55230617099852 ], [ -6.780327436143041, 42.553572147793325 ], [ -6.779587220175531, 42.553572147793325 ], [ -6.779587220175531, 42.554416118056778 ], [ -6.778847004208023, 42.554416118056778 ], [ -6.778847004208023, 42.555682052052248 ], [ -6.778106788240516, 42.555682052052248 ], [ -6.778106788240516, 42.556525993782721 ], [ -6.777366572273007, 42.556525993782721 ], [ -6.777366572273007, 42.557791884978592 ], [ -6.776626356305498, 42.557791884978592 ], [ -6.776626356305498, 42.558213843003912 ], [ -6.775145924370483, 42.558213843003912 ], [ -6.775145924370483, 42.558635798175914 ], [ -6.772925276467958, 42.558635798175914 ], [ -6.772925276467958, 42.559057750494581 ], [ -6.770704628565432, 42.559057750494581 ], [ -6.770704628565432, 42.559479699959915 ], [ -6.767003548727891, 42.559479699959915 ], [ -6.767003548727891, 42.559057750494581 ], [ -6.766263332760382, 42.559057750494581 ], [ -6.766263332760382, 42.558635798175914 ], [ -6.765523116792874, 42.558635798175914 ], [ -6.765523116792874, 42.558213843003912 ], [ -6.764782900825367, 42.558213843003912 ] ] ], [ [ [ -5.323582412086639, 43.230524637068527 ], [ -5.323582412086639, 43.229689868547368 ], [ -5.32284219611913, 43.229689868547368 ], [ -5.32284219611913, 43.229272479999416 ], [ -5.322101980151621, 43.229272479999416 ], [ -5.322101980151621, 43.22843769432874 ], [ -5.321361764184113, 43.22843769432874 ], [ -5.321361764184113, 43.227602897225083 ], [ -5.320621548216605, 43.227602897225083 ], [ -5.320621548216605, 43.227185494385886 ], [ -5.319881332249095, 43.227185494385886 ], [ -5.319881332249095, 43.226350680132789 ], [ -5.319141116281588, 43.226350680132789 ], [ -5.319141116281588, 43.225515854446755 ], [ -5.31840090031408, 43.225515854446755 ], [ -5.31840090031408, 43.224263594480995 ], [ -5.319141116281588, 43.224263594480995 ], [ -5.319141116281588, 43.219671754524022 ], [ -5.319881332249095, 43.219671754524022 ], [ -5.319881332249095, 43.217166968779452 ], [ -5.320621548216605, 43.217166968779452 ], [ -5.320621548216605, 43.216332017332483 ], [ -5.321361764184113, 43.216332017332483 ], [ -5.321361764184113, 43.215497054452825 ], [ -5.322101980151621, 43.215497054452825 ], [ -5.322101980151621, 43.214662080140506 ], [ -5.32284219611913, 43.214662080140506 ], [ -5.32284219611913, 43.214244588697113 ], [ -5.325803059989163, 43.214244588697113 ], [ -5.325803059989163, 43.214662080140506 ], [ -5.328023707891688, 43.214662080140506 ], [ -5.328023707891688, 43.215079568725756 ], [ -5.329504139826704, 43.215079568725756 ], [ -5.329504139826704, 43.214662080140506 ], [ -5.330984571761722, 43.214662080140506 ], [ -5.330984571761722, 43.214244588697113 ], [ -5.333205219664247, 43.214244588697113 ], [ -5.333205219664247, 43.213827094395548 ], [ -5.334685651599263, 43.213827094395548 ], [ -5.334685651599263, 43.213409597235824 ], [ -5.335425867566772, 43.213409597235824 ], [ -5.335425867566772, 43.213827094395548 ], [ -5.33616608353428, 43.213827094395548 ], [ -5.33616608353428, 43.214244588697113 ], [ -5.336906299501788, 43.214244588697113 ], [ -5.336906299501788, 43.215079568725756 ], [ -5.337646515469297, 43.215079568725756 ], [ -5.337646515469297, 43.216332017332483 ], [ -5.338386731436805, 43.216332017332483 ], [ -5.338386731436805, 43.217166968779452 ], [ -5.339126947404313, 43.217166968779452 ], [ -5.339126947404313, 43.21800190879371 ], [ -5.339867163371822, 43.21800190879371 ], [ -5.339867163371822, 43.218836837375243 ], [ -5.34060737933933, 43.218836837375243 ], [ -5.34060737933933, 43.223846168775957 ], [ -5.339867163371822, 43.223846168775957 ], [ -5.339867163371822, 43.224681017327796 ], [ -5.339126947404313, 43.224681017327796 ], [ -5.339126947404313, 43.225515854446755 ], [ -5.338386731436805, 43.225515854446755 ], [ -5.338386731436805, 43.225933268718883 ], [ -5.337646515469297, 43.225933268718883 ], [ -5.337646515469297, 43.226768088688459 ], [ -5.336906299501788, 43.226768088688459 ], [ -5.336906299501788, 43.227602897225083 ], [ -5.33616608353428, 43.227602897225083 ], [ -5.33616608353428, 43.22843769432874 ], [ -5.335425867566772, 43.22843769432874 ], [ -5.335425867566772, 43.2288550885932 ], [ -5.334685651599263, 43.2288550885932 ], [ -5.334685651599263, 43.229689868547368 ], [ -5.333945435631755, 43.229689868547368 ], [ -5.333945435631755, 43.230524637068527 ], [ -5.333205219664247, 43.230524637068527 ], [ -5.333205219664247, 43.230942017041706 ], [ -5.332465003696738, 43.230942017041706 ], [ -5.332465003696738, 43.231359394156634 ], [ -5.33172478772923, 43.231359394156634 ], [ -5.33172478772923, 43.23177676841329 ], [ -5.330984571761722, 43.23177676841329 ], [ -5.330984571761722, 43.232194139811689 ], [ -5.325803059989163, 43.232194139811689 ], [ -5.325803059989163, 43.23177676841329 ], [ -5.325062844021655, 43.23177676841329 ], [ -5.325062844021655, 43.231359394156634 ], [ -5.324322628054147, 43.231359394156634 ], [ -5.324322628054147, 43.230524637068527 ], [ -5.323582412086639, 43.230524637068527 ] ] ], [ [ [ -5.72255881857363, 43.536527753207956 ], [ -5.72255881857363, 43.535697187634213 ], [ -5.721818602606122, 43.535697187634213 ], [ -5.721818602606122, 43.534866610620547 ], [ -5.721078386638613, 43.534866610620547 ], [ -5.721078386638613, 43.533620723650237 ], [ -5.720338170671106, 43.533620723650237 ], [ -5.720338170671106, 43.532790118036843 ], [ -5.719597954703597, 43.532790118036843 ], [ -5.719597954703597, 43.531959500983589 ], [ -5.718857738736089, 43.531959500983589 ], [ -5.718857738736089, 43.530713553953994 ], [ -5.718117522768581, 43.530713553953994 ], [ -5.718117522768581, 43.529882908301154 ], [ -5.717377306801072, 43.529882908301154 ], [ -5.717377306801072, 43.529052251208505 ], [ -5.716637090833564, 43.529052251208505 ], [ -5.716637090833564, 43.527806244119944 ], [ -5.715896874866057, 43.527806244119944 ], [ -5.715896874866057, 43.526975558427864 ], [ -5.715156658898548, 43.526975558427864 ], [ -5.715156658898548, 43.525314152724491 ], [ -5.715896874866057, 43.525314152724491 ], [ -5.715896874866057, 43.521575822586357 ], [ -5.716637090833564, 43.521575822586357 ], [ -5.716637090833564, 43.520329661061893 ], [ -5.717377306801072, 43.520329661061893 ], [ -5.717377306801072, 43.519914268167263 ], [ -5.718117522768581, 43.519914268167263 ], [ -5.718117522768581, 43.519498872412733 ], [ -5.718857738736089, 43.519498872412733 ], [ -5.718857738736089, 43.519083473798304 ], [ -5.719597954703597, 43.519083473798304 ], [ -5.719597954703597, 43.518252667989771 ], [ -5.720338170671106, 43.518252667989771 ], [ -5.720338170671106, 43.517837260795666 ], [ -5.721078386638613, 43.517837260795666 ], [ -5.721078386638613, 43.51742185074167 ], [ -5.721818602606122, 43.51742185074167 ], [ -5.721818602606122, 43.517006437827789 ], [ -5.723299034541139, 43.517006437827789 ], [ -5.723299034541139, 43.516591022054023 ], [ -5.724779466476156, 43.516591022054023 ], [ -5.724779466476156, 43.516175603420372 ], [ -5.726259898411173, 43.516175603420372 ], [ -5.726259898411173, 43.515760181926844 ], [ -5.727740330346189, 43.515760181926844 ], [ -5.727740330346189, 43.51534475757343 ], [ -5.729220762281205, 43.51534475757343 ], [ -5.729220762281205, 43.514929330360154 ], [ -5.729960978248714, 43.514929330360154 ], [ -5.729960978248714, 43.514513900287 ], [ -5.73144141018373, 43.514513900287 ], [ -5.73144141018373, 43.514098467353968 ], [ -5.732921842118747, 43.514098467353968 ], [ -5.732921842118747, 43.513683031561072 ], [ -5.734402274053765, 43.513683031561072 ], [ -5.734402274053765, 43.514098467353968 ], [ -5.73662292195629, 43.514098467353968 ], [ -5.73662292195629, 43.514513900287 ], [ -5.738843569858814, 43.514513900287 ], [ -5.738843569858814, 43.514929330360154 ], [ -5.74032400179383, 43.514929330360154 ], [ -5.74032400179383, 43.51534475757343 ], [ -5.741064217761339, 43.51534475757343 ], [ -5.741064217761339, 43.515760181926844 ], [ -5.741804433728848, 43.515760181926844 ], [ -5.741804433728848, 43.517006437827789 ], [ -5.742544649696356, 43.517006437827789 ], [ -5.742544649696356, 43.517837260795666 ], [ -5.743284865663864, 43.517837260795666 ], [ -5.743284865663864, 43.518668072323983 ], [ -5.744025081631372, 43.518668072323983 ], [ -5.744025081631372, 43.519914268167263 ], [ -5.744765297598882, 43.519914268167263 ], [ -5.744765297598882, 43.520745051096618 ], [ -5.745505513566389, 43.520745051096618 ], [ -5.745505513566389, 43.521991204041377 ], [ -5.746245729533897, 43.521991204041377 ], [ -5.746245729533897, 43.524898794148825 ], [ -5.745505513566389, 43.524898794148825 ], [ -5.745505513566389, 43.526560211291923 ], [ -5.744765297598882, 43.526560211291923 ], [ -5.744765297598882, 43.528221582676068 ], [ -5.744025081631372, 43.528221582676068 ], [ -5.744025081631372, 43.530298232557548 ], [ -5.743284865663864, 43.530298232557548 ], [ -5.743284865663864, 43.531128872490477 ], [ -5.742544649696356, 43.531128872490477 ], [ -5.742544649696356, 43.531959500983589 ], [ -5.741804433728848, 43.531959500983589 ], [ -5.741804433728848, 43.53237481094019 ], [ -5.741064217761339, 43.53237481094019 ], [ -5.741064217761339, 43.532790118036843 ], [ -5.74032400179383, 43.532790118036843 ], [ -5.74032400179383, 43.533205422273518 ], [ -5.739583785826321, 43.533205422273518 ], [ -5.739583785826321, 43.533620723650237 ], [ -5.738843569858814, 43.533620723650237 ], [ -5.738843569858814, 43.53403602216698 ], [ -5.738103353891305, 43.53403602216698 ], [ -5.738103353891305, 43.534451317823752 ], [ -5.737363137923798, 43.534451317823752 ], [ -5.737363137923798, 43.534866610620547 ], [ -5.73662292195629, 43.534866610620547 ], [ -5.73662292195629, 43.535697187634213 ], [ -5.73588270598878, 43.535697187634213 ], [ -5.73588270598878, 43.536112471851069 ], [ -5.735142490021273, 43.536112471851069 ], [ -5.735142490021273, 43.536527753207956 ], [ -5.734402274053765, 43.536527753207956 ], [ -5.734402274053765, 43.536943031704851 ], [ -5.733662058086256, 43.536943031704851 ], [ -5.733662058086256, 43.537358307341755 ], [ -5.732921842118747, 43.537358307341755 ], [ -5.732921842118747, 43.537773580118674 ], [ -5.729960978248714, 43.537773580118674 ], [ -5.729960978248714, 43.537358307341755 ], [ -5.727000114378681, 43.537358307341755 ], [ -5.727000114378681, 43.536943031704851 ], [ -5.724039250508648, 43.536943031704851 ], [ -5.724039250508648, 43.536527753207956 ], [ -5.72255881857363, 43.536527753207956 ] ] ], [ [ [ -5.85653790869264, 43.558948699346487 ], [ -5.85653790869264, 43.558533572431813 ], [ -5.855797692725131, 43.558533572431813 ], [ -5.855797692725131, 43.55811844265704 ], [ -5.854317260790114, 43.55811844265704 ], [ -5.854317260790114, 43.55770331002217 ], [ -5.853577044822605, 43.55770331002217 ], [ -5.853577044822605, 43.556873036172156 ], [ -5.852836828855097, 43.556873036172156 ], [ -5.852836828855097, 43.555627603946476 ], [ -5.852096612887589, 43.555627603946476 ], [ -5.852096612887589, 43.554382145980071 ], [ -5.85135639692008, 43.554382145980071 ], [ -5.85135639692008, 43.553136662272983 ], [ -5.850616180952573, 43.553136662272983 ], [ -5.850616180952573, 43.551891152825284 ], [ -5.849875964985064, 43.551891152825284 ], [ -5.849875964985064, 43.550645617637002 ], [ -5.847655317082539, 43.550645617637002 ], [ -5.847655317082539, 43.551060798893154 ], [ -5.846915101115031, 43.551060798893154 ], [ -5.846915101115031, 43.551475977289243 ], [ -5.844694453212505, 43.551475977289243 ], [ -5.844694453212505, 43.551060798893154 ], [ -5.842473805309981, 43.551060798893154 ], [ -5.842473805309981, 43.550645617637002 ], [ -5.840253157407456, 43.550645617637002 ], [ -5.840253157407456, 43.550230433520795 ], [ -5.83877272547244, 43.550230433520795 ], [ -5.83877272547244, 43.549815246544526 ], [ -5.836552077569914, 43.549815246544526 ], [ -5.836552077569914, 43.549400056708208 ], [ -5.835071645634897, 43.549400056708208 ], [ -5.835071645634897, 43.548984864011857 ], [ -5.832850997732372, 43.548984864011857 ], [ -5.832850997732372, 43.548569668455436 ], [ -5.832110781764865, 43.548569668455436 ], [ -5.832110781764865, 43.548984864011857 ], [ -5.831370565797356, 43.548984864011857 ], [ -5.831370565797356, 43.549815246544526 ], [ -5.830630349829847, 43.549815246544526 ], [ -5.830630349829847, 43.550230433520795 ], [ -5.829890133862339, 43.550230433520795 ], [ -5.829890133862339, 43.550645617637002 ], [ -5.829149917894831, 43.550645617637002 ], [ -5.829149917894831, 43.551475977289243 ], [ -5.828409701927322, 43.551475977289243 ], [ -5.828409701927322, 43.551891152825284 ], [ -5.822487974187256, 43.551891152825284 ], [ -5.822487974187256, 43.551060798893154 ], [ -5.821747758219748, 43.551060798893154 ], [ -5.821747758219748, 43.550230433520795 ], [ -5.821007542252239, 43.550230433520795 ], [ -5.821007542252239, 43.549400056708208 ], [ -5.82026732628473, 43.549400056708208 ], [ -5.82026732628473, 43.546908857629347 ], [ -5.819527110317222, 43.546908857629347 ], [ -5.819527110317222, 43.54192615058799 ], [ -5.818786894349714, 43.54192615058799 ], [ -5.818786894349714, 43.541510906411077 ], [ -5.818046678382206, 43.541510906411077 ], [ -5.818046678382206, 43.541095659374164 ], [ -5.817306462414698, 43.541095659374164 ], [ -5.817306462414698, 43.540680409477226 ], [ -5.816566246447189, 43.540680409477226 ], [ -5.816566246447189, 43.539434642626411 ], [ -5.815826030479681, 43.539434642626411 ], [ -5.815826030479681, 43.537773580118674 ], [ -5.815085814512173, 43.537773580118674 ], [ -5.815085814512173, 43.536527753207956 ], [ -5.815826030479681, 43.536527753207956 ], [ -5.815826030479681, 43.535281900557365 ], [ -5.816566246447189, 43.535281900557365 ], [ -5.816566246447189, 43.53403602216698 ], [ -5.817306462414698, 43.53403602216698 ], [ -5.817306462414698, 43.533205422273518 ], [ -5.818046678382206, 43.533205422273518 ], [ -5.818046678382206, 43.531959500983589 ], [ -5.821007542252239, 43.531959500983589 ], [ -5.821007542252239, 43.53237481094019 ], [ -5.823968406122273, 43.53237481094019 ], [ -5.823968406122273, 43.531959500983589 ], [ -5.824708622089781, 43.531959500983589 ], [ -5.824708622089781, 43.531544188167018 ], [ -5.82544883805729, 43.531544188167018 ], [ -5.82544883805729, 43.531128872490477 ], [ -5.826189054024797, 43.531128872490477 ], [ -5.826189054024797, 43.530713553953994 ], [ -5.827669485959815, 43.530713553953994 ], [ -5.827669485959815, 43.530298232557548 ], [ -5.828409701927322, 43.530298232557548 ], [ -5.828409701927322, 43.529882908301154 ], [ -5.829149917894831, 43.529882908301154 ], [ -5.829149917894831, 43.529467581184797 ], [ -5.829890133862339, 43.529467581184797 ], [ -5.829890133862339, 43.529052251208505 ], [ -5.830630349829847, 43.529052251208505 ], [ -5.830630349829847, 43.528636918372264 ], [ -5.832110781764865, 43.528636918372264 ], [ -5.832110781764865, 43.529052251208505 ], [ -5.832850997732372, 43.529052251208505 ], [ -5.832850997732372, 43.529467581184797 ], [ -5.833591213699881, 43.529467581184797 ], [ -5.833591213699881, 43.529882908301154 ], [ -5.834331429667389, 43.529882908301154 ], [ -5.834331429667389, 43.530298232557548 ], [ -5.835071645634897, 43.530298232557548 ], [ -5.835071645634897, 43.530713553953994 ], [ -5.835811861602406, 43.530713553953994 ], [ -5.835811861602406, 43.531544188167018 ], [ -5.836552077569914, 43.531544188167018 ], [ -5.836552077569914, 43.531959500983589 ], [ -5.837292293537423, 43.531959500983589 ], [ -5.837292293537423, 43.53237481094019 ], [ -5.838032509504931, 43.53237481094019 ], [ -5.838032509504931, 43.532790118036843 ], [ -5.83877272547244, 43.532790118036843 ], [ -5.83877272547244, 43.533205422273518 ], [ -5.841733589342473, 43.533205422273518 ], [ -5.841733589342473, 43.532790118036843 ], [ -5.842473805309981, 43.532790118036843 ], [ -5.842473805309981, 43.53237481094019 ], [ -5.843954237244998, 43.53237481094019 ], [ -5.843954237244998, 43.531959500983589 ], [ -5.846174885147523, 43.531959500983589 ], [ -5.846174885147523, 43.53237481094019 ], [ -5.846915101115031, 43.53237481094019 ], [ -5.846915101115031, 43.532790118036843 ], [ -5.847655317082539, 43.532790118036843 ], [ -5.847655317082539, 43.533620723650237 ], [ -5.848395533050048, 43.533620723650237 ], [ -5.848395533050048, 43.53403602216698 ], [ -5.849135749017555, 43.53403602216698 ], [ -5.849135749017555, 43.534451317823752 ], [ -5.849875964985064, 43.534451317823752 ], [ -5.849875964985064, 43.534866610620547 ], [ -5.850616180952573, 43.534866610620547 ], [ -5.850616180952573, 43.535281900557365 ], [ -5.85135639692008, 43.535281900557365 ], [ -5.85135639692008, 43.536943031704851 ], [ -5.852096612887589, 43.536943031704851 ], [ -5.852096612887589, 43.542756630361758 ], [ -5.852836828855097, 43.542756630361758 ], [ -5.852836828855097, 43.544002328572311 ], [ -5.852096612887589, 43.544002328572311 ], [ -5.852096612887589, 43.545248001042651 ], [ -5.854317260790114, 43.545248001042651 ], [ -5.854317260790114, 43.545663219479366 ], [ -5.85653790869264, 43.545663219479366 ], [ -5.85653790869264, 43.54607843505606 ], [ -5.858758556595164, 43.54607843505606 ], [ -5.858758556595164, 43.546493647772721 ], [ -5.860238988530181, 43.546493647772721 ], [ -5.860238988530181, 43.546908857629347 ], [ -5.862459636432706, 43.546908857629347 ], [ -5.862459636432706, 43.547324064625933 ], [ -5.864680284335232, 43.547324064625933 ], [ -5.864680284335232, 43.54773926876247 ], [ -5.86542050030274, 43.54773926876247 ], [ -5.86542050030274, 43.549815246544526 ], [ -5.866160716270247, 43.549815246544526 ], [ -5.866160716270247, 43.554797301495626 ], [ -5.86542050030274, 43.554797301495626 ], [ -5.86542050030274, 43.55770331002217 ], [ -5.864680284335232, 43.55770331002217 ], [ -5.864680284335232, 43.558533572431813 ], [ -5.863940068367723, 43.558533572431813 ], [ -5.863940068367723, 43.558948699346487 ], [ -5.863199852400214, 43.558948699346487 ], [ -5.863199852400214, 43.559363823401071 ], [ -5.862459636432706, 43.559363823401071 ], [ -5.862459636432706, 43.55977894459555 ], [ -5.860979204497688, 43.55977894459555 ], [ -5.860979204497688, 43.560194062929931 ], [ -5.860238988530181, 43.560194062929931 ], [ -5.860238988530181, 43.55977894459555 ], [ -5.858758556595164, 43.55977894459555 ], [ -5.858758556595164, 43.559363823401071 ], [ -5.858018340627656, 43.559363823401071 ], [ -5.858018340627656, 43.558948699346487 ], [ -5.85653790869264, 43.558948699346487 ] ], [ [ -5.85135639692008, 43.546493647772721 ], [ -5.852096612887589, 43.546493647772721 ], [ -5.852096612887589, 43.54607843505606 ], [ -5.85135639692008, 43.54607843505606 ], [ -5.85135639692008, 43.546493647772721 ] ] ], [ [ [ 3.825486946316374, 40.034516866703534 ], [ 3.825486946316374, 40.033639646289217 ], [ 3.826227162283883, 40.033639646289217 ], [ 3.826227162283883, 40.032323794511768 ], [ 3.82696737825139, 40.032323794511768 ], [ 3.82696737825139, 40.031007917347367 ], [ 3.8277075942189, 40.031007917347367 ], [ 3.8277075942189, 40.029692014796204 ], [ 3.831408674056441, 40.029692014796204 ], [ 3.831408674056441, 40.028814732325102 ], [ 3.832148890023949, 40.028814732325102 ], [ 3.832148890023949, 40.028376086858479 ], [ 3.832889105991457, 40.028376086858479 ], [ 3.832889105991457, 40.027498787463124 ], [ 3.833629321958966, 40.027498787463124 ], [ 3.833629321958966, 40.026621476785017 ], [ 3.834369537926474, 40.026621476785017 ], [ 3.834369537926474, 40.023989477054705 ], [ 3.835109753893983, 40.023989477054705 ], [ 3.835109753893983, 40.020918682364133 ], [ 3.835849969861492, 40.020918682364133 ], [ 3.835849969861492, 40.016531593057806 ], [ 3.835109753893983, 40.016531593057806 ], [ 3.835109753893983, 40.015654141350282 ], [ 3.834369537926474, 40.015654141350282 ], [ 3.834369537926474, 40.014337942635386 ], [ 3.833629321958966, 40.014337942635386 ], [ 3.833629321958966, 40.013021718536315 ], [ 3.832889105991457, 40.013021718536315 ], [ 3.832889105991457, 40.012144221701391 ], [ 3.832148890023949, 40.012144221701391 ], [ 3.832148890023949, 40.01126671358476 ], [ 3.829188026153916, 40.01126671358476 ], [ 3.829188026153916, 40.011705469053283 ], [ 3.826227162283883, 40.011705469053283 ], [ 3.826227162283883, 40.012144221701391 ], [ 3.823266298413849, 40.012144221701391 ], [ 3.823266298413849, 40.013021718536315 ], [ 3.822526082446341, 40.013021718536315 ], [ 3.822526082446341, 40.013460462723131 ], [ 3.821785866478833, 40.013460462723131 ], [ 3.821785866478833, 40.014337942635386 ], [ 3.821045650511324, 40.014337942635386 ], [ 3.821045650511324, 40.015215411265793 ], [ 3.820305434543816, 40.015215411265793 ], [ 3.820305434543816, 40.017409033483318 ], [ 3.819565218576308, 40.017409033483318 ], [ 3.819565218576308, 40.02047998612597 ], [ 3.818825002608799, 40.02047998612597 ], [ 3.818825002608799, 40.02311212124615 ], [ 3.818084786641291, 40.02311212124615 ], [ 3.818084786641291, 40.025744154824196 ], [ 3.817344570673783, 40.025744154824196 ], [ 3.817344570673783, 40.028376086858479 ], [ 3.816604354706274, 40.028376086858479 ], [ 3.816604354706274, 40.031446545889587 ], [ 3.817344570673783, 40.031446545889587 ], [ 3.817344570673783, 40.032762414591701 ], [ 3.818084786641291, 40.032762414591701 ], [ 3.818084786641291, 40.033639646289217 ], [ 3.818825002608799, 40.033639646289217 ], [ 3.818825002608799, 40.034955472679492 ], [ 3.819565218576308, 40.034955472679492 ], [ 3.819565218576308, 40.035394075834617 ], [ 3.820305434543816, 40.035394075834617 ], [ 3.820305434543816, 40.035832676168923 ], [ 3.824006514381358, 40.035832676168923 ], [ 3.824006514381358, 40.035394075834617 ], [ 3.824746730348866, 40.035394075834617 ], [ 3.824746730348866, 40.034516866703534 ], [ 3.825486946316374, 40.034516866703534 ] ] ], [ [ [ -4.444205842686737, 40.063897229899631 ], [ -4.443465626719228, 40.063897229899631 ], [ -4.443465626719228, 40.063020387506903 ], [ -4.44272541075172, 40.063020387506903 ], [ -4.44272541075172, 40.06126666886589 ], [ -4.443465626719228, 40.06126666886589 ], [ -4.443465626719228, 40.057759096163331 ], [ -4.444205842686737, 40.057759096163331 ], [ -4.444205842686737, 40.053812861050474 ], [ -4.444946058654245, 40.053812861050474 ], [ -4.444946058654245, 40.052497398565343 ], [ -4.445686274621754, 40.052497398565343 ], [ -4.445686274621754, 40.051181910690111 ], [ -4.446426490589261, 40.051181910690111 ], [ -4.446426490589261, 40.05030490466779 ], [ -4.44716670655677, 40.05030490466779 ], [ -4.44716670655677, 40.048989374476207 ], [ -4.447906922524279, 40.048989374476207 ], [ -4.447906922524279, 40.048112340243165 ], [ -4.448647138491787, 40.048112340243165 ], [ -4.448647138491787, 40.04767381889507 ], [ -4.450127570426804, 40.04767381889507 ], [ -4.450127570426804, 40.047235294725937 ], [ -4.450867786394312, 40.047235294725937 ], [ -4.450867786394312, 40.046796767735778 ], [ -4.453828650264345, 40.046796767735778 ], [ -4.453828650264345, 40.047235294725937 ], [ -4.454568866231853, 40.047235294725937 ], [ -4.454568866231853, 40.04767381889507 ], [ -4.45604929816687, 40.04767381889507 ], [ -4.45604929816687, 40.048112340243165 ], [ -4.456789514134379, 40.048112340243165 ], [ -4.456789514134379, 40.048989374476207 ], [ -4.457529730101887, 40.048989374476207 ], [ -4.457529730101887, 40.049866397424999 ], [ -4.458269946069396, 40.049866397424999 ], [ -4.458269946069396, 40.050743409089499 ], [ -4.459010162036904, 40.050743409089499 ], [ -4.459010162036904, 40.051620409469628 ], [ -4.459750378004412, 40.051620409469628 ], [ -4.459750378004412, 40.052497398565343 ], [ -4.460490593971921, 40.052497398565343 ], [ -4.460490593971921, 40.057759096163331 ], [ -4.459750378004412, 40.057759096163331 ], [ -4.459750378004412, 40.05863600626639 ], [ -4.459010162036904, 40.05863600626639 ], [ -4.459010162036904, 40.062581962078582 ], [ -4.459750378004412, 40.062581962078582 ], [ -4.459750378004412, 40.064335646864023 ], [ -4.459010162036904, 40.064335646864023 ], [ -4.459010162036904, 40.065212472328824 ], [ -4.458269946069396, 40.065212472328824 ], [ -4.458269946069396, 40.06608928650828 ], [ -4.457529730101887, 40.06608928650828 ], [ -4.457529730101887, 40.066527689365962 ], [ -4.456789514134379, 40.066527689365962 ], [ -4.456789514134379, 40.0669660894023 ], [ -4.45604929816687, 40.0669660894023 ], [ -4.45604929816687, 40.067404486617278 ], [ -4.445686274621754, 40.067404486617278 ], [ -4.445686274621754, 40.06608928650828 ], [ -4.444946058654245, 40.06608928650828 ], [ -4.444946058654245, 40.065212472328824 ], [ -4.444205842686737, 40.065212472328824 ], [ -4.444205842686737, 40.063897229899631 ] ] ], [ [ [ -3.474522925250819, 40.253030605299436 ], [ -3.474522925250819, 40.252593405012497 ], [ -3.472302277348294, 40.252593405012497 ], [ -3.472302277348294, 40.252156201901066 ], [ -3.469341413478261, 40.252156201901066 ], [ -3.469341413478261, 40.251281787204768 ], [ -3.468601197510752, 40.251281787204768 ], [ -3.468601197510752, 40.250407361210598 ], [ -3.467860981543244, 40.250407361210598 ], [ -3.467860981543244, 40.249532923918622 ], [ -3.467120765575736, 40.249532923918622 ], [ -3.467120765575736, 40.248658475328888 ], [ -3.466380549608227, 40.248658475328888 ], [ -3.466380549608227, 40.248221246797378 ], [ -3.465640333640719, 40.248221246797378 ], [ -3.465640333640719, 40.247346781261115 ], [ -3.46490011767321, 40.247346781261115 ], [ -3.46490011767321, 40.242974284116798 ], [ -3.465640333640719, 40.242974284116798 ], [ -3.465640333640719, 40.241225206177418 ], [ -3.466380549608227, 40.241225206177418 ], [ -3.466380549608227, 40.240350650261888 ], [ -3.467120765575736, 40.240350650261888 ], [ -3.467120765575736, 40.23991336806769 ], [ -3.467860981543244, 40.23991336806769 ], [ -3.467860981543244, 40.239476083049205 ], [ -3.468601197510752, 40.239476083049205 ], [ -3.468601197510752, 40.238601504539439 ], [ -3.469341413478261, 40.238601504539439 ], [ -3.469341413478261, 40.238164211048165 ], [ -3.470081629445768, 40.238164211048165 ], [ -3.470081629445768, 40.237726914732633 ], [ -3.470821845413277, 40.237726914732633 ], [ -3.470821845413277, 40.237289615592864 ], [ -3.47378270928331, 40.237289615592864 ], [ -3.47378270928331, 40.237726914732633 ], [ -3.475263141218327, 40.237726914732633 ], [ -3.475263141218327, 40.238164211048165 ], [ -3.477483789120852, 40.238164211048165 ], [ -3.477483789120852, 40.238601504539439 ], [ -3.479704437023377, 40.238601504539439 ], [ -3.479704437023377, 40.239038795206454 ], [ -3.481925084925902, 40.239038795206454 ], [ -3.481925084925902, 40.239476083049205 ], [ -3.483405516860918, 40.239476083049205 ], [ -3.483405516860918, 40.23991336806769 ], [ -3.484885948795936, 40.23991336806769 ], [ -3.484885948795936, 40.243411546540848 ], [ -3.485626164763444, 40.243411546540848 ], [ -3.485626164763444, 40.247784015441454 ], [ -3.484885948795936, 40.247784015441454 ], [ -3.484885948795936, 40.250844575619915 ], [ -3.484145732828428, 40.250844575619915 ], [ -3.484145732828428, 40.251718995965156 ], [ -3.483405516860918, 40.251718995965156 ], [ -3.483405516860918, 40.252593405012497 ], [ -3.482665300893411, 40.252593405012497 ], [ -3.482665300893411, 40.253030605299436 ], [ -3.481925084925902, 40.253030605299436 ], [ -3.481925084925902, 40.253904997399822 ], [ -3.479704437023377, 40.253904997399822 ], [ -3.479704437023377, 40.253467802761868 ], [ -3.477483789120852, 40.253467802761868 ], [ -3.477483789120852, 40.253030605299436 ], [ -3.474522925250819, 40.253030605299436 ] ] ], [ [ [ 0.662544117153262, 40.731370809680804 ], [ 0.66328433312077, 40.731370809680804 ], [ 0.66328433312077, 40.730502617243019 ], [ 0.664024549088279, 40.730502617243019 ], [ 0.664024549088279, 40.724859090281981 ], [ 0.664764765055787, 40.724859090281981 ], [ 0.664764765055787, 40.721820069838806 ], [ 0.664024549088279, 40.721820069838806 ], [ 0.664024549088279, 40.721385912733773 ], [ 0.66328433312077, 40.721385912733773 ], [ 0.66328433312077, 40.720517590028173 ], [ 0.662544117153262, 40.720517590028173 ], [ 0.662544117153262, 40.719649255995272 ], [ 0.661803901185754, 40.719649255995272 ], [ 0.661803901185754, 40.71921508473109 ], [ 0.660323469250737, 40.71921508473109 ], [ 0.660323469250737, 40.719649255995272 ], [ 0.655882173445687, 40.719649255995272 ], [ 0.655882173445687, 40.71921508473109 ], [ 0.655141957478179, 40.71921508473109 ], [ 0.655141957478179, 40.718780910635104 ], [ 0.653661525543162, 40.718780910635104 ], [ 0.653661525543162, 40.718346733707314 ], [ 0.652181093608145, 40.718346733707314 ], [ 0.652181093608145, 40.718780910635104 ], [ 0.651440877640637, 40.718780910635104 ], [ 0.651440877640637, 40.71921508473109 ], [ 0.650700661673129, 40.71921508473109 ], [ 0.650700661673129, 40.719649255995272 ], [ 0.649960445705621, 40.719649255995272 ], [ 0.649960445705621, 40.720083424427635 ], [ 0.649220229738112, 40.720083424427635 ], [ 0.649220229738112, 40.720517590028173 ], [ 0.648480013770604, 40.720517590028173 ], [ 0.648480013770604, 40.720951752796886 ], [ 0.647739797803095, 40.720951752796886 ], [ 0.647739797803095, 40.730068516776157 ], [ 0.648480013770604, 40.730068516776157 ], [ 0.648480013770604, 40.730936714877913 ], [ 0.649220229738112, 40.730936714877913 ], [ 0.649220229738112, 40.731370809680804 ], [ 0.649960445705621, 40.731370809680804 ], [ 0.649960445705621, 40.732238990790634 ], [ 0.650700661673129, 40.732238990790634 ], [ 0.650700661673129, 40.732673077097559 ], [ 0.651440877640637, 40.732673077097559 ], [ 0.651440877640637, 40.733107160572466 ], [ 0.656622389413195, 40.733107160572466 ], [ 0.656622389413195, 40.733541241215349 ], [ 0.661063685218245, 40.733541241215349 ], [ 0.661063685218245, 40.733107160572466 ], [ 0.661803901185754, 40.733107160572466 ], [ 0.661803901185754, 40.732238990790634 ], [ 0.662544117153262, 40.732238990790634 ], [ 0.662544117153262, 40.731370809680804 ] ] ], [ [ [ 1.981608971253114, 41.463944484023486 ], [ 1.981608971253114, 41.463085920768989 ], [ 1.982349187220622, 41.463085920768989 ], [ 1.982349187220622, 41.462227346146804 ], [ 1.98308940318813, 41.462227346146804 ], [ 1.98308940318813, 41.461368760156972 ], [ 1.983829619155639, 41.461368760156972 ], [ 1.983829619155639, 41.460510162799537 ], [ 1.984569835123147, 41.460510162799537 ], [ 1.984569835123147, 41.459651554074533 ], [ 1.985310051090655, 41.459651554074533 ], [ 1.985310051090655, 41.458792933982011 ], [ 1.986050267058164, 41.458792933982011 ], [ 1.986050267058164, 41.457934302521998 ], [ 1.986790483025672, 41.457934302521998 ], [ 1.986790483025672, 41.452782275047241 ], [ 1.986050267058164, 41.452782275047241 ], [ 1.986050267058164, 41.451923564016063 ], [ 1.985310051090655, 41.451923564016063 ], [ 1.985310051090655, 41.451064841617743 ], [ 1.984569835123147, 41.451064841617743 ], [ 1.984569835123147, 41.450635476155917 ], [ 1.983829619155639, 41.450635476155917 ], [ 1.983829619155639, 41.449776736706959 ], [ 1.98308940318813, 41.449776736706959 ], [ 1.98308940318813, 41.449347362719848 ], [ 1.982349187220622, 41.449347362719848 ], [ 1.982349187220622, 41.448917985890979 ], [ 1.980868755285605, 41.448917985890979 ], [ 1.980868755285605, 41.448488606220351 ], [ 1.978648107383081, 41.448488606220351 ], [ 1.978648107383081, 41.448059223707993 ], [ 1.975687243513047, 41.448059223707993 ], [ 1.975687243513047, 41.448488606220351 ], [ 1.974947027545539, 41.448488606220351 ], [ 1.974947027545539, 41.449347362719848 ], [ 1.97420681157803, 41.449347362719848 ], [ 1.97420681157803, 41.450206107852324 ], [ 1.973466595610522, 41.450206107852324 ], [ 1.973466595610522, 41.451064841617743 ], [ 1.972726379643014, 41.451064841617743 ], [ 1.972726379643014, 41.451923564016063 ], [ 1.971986163675505, 41.451923564016063 ], [ 1.971986163675505, 41.462227346146804 ], [ 1.972726379643014, 41.462227346146804 ], [ 1.972726379643014, 41.462656634878854 ], [ 1.973466595610522, 41.462656634878854 ], [ 1.973466595610522, 41.463515203817195 ], [ 1.97420681157803, 41.463515203817195 ], [ 1.97420681157803, 41.464373761387826 ], [ 1.974947027545539, 41.464373761387826 ], [ 1.974947027545539, 41.464803035910236 ], [ 1.977167675448064, 41.464803035910236 ], [ 1.977167675448064, 41.464373761387826 ], [ 1.979388323350589, 41.464373761387826 ], [ 1.979388323350589, 41.463944484023486 ], [ 1.981608971253114, 41.463944484023486 ] ] ], [ [ [ -1.484822404588416, 41.4815425255157 ], [ -1.484822404588416, 41.481113361833017 ], [ -1.483341972653399, 41.481113361833017 ], [ -1.483341972653399, 41.4806841953082 ], [ -1.481861540718382, 41.4806841953082 ], [ -1.481861540718382, 41.480255025941226 ], [ -1.481121324750874, 41.480255025941226 ], [ -1.481121324750874, 41.478967500787547 ], [ -1.480381108783366, 41.478967500787547 ], [ -1.480381108783366, 41.477679950054807 ], [ -1.479640892815857, 41.477679950054807 ], [ -1.479640892815857, 41.475963175955073 ], [ -1.478900676848349, 41.475963175955073 ], [ -1.478900676848349, 41.474675565538398 ], [ -1.479640892815857, 41.474675565538398 ], [ -1.479640892815857, 41.473387929543144 ], [ -1.480381108783366, 41.473387929543144 ], [ -1.480381108783366, 41.471671041760793 ], [ -1.481121324750874, 41.471671041760793 ], [ -1.481121324750874, 41.47038334608272 ], [ -1.481861540718382, 41.47038334608272 ], [ -1.481861540718382, 41.469524868087262 ], [ -1.483341972653399, 41.469524868087262 ], [ -1.483341972653399, 41.469095624826537 ], [ -1.484082188620908, 41.469095624826537 ], [ -1.484082188620908, 41.468666378723803 ], [ -1.484822404588416, 41.468666378723803 ], [ -1.484822404588416, 41.468237129779084 ], [ -1.486302836523432, 41.468237129779084 ], [ -1.486302836523432, 41.467807877992371 ], [ -1.489263700393465, 41.467807877992371 ], [ -1.489263700393465, 41.468237129779084 ], [ -1.490003916360974, 41.468237129779084 ], [ -1.490003916360974, 41.468666378723803 ], [ -1.491484348295991, 41.468666378723803 ], [ -1.491484348295991, 41.469095624826537 ], [ -1.492964780231007, 41.469095624826537 ], [ -1.492964780231007, 41.469524868087262 ], [ -1.493704996198516, 41.469524868087262 ], [ -1.493704996198516, 41.47038334608272 ], [ -1.494445212166024, 41.47038334608272 ], [ -1.494445212166024, 41.471671041760793 ], [ -1.495185428133532, 41.471671041760793 ], [ -1.495185428133532, 41.473387929543144 ], [ -1.495925644101041, 41.473387929543144 ], [ -1.495925644101041, 41.475533975324922 ], [ -1.495185428133532, 41.475533975324922 ], [ -1.495185428133532, 41.478109136474494 ], [ -1.494445212166024, 41.478109136474494 ], [ -1.494445212166024, 41.480255025941226 ], [ -1.493704996198516, 41.480255025941226 ], [ -1.493704996198516, 41.4806841953082 ], [ -1.492964780231007, 41.4806841953082 ], [ -1.492964780231007, 41.481113361833017 ], [ -1.491484348295991, 41.481113361833017 ], [ -1.491484348295991, 41.4815425255157 ], [ -1.490744132328482, 41.4815425255157 ], [ -1.490744132328482, 41.481971686356232 ], [ -1.490003916360974, 41.481971686356232 ], [ -1.490003916360974, 41.482400844354615 ], [ -1.487783268458449, 41.482400844354615 ], [ -1.487783268458449, 41.481971686356232 ], [ -1.486302836523432, 41.481971686356232 ], [ -1.486302836523432, 41.4815425255157 ], [ -1.484822404588416, 41.4815425255157 ] ] ], [ [ [ 0.185104818110386, 41.933152185371853 ], [ 0.185104818110386, 41.932726025795461 ], [ 0.185845034077895, 41.932726025795461 ], [ 0.185845034077895, 41.932299863371739 ], [ 0.186585250045403, 41.932299863371739 ], [ 0.186585250045403, 41.931021359016711 ], [ 0.187325466012912, 41.931021359016711 ], [ 0.187325466012912, 41.929742829035931 ], [ 0.18806568198042, 41.929742829035931 ], [ 0.18806568198042, 41.928464273429555 ], [ 0.188805897947928, 41.928464273429555 ], [ 0.188805897947928, 41.92761188878891 ], [ 0.189546113915437, 41.92761188878891 ], [ 0.189546113915437, 41.926333290473444 ], [ 0.190286329882945, 41.926333290473444 ], [ 0.190286329882945, 41.925480877360194 ], [ 0.189546113915437, 41.925480877360194 ], [ 0.189546113915437, 41.924202236335979 ], [ 0.188805897947928, 41.924202236335979 ], [ 0.188805897947928, 41.922923569686702 ], [ 0.18806568198042, 41.922923569686702 ], [ 0.18806568198042, 41.921644877412461 ], [ 0.187325466012912, 41.921644877412461 ], [ 0.187325466012912, 41.920366159513392 ], [ 0.186585250045403, 41.920366159513392 ], [ 0.186585250045403, 41.919087415989608 ], [ 0.185845034077895, 41.919087415989608 ], [ 0.185845034077895, 41.918661162453994 ], [ 0.185104818110386, 41.918661162453994 ], [ 0.185104818110386, 41.918234906071213 ], [ 0.184364602142878, 41.918234906071213 ], [ 0.184364602142878, 41.917808646841237 ], [ 0.18362438617537, 41.917808646841237 ], [ 0.18362438617537, 41.917382384764132 ], [ 0.182884170207862, 41.917382384764132 ], [ 0.182884170207862, 41.916956119839853 ], [ 0.182143954240353, 41.916956119839853 ], [ 0.182143954240353, 41.916529852068429 ], [ 0.181403738272845, 41.916529852068429 ], [ 0.181403738272845, 41.916103581449839 ], [ 0.180663522305336, 41.916103581449839 ], [ 0.180663522305336, 41.915677307984119 ], [ 0.178442874402812, 41.915677307984119 ], [ 0.178442874402812, 41.916103581449839 ], [ 0.177702658435303, 41.916103581449839 ], [ 0.177702658435303, 41.916529852068429 ], [ 0.176962442467795, 41.916529852068429 ], [ 0.176962442467795, 41.916956119839853 ], [ 0.176222226500287, 41.916956119839853 ], [ 0.176222226500287, 41.917382384764132 ], [ 0.175482010532778, 41.917382384764132 ], [ 0.175482010532778, 41.917808646841237 ], [ 0.17474179456527, 41.917808646841237 ], [ 0.17474179456527, 41.918234906071213 ], [ 0.174001578597761, 41.918234906071213 ], [ 0.174001578597761, 41.919087415989608 ], [ 0.173261362630253, 41.919087415989608 ], [ 0.173261362630253, 41.919939914519318 ], [ 0.172521146662745, 41.919939914519318 ], [ 0.172521146662745, 41.921218640959964 ], [ 0.171780930695237, 41.921218640959964 ], [ 0.171780930695237, 41.92207111101775 ], [ 0.171040714727728, 41.92207111101775 ], [ 0.171040714727728, 41.923349794750358 ], [ 0.17030049876022, 41.923349794750358 ], [ 0.17030049876022, 41.924628452857952 ], [ 0.171040714727728, 41.924628452857952 ], [ 0.171040714727728, 41.92761188878891 ], [ 0.171780930695237, 41.92761188878891 ], [ 0.171780930695237, 41.930169008543487 ], [ 0.172521146662745, 41.930169008543487 ], [ 0.172521146662745, 41.93059518520375 ], [ 0.173261362630253, 41.93059518520375 ], [ 0.173261362630253, 41.931447529982364 ], [ 0.174001578597761, 41.931447529982364 ], [ 0.174001578597761, 41.931873698100702 ], [ 0.17474179456527, 41.931873698100702 ], [ 0.17474179456527, 41.932726025795461 ], [ 0.175482010532778, 41.932726025795461 ], [ 0.175482010532778, 41.933152185371853 ], [ 0.177702658435303, 41.933152185371853 ], [ 0.177702658435303, 41.933578342100922 ], [ 0.179923306337828, 41.933578342100922 ], [ 0.179923306337828, 41.934004495982656 ], [ 0.182884170207862, 41.934004495982656 ], [ 0.182884170207862, 41.933578342100922 ], [ 0.18362438617537, 41.933578342100922 ], [ 0.18362438617537, 41.933152185371853 ], [ 0.185104818110386, 41.933152185371853 ] ] ], [ [ [ -3.24727662322576, 42.544287721634426 ], [ -3.24727662322576, 42.543443614415196 ], [ -3.246536407258251, 42.543443614415196 ], [ -3.246536407258251, 42.543021556525773 ], [ -3.245796191290743, 42.543021556525773 ], [ -3.245796191290743, 42.542599495783165 ], [ -3.245055975323235, 42.542599495783165 ], [ -3.245055975323235, 42.53964499069572 ], [ -3.245796191290743, 42.53964499069572 ], [ -3.245796191290743, 42.536268242263034 ], [ -3.246536407258251, 42.536268242263034 ], [ -3.246536407258251, 42.535846135869789 ], [ -3.248016839193268, 42.535846135869789 ], [ -3.248016839193268, 42.535424026623424 ], [ -3.245796191290743, 42.535424026623424 ], [ -3.245796191290743, 42.53457979957129 ], [ -3.245055975323235, 42.53457979957129 ], [ -3.245055975323235, 42.534157681765542 ], [ -3.244315759355727, 42.534157681765542 ], [ -3.244315759355727, 42.53373556110666 ], [ -3.243575543388218, 42.53373556110666 ], [ -3.243575543388218, 42.533313437594678 ], [ -3.24283532742071, 42.533313437594678 ], [ -3.24283532742071, 42.532891311229577 ], [ -3.242095111453202, 42.532891311229577 ], [ -3.242095111453202, 42.527403408851789 ], [ -3.24283532742071, 42.527403408851789 ], [ -3.24283532742071, 42.526559073382153 ], [ -3.243575543388218, 42.526559073382153 ], [ -3.243575543388218, 42.525714726500325 ], [ -3.244315759355727, 42.525714726500325 ], [ -3.244315759355727, 42.525292548779845 ], [ -3.245055975323235, 42.525292548779845 ], [ -3.245055975323235, 42.524448184779736 ], [ -3.245796191290743, 42.524448184779736 ], [ -3.245796191290743, 42.523603809367494 ], [ -3.246536407258251, 42.523603809367494 ], [ -3.246536407258251, 42.522759422543139 ], [ -3.24727662322576, 42.522759422543139 ], [ -3.24727662322576, 42.521915024306708 ], [ -3.248016839193268, 42.521915024306708 ], [ -3.248016839193268, 42.521070614658214 ], [ -3.250237487095794, 42.521070614658214 ], [ -3.250237487095794, 42.521492820908961 ], [ -3.252458134998319, 42.521492820908961 ], [ -3.252458134998319, 42.521915024306708 ], [ -3.254678782900843, 42.521915024306708 ], [ -3.254678782900843, 42.522337224851434 ], [ -3.255418998868352, 42.522337224851434 ], [ -3.255418998868352, 42.524870368206308 ], [ -3.25615921483586, 42.524870368206308 ], [ -3.25615921483586, 42.527403408851789 ], [ -3.256899430803368, 42.527403408851789 ], [ -3.256899430803368, 42.528669890658243 ], [ -3.257639646770877, 42.528669890658243 ], [ -3.257639646770877, 42.527825572307002 ], [ -3.258379862738385, 42.527825572307002 ], [ -3.258379862738385, 42.526981242543499 ], [ -3.259860294673402, 42.526981242543499 ], [ -3.259860294673402, 42.526559073382153 ], [ -3.26060051064091, 42.526559073382153 ], [ -3.26060051064091, 42.526136901367771 ], [ -3.261340726608418, 42.526136901367771 ], [ -3.261340726608418, 42.525714726500325 ], [ -3.263561374510944, 42.525714726500325 ], [ -3.263561374510944, 42.526136901367771 ], [ -3.264301590478452, 42.526136901367771 ], [ -3.264301590478452, 42.526981242543499 ], [ -3.26504180644596, 42.526981242543499 ], [ -3.26504180644596, 42.527403408851789 ], [ -3.265782022413469, 42.527403408851789 ], [ -3.265782022413469, 42.527825572307002 ], [ -3.266522238380977, 42.527825572307002 ], [ -3.266522238380977, 42.528247732909158 ], [ -3.267262454348485, 42.528247732909158 ], [ -3.267262454348485, 42.528669890658243 ], [ -3.268002670315993, 42.528669890658243 ], [ -3.268002670315993, 42.533313437594678 ], [ -3.267262454348485, 42.533313437594678 ], [ -3.267262454348485, 42.534157681765542 ], [ -3.266522238380977, 42.534157681765542 ], [ -3.266522238380977, 42.53457979957129 ], [ -3.265782022413469, 42.53457979957129 ], [ -3.265782022413469, 42.535424026623424 ], [ -3.26504180644596, 42.535424026623424 ], [ -3.26504180644596, 42.535846135869789 ], [ -3.264301590478452, 42.535846135869789 ], [ -3.264301590478452, 42.536268242263034 ], [ -3.26504180644596, 42.536268242263034 ], [ -3.26504180644596, 42.540911224280833 ], [ -3.264301590478452, 42.540911224280833 ], [ -3.264301590478452, 42.541755365738368 ], [ -3.263561374510944, 42.541755365738368 ], [ -3.263561374510944, 42.542599495783165 ], [ -3.262821158543435, 42.542599495783165 ], [ -3.262821158543435, 42.543443614415196 ], [ -3.261340726608418, 42.543443614415196 ], [ -3.261340726608418, 42.543865669451414 ], [ -3.259120078705893, 42.543865669451414 ], [ -3.259120078705893, 42.544287721634426 ], [ -3.256899430803368, 42.544287721634426 ], [ -3.256899430803368, 42.544709770964246 ], [ -3.253938566933335, 42.544709770964246 ], [ -3.253938566933335, 42.54513181744084 ], [ -3.25171791903081, 42.54513181744084 ], [ -3.25171791903081, 42.545553861064228 ], [ -3.249497271128285, 42.545553861064228 ], [ -3.249497271128285, 42.54513181744084 ], [ -3.248757055160777, 42.54513181744084 ], [ -3.248757055160777, 42.544709770964246 ], [ -3.248016839193268, 42.544709770964246 ], [ -3.248016839193268, 42.544287721634426 ], [ -3.24727662322576, 42.544287721634426 ] ] ], [ [ [ -3.179916970182502, 42.541755365738368 ], [ -3.179916970182502, 42.541333296436193 ], [ -3.179176754214994, 42.541333296436193 ], [ -3.179176754214994, 42.539222907127673 ], [ -3.178436538247485, 42.539222907127673 ], [ -3.178436538247485, 42.537112446490099 ], [ -3.177696322279977, 42.537112446490099 ], [ -3.177696322279977, 42.535001914523917 ], [ -3.176956106312468, 42.535001914523917 ], [ -3.176956106312468, 42.53373556110666 ], [ -3.177696322279977, 42.53373556110666 ], [ -3.177696322279977, 42.532469182011376 ], [ -3.178436538247485, 42.532469182011376 ], [ -3.178436538247485, 42.531624915015648 ], [ -3.179176754214994, 42.531624915015648 ], [ -3.179176754214994, 42.530358493123842 ], [ -3.179916970182502, 42.530358493123842 ], [ -3.179916970182502, 42.529514197597209 ], [ -3.18065718615001, 42.529514197597209 ], [ -3.18065718615001, 42.529092045554265 ], [ -3.18509848195506, 42.529092045554265 ], [ -3.18509848195506, 42.529514197597209 ], [ -3.185838697922568, 42.529514197597209 ], [ -3.185838697922568, 42.530358493123842 ], [ -3.186578913890076, 42.530358493123842 ], [ -3.186578913890076, 42.530780636607538 ], [ -3.187319129857585, 42.530780636607538 ], [ -3.187319129857585, 42.531624915015648 ], [ -3.188059345825093, 42.531624915015648 ], [ -3.188059345825093, 42.532047049940061 ], [ -3.190279993727618, 42.532047049940061 ], [ -3.190279993727618, 42.532469182011376 ], [ -3.191760425662635, 42.532469182011376 ], [ -3.191760425662635, 42.529514197597209 ], [ -3.192500641630143, 42.529514197597209 ], [ -3.192500641630143, 42.528669890658243 ], [ -3.193240857597652, 42.528669890658243 ], [ -3.193240857597652, 42.527825572307002 ], [ -3.19398107356516, 42.527825572307002 ], [ -3.19398107356516, 42.526981242543499 ], [ -3.195461505500177, 42.526981242543499 ], [ -3.195461505500177, 42.526559073382153 ], [ -3.199162585337718, 42.526559073382153 ], [ -3.199162585337718, 42.526981242543499 ], [ -3.199902801305227, 42.526981242543499 ], [ -3.199902801305227, 42.527403408851789 ], [ -3.200643017272736, 42.527403408851789 ], [ -3.200643017272736, 42.528247732909158 ], [ -3.201383233240243, 42.528247732909158 ], [ -3.201383233240243, 42.529092045554265 ], [ -3.202123449207751, 42.529092045554265 ], [ -3.202123449207751, 42.529936346787068 ], [ -3.20286366517526, 42.529936346787068 ], [ -3.20286366517526, 42.53373556110666 ], [ -3.202123449207751, 42.53373556110666 ], [ -3.202123449207751, 42.53457979957129 ], [ -3.201383233240243, 42.53457979957129 ], [ -3.201383233240243, 42.535424026623424 ], [ -3.200643017272736, 42.535424026623424 ], [ -3.200643017272736, 42.536268242263034 ], [ -3.199902801305227, 42.536268242263034 ], [ -3.199902801305227, 42.536690345803137 ], [ -3.194721289532668, 42.536690345803137 ], [ -3.194721289532668, 42.536268242263034 ], [ -3.19398107356516, 42.536268242263034 ], [ -3.19398107356516, 42.538378731432111 ], [ -3.193240857597652, 42.538378731432111 ], [ -3.193240857597652, 42.540489149272304 ], [ -3.192500641630143, 42.540489149272304 ], [ -3.192500641630143, 42.540911224280833 ], [ -3.191020209695127, 42.540911224280833 ], [ -3.191020209695127, 42.541333296436193 ], [ -3.18953977776011, 42.541333296436193 ], [ -3.18953977776011, 42.541755365738368 ], [ -3.188059345825093, 42.541755365738368 ], [ -3.188059345825093, 42.542177432187358 ], [ -3.186578913890076, 42.542177432187358 ], [ -3.186578913890076, 42.542599495783165 ], [ -3.18509848195506, 42.542599495783165 ], [ -3.18509848195506, 42.543021556525773 ], [ -3.182877834052535, 42.543021556525773 ], [ -3.182877834052535, 42.542599495783165 ], [ -3.182137618085027, 42.542599495783165 ], [ -3.182137618085027, 42.542177432187358 ], [ -3.18065718615001, 42.542177432187358 ], [ -3.18065718615001, 42.541755365738368 ], [ -3.179916970182502, 42.541755365738368 ] ] ], [ [ [ -3.141425739872068, 42.579729918707542 ], [ -3.141425739872068, 42.579308106206341 ], [ -3.14068552390456, 42.579308106206341 ], [ -3.14068552390456, 42.577199000897878 ], [ -3.139945307937052, 42.577199000897878 ], [ -3.139945307937052, 42.575089824252274 ], [ -3.139205091969543, 42.575089824252274 ], [ -3.139205091969543, 42.572980576269977 ], [ -3.138464876002035, 42.572980576269977 ], [ -3.138464876002035, 42.571714993239169 ], [ -3.139205091969543, 42.571714993239169 ], [ -3.139205091969543, 42.57087125695142 ], [ -3.139945307937052, 42.57087125695142 ], [ -3.139945307937052, 42.569605631119082 ], [ -3.14068552390456, 42.569605631119082 ], [ -3.14068552390456, 42.568339979605945 ], [ -3.141425739872068, 42.568339979605945 ], [ -3.141425739872068, 42.567496197663459 ], [ -3.142165955839576, 42.567496197663459 ], [ -3.142165955839576, 42.566230503349217 ], [ -3.142906171807085, 42.566230503349217 ], [ -3.142906171807085, 42.565386692872764 ], [ -3.143646387774594, 42.565386692872764 ], [ -3.143646387774594, 42.564542870982748 ], [ -3.144386603742102, 42.564542870982748 ], [ -3.144386603742102, 42.564120955757673 ], [ -3.14512681970961, 42.564120955757673 ], [ -3.14512681970961, 42.563699037679221 ], [ -3.145867035677119, 42.563699037679221 ], [ -3.145867035677119, 42.563277116747408 ], [ -3.147347467612135, 42.563277116747408 ], [ -3.147347467612135, 42.562855192962218 ], [ -3.148827899547152, 42.562855192962218 ], [ -3.148827899547152, 42.563277116747408 ], [ -3.150308331482168, 42.563277116747408 ], [ -3.150308331482168, 42.563699037679221 ], [ -3.151048547449676, 42.563699037679221 ], [ -3.151048547449676, 42.564120955757673 ], [ -3.151788763417185, 42.564120955757673 ], [ -3.151788763417185, 42.564542870982748 ], [ -3.152528979384693, 42.564542870982748 ], [ -3.152528979384693, 42.566230503349217 ], [ -3.153269195352201, 42.566230503349217 ], [ -3.153269195352201, 42.568339979605945 ], [ -3.15400941131971, 42.568339979605945 ], [ -3.15400941131971, 42.570449384527407 ], [ -3.154749627287218, 42.570449384527407 ], [ -3.154749627287218, 42.572136857102876 ], [ -3.15400941131971, 42.572136857102876 ], [ -3.15400941131971, 42.573402431573349 ], [ -3.153269195352201, 42.573402431573349 ], [ -3.153269195352201, 42.574246133619731 ], [ -3.152528979384693, 42.574246133619731 ], [ -3.152528979384693, 42.575511665288339 ], [ -3.151788763417185, 42.575511665288339 ], [ -3.151788763417185, 42.576777171275708 ], [ -3.151048547449676, 42.576777171275708 ], [ -3.151048547449676, 42.57762082766655 ], [ -3.150308331482168, 42.57762082766655 ], [ -3.150308331482168, 42.578886290851635 ], [ -3.14956811551466, 42.578886290851635 ], [ -3.14956811551466, 42.579729918707542 ], [ -3.148087683579643, 42.579729918707542 ], [ -3.148087683579643, 42.580151728355219 ], [ -3.147347467612135, 42.580151728355219 ], [ -3.147347467612135, 42.580573535149405 ], [ -3.146607251644626, 42.580573535149405 ], [ -3.146607251644626, 42.580995339090066 ], [ -3.144386603742102, 42.580995339090066 ], [ -3.144386603742102, 42.580573535149405 ], [ -3.143646387774594, 42.580573535149405 ], [ -3.143646387774594, 42.580151728355219 ], [ -3.142165955839576, 42.580151728355219 ], [ -3.142165955839576, 42.579729918707542 ], [ -3.141425739872068, 42.579729918707542 ] ] ], [ [ [ 1.775828932285797, 42.70361903685928 ], [ 1.776569148253305, 42.70361903685928 ], [ 1.776569148253305, 42.701514141216094 ], [ 1.777309364220814, 42.701514141216094 ], [ 1.777309364220814, 42.689725406843344 ], [ 1.776569148253305, 42.689725406843344 ], [ 1.776569148253305, 42.688883268754857 ], [ 1.775828932285797, 42.688883268754857 ], [ 1.775828932285797, 42.68804111924873 ], [ 1.775088716318289, 42.68804111924873 ], [ 1.775088716318289, 42.687198958325013 ], [ 1.77434850035078, 42.687198958325013 ], [ 1.77434850035078, 42.686777873581562 ], [ 1.767686556643205, 42.686777873581562 ], [ 1.767686556643205, 42.687198958325013 ], [ 1.766946340675697, 42.687198958325013 ], [ 1.766946340675697, 42.687620040214071 ], [ 1.766206124708188, 42.687620040214071 ], [ 1.766206124708188, 42.688462195428997 ], [ 1.76546590874068, 42.688462195428997 ], [ 1.76546590874068, 42.689304339226304 ], [ 1.764725692773172, 42.689304339226304 ], [ 1.764725692773172, 42.690146471605971 ], [ 1.763985476805663, 42.690146471605971 ], [ 1.763985476805663, 42.690567533514184 ], [ 1.763245260838155, 42.690567533514184 ], [ 1.763245260838155, 42.691409648767333 ], [ 1.762505044870647, 42.691409648767333 ], [ 1.762505044870647, 42.692251752602779 ], [ 1.761764828903139, 42.692251752602779 ], [ 1.761764828903139, 42.698146159752746 ], [ 1.762505044870647, 42.698146159752746 ], [ 1.762505044870647, 42.699830173320379 ], [ 1.763245260838155, 42.699830173320379 ], [ 1.763245260838155, 42.701514141216094 ], [ 1.763985476805663, 42.701514141216094 ], [ 1.763985476805663, 42.703198063439686 ], [ 1.764725692773172, 42.703198063439686 ], [ 1.764725692773172, 42.704881939990912 ], [ 1.766206124708188, 42.704881939990912 ], [ 1.766206124708188, 42.70530290199239 ], [ 1.769166988578222, 42.70530290199239 ], [ 1.769166988578222, 42.705723861139319 ], [ 1.772127852448256, 42.705723861139319 ], [ 1.772127852448256, 42.706144817431721 ], [ 1.77434850035078, 42.706144817431721 ], [ 1.77434850035078, 42.70530290199239 ], [ 1.775088716318289, 42.70530290199239 ], [ 1.775088716318289, 42.7044609751349 ], [ 1.775828932285797, 42.7044609751349 ], [ 1.775828932285797, 42.70361903685928 ] ] ], [ [ [ -2.212454700649109, 43.043669636594203 ], [ -2.212454700649109, 43.042832313324439 ], [ -2.2117144846816, 43.042832313324439 ], [ -2.2117144846816, 43.041576306991999 ], [ -2.210974268714092, 43.041576306991999 ], [ -2.210974268714092, 43.034039729021053 ], [ -2.2117144846816, 43.034039729021053 ], [ -2.2117144846816, 43.030689841684811 ], [ -2.212454700649109, 43.030689841684811 ], [ -2.212454700649109, 43.029852341281128 ], [ -2.213194916616617, 43.029852341281128 ], [ -2.213194916616617, 43.029014829449622 ], [ -2.213935132584125, 43.029014829449622 ], [ -2.213935132584125, 43.028596069248458 ], [ -2.214675348551634, 43.028596069248458 ], [ -2.214675348551634, 43.028177306190337 ], [ -2.218376428389175, 43.028177306190337 ], [ -2.218376428389175, 43.028596069248458 ], [ -2.222817724194225, 43.028596069248458 ], [ -2.222817724194225, 43.029014829449622 ], [ -2.223557940161733, 43.029014829449622 ], [ -2.223557940161733, 43.029433586793843 ], [ -2.224298156129242, 43.029433586793843 ], [ -2.224298156129242, 43.029852341281128 ], [ -2.22503837209675, 43.029852341281128 ], [ -2.22503837209675, 43.030271092911441 ], [ -2.225778588064259, 43.030271092911441 ], [ -2.225778588064259, 43.030689841684811 ], [ -2.226518804031767, 43.030689841684811 ], [ -2.226518804031767, 43.031108587601217 ], [ -2.227259019999275, 43.031108587601217 ], [ -2.227259019999275, 43.031946070863157 ], [ -2.227999235966783, 43.031946070863157 ], [ -2.227999235966783, 43.03487717228537 ], [ -2.228739451934292, 43.03487717228537 ], [ -2.228739451934292, 43.035714604121743 ], [ -2.2294796679018, 43.035714604121743 ], [ -2.2294796679018, 43.036133315754434 ], [ -2.230219883869309, 43.036133315754434 ], [ -2.230219883869309, 43.036970730448857 ], [ -2.230960099836817, 43.036970730448857 ], [ -2.230960099836817, 43.041576306991999 ], [ -2.230219883869309, 43.041576306991999 ], [ -2.230219883869309, 43.041994978626512 ], [ -2.2294796679018, 43.041994978626512 ], [ -2.2294796679018, 43.04241364740399 ], [ -2.228739451934292, 43.04241364740399 ], [ -2.228739451934292, 43.043250976387839 ], [ -2.227999235966783, 43.043250976387839 ], [ -2.227999235966783, 43.043669636594203 ], [ -2.227259019999275, 43.043669636594203 ], [ -2.227259019999275, 43.04408829394351 ], [ -2.226518804031767, 43.04408829394351 ], [ -2.226518804031767, 43.044506948435782 ], [ -2.225778588064259, 43.044506948435782 ], [ -2.225778588064259, 43.045344248849148 ], [ -2.22503837209675, 43.045344248849148 ], [ -2.22503837209675, 43.045762894770256 ], [ -2.224298156129242, 43.045762894770256 ], [ -2.224298156129242, 43.0461815378343 ], [ -2.219116644356684, 43.0461815378343 ], [ -2.219116644356684, 43.045762894770256 ], [ -2.213935132584125, 43.045762894770256 ], [ -2.213935132584125, 43.044925600070989 ], [ -2.213194916616617, 43.044925600070989 ], [ -2.213194916616617, 43.043669636594203 ], [ -2.212454700649109, 43.043669636594203 ] ] ], [ [ [ -0.554370933430439, 44.011384026362983 ], [ -0.553630717462931, 44.011384026362983 ], [ -0.553630717462931, 44.010972029510164 ], [ -0.552890501495423, 44.010972029510164 ], [ -0.552890501495423, 44.006851903571466 ], [ -0.552150285527914, 44.006851903571466 ], [ -0.552150285527914, 44.002319434477947 ], [ -0.552890501495423, 44.002319434477947 ], [ -0.552890501495423, 44.001907374661151 ], [ -0.553630717462931, 44.001907374661151 ], [ -0.553630717462931, 44.001083246441603 ], [ -0.554370933430439, 44.001083246441603 ], [ -0.554370933430439, 44.000259106774124 ], [ -0.555851365365456, 44.000259106774124 ], [ -0.555851365365456, 43.999847032647438 ], [ -0.558072013267981, 43.999847032647438 ], [ -0.558072013267981, 43.999434955658757 ], [ -0.560292661170506, 43.999434955658757 ], [ -0.560292661170506, 43.999022875808109 ], [ -0.563993741008048, 43.999022875808109 ], [ -0.563993741008048, 43.999847032647438 ], [ -0.564733956975556, 43.999847032647438 ], [ -0.564733956975556, 44.000259106774124 ], [ -0.565474172943064, 44.000259106774124 ], [ -0.565474172943064, 44.000671178038857 ], [ -0.566214388910573, 44.000671178038857 ], [ -0.566214388910573, 44.001083246441603 ], [ -0.566954604878081, 44.001083246441603 ], [ -0.566954604878081, 44.001495311982367 ], [ -0.567694820845589, 44.001495311982367 ], [ -0.567694820845589, 44.003143545525596 ], [ -0.568435036813098, 44.003143545525596 ], [ -0.568435036813098, 44.007675951655251 ], [ -0.569175252780606, 44.007675951655251 ], [ -0.569175252780606, 44.010148027218492 ], [ -0.568435036813098, 44.010148027218492 ], [ -0.568435036813098, 44.010560029795336 ], [ -0.567694820845589, 44.010560029795336 ], [ -0.567694820845589, 44.011384026362983 ], [ -0.566954604878081, 44.011384026362983 ], [ -0.566954604878081, 44.012208011482564 ], [ -0.566214388910573, 44.012208011482564 ], [ -0.566214388910573, 44.012619999749326 ], [ -0.563993741008048, 44.012619999749326 ], [ -0.563993741008048, 44.013031985154072 ], [ -0.560292661170506, 44.013031985154072 ], [ -0.560292661170506, 44.013443967696794 ], [ -0.555851365365456, 44.013443967696794 ], [ -0.555851365365456, 44.013031985154072 ], [ -0.555111149397948, 44.013031985154072 ], [ -0.555111149397948, 44.012208011482564 ], [ -0.554370933430439, 44.012208011482564 ], [ -0.554370933430439, 44.011384026362983 ] ] ] ] } }
]
}
