{
"type": "FeatureCollection",
"name": "spain_fires_modis_ba",
"crs": { "type": "name", "properties": { "name": "urn:ogc:def:crs:OGC:1.3:CRS84" } },
"features": [
{ "type": "Feature", "properties": { }, "geometry": { "type": "MultiPolygon", "coordinates": [ [ [ [ -7.872145988217834, 41.12435938416197 ], [ -7.872145988217834, 41.12392786337211 ], [ -7.871405772250324, 41.12392786337211 ], [ -7.871405772250324, 41.121338679044584 ], [ -7.872886204185342, 41.121338679044584 ], [ -7.872886204185342, 41.120907138391999 ], [ -7.873626420152851, 41.120907138391999 ], [ -7.873626420152851, 41.121338679044584 ], [ -7.875106852087868, 41.121338679044584 ], [ -7.875106852087868, 41.121770216859666 ], [ -7.875847068055377, 41.121770216859666 ], [ -7.875847068055377, 41.12392786337211 ], [ -7.875106852087868, 41.12392786337211 ], [ -7.875106852087868, 41.12435938416197 ], [ -7.872145988217834, 41.12435938416197 ] ] ], [ [ [ -6.299927273230131, 43.100162535607993 ], [ -6.299927273230131, 43.099744261128421 ], [ -6.301407705165149, 43.099744261128421 ], [ -6.301407705165149, 43.100162535607993 ], [ -6.299927273230131, 43.100162535607993 ] ] ] ] } }
]
}
