{
"type": "FeatureCollection",
"name": "spain_fires_nrt_ba",
"crs": { "type": "name", "properties": { "name": "urn:ogc:def:crs:OGC:1.3:CRS84" } },
"features": [
{ "type": "Feature", "properties": { }, "geometry": { "type": "MultiPolygon", "coordinates": [ [ [ [ -0.277530161582322, 35.824969885320684 ], [ -0.276789945614814, 35.824969885320684 ], [ -0.276789945614814, 35.824505411354338 ], [ -0.276049729647306, 35.824505411354338 ], [ -0.276049729647306, 35.824040934669902 ], [ -0.274569297712289, 35.824040934669902 ], [ -0.274569297712289, 35.8235764552674 ], [ -0.272348649809764, 35.8235764552674 ], [ -0.272348649809764, 35.82311197314683 ], [ -0.270128001907239, 35.82311197314683 ], [ -0.270128001907239, 35.822647488308213 ], [ -0.267167138037206, 35.822647488308213 ], [ -0.267167138037206, 35.822183000751579 ], [ -0.264946490134681, 35.822183000751579 ], [ -0.264946490134681, 35.821718510476927 ], [ -0.262725842232156, 35.821718510476927 ], [ -0.262725842232156, 35.821254017484272 ], [ -0.260505194329631, 35.821254017484272 ], [ -0.260505194329631, 35.820789521773627 ], [ -0.259764978362122, 35.820789521773627 ], [ -0.259764978362122, 35.819860522198454 ], [ -0.259024762394614, 35.819860522198454 ], [ -0.259024762394614, 35.81939601833394 ], [ -0.258284546427106, 35.81939601833394 ], [ -0.258284546427106, 35.818467002451158 ], [ -0.257544330459597, 35.818467002451158 ], [ -0.257544330459597, 35.818002490432896 ], [ -0.256804114492089, 35.818002490432896 ], [ -0.256804114492089, 35.81753797569678 ], [ -0.253843250622056, 35.81753797569678 ], [ -0.253843250622056, 35.817073458242774 ], [ -0.252362818687039, 35.817073458242774 ], [ -0.252362818687039, 35.816608938070921 ], [ -0.251622602719531, 35.816608938070921 ], [ -0.251622602719531, 35.816144415181228 ], [ -0.250882386752022, 35.816144415181228 ], [ -0.250882386752022, 35.815215361248384 ], [ -0.250142170784514, 35.815215361248384 ], [ -0.250142170784514, 35.814750830205249 ], [ -0.249401954817006, 35.814750830205249 ], [ -0.249401954817006, 35.814286296444358 ], [ -0.248661738849497, 35.814286296444358 ], [ -0.248661738849497, 35.813357220769255 ], [ -0.247921522881989, 35.813357220769255 ], [ -0.247921522881989, 35.812892678855093 ], [ -0.247181306914481, 35.812892678855093 ], [ -0.247181306914481, 35.812428134223211 ], [ -0.244220443044447, 35.812428134223211 ], [ -0.244220443044447, 35.811963586873631 ], [ -0.243480227076939, 35.811963586873631 ], [ -0.243480227076939, 35.812428134223211 ], [ -0.242740011109431, 35.812428134223211 ], [ -0.242740011109431, 35.813357220769255 ], [ -0.241999795141922, 35.813357220769255 ], [ -0.241999795141922, 35.814286296444358 ], [ -0.241259579174414, 35.814286296444358 ], [ -0.241259579174414, 35.814750830205249 ], [ -0.239779147239397, 35.814750830205249 ], [ -0.239779147239397, 35.815215361248384 ], [ -0.238298715304381, 35.815215361248384 ], [ -0.238298715304381, 35.815679889573708 ], [ -0.237558499336872, 35.815679889573708 ], [ -0.237558499336872, 35.816144415181228 ], [ -0.235337851434347, 35.816144415181228 ], [ -0.235337851434347, 35.815679889573708 ], [ -0.233117203531822, 35.815679889573708 ], [ -0.233117203531822, 35.815215361248384 ], [ -0.231636771596806, 35.815215361248384 ], [ -0.231636771596806, 35.814750830205249 ], [ -0.230896555629297, 35.814750830205249 ], [ -0.230896555629297, 35.813357220769255 ], [ -0.230156339661789, 35.813357220769255 ], [ -0.230156339661789, 35.812428134223211 ], [ -0.229416123694281, 35.812428134223211 ], [ -0.229416123694281, 35.811034484021377 ], [ -0.228675907726772, 35.811034484021377 ], [ -0.228675907726772, 35.810105370298473 ], [ -0.227935691759264, 35.810105370298473 ], [ -0.227935691759264, 35.809176245705025 ], [ -0.227195475791756, 35.809176245705025 ], [ -0.227195475791756, 35.80731796390701 ], [ -0.227935691759264, 35.80731796390701 ], [ -0.227935691759264, 35.805924224024189 ], [ -0.228675907726772, 35.805924224024189 ], [ -0.228675907726772, 35.804530459683846 ], [ -0.229416123694281, 35.804530459683846 ], [ -0.229416123694281, 35.803601269869652 ], [ -0.230156339661789, 35.803601269869652 ], [ -0.230156339661789, 35.803136670886389 ], [ -0.230896555629297, 35.803136670886389 ], [ -0.230896555629297, 35.802672069185711 ], [ -0.231636771596806, 35.802672069185711 ], [ -0.231636771596806, 35.80220746476764 ], [ -0.232376987564314, 35.80220746476764 ], [ -0.232376987564314, 35.801742857632192 ], [ -0.237558499336872, 35.801742857632192 ], [ -0.237558499336872, 35.80220746476764 ], [ -0.238298715304381, 35.80220746476764 ], [ -0.238298715304381, 35.802672069185711 ], [ -0.239038931271889, 35.802672069185711 ], [ -0.239038931271889, 35.800813635209181 ], [ -0.239779147239397, 35.800813635209181 ], [ -0.239779147239397, 35.799884401916799 ], [ -0.240519363206906, 35.799884401916799 ], [ -0.240519363206906, 35.799419781194644 ], [ -0.241259579174414, 35.799419781194644 ], [ -0.241259579174414, 35.798955157755167 ], [ -0.242740011109431, 35.798955157755167 ], [ -0.242740011109431, 35.798490531598425 ], [ -0.245700874979464, 35.798490531598425 ], [ -0.245700874979464, 35.798955157755167 ], [ -0.247921522881989, 35.798955157755167 ], [ -0.247921522881989, 35.799419781194644 ], [ -0.249401954817006, 35.799419781194644 ], [ -0.249401954817006, 35.799884401916799 ], [ -0.250882386752022, 35.799884401916799 ], [ -0.250882386752022, 35.799419781194644 ], [ -0.252362818687039, 35.799419781194644 ], [ -0.252362818687039, 35.798955157755167 ], [ -0.253843250622056, 35.798955157755167 ], [ -0.253843250622056, 35.798490531598425 ], [ -0.255323682557072, 35.798490531598425 ], [ -0.255323682557072, 35.798025902724412 ], [ -0.261245410297139, 35.798025902724412 ], [ -0.261245410297139, 35.798490531598425 ], [ -0.266426922069697, 35.798490531598425 ], [ -0.266426922069697, 35.799419781194644 ], [ -0.267167138037206, 35.799419781194644 ], [ -0.267167138037206, 35.799884401916799 ], [ -0.267907354004714, 35.799884401916799 ], [ -0.267907354004714, 35.800349019921647 ], [ -0.268647569972222, 35.800349019921647 ], [ -0.268647569972222, 35.801278247779365 ], [ -0.269387785939731, 35.801278247779365 ], [ -0.269387785939731, 35.801742857632192 ], [ -0.270128001907239, 35.801742857632192 ], [ -0.270128001907239, 35.80220746476764 ], [ -0.270868217874747, 35.80220746476764 ], [ -0.270868217874747, 35.803136670886389 ], [ -0.271608433842256, 35.803136670886389 ], [ -0.271608433842256, 35.803601269869652 ], [ -0.272348649809764, 35.803601269869652 ], [ -0.272348649809764, 35.804530459683846 ], [ -0.273088865777272, 35.804530459683846 ], [ -0.273088865777272, 35.804995050514783 ], [ -0.273829081744781, 35.804995050514783 ], [ -0.273829081744781, 35.804065866135467 ], [ -0.274569297712289, 35.804065866135467 ], [ -0.274569297712289, 35.803136670886389 ], [ -0.275309513679797, 35.803136670886389 ], [ -0.275309513679797, 35.80220746476764 ], [ -0.276049729647306, 35.80220746476764 ], [ -0.276049729647306, 35.801742857632192 ], [ -0.276789945614814, 35.801742857632192 ], [ -0.276789945614814, 35.801278247779365 ], [ -0.278270377549831, 35.801278247779365 ], [ -0.278270377549831, 35.800813635209181 ], [ -0.279010593517339, 35.800813635209181 ], [ -0.279010593517339, 35.800349019921647 ], [ -0.280491025452356, 35.800349019921647 ], [ -0.280491025452356, 35.800813635209181 ], [ -0.281231241419864, 35.800813635209181 ], [ -0.281231241419864, 35.801278247779365 ], [ -0.282711673354881, 35.801278247779365 ], [ -0.282711673354881, 35.801742857632192 ], [ -0.283451889322389, 35.801742857632192 ], [ -0.283451889322389, 35.80220746476764 ], [ -0.284192105289897, 35.80220746476764 ], [ -0.284192105289897, 35.805459638628236 ], [ -0.284932321257406, 35.805459638628236 ], [ -0.284932321257406, 35.809640809360559 ], [ -0.285672537224914, 35.809640809360559 ], [ -0.285672537224914, 35.813821759965677 ], [ -0.286412753192422, 35.813821759965677 ], [ -0.286412753192422, 35.818467002451158 ], [ -0.287152969159931, 35.818467002451158 ], [ -0.287152969159931, 35.821254017484272 ], [ -0.286412753192422, 35.821254017484272 ], [ -0.286412753192422, 35.822183000751579 ], [ -0.285672537224914, 35.822183000751579 ], [ -0.285672537224914, 35.822647488308213 ], [ -0.284932321257406, 35.822647488308213 ], [ -0.284932321257406, 35.82311197314683 ], [ -0.284192105289897, 35.82311197314683 ], [ -0.284192105289897, 35.8235764552674 ], [ -0.283451889322389, 35.8235764552674 ], [ -0.283451889322389, 35.824040934669902 ], [ -0.282711673354881, 35.824040934669902 ], [ -0.282711673354881, 35.824505411354338 ], [ -0.281971457387372, 35.824505411354338 ], [ -0.281971457387372, 35.824969885320684 ], [ -0.281231241419864, 35.824969885320684 ], [ -0.281231241419864, 35.82543435656892 ], [ -0.280491025452356, 35.82543435656892 ], [ -0.280491025452356, 35.825898825099053 ], [ -0.278270377549831, 35.825898825099053 ], [ -0.278270377549831, 35.82543435656892 ], [ -0.277530161582322, 35.82543435656892 ], [ -0.277530161582322, 35.824969885320684 ] ] ], [ [ [ 1.244353867614813, 36.135555728038689 ], [ 1.244353867614813, 36.135093078437173 ], [ 1.245834299549829, 36.135093078437173 ], [ 1.245834299549829, 36.13463042610794 ], [ 1.246574515517338, 36.13463042610794 ], [ 1.246574515517338, 36.133242452754182 ], [ 1.247314731484846, 36.133242452754182 ], [ 1.247314731484846, 36.131391783428839 ], [ 1.248054947452355, 36.131391783428839 ], [ 1.248054947452355, 36.130466432400581 ], [ 1.247314731484846, 36.130466432400581 ], [ 1.247314731484846, 36.128153007097822 ], [ 1.246574515517338, 36.128153007097822 ], [ 1.246574515517338, 36.126302217760696 ], [ 1.245834299549829, 36.126302217760696 ], [ 1.245834299549829, 36.124451384784592 ], [ 1.245094083582321, 36.124451384784592 ], [ 1.245094083582321, 36.123063231414996 ], [ 1.243613651647304, 36.123063231414996 ], [ 1.243613651647304, 36.122600508170429 ], [ 1.242133219712288, 36.122600508170429 ], [ 1.242133219712288, 36.122137782198543 ], [ 1.240652787777271, 36.122137782198543 ], [ 1.240652787777271, 36.121675053499345 ], [ 1.239172355842254, 36.121675053499345 ], [ 1.239172355842254, 36.122137782198543 ], [ 1.238432139874746, 36.122137782198543 ], [ 1.238432139874746, 36.122600508170429 ], [ 1.236951707939729, 36.122600508170429 ], [ 1.236951707939729, 36.123063231414996 ], [ 1.236211491972221, 36.123063231414996 ], [ 1.236211491972221, 36.123525951932208 ], [ 1.235471276004713, 36.123525951932208 ], [ 1.235471276004713, 36.124914097119721 ], [ 1.234731060037205, 36.124914097119721 ], [ 1.234731060037205, 36.126764919186158 ], [ 1.233990844069696, 36.126764919186158 ], [ 1.233990844069696, 36.127690313854742 ], [ 1.234731060037205, 36.127690313854742 ], [ 1.234731060037205, 36.130003752795091 ], [ 1.235471276004713, 36.130003752795091 ], [ 1.235471276004713, 36.132779789514281 ], [ 1.236211491972221, 36.132779789514281 ], [ 1.236211491972221, 36.13463042610794 ], [ 1.236951707939729, 36.13463042610794 ], [ 1.236951707939729, 36.135093078437173 ], [ 1.237691923907238, 36.135093078437173 ], [ 1.237691923907238, 36.135555728038689 ], [ 1.239172355842254, 36.135555728038689 ], [ 1.239172355842254, 36.136018374912496 ], [ 1.239912571809763, 36.136018374912496 ], [ 1.239912571809763, 36.136481019058579 ], [ 1.24139300374478, 36.136481019058579 ], [ 1.24139300374478, 36.136018374912496 ], [ 1.242873435679796, 36.136018374912496 ], [ 1.242873435679796, 36.135555728038689 ], [ 1.244353867614813, 36.135555728038689 ] ] ], [ [ [ 3.141527392338674, 36.603276314916315 ], [ 3.142267608306182, 36.603276314916315 ], [ 3.142267608306182, 36.602356558972815 ], [ 3.14300782427369, 36.602356558972815 ], [ 3.14300782427369, 36.601896676888721 ], [ 3.143748040241198, 36.601896676888721 ], [ 3.143748040241198, 36.600976904495894 ], [ 3.144488256208707, 36.600976904495894 ], [ 3.144488256208707, 36.595917960319227 ], [ 3.143748040241198, 36.595917960319227 ], [ 3.143748040241198, 36.595458039854627 ], [ 3.14300782427369, 36.595458039854627 ], [ 3.14300782427369, 36.594998116648675 ], [ 3.142267608306182, 36.594998116648675 ], [ 3.142267608306182, 36.594078262012708 ], [ 3.141527392338674, 36.594078262012708 ], [ 3.141527392338674, 36.593618330582743 ], [ 3.140787176371165, 36.593618330582743 ], [ 3.140787176371165, 36.593158396411461 ], [ 3.140046960403657, 36.593158396411461 ], [ 3.140046960403657, 36.592238519845012 ], [ 3.13412523266359, 36.592238519845012 ], [ 3.13412523266359, 36.592698459498877 ], [ 3.133385016696082, 36.592698459498877 ], [ 3.133385016696082, 36.593618330582743 ], [ 3.132644800728573, 36.593618330582743 ], [ 3.132644800728573, 36.594078262012708 ], [ 3.131904584761065, 36.594078262012708 ], [ 3.131904584761065, 36.594998116648675 ], [ 3.131164368793557, 36.594998116648675 ], [ 3.131164368793557, 36.595917960319227 ], [ 3.130424152826048, 36.595917960319227 ], [ 3.130424152826048, 36.596377878042439 ], [ 3.12968393685854, 36.596377878042439 ], [ 3.12968393685854, 36.597297705264687 ], [ 3.128943720891032, 36.597297705264687 ], [ 3.128943720891032, 36.601896676888721 ], [ 3.12968393685854, 36.601896676888721 ], [ 3.12968393685854, 36.602816438315351 ], [ 3.130424152826048, 36.602816438315351 ], [ 3.130424152826048, 36.603736188775677 ], [ 3.131164368793557, 36.603736188775677 ], [ 3.131164368793557, 36.604196059893432 ], [ 3.131904584761065, 36.604196059893432 ], [ 3.131904584761065, 36.604655928269572 ], [ 3.13412523266359, 36.604655928269572 ], [ 3.13412523266359, 36.605115793904091 ], [ 3.137826312501132, 36.605115793904091 ], [ 3.137826312501132, 36.605575656796958 ], [ 3.139306744436149, 36.605575656796958 ], [ 3.139306744436149, 36.605115793904091 ], [ 3.140046960403657, 36.605115793904091 ], [ 3.140046960403657, 36.604655928269572 ], [ 3.140787176371165, 36.604655928269572 ], [ 3.140787176371165, 36.603736188775677 ], [ 3.141527392338674, 36.603736188775677 ], [ 3.141527392338674, 36.603276314916315 ] ] ], [ [ [ 2.88985396338584, 36.61017413493235 ], [ 2.890594179353348, 36.61017413493235 ], [ 2.890594179353348, 36.606495374357721 ], [ 2.891334395320857, 36.606495374357721 ], [ 2.891334395320857, 36.605115793904091 ], [ 2.892814827255873, 36.605115793904091 ], [ 2.892814827255873, 36.605575656796958 ], [ 2.893555043223381, 36.605575656796958 ], [ 2.893555043223381, 36.606035516948175 ], [ 2.895035475158398, 36.606035516948175 ], [ 2.895035475158398, 36.605575656796958 ], [ 2.895775691125907, 36.605575656796958 ], [ 2.895775691125907, 36.605115793904091 ], [ 2.896515907093415, 36.605115793904091 ], [ 2.896515907093415, 36.604655928269572 ], [ 2.897256123060923, 36.604655928269572 ], [ 2.897256123060923, 36.604196059893432 ], [ 2.897996339028431, 36.604196059893432 ], [ 2.897996339028431, 36.603736188775677 ], [ 2.89873655499594, 36.603736188775677 ], [ 2.89873655499594, 36.603276314916315 ], [ 2.899476770963448, 36.603276314916315 ], [ 2.899476770963448, 36.602816438315351 ], [ 2.900216986930956, 36.602816438315351 ], [ 2.900216986930956, 36.602356558972815 ], [ 2.901697418865973, 36.602356558972815 ], [ 2.901697418865973, 36.601896676888721 ], [ 2.902437634833482, 36.601896676888721 ], [ 2.902437634833482, 36.600057121136963 ], [ 2.90317785080099, 36.600057121136963 ], [ 2.90317785080099, 36.598217521521264 ], [ 2.903918066768498, 36.598217521521264 ], [ 2.903918066768498, 36.597757614763687 ], [ 2.90317785080099, 36.597757614763687 ], [ 2.90317785080099, 36.596377878042439 ], [ 2.902437634833482, 36.596377878042439 ], [ 2.902437634833482, 36.595458039854627 ], [ 2.901697418865973, 36.595458039854627 ], [ 2.901697418865973, 36.594078262012708 ], [ 2.900957202898465, 36.594078262012708 ], [ 2.900957202898465, 36.593158396411461 ], [ 2.900216986930956, 36.593158396411461 ], [ 2.900216986930956, 36.592698459498877 ], [ 2.899476770963448, 36.592698459498877 ], [ 2.899476770963448, 36.593158396411461 ], [ 2.896515907093415, 36.593158396411461 ], [ 2.896515907093415, 36.593618330582743 ], [ 2.89429525919089, 36.593618330582743 ], [ 2.89429525919089, 36.594078262012708 ], [ 2.891334395320857, 36.594078262012708 ], [ 2.891334395320857, 36.594538190701364 ], [ 2.889113747418332, 36.594538190701364 ], [ 2.889113747418332, 36.596377878042439 ], [ 2.888373531450823, 36.596377878042439 ], [ 2.888373531450823, 36.598217521521264 ], [ 2.887633315483315, 36.598217521521264 ], [ 2.887633315483315, 36.598677425537396 ], [ 2.888373531450823, 36.598677425537396 ], [ 2.888373531450823, 36.600976904495894 ], [ 2.889113747418332, 36.600976904495894 ], [ 2.889113747418332, 36.601896676888721 ], [ 2.888373531450823, 36.601896676888721 ], [ 2.888373531450823, 36.601436792063076 ], [ 2.88541266758079, 36.601436792063076 ], [ 2.88541266758079, 36.600517014187183 ], [ 2.886152883548299, 36.600517014187183 ], [ 2.886152883548299, 36.599137326812055 ], [ 2.886893099515807, 36.599137326812055 ], [ 2.886893099515807, 36.597757614763687 ], [ 2.887633315483315, 36.597757614763687 ], [ 2.887633315483315, 36.596377878042439 ], [ 2.886893099515807, 36.596377878042439 ], [ 2.886893099515807, 36.594078262012708 ], [ 2.886152883548299, 36.594078262012708 ], [ 2.886152883548299, 36.592238519845012 ], [ 2.88541266758079, 36.592238519845012 ], [ 2.88541266758079, 36.591318632313481 ], [ 2.884672451613281, 36.591318632313481 ], [ 2.884672451613281, 36.590858684435844 ], [ 2.883932235645773, 36.590858684435844 ], [ 2.883932235645773, 36.590398733816969 ], [ 2.883192019678265, 36.590398733816969 ], [ 2.883192019678265, 36.58993878045689 ], [ 2.882451803710757, 36.58993878045689 ], [ 2.882451803710757, 36.589478824355602 ], [ 2.88097137177574, 36.589478824355602 ], [ 2.88097137177574, 36.589018865513104 ], [ 2.880231155808231, 36.589018865513104 ], [ 2.880231155808231, 36.588558903929453 ], [ 2.879490939840723, 36.588558903929453 ], [ 2.879490939840723, 36.588098939604613 ], [ 2.878010507905707, 36.588098939604613 ], [ 2.878010507905707, 36.588558903929453 ], [ 2.875049644035673, 36.588558903929453 ], [ 2.875049644035673, 36.589018865513104 ], [ 2.874309428068165, 36.589018865513104 ], [ 2.874309428068165, 36.589478824355602 ], [ 2.873569212100656, 36.589478824355602 ], [ 2.873569212100656, 36.58993878045689 ], [ 2.872828996133148, 36.58993878045689 ], [ 2.872828996133148, 36.590398733816969 ], [ 2.87208878016564, 36.590398733816969 ], [ 2.87208878016564, 36.590858684435844 ], [ 2.871348564198132, 36.590858684435844 ], [ 2.871348564198132, 36.591318632313481 ], [ 2.870608348230624, 36.591318632313481 ], [ 2.870608348230624, 36.591778577449873 ], [ 2.869868132263115, 36.591778577449873 ], [ 2.869868132263115, 36.592698459498877 ], [ 2.869127916295606, 36.592698459498877 ], [ 2.869127916295606, 36.594998116648675 ], [ 2.868387700328098, 36.594998116648675 ], [ 2.868387700328098, 36.597297705264687 ], [ 2.86764748436059, 36.597297705264687 ], [ 2.86764748436059, 36.600976904495894 ], [ 2.868387700328098, 36.600976904495894 ], [ 2.868387700328098, 36.602816438315351 ], [ 2.869127916295606, 36.602816438315351 ], [ 2.869127916295606, 36.604655928269572 ], [ 2.869868132263115, 36.604655928269572 ], [ 2.869868132263115, 36.605115793904091 ], [ 2.870608348230624, 36.605115793904091 ], [ 2.870608348230624, 36.605575656796958 ], [ 2.87208878016564, 36.605575656796958 ], [ 2.87208878016564, 36.606035516948175 ], [ 2.873569212100656, 36.606035516948175 ], [ 2.873569212100656, 36.606495374357721 ], [ 2.87653007597069, 36.606495374357721 ], [ 2.87653007597069, 36.606035516948175 ], [ 2.877270291938198, 36.606035516948175 ], [ 2.877270291938198, 36.605575656796958 ], [ 2.878010507905707, 36.605575656796958 ], [ 2.878010507905707, 36.605115793904091 ], [ 2.879490939840723, 36.605115793904091 ], [ 2.879490939840723, 36.604655928269572 ], [ 2.880231155808231, 36.604655928269572 ], [ 2.880231155808231, 36.604196059893432 ], [ 2.88097137177574, 36.604196059893432 ], [ 2.88097137177574, 36.605575656796958 ], [ 2.880231155808231, 36.605575656796958 ], [ 2.880231155808231, 36.607415080951746 ], [ 2.88097137177574, 36.607415080951746 ], [ 2.88097137177574, 36.608794620279923 ], [ 2.881711587743248, 36.608794620279923 ], [ 2.881711587743248, 36.61017413493235 ], [ 2.882451803710757, 36.61017413493235 ], [ 2.882451803710757, 36.610633967666281 ], [ 2.883192019678265, 36.610633967666281 ], [ 2.883192019678265, 36.611093797658391 ], [ 2.884672451613281, 36.611093797658391 ], [ 2.884672451613281, 36.611553624908673 ], [ 2.88541266758079, 36.611553624908673 ], [ 2.88541266758079, 36.612013449417155 ], [ 2.886893099515807, 36.612013449417155 ], [ 2.886893099515807, 36.611553624908673 ], [ 2.887633315483315, 36.611553624908673 ], [ 2.887633315483315, 36.611093797658391 ], [ 2.889113747418332, 36.611093797658391 ], [ 2.889113747418332, 36.610633967666281 ], [ 2.88985396338584, 36.610633967666281 ], [ 2.88985396338584, 36.61017413493235 ] ] ], [ [ [ 3.12968393685854, 36.68600942970653 ], [ 3.12968393685854, 36.685090661159613 ], [ 3.130424152826048, 36.685090661159613 ], [ 3.130424152826048, 36.684171881636921 ], [ 3.131164368793557, 36.684171881636921 ], [ 3.131164368793557, 36.677740117665422 ], [ 3.130424152826048, 36.677740117665422 ], [ 3.130424152826048, 36.677280685374775 ], [ 3.12968393685854, 36.677280685374775 ], [ 3.12968393685854, 36.676361812562291 ], [ 3.128943720891032, 36.676361812562291 ], [ 3.128943720891032, 36.675442928775055 ], [ 3.127463288956015, 36.675442928775055 ], [ 3.127463288956015, 36.674983482765938 ], [ 3.123762209118474, 36.674983482765938 ], [ 3.123762209118474, 36.67452403401316 ], [ 3.120801345248441, 36.67452403401316 ], [ 3.120801345248441, 36.674064582516735 ], [ 3.119320913313424, 36.674064582516735 ], [ 3.119320913313424, 36.67452403401316 ], [ 3.118580697345915, 36.67452403401316 ], [ 3.118580697345915, 36.674983482765938 ], [ 3.117840481378407, 36.674983482765938 ], [ 3.117840481378407, 36.675902372040525 ], [ 3.117100265410898, 36.675902372040525 ], [ 3.117100265410898, 36.676361812562291 ], [ 3.11636004944339, 36.676361812562291 ], [ 3.11636004944339, 36.677280685374775 ], [ 3.115619833475882, 36.677280685374775 ], [ 3.115619833475882, 36.677740117665422 ], [ 3.114879617508374, 36.677740117665422 ], [ 3.114879617508374, 36.682793691773554 ], [ 3.115619833475882, 36.682793691773554 ], [ 3.115619833475882, 36.683712487759699 ], [ 3.11636004944339, 36.683712487759699 ], [ 3.11636004944339, 36.684171881636921 ], [ 3.117100265410898, 36.684171881636921 ], [ 3.117100265410898, 36.684631272770233 ], [ 3.117840481378407, 36.684631272770233 ], [ 3.117840481378407, 36.685550046805048 ], [ 3.118580697345915, 36.685550046805048 ], [ 3.118580697345915, 36.68600942970653 ], [ 3.119320913313424, 36.68600942970653 ], [ 3.119320913313424, 36.686468809864046 ], [ 3.120061129280932, 36.686468809864046 ], [ 3.120061129280932, 36.687387561947112 ], [ 3.120801345248441, 36.687387561947112 ], [ 3.120801345248441, 36.687846933872635 ], [ 3.121541561215949, 36.687846933872635 ], [ 3.121541561215949, 36.688765669491623 ], [ 3.127463288956015, 36.688765669491623 ], [ 3.127463288956015, 36.687846933872635 ], [ 3.128203504923524, 36.687846933872635 ], [ 3.128203504923524, 36.68692818727758 ], [ 3.128943720891032, 36.68692818727758 ], [ 3.128943720891032, 36.68600942970653 ], [ 3.12968393685854, 36.68600942970653 ] ] ], [ [ [ -3.743961537423853, 39.944543091108599 ], [ -3.743221321456344, 39.944543091108599 ], [ -3.743221321456344, 39.944103904206173 ], [ -3.741740889521328, 39.944103904206173 ], [ -3.741740889521328, 39.943664714484513 ], [ -3.741000673553819, 39.943664714484513 ], [ -3.741000673553819, 39.943225521943617 ], [ -3.739520241618802, 39.943225521943617 ], [ -3.739520241618802, 39.942786326583487 ], [ -3.738780025651294, 39.942786326583487 ], [ -3.738780025651294, 39.942347128404151 ], [ -3.738039809683786, 39.942347128404151 ], [ -3.738039809683786, 39.940590307494809 ], [ -3.737299593716278, 39.940590307494809 ], [ -3.737299593716278, 39.938394217926707 ], [ -3.736559377748769, 39.938394217926707 ], [ -3.736559377748769, 39.93531957412776 ], [ -3.737299593716278, 39.93531957412776 ], [ -3.737299593716278, 39.933123315412963 ], [ -3.738039809683786, 39.933123315412963 ], [ -3.738039809683786, 39.931366257698258 ], [ -3.738780025651294, 39.931366257698258 ], [ -3.738780025651294, 39.93048771192678 ], [ -3.739520241618802, 39.93048771192678 ], [ -3.739520241618802, 39.930048434812555 ], [ -3.740260457586311, 39.930048434812555 ], [ -3.740260457586311, 39.929609154879309 ], [ -3.741000673553819, 39.929609154879309 ], [ -3.741000673553819, 39.929169872127098 ], [ -3.742481105488836, 39.929169872127098 ], [ -3.742481105488836, 39.928730586555908 ], [ -3.743221321456344, 39.928730586555908 ], [ -3.743221321456344, 39.928291298165753 ], [ -3.743961537423853, 39.928291298165753 ], [ -3.743961537423853, 39.928730586555908 ], [ -3.746182185326378, 39.928730586555908 ], [ -3.746182185326378, 39.929169872127098 ], [ -3.747662617261394, 39.929169872127098 ], [ -3.747662617261394, 39.929609154879309 ], [ -3.749143049196411, 39.929609154879309 ], [ -3.749143049196411, 39.930048434812555 ], [ -3.750623481131427, 39.930048434812555 ], [ -3.750623481131427, 39.93048771192678 ], [ -3.751363697098936, 39.93048771192678 ], [ -3.751363697098936, 39.931366257698258 ], [ -3.752103913066444, 39.931366257698258 ], [ -3.752103913066444, 39.934441079099038 ], [ -3.752844129033953, 39.934441079099038 ], [ -3.752844129033953, 39.937076530356116 ], [ -3.753584345001461, 39.937076530356116 ], [ -3.753584345001461, 39.938833441478643 ], [ -3.752844129033953, 39.938833441478643 ], [ -3.752844129033953, 39.940151095219512 ], [ -3.752103913066444, 39.940151095219512 ], [ -3.752103913066444, 39.941468723587867 ], [ -3.751363697098936, 39.941468723587867 ], [ -3.751363697098936, 39.942786326583487 ], [ -3.750623481131427, 39.942786326583487 ], [ -3.750623481131427, 39.943664714484513 ], [ -3.749883265163919, 39.943664714484513 ], [ -3.749883265163919, 39.944103904206173 ], [ -3.748402833228903, 39.944103904206173 ], [ -3.748402833228903, 39.944543091108599 ], [ -3.746922401293885, 39.944543091108599 ], [ -3.746922401293885, 39.944982275191784 ], [ -3.746182185326378, 39.944982275191784 ], [ -3.746182185326378, 39.945421456455712 ], [ -3.745441969358869, 39.945421456455712 ], [ -3.745441969358869, 39.944982275191784 ], [ -3.743961537423853, 39.944982275191784 ], [ -3.743961537423853, 39.944543091108599 ] ] ], [ [ [ -5.723299034541139, 43.536943031704851 ], [ -5.723299034541139, 43.536112471851069 ], [ -5.72255881857363, 43.536112471851069 ], [ -5.72255881857363, 43.535281900557365 ], [ -5.721818602606122, 43.535281900557365 ], [ -5.721818602606122, 43.533205422273518 ], [ -5.721078386638613, 43.533205422273518 ], [ -5.721078386638613, 43.527390902703871 ], [ -5.720338170671106, 43.527390902703871 ], [ -5.720338170671106, 43.521991204041377 ], [ -5.719597954703597, 43.521991204041377 ], [ -5.719597954703597, 43.520745051096618 ], [ -5.720338170671106, 43.520745051096618 ], [ -5.720338170671106, 43.520329661061893 ], [ -5.721078386638613, 43.520329661061893 ], [ -5.721078386638613, 43.519914268167263 ], [ -5.721818602606122, 43.519914268167263 ], [ -5.721818602606122, 43.519498872412733 ], [ -5.72255881857363, 43.519498872412733 ], [ -5.72255881857363, 43.519083473798304 ], [ -5.723299034541139, 43.519083473798304 ], [ -5.723299034541139, 43.518668072323983 ], [ -5.724039250508648, 43.518668072323983 ], [ -5.724039250508648, 43.518252667989771 ], [ -5.724779466476156, 43.518252667989771 ], [ -5.724779466476156, 43.517837260795666 ], [ -5.725519682443664, 43.517837260795666 ], [ -5.725519682443664, 43.51742185074167 ], [ -5.726259898411173, 43.51742185074167 ], [ -5.726259898411173, 43.517006437827789 ], [ -5.727000114378681, 43.517006437827789 ], [ -5.727000114378681, 43.516591022054023 ], [ -5.727740330346189, 43.516591022054023 ], [ -5.727740330346189, 43.515760181926844 ], [ -5.728480546313697, 43.515760181926844 ], [ -5.728480546313697, 43.51534475757343 ], [ -5.733662058086256, 43.51534475757343 ], [ -5.733662058086256, 43.514929330360154 ], [ -5.734402274053765, 43.514929330360154 ], [ -5.734402274053765, 43.51534475757343 ], [ -5.735142490021273, 43.51534475757343 ], [ -5.735142490021273, 43.515760181926844 ], [ -5.73588270598878, 43.515760181926844 ], [ -5.73588270598878, 43.516175603420372 ], [ -5.73662292195629, 43.516175603420372 ], [ -5.73662292195629, 43.517006437827789 ], [ -5.737363137923798, 43.517006437827789 ], [ -5.737363137923798, 43.51742185074167 ], [ -5.738103353891305, 43.51742185074167 ], [ -5.738103353891305, 43.518252667989771 ], [ -5.738843569858814, 43.518252667989771 ], [ -5.738843569858814, 43.518668072323983 ], [ -5.739583785826321, 43.518668072323983 ], [ -5.739583785826321, 43.519498872412733 ], [ -5.74032400179383, 43.519498872412733 ], [ -5.74032400179383, 43.519914268167263 ], [ -5.741064217761339, 43.519914268167263 ], [ -5.741064217761339, 43.520745051096618 ], [ -5.741804433728848, 43.520745051096618 ], [ -5.741804433728848, 43.521160438271444 ], [ -5.742544649696356, 43.521160438271444 ], [ -5.742544649696356, 43.524068068417712 ], [ -5.741804433728848, 43.524068068417712 ], [ -5.741804433728848, 43.529052251208505 ], [ -5.741064217761339, 43.529052251208505 ], [ -5.741064217761339, 43.529882908301154 ], [ -5.74032400179383, 43.529882908301154 ], [ -5.74032400179383, 43.530713553953994 ], [ -5.739583785826321, 43.530713553953994 ], [ -5.739583785826321, 43.531959500983589 ], [ -5.738843569858814, 43.531959500983589 ], [ -5.738843569858814, 43.532790118036843 ], [ -5.738103353891305, 43.532790118036843 ], [ -5.738103353891305, 43.53403602216698 ], [ -5.737363137923798, 43.53403602216698 ], [ -5.737363137923798, 43.534866610620547 ], [ -5.735142490021273, 43.534866610620547 ], [ -5.735142490021273, 43.535281900557365 ], [ -5.733662058086256, 43.535281900557365 ], [ -5.733662058086256, 43.535697187634213 ], [ -5.732181626151239, 43.535697187634213 ], [ -5.732181626151239, 43.536112471851069 ], [ -5.730701194216222, 43.536112471851069 ], [ -5.730701194216222, 43.536527753207956 ], [ -5.729220762281205, 43.536527753207956 ], [ -5.729220762281205, 43.536943031704851 ], [ -5.727740330346189, 43.536943031704851 ], [ -5.727740330346189, 43.537358307341755 ], [ -5.725519682443664, 43.537358307341755 ], [ -5.725519682443664, 43.537773580118674 ], [ -5.724779466476156, 43.537773580118674 ], [ -5.724779466476156, 43.537358307341755 ], [ -5.724039250508648, 43.537358307341755 ], [ -5.724039250508648, 43.536943031704851 ], [ -5.723299034541139, 43.536943031704851 ] ] ], [ [ [ -5.840993373374964, 43.550645617637002 ], [ -5.840993373374964, 43.550230433520795 ], [ -5.840253157407456, 43.550230433520795 ], [ -5.840253157407456, 43.549815246544526 ], [ -5.839512941439948, 43.549815246544526 ], [ -5.839512941439948, 43.549400056708208 ], [ -5.838032509504931, 43.549400056708208 ], [ -5.838032509504931, 43.548984864011857 ], [ -5.837292293537423, 43.548984864011857 ], [ -5.837292293537423, 43.548569668455436 ], [ -5.834331429667389, 43.548569668455436 ], [ -5.834331429667389, 43.54815447003898 ], [ -5.831370565797356, 43.54815447003898 ], [ -5.831370565797356, 43.54773926876247 ], [ -5.827669485959815, 43.54773926876247 ], [ -5.827669485959815, 43.547324064625933 ], [ -5.826929269992306, 43.547324064625933 ], [ -5.826929269992306, 43.546493647772721 ], [ -5.826189054024797, 43.546493647772721 ], [ -5.826189054024797, 43.545663219479366 ], [ -5.82544883805729, 43.545663219479366 ], [ -5.82544883805729, 43.544832779745889 ], [ -5.824708622089781, 43.544832779745889 ], [ -5.824708622089781, 43.544002328572311 ], [ -5.823968406122273, 43.544002328572311 ], [ -5.823968406122273, 43.543171865958641 ], [ -5.823228190154764, 43.543171865958641 ], [ -5.823228190154764, 43.542341391904877 ], [ -5.822487974187256, 43.542341391904877 ], [ -5.822487974187256, 43.541510906411077 ], [ -5.819527110317222, 43.541510906411077 ], [ -5.819527110317222, 43.541095659374164 ], [ -5.817306462414698, 43.541095659374164 ], [ -5.817306462414698, 43.540680409477226 ], [ -5.816566246447189, 43.540680409477226 ], [ -5.816566246447189, 43.539434642626411 ], [ -5.815826030479681, 43.539434642626411 ], [ -5.815826030479681, 43.537773580118674 ], [ -5.815085814512173, 43.537773580118674 ], [ -5.815085814512173, 43.536527753207956 ], [ -5.815826030479681, 43.536527753207956 ], [ -5.815826030479681, 43.535281900557365 ], [ -5.816566246447189, 43.535281900557365 ], [ -5.816566246447189, 43.53403602216698 ], [ -5.817306462414698, 43.53403602216698 ], [ -5.817306462414698, 43.533205422273518 ], [ -5.818046678382206, 43.533205422273518 ], [ -5.818046678382206, 43.531959500983589 ], [ -5.823968406122273, 43.531959500983589 ], [ -5.823968406122273, 43.53237481094019 ], [ -5.828409701927322, 43.53237481094019 ], [ -5.828409701927322, 43.531959500983589 ], [ -5.829149917894831, 43.531959500983589 ], [ -5.829149917894831, 43.531544188167018 ], [ -5.830630349829847, 43.531544188167018 ], [ -5.830630349829847, 43.531128872490477 ], [ -5.832110781764865, 43.531128872490477 ], [ -5.832110781764865, 43.531544188167018 ], [ -5.832850997732372, 43.531544188167018 ], [ -5.832850997732372, 43.531959500983589 ], [ -5.833591213699881, 43.531959500983589 ], [ -5.833591213699881, 43.53237481094019 ], [ -5.835071645634897, 43.53237481094019 ], [ -5.835071645634897, 43.532790118036843 ], [ -5.835811861602406, 43.532790118036843 ], [ -5.835811861602406, 43.533205422273518 ], [ -5.836552077569914, 43.533205422273518 ], [ -5.836552077569914, 43.533620723650237 ], [ -5.837292293537423, 43.533620723650237 ], [ -5.837292293537423, 43.53403602216698 ], [ -5.83877272547244, 43.53403602216698 ], [ -5.83877272547244, 43.534451317823752 ], [ -5.839512941439948, 43.534451317823752 ], [ -5.839512941439948, 43.535281900557365 ], [ -5.840253157407456, 43.535281900557365 ], [ -5.840253157407456, 43.536943031704851 ], [ -5.840993373374964, 43.536943031704851 ], [ -5.840993373374964, 43.538188850035603 ], [ -5.841733589342473, 43.538188850035603 ], [ -5.841733589342473, 43.537773580118674 ], [ -5.846915101115031, 43.537773580118674 ], [ -5.846915101115031, 43.538188850035603 ], [ -5.847655317082539, 43.538188850035603 ], [ -5.847655317082539, 43.53860411709254 ], [ -5.849135749017555, 43.53860411709254 ], [ -5.849135749017555, 43.539019381289471 ], [ -5.849875964985064, 43.539019381289471 ], [ -5.849875964985064, 43.540680409477226 ], [ -5.850616180952573, 43.540680409477226 ], [ -5.850616180952573, 43.543171865958641 ], [ -5.85135639692008, 43.543171865958641 ], [ -5.85135639692008, 43.545663219479366 ], [ -5.850616180952573, 43.545663219479366 ], [ -5.850616180952573, 43.54773926876247 ], [ -5.849875964985064, 43.54773926876247 ], [ -5.849875964985064, 43.549400056708208 ], [ -5.849135749017555, 43.549400056708208 ], [ -5.849135749017555, 43.549815246544526 ], [ -5.848395533050048, 43.549815246544526 ], [ -5.848395533050048, 43.550230433520795 ], [ -5.847655317082539, 43.550230433520795 ], [ -5.847655317082539, 43.550645617637002 ], [ -5.846174885147523, 43.550645617637002 ], [ -5.846174885147523, 43.551060798893154 ], [ -5.845434669180014, 43.551060798893154 ], [ -5.845434669180014, 43.551475977289243 ], [ -5.843214021277489, 43.551475977289243 ], [ -5.843214021277489, 43.551060798893154 ], [ -5.842473805309981, 43.551060798893154 ], [ -5.842473805309981, 43.550645617637002 ], [ -5.840993373374964, 43.550645617637002 ] ] ], [ [ [ 4.074939727366683, 36.468415247007677 ], [ 4.074939727366683, 36.467493885646938 ], [ 4.075679943334192, 36.467493885646938 ], [ 4.075679943334192, 36.467033200860101 ], [ 4.081601671074258, 36.467033200860101 ], [ 4.081601671074258, 36.466572513335642 ], [ 4.082341887041767, 36.466572513335642 ], [ 4.082341887041767, 36.465651130073901 ], [ 4.083082103009275, 36.465651130073901 ], [ 4.083082103009275, 36.465190434336655 ], [ 4.083822318976783, 36.465190434336655 ], [ 4.083822318976783, 36.463808330699528 ], [ 4.084562534944292, 36.463808330699528 ], [ 4.084562534944292, 36.457818930240265 ], [ 4.085302750911799, 36.457818930240265 ], [ 4.085302750911799, 36.457358187966165 ], [ 4.086042966879308, 36.457358187966165 ], [ 4.086042966879308, 36.456897442954713 ], [ 4.086783182846816, 36.456897442954713 ], [ 4.086783182846816, 36.455975944719846 ], [ 4.087523398814325, 36.455975944719846 ], [ 4.087523398814325, 36.455515191496453 ], [ 4.088263614781833, 36.455515191496453 ], [ 4.088263614781833, 36.455054435535786 ], [ 4.089003830749341, 36.455054435535786 ], [ 4.089003830749341, 36.450446725381262 ], [ 4.088263614781833, 36.450446725381262 ], [ 4.088263614781833, 36.449985939311325 ], [ 4.087523398814325, 36.449985939311325 ], [ 4.087523398814325, 36.449525150504279 ], [ 4.086783182846816, 36.449525150504279 ], [ 4.086783182846816, 36.448603564678841 ], [ 4.086042966879308, 36.448603564678841 ], [ 4.086042966879308, 36.448142767660499 ], [ 4.085302750911799, 36.448142767660499 ], [ 4.085302750911799, 36.447681967905083 ], [ 4.084562534944292, 36.447681967905083 ], [ 4.084562534944292, 36.446760360183099 ], [ 4.083822318976783, 36.446760360183099 ], [ 4.083822318976783, 36.446299552216558 ], [ 4.083082103009275, 36.446299552216558 ], [ 4.083082103009275, 36.445838741513008 ], [ 4.080861455106749, 36.445838741513008 ], [ 4.080861455106749, 36.445377928072439 ], [ 4.078640807204224, 36.445377928072439 ], [ 4.078640807204224, 36.444917111894888 ], [ 4.077900591236716, 36.444917111894888 ], [ 4.077900591236716, 36.444456292980369 ], [ 4.077160375269208, 36.444456292980369 ], [ 4.077160375269208, 36.443534646940456 ], [ 4.0764201593017, 36.443534646940456 ], [ 4.0764201593017, 36.442612989952799 ], [ 4.075679943334192, 36.442612989952799 ], [ 4.075679943334192, 36.441691322017519 ], [ 4.074939727366683, 36.441691322017519 ], [ 4.074939727366683, 36.440769643134715 ], [ 4.074199511399175, 36.440769643134715 ], [ 4.074199511399175, 36.439847953304508 ], [ 4.073459295431667, 36.439847953304508 ], [ 4.073459295431667, 36.439387104284165 ], [ 4.070498431561633, 36.439387104284165 ], [ 4.070498431561633, 36.439847953304508 ], [ 4.068277783659108, 36.439847953304508 ], [ 4.068277783659108, 36.440308799588031 ], [ 4.066057135756584, 36.440308799588031 ], [ 4.066057135756584, 36.440769643134715 ], [ 4.063836487854058, 36.440769643134715 ], [ 4.063836487854058, 36.441230483944551 ], [ 4.061615839951533, 36.441230483944551 ], [ 4.061615839951533, 36.442612989952799 ], [ 4.060875623984025, 36.442612989952799 ], [ 4.060875623984025, 36.446760360183099 ], [ 4.060135408016516, 36.446760360183099 ], [ 4.060135408016516, 36.450907508714053 ], [ 4.059395192049008, 36.450907508714053 ], [ 4.059395192049008, 36.453672151230172 ], [ 4.0586549760815, 36.453672151230172 ], [ 4.0586549760815, 36.454593676837831 ], [ 4.057914760113992, 36.454593676837831 ], [ 4.057914760113992, 36.455515191496453 ], [ 4.057174544146483, 36.455515191496453 ], [ 4.057174544146483, 36.45643669520593 ], [ 4.055694112211467, 36.45643669520593 ], [ 4.055694112211467, 36.456897442954713 ], [ 4.053473464308941, 36.456897442954713 ], [ 4.053473464308941, 36.457358187966165 ], [ 4.052733248341433, 36.457358187966165 ], [ 4.052733248341433, 36.457818930240265 ], [ 4.051993032373924, 36.457818930240265 ], [ 4.051993032373924, 36.458740406576403 ], [ 4.051252816406416, 36.458740406576403 ], [ 4.051252816406416, 36.459201140638406 ], [ 4.050512600438908, 36.459201140638406 ], [ 4.050512600438908, 36.464269034649448 ], [ 4.051252816406416, 36.464269034649448 ], [ 4.051252816406416, 36.465190434336655 ], [ 4.051993032373924, 36.465190434336655 ], [ 4.051993032373924, 36.465651130073901 ], [ 4.052733248341433, 36.465651130073901 ], [ 4.052733248341433, 36.466572513335642 ], [ 4.053473464308941, 36.466572513335642 ], [ 4.053473464308941, 36.467033200860101 ], [ 4.057914760113992, 36.467033200860101 ], [ 4.057914760113992, 36.466572513335642 ], [ 4.0586549760815, 36.466572513335642 ], [ 4.0586549760815, 36.466111823073575 ], [ 4.059395192049008, 36.466111823073575 ], [ 4.059395192049008, 36.465190434336655 ], [ 4.060135408016516, 36.465190434336655 ], [ 4.060135408016516, 36.464269034649448 ], [ 4.060875623984025, 36.464269034649448 ], [ 4.060875623984025, 36.46334762401208 ], [ 4.06309627188655, 36.46334762401208 ], [ 4.06309627188655, 36.462886914587123 ], [ 4.066057135756584, 36.462886914587123 ], [ 4.066057135756584, 36.46334762401208 ], [ 4.066797351724091, 36.46334762401208 ], [ 4.066797351724091, 36.467033200860101 ], [ 4.0675375676916, 36.467033200860101 ], [ 4.0675375676916, 36.468415247007677 ], [ 4.068277783659108, 36.468415247007677 ], [ 4.068277783659108, 36.46887592358155 ], [ 4.069017999626616, 36.46887592358155 ], [ 4.069017999626616, 36.469336597417758 ], [ 4.070498431561633, 36.469336597417758 ], [ 4.070498431561633, 36.469797268516267 ], [ 4.072719079464158, 36.469797268516267 ], [ 4.072719079464158, 36.469336597417758 ], [ 4.073459295431667, 36.469336597417758 ], [ 4.073459295431667, 36.46887592358155 ], [ 4.074199511399175, 36.46887592358155 ], [ 4.074199511399175, 36.468415247007677 ], [ 4.074939727366683, 36.468415247007677 ] ] ], [ [ [ 3.933558477572591, 36.477167633755279 ], [ 3.933558477572591, 36.476707006461673 ], [ 3.9342986935401, 36.476707006461673 ], [ 3.9342986935401, 36.476246376430169 ], [ 3.935038909507608, 36.476246376430169 ], [ 3.935038909507608, 36.475325108153477 ], [ 3.935779125475117, 36.475325108153477 ], [ 3.935779125475117, 36.473482538745799 ], [ 3.937259557410132, 36.473482538745799 ], [ 3.937259557410132, 36.473943185204476 ], [ 3.937999773377642, 36.473943185204476 ], [ 3.937999773377642, 36.474403828925325 ], [ 3.939480205312658, 36.474403828925325 ], [ 3.939480205312658, 36.473943185204476 ], [ 3.940220421280167, 36.473943185204476 ], [ 3.940220421280167, 36.473482538745799 ], [ 3.941700853215182, 36.473482538745799 ], [ 3.941700853215182, 36.473021889549322 ], [ 3.942441069182691, 36.473021889549322 ], [ 3.942441069182691, 36.472561237615032 ], [ 3.9431812851502, 36.472561237615032 ], [ 3.9431812851502, 36.471179265385501 ], [ 3.943921501117708, 36.471179265385501 ], [ 3.943921501117708, 36.469336597417758 ], [ 3.944661717085216, 36.469336597417758 ], [ 3.944661717085216, 36.467954567696125 ], [ 3.943921501117708, 36.467954567696125 ], [ 3.943921501117708, 36.466111823073575 ], [ 3.9431812851502, 36.466111823073575 ], [ 3.9431812851502, 36.46472973586183 ], [ 3.941700853215182, 36.46472973586183 ], [ 3.941700853215182, 36.464269034649448 ], [ 3.940960637247674, 36.464269034649448 ], [ 3.940960637247674, 36.463808330699528 ], [ 3.939480205312658, 36.463808330699528 ], [ 3.939480205312658, 36.46334762401208 ], [ 3.937999773377642, 36.46334762401208 ], [ 3.937999773377642, 36.463808330699528 ], [ 3.937259557410132, 36.463808330699528 ], [ 3.937259557410132, 36.464269034649448 ], [ 3.935779125475117, 36.464269034649448 ], [ 3.935779125475117, 36.46472973586183 ], [ 3.935038909507608, 36.46472973586183 ], [ 3.935038909507608, 36.465190434336655 ], [ 3.9342986935401, 36.465190434336655 ], [ 3.9342986935401, 36.466572513335642 ], [ 3.933558477572591, 36.466572513335642 ], [ 3.933558477572591, 36.467493885646938 ], [ 3.932818261605083, 36.467493885646938 ], [ 3.932818261605083, 36.465190434336655 ], [ 3.933558477572591, 36.465190434336655 ], [ 3.933558477572591, 36.462886914587123 ], [ 3.9342986935401, 36.462886914587123 ], [ 3.9342986935401, 36.462426202424652 ], [ 3.933558477572591, 36.462426202424652 ], [ 3.933558477572591, 36.460583326400005 ], [ 3.932818261605083, 36.460583326400005 ], [ 3.932818261605083, 36.458740406576403 ], [ 3.932078045637575, 36.458740406576403 ], [ 3.932078045637575, 36.458279669777021 ], [ 3.930597613702558, 36.458279669777021 ], [ 3.930597613702558, 36.457818930240265 ], [ 3.929857397735049, 36.457818930240265 ], [ 3.929857397735049, 36.457358187966165 ], [ 3.929117181767541, 36.457358187966165 ], [ 3.929117181767541, 36.456897442954713 ], [ 3.928376965800033, 36.456897442954713 ], [ 3.928376965800033, 36.45643669520593 ], [ 3.927636749832525, 36.45643669520593 ], [ 3.927636749832525, 36.455975944719846 ], [ 3.926896533865016, 36.455975944719846 ], [ 3.926896533865016, 36.455515191496453 ], [ 3.925416101929999, 36.455515191496453 ], [ 3.925416101929999, 36.455054435535786 ], [ 3.924675885962491, 36.455054435535786 ], [ 3.924675885962491, 36.454593676837831 ], [ 3.923935669994983, 36.454593676837831 ], [ 3.923935669994983, 36.454132915402631 ], [ 3.923195454027474, 36.454132915402631 ], [ 3.923195454027474, 36.454593676837831 ], [ 3.920234590157441, 36.454593676837831 ], [ 3.920234590157441, 36.455054435535786 ], [ 3.918013942254916, 36.455054435535786 ], [ 3.918013942254916, 36.455515191496453 ], [ 3.915793294352391, 36.455515191496453 ], [ 3.915793294352391, 36.457358187966165 ], [ 3.915053078384882, 36.457358187966165 ], [ 3.915053078384882, 36.46334762401208 ], [ 3.915793294352391, 36.46334762401208 ], [ 3.915793294352391, 36.46472973586183 ], [ 3.9165335103199, 36.46472973586183 ], [ 3.9165335103199, 36.466111823073575 ], [ 3.917273726287407, 36.466111823073575 ], [ 3.917273726287407, 36.467954567696125 ], [ 3.918013942254916, 36.467954567696125 ], [ 3.918013942254916, 36.469336597417758 ], [ 3.918754158222424, 36.469336597417758 ], [ 3.918754158222424, 36.469797268516267 ], [ 3.919494374189934, 36.469797268516267 ], [ 3.919494374189934, 36.470257936877069 ], [ 3.920234590157441, 36.470257936877069 ], [ 3.920234590157441, 36.470718602500156 ], [ 3.921715022092458, 36.470718602500156 ], [ 3.921715022092458, 36.471179265385501 ], [ 3.923935669994983, 36.471179265385501 ], [ 3.923935669994983, 36.472100582942957 ], [ 3.923195454027474, 36.472100582942957 ], [ 3.923195454027474, 36.474864469908333 ], [ 3.923935669994983, 36.474864469908333 ], [ 3.923935669994983, 36.476707006461673 ], [ 3.924675885962491, 36.476707006461673 ], [ 3.924675885962491, 36.477628258310958 ], [ 3.926156317897508, 36.477628258310958 ], [ 3.926156317897508, 36.478088880128702 ], [ 3.928376965800033, 36.478088880128702 ], [ 3.928376965800033, 36.478549499208498 ], [ 3.931337829670066, 36.478549499208498 ], [ 3.931337829670066, 36.478088880128702 ], [ 3.932078045637575, 36.478088880128702 ], [ 3.932078045637575, 36.477628258310958 ], [ 3.932818261605083, 36.477628258310958 ], [ 3.932818261605083, 36.477167633755279 ], [ 3.933558477572591, 36.477167633755279 ] ] ], [ [ [ 4.003138778518375, 36.48914298233894 ], [ 4.003138778518375, 36.488682426235684 ], [ 4.004619210453392, 36.488682426235684 ], [ 4.004619210453392, 36.488221867394174 ], [ 4.0053594264209, 36.488221867394174 ], [ 4.0053594264209, 36.487761305814416 ], [ 4.006099642388408, 36.487761305814416 ], [ 4.006099642388408, 36.487300741496426 ], [ 4.006839858355916, 36.487300741496426 ], [ 4.006839858355916, 36.486840174440211 ], [ 4.007580074323425, 36.486840174440211 ], [ 4.007580074323425, 36.485919032113202 ], [ 4.008320290290933, 36.485919032113202 ], [ 4.008320290290933, 36.484076714601137 ], [ 4.009060506258441, 36.484076714601137 ], [ 4.009060506258441, 36.481313156189586 ], [ 4.008320290290933, 36.481313156189586 ], [ 4.008320290290933, 36.47947072915418 ], [ 4.007580074323425, 36.47947072915418 ], [ 4.007580074323425, 36.478549499208498 ], [ 4.006839858355916, 36.478549499208498 ], [ 4.006839858355916, 36.478088880128702 ], [ 4.0053594264209, 36.478088880128702 ], [ 4.0053594264209, 36.477628258310958 ], [ 4.004619210453392, 36.477628258310958 ], [ 4.004619210453392, 36.477167633755279 ], [ 4.003878994485883, 36.477167633755279 ], [ 4.003878994485883, 36.476707006461673 ], [ 4.003138778518375, 36.476707006461673 ], [ 4.003138778518375, 36.476246376430169 ], [ 4.002398562550866, 36.476246376430169 ], [ 4.002398562550866, 36.475785743660765 ], [ 4.001658346583358, 36.475785743660765 ], [ 4.001658346583358, 36.475325108153477 ], [ 4.000918130615849, 36.475325108153477 ], [ 4.000918130615849, 36.474864469908333 ], [ 3.997217050778308, 36.474864469908333 ], [ 3.997217050778308, 36.475325108153477 ], [ 3.991295323038241, 36.475325108153477 ], [ 3.991295323038241, 36.472561237615032 ], [ 3.990555107070733, 36.472561237615032 ], [ 3.990555107070733, 36.472100582942957 ], [ 3.989814891103225, 36.472100582942957 ], [ 3.989814891103225, 36.471179265385501 ], [ 3.989074675135717, 36.471179265385501 ], [ 3.989074675135717, 36.470257936877069 ], [ 3.986854027233191, 36.470257936877069 ], [ 3.986854027233191, 36.470718602500156 ], [ 3.983893163363158, 36.470718602500156 ], [ 3.983893163363158, 36.471179265385501 ], [ 3.982412731428141, 36.471179265385501 ], [ 3.982412731428141, 36.471639925533111 ], [ 3.981672515460633, 36.471639925533111 ], [ 3.981672515460633, 36.473943185204476 ], [ 3.980932299493125, 36.473943185204476 ], [ 3.980932299493125, 36.475325108153477 ], [ 3.979451867558108, 36.475325108153477 ], [ 3.979451867558108, 36.474864469908333 ], [ 3.977971435623091, 36.474864469908333 ], [ 3.977971435623091, 36.474403828925325 ], [ 3.976491003688075, 36.474403828925325 ], [ 3.976491003688075, 36.473943185204476 ], [ 3.975750787720566, 36.473943185204476 ], [ 3.975750787720566, 36.473021889549322 ], [ 3.975010571753058, 36.473021889549322 ], [ 3.975010571753058, 36.472561237615032 ], [ 3.974270355785549, 36.472561237615032 ], [ 3.974270355785549, 36.471639925533111 ], [ 3.973530139818041, 36.471639925533111 ], [ 3.973530139818041, 36.471179265385501 ], [ 3.968348628045482, 36.471179265385501 ], [ 3.968348628045482, 36.472100582942957 ], [ 3.967608412077974, 36.472100582942957 ], [ 3.967608412077974, 36.472561237615032 ], [ 3.966868196110467, 36.472561237615032 ], [ 3.966868196110467, 36.473482538745799 ], [ 3.966127980142958, 36.473482538745799 ], [ 3.966127980142958, 36.479010115550324 ], [ 3.966868196110467, 36.479010115550324 ], [ 3.966868196110467, 36.47947072915418 ], [ 3.967608412077974, 36.47947072915418 ], [ 3.967608412077974, 36.479931340020059 ], [ 3.968348628045482, 36.479931340020059 ], [ 3.968348628045482, 36.480391948147911 ], [ 3.969088844012992, 36.480391948147911 ], [ 3.969088844012992, 36.480852553537773 ], [ 3.9698290599805, 36.480852553537773 ], [ 3.9698290599805, 36.481313156189586 ], [ 3.970569275948008, 36.481313156189586 ], [ 3.970569275948008, 36.481773756103365 ], [ 3.972049707883024, 36.481773756103365 ], [ 3.972049707883024, 36.482234353279082 ], [ 3.972789923850533, 36.482234353279082 ], [ 3.972789923850533, 36.482694947716737 ], [ 3.973530139818041, 36.482694947716737 ], [ 3.973530139818041, 36.483155539416302 ], [ 3.974270355785549, 36.483155539416302 ], [ 3.974270355785549, 36.483616128377768 ], [ 3.975010571753058, 36.483616128377768 ], [ 3.975010571753058, 36.484076714601137 ], [ 3.975750787720566, 36.484076714601137 ], [ 3.975750787720566, 36.484537298086359 ], [ 3.976491003688075, 36.484537298086359 ], [ 3.976491003688075, 36.484997878833461 ], [ 3.977231219655583, 36.484997878833461 ], [ 3.977231219655583, 36.485458456842416 ], [ 3.977971435623091, 36.485458456842416 ], [ 3.977971435623091, 36.485919032113202 ], [ 3.979451867558108, 36.485919032113202 ], [ 3.979451867558108, 36.485458456842416 ], [ 3.980192083525616, 36.485458456842416 ], [ 3.980192083525616, 36.484997878833461 ], [ 3.981672515460633, 36.484997878833461 ], [ 3.981672515460633, 36.484537298086359 ], [ 3.982412731428141, 36.484537298086359 ], [ 3.982412731428141, 36.484076714601137 ], [ 3.98315294739565, 36.484076714601137 ], [ 3.98315294739565, 36.481313156189586 ], [ 3.983893163363158, 36.481313156189586 ], [ 3.983893163363158, 36.479931340020059 ], [ 3.986113811265682, 36.479931340020059 ], [ 3.986113811265682, 36.480391948147911 ], [ 3.9875942432007, 36.480391948147911 ], [ 3.9875942432007, 36.482234353279082 ], [ 3.988334459168208, 36.482234353279082 ], [ 3.988334459168208, 36.484537298086359 ], [ 3.989074675135717, 36.484537298086359 ], [ 3.989074675135717, 36.484997878833461 ], [ 3.989814891103225, 36.484997878833461 ], [ 3.989814891103225, 36.485919032113202 ], [ 3.990555107070733, 36.485919032113202 ], [ 3.990555107070733, 36.486379604645805 ], [ 3.991295323038241, 36.486379604645805 ], [ 3.991295323038241, 36.487300741496426 ], [ 3.992035539005749, 36.487300741496426 ], [ 3.992035539005749, 36.487761305814416 ], [ 3.992775754973259, 36.487761305814416 ], [ 3.992775754973259, 36.488221867394174 ], [ 3.993515970940766, 36.488221867394174 ], [ 3.993515970940766, 36.48914298233894 ], [ 3.994256186908275, 36.48914298233894 ], [ 3.994256186908275, 36.489603535703935 ], [ 3.994996402875783, 36.489603535703935 ], [ 3.994996402875783, 36.490524634219014 ], [ 4.000918130615849, 36.490524634219014 ], [ 4.000918130615849, 36.490064086330626 ], [ 4.001658346583358, 36.490064086330626 ], [ 4.001658346583358, 36.489603535703935 ], [ 4.002398562550866, 36.489603535703935 ], [ 4.002398562550866, 36.48914298233894 ], [ 4.003138778518375, 36.48914298233894 ] ] ], [ [ [ 4.541275786896933, 36.673145671293035 ], [ 4.542016002864442, 36.673145671293035 ], [ 4.542016002864442, 36.669469916655274 ], [ 4.54275621883195, 36.669469916655274 ], [ 4.54275621883195, 36.668091463398092 ], [ 4.543496434799458, 36.668091463398092 ], [ 4.543496434799458, 36.66717248084268 ], [ 4.544236650766966, 36.66717248084268 ], [ 4.544236650766966, 36.666712985449806 ], [ 4.544976866734475, 36.666712985449806 ], [ 4.544976866734475, 36.666253487313526 ], [ 4.545717082701985, 36.666253487313526 ], [ 4.545717082701985, 36.664874976444345 ], [ 4.546457298669492, 36.664874976444345 ], [ 4.546457298669492, 36.65568427302675 ], [ 4.547197514637, 36.65568427302675 ], [ 4.547197514637, 36.653846000671066 ], [ 4.546457298669492, 36.653846000671066 ], [ 4.546457298669492, 36.653386425724513 ], [ 4.545717082701985, 36.653386425724513 ], [ 4.545717082701985, 36.652467267602283 ], [ 4.544976866734475, 36.652467267602283 ], [ 4.544976866734475, 36.652007684426664 ], [ 4.544236650766966, 36.652007684426664 ], [ 4.544236650766966, 36.651088509846439 ], [ 4.541275786896933, 36.651088509846439 ], [ 4.541275786896933, 36.651548098508044 ], [ 4.539055138994408, 36.651548098508044 ], [ 4.539055138994408, 36.649709727403888 ], [ 4.538314923026901, 36.649709727403888 ], [ 4.538314923026901, 36.648790525394197 ], [ 4.537574707059392, 36.648790525394197 ], [ 4.537574707059392, 36.648330920274987 ], [ 4.536834491091884, 36.648330920274987 ], [ 4.536834491091884, 36.647871312412889 ], [ 4.536094275124375, 36.647871312412889 ], [ 4.536094275124375, 36.647411701807911 ], [ 4.535354059156867, 36.647411701807911 ], [ 4.535354059156867, 36.64695208846009 ], [ 4.534613843189359, 36.64695208846009 ], [ 4.534613843189359, 36.646492472369403 ], [ 4.533873627221849, 36.646492472369403 ], [ 4.533873627221849, 36.646032853535878 ], [ 4.530912763351817, 36.646032853535878 ], [ 4.530912763351817, 36.645573231959546 ], [ 4.523510603676733, 36.645573231959546 ], [ 4.523510603676733, 36.646492472369403 ], [ 4.522770387709225, 36.646492472369403 ], [ 4.522770387709225, 36.64695208846009 ], [ 4.522030171741717, 36.64695208846009 ], [ 4.522030171741717, 36.647871312412889 ], [ 4.521289955774209, 36.647871312412889 ], [ 4.521289955774209, 36.648790525394197 ], [ 4.5205497398067, 36.648790525394197 ], [ 4.5205497398067, 36.649250127770507 ], [ 4.518329091904175, 36.649250127770507 ], [ 4.518329091904175, 36.649709727403888 ], [ 4.516848659969158, 36.649709727403888 ], [ 4.516848659969158, 36.650169324294353 ], [ 4.51610844400165, 36.650169324294353 ], [ 4.51610844400165, 36.650628918441868 ], [ 4.515368228034141, 36.650628918441868 ], [ 4.515368228034141, 36.651548098508044 ], [ 4.514628012066634, 36.651548098508044 ], [ 4.514628012066634, 36.651088509846439 ], [ 4.513887796099125, 36.651088509846439 ], [ 4.513887796099125, 36.650628918441868 ], [ 4.513147580131617, 36.650628918441868 ], [ 4.513147580131617, 36.650169324294353 ], [ 4.512407364164109, 36.650169324294353 ], [ 4.512407364164109, 36.649709727403888 ], [ 4.5116671481966, 36.649709727403888 ], [ 4.5116671481966, 36.649250127770507 ], [ 4.510926932229093, 36.649250127770507 ], [ 4.510926932229093, 36.648790525394197 ], [ 4.509446500294075, 36.648790525394197 ], [ 4.509446500294075, 36.649250127770507 ], [ 4.507966068359059, 36.649250127770507 ], [ 4.507966068359059, 36.649709727403888 ], [ 4.50722585239155, 36.649709727403888 ], [ 4.50722585239155, 36.650169324294353 ], [ 4.506485636424041, 36.650169324294353 ], [ 4.506485636424041, 36.650628918441868 ], [ 4.505745420456534, 36.650628918441868 ], [ 4.505745420456534, 36.652467267602283 ], [ 4.505005204489025, 36.652467267602283 ], [ 4.505005204489025, 36.655224709052433 ], [ 4.505745420456534, 36.655224709052433 ], [ 4.505745420456534, 36.656603392746028 ], [ 4.506485636424041, 36.656603392746028 ], [ 4.506485636424041, 36.657522501492807 ], [ 4.50722585239155, 36.657522501492807 ], [ 4.50722585239155, 36.658441599266993 ], [ 4.507966068359059, 36.658441599266993 ], [ 4.507966068359059, 36.663496440884884 ], [ 4.508706284326567, 36.663496440884884 ], [ 4.508706284326567, 36.664415467334535 ], [ 4.509446500294075, 36.664415467334535 ], [ 4.509446500294075, 36.664874976444345 ], [ 4.510186716261583, 36.664874976444345 ], [ 4.510186716261583, 36.665793986433862 ], [ 4.510926932229093, 36.665793986433862 ], [ 4.510926932229093, 36.666712985449806 ], [ 4.5116671481966, 36.666712985449806 ], [ 4.5116671481966, 36.66717248084268 ], [ 4.512407364164109, 36.66717248084268 ], [ 4.512407364164109, 36.668091463398092 ], [ 4.513147580131617, 36.668091463398092 ], [ 4.513147580131617, 36.668550950560622 ], [ 4.515368228034141, 36.668550950560622 ], [ 4.515368228034141, 36.668091463398092 ], [ 4.517588875936666, 36.668091463398092 ], [ 4.517588875936666, 36.668550950560622 ], [ 4.518329091904175, 36.668550950560622 ], [ 4.518329091904175, 36.66901043497969 ], [ 4.519069307871684, 36.66901043497969 ], [ 4.519069307871684, 36.669469916655274 ], [ 4.519809523839192, 36.669469916655274 ], [ 4.519809523839192, 36.669929395587367 ], [ 4.5205497398067, 36.669929395587367 ], [ 4.5205497398067, 36.670388871775955 ], [ 4.523510603676733, 36.670388871775955 ], [ 4.523510603676733, 36.669929395587367 ], [ 4.524250819644242, 36.669929395587367 ], [ 4.524250819644242, 36.669469916655274 ], [ 4.525731251579258, 36.669469916655274 ], [ 4.525731251579258, 36.66901043497969 ], [ 4.526471467546767, 36.66901043497969 ], [ 4.526471467546767, 36.667631973492099 ], [ 4.527211683514276, 36.667631973492099 ], [ 4.527211683514276, 36.669469916655274 ], [ 4.527951899481784, 36.669469916655274 ], [ 4.527951899481784, 36.671307815922532 ], [ 4.528692115449292, 36.671307815922532 ], [ 4.528692115449292, 36.672226749094932 ], [ 4.529432331416801, 36.672226749094932 ], [ 4.529432331416801, 36.672686211565782 ], [ 4.530172547384309, 36.672686211565782 ], [ 4.530172547384309, 36.673145671293035 ], [ 4.530912763351817, 36.673145671293035 ], [ 4.530912763351817, 36.674064582516735 ], [ 4.531652979319325, 36.674064582516735 ], [ 4.531652979319325, 36.67452403401316 ], [ 4.532393195286834, 36.67452403401316 ], [ 4.532393195286834, 36.674983482765938 ], [ 4.533133411254342, 36.674983482765938 ], [ 4.533133411254342, 36.675442928775055 ], [ 4.533873627221849, 36.675442928775055 ], [ 4.533873627221849, 36.675902372040525 ], [ 4.539055138994408, 36.675902372040525 ], [ 4.539055138994408, 36.675442928775055 ], [ 4.539795354961917, 36.675442928775055 ], [ 4.539795354961917, 36.67452403401316 ], [ 4.540535570929426, 36.67452403401316 ], [ 4.540535570929426, 36.673605128276698 ], [ 4.541275786896933, 36.673605128276698 ], [ 4.541275786896933, 36.673145671293035 ] ], [ [ 4.527211683514276, 36.659820225354387 ], [ 4.527211683514276, 36.658901144039326 ], [ 4.527951899481784, 36.658901144039326 ], [ 4.527951899481784, 36.657522501492807 ], [ 4.528692115449292, 36.657522501492807 ], [ 4.528692115449292, 36.658441599266993 ], [ 4.529432331416801, 36.658441599266993 ], [ 4.529432331416801, 36.660279761897101 ], [ 4.528692115449292, 36.660279761897101 ], [ 4.528692115449292, 36.66073929569658 ], [ 4.527211683514276, 36.66073929569658 ], [ 4.527211683514276, 36.662577403461938 ], [ 4.525731251579258, 36.662577403461938 ], [ 4.525731251579258, 36.661658355065804 ], [ 4.52499103561175, 36.661658355065804 ], [ 4.52499103561175, 36.66073929569658 ], [ 4.525731251579258, 36.66073929569658 ], [ 4.525731251579258, 36.660279761897101 ], [ 4.526471467546767, 36.660279761897101 ], [ 4.526471467546767, 36.659820225354387 ], [ 4.527211683514276, 36.659820225354387 ] ] ], [ [ [ 4.801831807459868, 36.672226749094932 ], [ 4.801831807459868, 36.671767283880513 ], [ 4.803312239394883, 36.671767283880513 ], [ 4.803312239394883, 36.671307815922532 ], [ 4.804052455362393, 36.671307815922532 ], [ 4.804052455362393, 36.67084834522101 ], [ 4.805532887297408, 36.67084834522101 ], [ 4.805532887297408, 36.670388871775955 ], [ 4.806273103264918, 36.670388871775955 ], [ 4.806273103264918, 36.669929395587367 ], [ 4.807753535199934, 36.669929395587367 ], [ 4.807753535199934, 36.665793986433862 ], [ 4.808493751167443, 36.665793986433862 ], [ 4.808493751167443, 36.661658355065804 ], [ 4.807753535199934, 36.661658355065804 ], [ 4.807753535199934, 36.66073929569658 ], [ 4.807013319232426, 36.66073929569658 ], [ 4.807013319232426, 36.659820225354387 ], [ 4.806273103264918, 36.659820225354387 ], [ 4.806273103264918, 36.658901144039326 ], [ 4.805532887297408, 36.658901144039326 ], [ 4.805532887297408, 36.657982051751489 ], [ 4.8047926713299, 36.657982051751489 ], [ 4.8047926713299, 36.657062948490989 ], [ 4.804052455362393, 36.657062948490989 ], [ 4.804052455362393, 36.656143834257939 ], [ 4.803312239394883, 36.656143834257939 ], [ 4.803312239394883, 36.655224709052433 ], [ 4.802572023427375, 36.655224709052433 ], [ 4.802572023427375, 36.654305572874598 ], [ 4.801831807459868, 36.654305572874598 ], [ 4.801831807459868, 36.653386425724513 ], [ 4.801091591492359, 36.653386425724513 ], [ 4.801091591492359, 36.652007684426664 ], [ 4.800351375524851, 36.652007684426664 ], [ 4.800351375524851, 36.651548098508044 ], [ 4.799611159557342, 36.651548098508044 ], [ 4.799611159557342, 36.651088509846439 ], [ 4.798130727622326, 36.651088509846439 ], [ 4.798130727622326, 36.650628918441868 ], [ 4.795910079719801, 36.650628918441868 ], [ 4.795910079719801, 36.650169324294353 ], [ 4.793689431817276, 36.650169324294353 ], [ 4.793689431817276, 36.649709727403888 ], [ 4.791468783914751, 36.649709727403888 ], [ 4.791468783914751, 36.649250127770507 ], [ 4.789248136012225, 36.649250127770507 ], [ 4.789248136012225, 36.648790525394197 ], [ 4.7870274881097, 36.648790525394197 ], [ 4.7870274881097, 36.648330920274987 ], [ 4.784806840207176, 36.648330920274987 ], [ 4.784806840207176, 36.647871312412889 ], [ 4.78258619230465, 36.647871312412889 ], [ 4.78258619230465, 36.648790525394197 ], [ 4.781845976337143, 36.648790525394197 ], [ 4.781845976337143, 36.649709727403888 ], [ 4.781105760369634, 36.649709727403888 ], [ 4.781105760369634, 36.650628918441868 ], [ 4.780365544402125, 36.650628918441868 ], [ 4.780365544402125, 36.652007684426664 ], [ 4.779625328434618, 36.652007684426664 ], [ 4.779625328434618, 36.652926848034909 ], [ 4.778885112467108, 36.652926848034909 ], [ 4.778885112467108, 36.653846000671066 ], [ 4.778144896499601, 36.653846000671066 ], [ 4.778144896499601, 36.654765142335052 ], [ 4.777404680532093, 36.654765142335052 ], [ 4.777404680532093, 36.657062948490989 ], [ 4.778144896499601, 36.657062948490989 ], [ 4.778144896499601, 36.661658355065804 ], [ 4.778885112467108, 36.661658355065804 ], [ 4.778885112467108, 36.666253487313526 ], [ 4.779625328434618, 36.666253487313526 ], [ 4.779625328434618, 36.668550950560622 ], [ 4.780365544402125, 36.668550950560622 ], [ 4.780365544402125, 36.66901043497969 ], [ 4.781845976337143, 36.66901043497969 ], [ 4.781845976337143, 36.669469916655274 ], [ 4.78258619230465, 36.669469916655274 ], [ 4.78258619230465, 36.669929395587367 ], [ 4.784806840207176, 36.669929395587367 ], [ 4.784806840207176, 36.669469916655274 ], [ 4.786287272142192, 36.669469916655274 ], [ 4.786287272142192, 36.66901043497969 ], [ 4.7870274881097, 36.66901043497969 ], [ 4.7870274881097, 36.669469916655274 ], [ 4.78776770407721, 36.669469916655274 ], [ 4.78776770407721, 36.669929395587367 ], [ 4.788507920044717, 36.669929395587367 ], [ 4.788507920044717, 36.67084834522101 ], [ 4.789248136012225, 36.67084834522101 ], [ 4.789248136012225, 36.671307815922532 ], [ 4.790728567947242, 36.671307815922532 ], [ 4.790728567947242, 36.671767283880513 ], [ 4.791468783914751, 36.671767283880513 ], [ 4.791468783914751, 36.672226749094932 ], [ 4.792949215849767, 36.672226749094932 ], [ 4.792949215849767, 36.672686211565782 ], [ 4.794429647784784, 36.672686211565782 ], [ 4.794429647784784, 36.673145671293035 ], [ 4.795910079719801, 36.673145671293035 ], [ 4.795910079719801, 36.673605128276698 ], [ 4.798870943589835, 36.673605128276698 ], [ 4.798870943589835, 36.673145671293035 ], [ 4.799611159557342, 36.673145671293035 ], [ 4.799611159557342, 36.672686211565782 ], [ 4.801091591492359, 36.672686211565782 ], [ 4.801091591492359, 36.672226749094932 ], [ 4.801831807459868, 36.672226749094932 ] ] ], [ [ [ 3.461300690302274, 36.729638290976787 ], [ 3.462040906269782, 36.729638290976787 ], [ 3.462040906269782, 36.729179168810866 ], [ 3.462781122237291, 36.729179168810866 ], [ 3.462781122237291, 36.728260916243428 ], [ 3.463521338204799, 36.728260916243428 ], [ 3.463521338204799, 36.727801785841926 ], [ 3.464261554172307, 36.727801785841926 ], [ 3.464261554172307, 36.722751170247825 ], [ 3.463521338204799, 36.722751170247825 ], [ 3.463521338204799, 36.720914500407638 ], [ 3.462781122237291, 36.720914500407638 ], [ 3.462781122237291, 36.720455326085137 ], [ 3.462040906269782, 36.720455326085137 ], [ 3.462040906269782, 36.719996149017682 ], [ 3.460560474334766, 36.719996149017682 ], [ 3.460560474334766, 36.719536969205315 ], [ 3.459820258367257, 36.719536969205315 ], [ 3.459820258367257, 36.719077786647993 ], [ 3.459080042399749, 36.719077786647993 ], [ 3.459080042399749, 36.718618601345781 ], [ 3.457599610464733, 36.718618601345781 ], [ 3.457599610464733, 36.718159413298658 ], [ 3.456859394497224, 36.718159413298658 ], [ 3.456859394497224, 36.717700222506643 ], [ 3.455378962562207, 36.717700222506643 ], [ 3.455378962562207, 36.717241028969774 ], [ 3.454638746594699, 36.717241028969774 ], [ 3.454638746594699, 36.716781832688035 ], [ 3.45389853062719, 36.716781832688035 ], [ 3.45389853062719, 36.716322633661434 ], [ 3.452418098692174, 36.716322633661434 ], [ 3.452418098692174, 36.715863431890021 ], [ 3.451677882724665, 36.715863431890021 ], [ 3.451677882724665, 36.715404227373774 ], [ 3.448717018854632, 36.715404227373774 ], [ 3.448717018854632, 36.715863431890021 ], [ 3.447976802887124, 36.715863431890021 ], [ 3.447976802887124, 36.716322633661434 ], [ 3.447236586919616, 36.716322633661434 ], [ 3.447236586919616, 36.716781832688035 ], [ 3.446496370952107, 36.716781832688035 ], [ 3.446496370952107, 36.717241028969774 ], [ 3.445756154984599, 36.717241028969774 ], [ 3.445756154984599, 36.717700222506643 ], [ 3.44501593901709, 36.717700222506643 ], [ 3.44501593901709, 36.718618601345781 ], [ 3.444275723049583, 36.718618601345781 ], [ 3.444275723049583, 36.719077786647993 ], [ 3.443535507082073, 36.719077786647993 ], [ 3.443535507082073, 36.719536969205315 ], [ 3.442795291114566, 36.719536969205315 ], [ 3.442795291114566, 36.719996149017682 ], [ 3.442055075147058, 36.719996149017682 ], [ 3.442055075147058, 36.720455326085137 ], [ 3.441314859179549, 36.720455326085137 ], [ 3.441314859179549, 36.720914500407638 ], [ 3.44057464321204, 36.720914500407638 ], [ 3.44057464321204, 36.721373671985155 ], [ 3.439834427244532, 36.721373671985155 ], [ 3.439834427244532, 36.725965236784504 ], [ 3.44057464321204, 36.725965236784504 ], [ 3.44057464321204, 36.726424378166556 ], [ 3.441314859179549, 36.726424378166556 ], [ 3.441314859179549, 36.726883516803483 ], [ 3.442055075147058, 36.726883516803483 ], [ 3.442055075147058, 36.727342652695285 ], [ 3.442795291114566, 36.727342652695285 ], [ 3.442795291114566, 36.727801785841926 ], [ 3.443535507082073, 36.727801785841926 ], [ 3.443535507082073, 36.728260916243428 ], [ 3.444275723049583, 36.728260916243428 ], [ 3.444275723049583, 36.728720043899735 ], [ 3.44501593901709, 36.728720043899735 ], [ 3.44501593901709, 36.729179168810866 ], [ 3.445756154984599, 36.729179168810866 ], [ 3.445756154984599, 36.729638290976787 ], [ 3.446496370952107, 36.729638290976787 ], [ 3.446496370952107, 36.730097410397498 ], [ 3.447236586919616, 36.730097410397498 ], [ 3.447236586919616, 36.730556527072991 ], [ 3.447976802887124, 36.730556527072991 ], [ 3.447976802887124, 36.731015641003239 ], [ 3.448717018854632, 36.731015641003239 ], [ 3.448717018854632, 36.731474752188234 ], [ 3.451677882724665, 36.731474752188234 ], [ 3.451677882724665, 36.731015641003239 ], [ 3.455378962562207, 36.731015641003239 ], [ 3.455378962562207, 36.730556527072991 ], [ 3.45833982643224, 36.730556527072991 ], [ 3.45833982643224, 36.730097410397498 ], [ 3.461300690302274, 36.730097410397498 ], [ 3.461300690302274, 36.729638290976787 ] ] ], [ [ [ 4.830700230192692, 36.730097410397498 ], [ 4.826258934387642, 36.730097410397498 ], [ 4.826258934387642, 36.729638290976787 ], [ 4.825518718420135, 36.729638290976787 ], [ 4.825518718420135, 36.729179168810866 ], [ 4.824038286485117, 36.729179168810866 ], [ 4.824038286485117, 36.728720043899735 ], [ 4.821817638582591, 36.728720043899735 ], [ 4.821817638582591, 36.729179168810866 ], [ 4.821077422615085, 36.729179168810866 ], [ 4.821077422615085, 36.729638290976787 ], [ 4.820337206647576, 36.729638290976787 ], [ 4.820337206647576, 36.730097410397498 ], [ 4.819596990680067, 36.730097410397498 ], [ 4.819596990680067, 36.731015641003239 ], [ 4.818856774712559, 36.731015641003239 ], [ 4.818856774712559, 36.731474752188234 ], [ 4.818116558745051, 36.731474752188234 ], [ 4.818116558745051, 36.731933860627962 ], [ 4.817376342777543, 36.731933860627962 ], [ 4.817376342777543, 36.735606629314681 ], [ 4.818116558745051, 36.735606629314681 ], [ 4.818116558745051, 36.73698387227374 ], [ 4.818856774712559, 36.73698387227374 ], [ 4.818856774712559, 36.73790202051935 ], [ 4.819596990680067, 36.73790202051935 ], [ 4.819596990680067, 36.739279222296886 ], [ 4.820337206647576, 36.739279222296886 ], [ 4.820337206647576, 36.740197343087821 ], [ 4.821077422615085, 36.740197343087821 ], [ 4.821077422615085, 36.741115452896715 ], [ 4.821817638582591, 36.741115452896715 ], [ 4.821817638582591, 36.742033551723452 ], [ 4.822557854550101, 36.742033551723452 ], [ 4.822557854550101, 36.742951639567913 ], [ 4.823298070517608, 36.742951639567913 ], [ 4.823298070517608, 36.743869716429998 ], [ 4.824038286485117, 36.743869716429998 ], [ 4.824038286485117, 36.744328750742632 ], [ 4.823298070517608, 36.744328750742632 ], [ 4.823298070517608, 36.745705837206678 ], [ 4.822557854550101, 36.745705837206678 ], [ 4.822557854550101, 36.746623881121046 ], [ 4.821817638582591, 36.746623881121046 ], [ 4.821817638582591, 36.748000926399854 ], [ 4.821077422615085, 36.748000926399854 ], [ 4.821077422615085, 36.749377946967037 ], [ 4.821817638582591, 36.749377946967037 ], [ 4.821817638582591, 36.750754942822262 ], [ 4.822557854550101, 36.750754942822262 ], [ 4.822557854550101, 36.751672926330023 ], [ 4.823298070517608, 36.751672926330023 ], [ 4.823298070517608, 36.753049880997843 ], [ 4.824038286485117, 36.753049880997843 ], [ 4.824038286485117, 36.753508860395392 ], [ 4.824778502452626, 36.753508860395392 ], [ 4.824778502452626, 36.753967837047014 ], [ 4.828479582290167, 36.753967837047014 ], [ 4.828479582290167, 36.753508860395392 ], [ 4.829219798257676, 36.753508860395392 ], [ 4.829219798257676, 36.753049880997843 ], [ 4.829960014225183, 36.753049880997843 ], [ 4.829960014225183, 36.752590898854436 ], [ 4.830700230192692, 36.752590898854436 ], [ 4.830700230192692, 36.730097410397498 ] ] ] ] } }
]
}
