{
"type": "FeatureCollection",
"name": "spain_fires_modis_ba",
"crs": { "type": "name", "properties": { "name": "urn:ogc:def:crs:OGC:1.3:CRS84" } },
"features": [
{ "type": "Feature", "properties": { }, "geometry": { "type": "MultiPolygon", "coordinates": [ [ [ [ 1.698106255697422, 42.79742480864337 ], [ 1.698106255697422, 42.797004471865151 ], [ 1.69884647166493, 42.797004471865151 ], [ 1.69884647166493, 42.796163789742948 ], [ 1.699586687632439, 42.796163789742948 ], [ 1.699586687632439, 42.795323096199745 ], [ 1.700326903599947, 42.795323096199745 ], [ 1.700326903599947, 42.794902745145279 ], [ 1.701807335534963, 42.794902745145279 ], [ 1.701807335534963, 42.794482391235562 ], [ 1.701067119567455, 42.794482391235562 ], [ 1.701067119567455, 42.793221312375003 ], [ 1.700326903599947, 42.793221312375003 ], [ 1.700326903599947, 42.794062034470606 ], [ 1.69884647166493, 42.794062034470606 ], [ 1.69884647166493, 42.794482391235562 ], [ 1.698106255697422, 42.794482391235562 ], [ 1.698106255697422, 42.794902745145279 ], [ 1.696625823762405, 42.794902745145279 ], [ 1.696625823762405, 42.796163789742948 ], [ 1.697366039729913, 42.796163789742948 ], [ 1.697366039729913, 42.79742480864337 ], [ 1.698106255697422, 42.79742480864337 ] ] ], [ [ [ 1.181435510376605, 42.941851207644795 ], [ 1.181435510376605, 42.941431853262422 ], [ 1.182175726344113, 42.941431853262422 ], [ 1.182175726344113, 42.94101249602371 ], [ 1.182915942311621, 42.94101249602371 ], [ 1.182915942311621, 42.939754407169666 ], [ 1.180695294409096, 42.939754407169666 ], [ 1.180695294409096, 42.939335038505668 ], [ 1.179955078441588, 42.939335038505668 ], [ 1.179955078441588, 42.941431853262422 ], [ 1.180695294409096, 42.941431853262422 ], [ 1.180695294409096, 42.941851207644795 ], [ 1.181435510376605, 42.941851207644795 ] ] ] ] } }
]
}
