{
"type": "FeatureCollection",
"name": "spain_fires_modis_ba",
"crs": { "type": "name", "properties": { "name": "urn:ogc:def:crs:OGC:1.3:CRS84" } },
"features": [
{ "type": "Feature", "properties": { }, "geometry": { "type": "Polygon", "coordinates": [ [ [ -8.017968533816976, 41.427445521329155 ], [ -8.017228317849467, 41.427445521329155 ], [ -8.017228317849467, 41.427015999577911 ], [ -8.01648810188196, 41.427015999577911 ], [ -8.01648810188196, 41.425727417275326 ], [ -8.017228317849467, 41.425727417275326 ], [ -8.017228317849467, 41.425297884158198 ], [ -8.017968533816976, 41.425297884158198 ], [ -8.017968533816976, 41.426586474985179 ], [ -8.018708749784485, 41.426586474985179 ], [ -8.018708749784485, 41.427015999577911 ], [ -8.017968533816976, 41.427015999577911 ], [ -8.017968533816976, 41.427445521329155 ] ] ] } }
]
}
