{
"type": "FeatureCollection",
"name": "spain_fires_nrt_ba",
"crs": { "type": "name", "properties": { "name": "urn:ogc:def:crs:OGC:1.3:CRS84" } },
"features": [
{ "type": "Feature", "properties": { }, "geometry": { "type": "MultiPolygon", "coordinates": [ [ [ [ -0.933361508794706, 35.57282688256965 ], [ -0.933361508794706, 35.571894989848083 ], [ -0.932621292827198, 35.571894989848083 ], [ -0.932621292827198, 35.571429039422256 ], [ -0.93188107685969, 35.571429039422256 ], [ -0.93188107685969, 35.56304146835884 ], [ -0.932621292827198, 35.56304146835884 ], [ -0.932621292827198, 35.562109461821933 ], [ -0.933361508794706, 35.562109461821933 ], [ -0.933361508794706, 35.561177444446159 ], [ -0.934101724762215, 35.561177444446159 ], [ -0.934101724762215, 35.560711431693733 ], [ -0.940023452502281, 35.560711431693733 ], [ -0.940023452502281, 35.561177444446159 ], [ -0.944464748307332, 35.561177444446159 ], [ -0.944464748307332, 35.56164345448888 ], [ -0.94520496427484, 35.56164345448888 ], [ -0.94520496427484, 35.562109461821933 ], [ -0.945945180242348, 35.562109461821933 ], [ -0.945945180242348, 35.56304146835884 ], [ -0.946685396209857, 35.56304146835884 ], [ -0.946685396209857, 35.563973464056765 ], [ -0.947425612177365, 35.563973464056765 ], [ -0.947425612177365, 35.568633279957403 ], [ -0.946685396209857, 35.568633279957403 ], [ -0.946685396209857, 35.56956521061889 ], [ -0.945945180242348, 35.56956521061889 ], [ -0.945945180242348, 35.570497130440543 ], [ -0.94520496427484, 35.570497130440543 ], [ -0.94520496427484, 35.570963086286405 ], [ -0.944464748307332, 35.570963086286405 ], [ -0.944464748307332, 35.571894989848083 ], [ -0.943724532339823, 35.571894989848083 ], [ -0.943724532339823, 35.572360937563893 ], [ -0.942984316372315, 35.572360937563893 ], [ -0.942984316372315, 35.573292824865341 ], [ -0.942244100404807, 35.573292824865341 ], [ -0.942244100404807, 35.573758764450957 ], [ -0.934841940729723, 35.573758764450957 ], [ -0.934841940729723, 35.573292824865341 ], [ -0.934101724762215, 35.573292824865341 ], [ -0.934101724762215, 35.57282688256965 ], [ -0.933361508794706, 35.57282688256965 ] ] ], [ [ [ -0.276789945614814, 35.824505411354338 ], [ -0.276049729647306, 35.824505411354338 ], [ -0.276049729647306, 35.824040934669902 ], [ -0.274569297712289, 35.824040934669902 ], [ -0.274569297712289, 35.8235764552674 ], [ -0.272348649809764, 35.8235764552674 ], [ -0.272348649809764, 35.82311197314683 ], [ -0.270128001907239, 35.82311197314683 ], [ -0.270128001907239, 35.822647488308213 ], [ -0.267167138037206, 35.822647488308213 ], [ -0.267167138037206, 35.822183000751579 ], [ -0.264946490134681, 35.822183000751579 ], [ -0.264946490134681, 35.821718510476927 ], [ -0.262725842232156, 35.821718510476927 ], [ -0.262725842232156, 35.821254017484272 ], [ -0.260505194329631, 35.821254017484272 ], [ -0.260505194329631, 35.820789521773627 ], [ -0.259764978362122, 35.820789521773627 ], [ -0.259764978362122, 35.819860522198454 ], [ -0.259024762394614, 35.819860522198454 ], [ -0.259024762394614, 35.81939601833394 ], [ -0.258284546427106, 35.81939601833394 ], [ -0.258284546427106, 35.818467002451158 ], [ -0.257544330459597, 35.818467002451158 ], [ -0.257544330459597, 35.818002490432896 ], [ -0.256804114492089, 35.818002490432896 ], [ -0.256804114492089, 35.81753797569678 ], [ -0.253843250622056, 35.81753797569678 ], [ -0.253843250622056, 35.817073458242774 ], [ -0.252362818687039, 35.817073458242774 ], [ -0.252362818687039, 35.816608938070921 ], [ -0.251622602719531, 35.816608938070921 ], [ -0.251622602719531, 35.816144415181228 ], [ -0.250882386752022, 35.816144415181228 ], [ -0.250882386752022, 35.815215361248384 ], [ -0.250142170784514, 35.815215361248384 ], [ -0.250142170784514, 35.814750830205249 ], [ -0.249401954817006, 35.814750830205249 ], [ -0.249401954817006, 35.814286296444358 ], [ -0.248661738849497, 35.814286296444358 ], [ -0.248661738849497, 35.813821759965677 ], [ -0.247921522881989, 35.813821759965677 ], [ -0.247921522881989, 35.814286296444358 ], [ -0.247181306914481, 35.814286296444358 ], [ -0.247181306914481, 35.815215361248384 ], [ -0.246441090946972, 35.815215361248384 ], [ -0.246441090946972, 35.816144415181228 ], [ -0.245700874979464, 35.816144415181228 ], [ -0.245700874979464, 35.817073458242774 ], [ -0.234597635466839, 35.817073458242774 ], [ -0.234597635466839, 35.816608938070921 ], [ -0.233857419499331, 35.816608938070921 ], [ -0.233857419499331, 35.816144415181228 ], [ -0.233117203531822, 35.816144415181228 ], [ -0.233117203531822, 35.815679889573708 ], [ -0.232376987564314, 35.815679889573708 ], [ -0.232376987564314, 35.815215361248384 ], [ -0.231636771596806, 35.815215361248384 ], [ -0.231636771596806, 35.814750830205249 ], [ -0.230896555629297, 35.814750830205249 ], [ -0.230896555629297, 35.814286296444358 ], [ -0.230156339661789, 35.814286296444358 ], [ -0.230156339661789, 35.813821759965677 ], [ -0.229416123694281, 35.813821759965677 ], [ -0.229416123694281, 35.812428134223211 ], [ -0.228675907726772, 35.812428134223211 ], [ -0.228675907726772, 35.810569928518746 ], [ -0.227935691759264, 35.810569928518746 ], [ -0.227935691759264, 35.809176245705025 ], [ -0.227195475791756, 35.809176245705025 ], [ -0.227195475791756, 35.80731796390701 ], [ -0.227935691759264, 35.80731796390701 ], [ -0.227935691759264, 35.805924224024189 ], [ -0.228675907726772, 35.805924224024189 ], [ -0.228675907726772, 35.804530459683846 ], [ -0.229416123694281, 35.804530459683846 ], [ -0.229416123694281, 35.803601269869652 ], [ -0.230156339661789, 35.803601269869652 ], [ -0.230156339661789, 35.803136670886389 ], [ -0.230896555629297, 35.803136670886389 ], [ -0.230896555629297, 35.802672069185711 ], [ -0.231636771596806, 35.802672069185711 ], [ -0.231636771596806, 35.80220746476764 ], [ -0.232376987564314, 35.80220746476764 ], [ -0.232376987564314, 35.801742857632192 ], [ -0.237558499336872, 35.801742857632192 ], [ -0.237558499336872, 35.80220746476764 ], [ -0.238298715304381, 35.80220746476764 ], [ -0.238298715304381, 35.802672069185711 ], [ -0.239038931271889, 35.802672069185711 ], [ -0.239038931271889, 35.800813635209181 ], [ -0.239779147239397, 35.800813635209181 ], [ -0.239779147239397, 35.799884401916799 ], [ -0.240519363206906, 35.799884401916799 ], [ -0.240519363206906, 35.799419781194644 ], [ -0.241259579174414, 35.799419781194644 ], [ -0.241259579174414, 35.798955157755167 ], [ -0.242740011109431, 35.798955157755167 ], [ -0.242740011109431, 35.798490531598425 ], [ -0.245700874979464, 35.798490531598425 ], [ -0.245700874979464, 35.798955157755167 ], [ -0.247921522881989, 35.798955157755167 ], [ -0.247921522881989, 35.799419781194644 ], [ -0.249401954817006, 35.799419781194644 ], [ -0.249401954817006, 35.799884401916799 ], [ -0.250882386752022, 35.799884401916799 ], [ -0.250882386752022, 35.799419781194644 ], [ -0.252362818687039, 35.799419781194644 ], [ -0.252362818687039, 35.798955157755167 ], [ -0.253843250622056, 35.798955157755167 ], [ -0.253843250622056, 35.798490531598425 ], [ -0.255323682557072, 35.798490531598425 ], [ -0.255323682557072, 35.798025902724412 ], [ -0.261245410297139, 35.798025902724412 ], [ -0.261245410297139, 35.798490531598425 ], [ -0.266426922069697, 35.798490531598425 ], [ -0.266426922069697, 35.799419781194644 ], [ -0.267167138037206, 35.799419781194644 ], [ -0.267167138037206, 35.799884401916799 ], [ -0.267907354004714, 35.799884401916799 ], [ -0.267907354004714, 35.800349019921647 ], [ -0.268647569972222, 35.800349019921647 ], [ -0.268647569972222, 35.801278247779365 ], [ -0.269387785939731, 35.801278247779365 ], [ -0.269387785939731, 35.801742857632192 ], [ -0.270128001907239, 35.801742857632192 ], [ -0.270128001907239, 35.80220746476764 ], [ -0.270868217874747, 35.80220746476764 ], [ -0.270868217874747, 35.803136670886389 ], [ -0.271608433842256, 35.803136670886389 ], [ -0.271608433842256, 35.803601269869652 ], [ -0.272348649809764, 35.803601269869652 ], [ -0.272348649809764, 35.804530459683846 ], [ -0.273088865777272, 35.804530459683846 ], [ -0.273088865777272, 35.804995050514783 ], [ -0.273829081744781, 35.804995050514783 ], [ -0.273829081744781, 35.804065866135467 ], [ -0.274569297712289, 35.804065866135467 ], [ -0.274569297712289, 35.803136670886389 ], [ -0.275309513679797, 35.803136670886389 ], [ -0.275309513679797, 35.80220746476764 ], [ -0.276049729647306, 35.80220746476764 ], [ -0.276049729647306, 35.801742857632192 ], [ -0.276789945614814, 35.801742857632192 ], [ -0.276789945614814, 35.801278247779365 ], [ -0.278270377549831, 35.801278247779365 ], [ -0.278270377549831, 35.800813635209181 ], [ -0.279010593517339, 35.800813635209181 ], [ -0.279010593517339, 35.800349019921647 ], [ -0.280491025452356, 35.800349019921647 ], [ -0.280491025452356, 35.800813635209181 ], [ -0.281231241419864, 35.800813635209181 ], [ -0.281231241419864, 35.801278247779365 ], [ -0.282711673354881, 35.801278247779365 ], [ -0.282711673354881, 35.801742857632192 ], [ -0.283451889322389, 35.801742857632192 ], [ -0.283451889322389, 35.80220746476764 ], [ -0.284192105289897, 35.80220746476764 ], [ -0.284192105289897, 35.804065866135467 ], [ -0.284932321257406, 35.804065866135467 ], [ -0.284932321257406, 35.806388806702657 ], [ -0.285672537224914, 35.806388806702657 ], [ -0.285672537224914, 35.808711679331893 ], [ -0.286412753192422, 35.808711679331893 ], [ -0.286412753192422, 35.811034484021377 ], [ -0.287152969159931, 35.811034484021377 ], [ -0.287152969159931, 35.821254017484272 ], [ -0.286412753192422, 35.821254017484272 ], [ -0.286412753192422, 35.822183000751579 ], [ -0.285672537224914, 35.822183000751579 ], [ -0.285672537224914, 35.822647488308213 ], [ -0.284932321257406, 35.822647488308213 ], [ -0.284932321257406, 35.82311197314683 ], [ -0.284192105289897, 35.82311197314683 ], [ -0.284192105289897, 35.8235764552674 ], [ -0.283451889322389, 35.8235764552674 ], [ -0.283451889322389, 35.824040934669902 ], [ -0.282711673354881, 35.824040934669902 ], [ -0.282711673354881, 35.824505411354338 ], [ -0.281971457387372, 35.824505411354338 ], [ -0.281971457387372, 35.824969885320684 ], [ -0.281231241419864, 35.824969885320684 ], [ -0.281231241419864, 35.82543435656892 ], [ -0.280491025452356, 35.82543435656892 ], [ -0.280491025452356, 35.825898825099053 ], [ -0.278270377549831, 35.825898825099053 ], [ -0.278270377549831, 35.82543435656892 ], [ -0.277530161582322, 35.82543435656892 ], [ -0.277530161582322, 35.824969885320684 ], [ -0.276789945614814, 35.824969885320684 ], [ -0.276789945614814, 35.824505411354338 ] ] ], [ [ [ -3.476743573153344, 41.261439040843598 ], [ -3.47378270928331, 41.261439040843598 ], [ -3.47378270928331, 41.261008422685684 ], [ -3.473042493315802, 41.261008422685684 ], [ -3.473042493315802, 41.260147177851785 ], [ -3.472302277348294, 41.260147177851785 ], [ -3.472302277348294, 41.259716551175792 ], [ -3.471562061380785, 41.259716551175792 ], [ -3.471562061380785, 41.258855289305778 ], [ -3.470821845413277, 41.258855289305778 ], [ -3.470821845413277, 41.254979470344225 ], [ -3.470081629445768, 41.254979470344225 ], [ -3.470081629445768, 41.24851926100547 ], [ -3.470821845413277, 41.24851926100547 ], [ -3.470821845413277, 41.247657851493457 ], [ -3.471562061380785, 41.247657851493457 ], [ -3.471562061380785, 41.247227142478664 ], [ -3.472302277348294, 41.247227142478664 ], [ -3.472302277348294, 41.246365715931525 ], [ -3.473042493315802, 41.246365715931525 ], [ -3.473042493315802, 41.2459349983992 ], [ -3.479704437023377, 41.2459349983992 ], [ -3.479704437023377, 41.245504278027688 ], [ -3.481925084925902, 41.245504278027688 ], [ -3.481925084925902, 41.2459349983992 ], [ -3.482665300893411, 41.2459349983992 ], [ -3.482665300893411, 41.246365715931525 ], [ -3.483405516860918, 41.246365715931525 ], [ -3.483405516860918, 41.246796430624691 ], [ -3.484885948795936, 41.246796430624691 ], [ -3.484885948795936, 41.247227142478664 ], [ -3.485626164763444, 41.247227142478664 ], [ -3.485626164763444, 41.247657851493457 ], [ -3.486366380730952, 41.247657851493457 ], [ -3.486366380730952, 41.248088557669064 ], [ -3.48710659669846, 41.248088557669064 ], [ -3.48710659669846, 41.248949961502682 ], [ -3.487846812665969, 41.248949961502682 ], [ -3.487846812665969, 41.252826138212527 ], [ -3.488587028633477, 41.252826138212527 ], [ -3.488587028633477, 41.254548809596436 ], [ -3.487846812665969, 41.254548809596436 ], [ -3.487846812665969, 41.255410128252734 ], [ -3.48710659669846, 41.255410128252734 ], [ -3.48710659669846, 41.256702084942475 ], [ -3.486366380730952, 41.256702084942475 ], [ -3.486366380730952, 41.257563375205763 ], [ -3.485626164763444, 41.257563375205763 ], [ -3.485626164763444, 41.258424654111778 ], [ -3.484885948795936, 41.258424654111778 ], [ -3.484885948795936, 41.259285921660457 ], [ -3.484145732828428, 41.259285921660457 ], [ -3.484145732828428, 41.260577801688413 ], [ -3.483405516860918, 41.260577801688413 ], [ -3.483405516860918, 41.261439040843598 ], [ -3.482665300893411, 41.261439040843598 ], [ -3.482665300893411, 41.262300268641297 ], [ -3.479704437023377, 41.262300268641297 ], [ -3.479704437023377, 41.261869656162141 ], [ -3.476743573153344, 41.261869656162141 ], [ -3.476743573153344, 41.261439040843598 ] ] ], [ [ [ -5.375397529812222, 41.589601157604321 ], [ -5.373917097877206, 41.589601157604321 ], [ -5.373917097877206, 41.589172710307757 ], [ -5.372436665942188, 41.589172710307757 ], [ -5.372436665942188, 41.588744260167751 ], [ -5.370956234007171, 41.588744260167751 ], [ -5.370956234007171, 41.587887351357395 ], [ -5.370216018039663, 41.587887351357395 ], [ -5.370216018039663, 41.587030431173325 ], [ -5.369475802072156, 41.587030431173325 ], [ -5.369475802072156, 41.585745029571548 ], [ -5.368735586104647, 41.585745029571548 ], [ -5.368735586104647, 41.584459602379113 ], [ -5.367995370137138, 41.584459602379113 ], [ -5.367995370137138, 41.581888671222821 ], [ -5.368735586104647, 41.581888671222821 ], [ -5.368735586104647, 41.580174660251338 ], [ -5.369475802072156, 41.580174660251338 ], [ -5.369475802072156, 41.578460603786404 ], [ -5.370216018039663, 41.578460603786404 ], [ -5.370216018039663, 41.576746501828346 ], [ -5.370956234007171, 41.576746501828346 ], [ -5.370956234007171, 41.575460895505138 ], [ -5.37169644997468, 41.575460895505138 ], [ -5.37169644997468, 41.575032354377491 ], [ -5.372436665942188, 41.575032354377491 ], [ -5.372436665942188, 41.574175263592373 ], [ -5.373176881909696, 41.574175263592373 ], [ -5.373176881909696, 41.573318161434173 ], [ -5.373917097877206, 41.573318161434173 ], [ -5.373917097877206, 41.572889606090179 ], [ -5.38057904158478, 41.572889606090179 ], [ -5.38057904158478, 41.573318161434173 ], [ -5.381319257552288, 41.573318161434173 ], [ -5.381319257552288, 41.573746713934909 ], [ -5.382059473519797, 41.573746713934909 ], [ -5.382059473519797, 41.574175263592373 ], [ -5.382799689487305, 41.574175263592373 ], [ -5.382799689487305, 41.575032354377491 ], [ -5.383539905454814, 41.575032354377491 ], [ -5.383539905454814, 41.575460895505138 ], [ -5.384280121422321, 41.575460895505138 ], [ -5.384280121422321, 41.575889433789506 ], [ -5.385020337389831, 41.575889433789506 ], [ -5.385020337389831, 41.576317969230566 ], [ -5.385760553357339, 41.576317969230566 ], [ -5.385760553357339, 41.577175031582819 ], [ -5.386500769324846, 41.577175031582819 ], [ -5.386500769324846, 41.585745029571548 ], [ -5.385760553357339, 41.585745029571548 ], [ -5.385760553357339, 41.58660196681614 ], [ -5.385020337389831, 41.58660196681614 ], [ -5.385020337389831, 41.587030431173325 ], [ -5.384280121422321, 41.587030431173325 ], [ -5.384280121422321, 41.587458892687081 ], [ -5.383539905454814, 41.587458892687081 ], [ -5.383539905454814, 41.587887351357395 ], [ -5.382799689487305, 41.587887351357395 ], [ -5.382799689487305, 41.588315807184294 ], [ -5.382059473519797, 41.588315807184294 ], [ -5.382059473519797, 41.588744260167751 ], [ -5.381319257552288, 41.588744260167751 ], [ -5.381319257552288, 41.589172710307757 ], [ -5.38057904158478, 41.589172710307757 ], [ -5.38057904158478, 41.589601157604321 ], [ -5.379838825617271, 41.589601157604321 ], [ -5.379838825617271, 41.590029602057442 ], [ -5.379098609649763, 41.590029602057442 ], [ -5.379098609649763, 41.590458043667098 ], [ -5.377618177714747, 41.590458043667098 ], [ -5.377618177714747, 41.590029602057442 ], [ -5.375397529812222, 41.590029602057442 ], [ -5.375397529812222, 41.589601157604321 ] ] ], [ [ [ -0.531424238437681, 42.935979986366618 ], [ -0.531424238437681, 42.935560591995902 ], [ -0.530684022470173, 42.935560591995902 ], [ -0.530684022470173, 42.935141194768889 ], [ -0.529943806502664, 42.935141194768889 ], [ -0.529943806502664, 42.934721794685593 ], [ -0.529203590535156, 42.934721794685593 ], [ -0.529203590535156, 42.934302391746016 ], [ -0.528463374567648, 42.934302391746016 ], [ -0.528463374567648, 42.933882985950156 ], [ -0.527723158600139, 42.933882985950156 ], [ -0.527723158600139, 42.933463577298021 ], [ -0.526982942632631, 42.933463577298021 ], [ -0.526982942632631, 42.932205334203992 ], [ -0.526242726665123, 42.932205334203992 ], [ -0.526242726665123, 42.930947065403579 ], [ -0.525502510697614, 42.930947065403579 ], [ -0.525502510697614, 42.929688770896881 ], [ -0.524762294730106, 42.929688770896881 ], [ -0.524762294730106, 42.928430450683962 ], [ -0.524022078762598, 42.928430450683962 ], [ -0.524022078762598, 42.926752650412766 ], [ -0.523281862795089, 42.926752650412766 ], [ -0.523281862795089, 42.924655335808744 ], [ -0.524022078762598, 42.924655335808744 ], [ -0.524022078762598, 42.9233969127718 ], [ -0.524762294730106, 42.9233969127718 ], [ -0.524762294730106, 42.922557949799483 ], [ -0.525502510697614, 42.922557949799483 ], [ -0.525502510697614, 42.921299483919576 ], [ -0.526242726665123, 42.921299483919576 ], [ -0.526242726665123, 42.920460492385367 ], [ -0.526982942632631, 42.920460492385367 ], [ -0.526982942632631, 42.919201983662717 ], [ -0.527723158600139, 42.919201983662717 ], [ -0.527723158600139, 42.918362963566757 ], [ -0.528463374567648, 42.918362963566757 ], [ -0.528463374567648, 42.917104412001606 ], [ -0.529203590535156, 42.917104412001606 ], [ -0.529203590535156, 42.915845834731059 ], [ -0.529943806502664, 42.915845834731059 ], [ -0.529943806502664, 42.91542630326191 ], [ -0.530684022470173, 42.91542630326191 ], [ -0.530684022470173, 42.915006768936635 ], [ -0.532164454405189, 42.915006768936635 ], [ -0.532164454405189, 42.914587231755199 ], [ -0.532904670372698, 42.914587231755199 ], [ -0.532904670372698, 42.914167691717637 ], [ -0.534385102307714, 42.914167691717637 ], [ -0.534385102307714, 42.914587231755199 ], [ -0.535125318275223, 42.914587231755199 ], [ -0.535125318275223, 42.915006768936635 ], [ -0.536605750210239, 42.915006768936635 ], [ -0.536605750210239, 42.91542630326191 ], [ -0.537345966177748, 42.91542630326191 ], [ -0.537345966177748, 42.915845834731059 ], [ -0.538086182145256, 42.915845834731059 ], [ -0.538086182145256, 42.91542630326191 ], [ -0.539566614080273, 42.91542630326191 ], [ -0.539566614080273, 42.915006768936635 ], [ -0.540306830047781, 42.915006768936635 ], [ -0.540306830047781, 42.914587231755199 ], [ -0.541047046015289, 42.914587231755199 ], [ -0.541047046015289, 42.914167691717637 ], [ -0.541787261982798, 42.914167691717637 ], [ -0.541787261982798, 42.913748148823942 ], [ -0.542527477950306, 42.913748148823942 ], [ -0.542527477950306, 42.913328603074113 ], [ -0.543267693917814, 42.913328603074113 ], [ -0.543267693917814, 42.912909054468159 ], [ -0.545488341820339, 42.912909054468159 ], [ -0.545488341820339, 42.913328603074113 ], [ -0.548449205690373, 42.913328603074113 ], [ -0.548449205690373, 42.913748148823942 ], [ -0.550669853592898, 42.913748148823942 ], [ -0.550669853592898, 42.914167691717637 ], [ -0.552890501495423, 42.914167691717637 ], [ -0.552890501495423, 42.914587231755199 ], [ -0.555851365365456, 42.914587231755199 ], [ -0.555851365365456, 42.915006768936635 ], [ -0.558072013267981, 42.915006768936635 ], [ -0.558072013267981, 42.91542630326191 ], [ -0.558812229235489, 42.91542630326191 ], [ -0.558812229235489, 42.916265363344067 ], [ -0.559552445202998, 42.916265363344067 ], [ -0.559552445202998, 42.917104412001606 ], [ -0.560292661170506, 42.917104412001606 ], [ -0.560292661170506, 42.917523932046144 ], [ -0.561032877138014, 42.917523932046144 ], [ -0.561032877138014, 42.918362963566757 ], [ -0.561773093105523, 42.918362963566757 ], [ -0.561773093105523, 42.9233969127718 ], [ -0.561032877138014, 42.9233969127718 ], [ -0.561032877138014, 42.923816389973652 ], [ -0.560292661170506, 42.923816389973652 ], [ -0.560292661170506, 42.9242358643193 ], [ -0.559552445202998, 42.9242358643193 ], [ -0.559552445202998, 42.925074804441984 ], [ -0.558812229235489, 42.925074804441984 ], [ -0.558812229235489, 42.925494270219005 ], [ -0.558072013267981, 42.925494270219005 ], [ -0.558072013267981, 42.925913733139808 ], [ -0.557331797300473, 42.925913733139808 ], [ -0.557331797300473, 42.927172104764907 ], [ -0.556591581332964, 42.927172104764907 ], [ -0.556591581332964, 42.930108205255365 ], [ -0.555851365365456, 42.930108205255365 ], [ -0.555851365365456, 42.932205334203992 ], [ -0.555111149397948, 42.932205334203992 ], [ -0.555111149397948, 42.932624751424939 ], [ -0.553630717462931, 42.932624751424939 ], [ -0.553630717462931, 42.933044165789617 ], [ -0.551410069560406, 42.933044165789617 ], [ -0.551410069560406, 42.933463577298021 ], [ -0.549189421657881, 42.933463577298021 ], [ -0.549189421657881, 42.933044165789617 ], [ -0.548449205690373, 42.933044165789617 ], [ -0.548449205690373, 42.932205334203992 ], [ -0.547708989722864, 42.932205334203992 ], [ -0.547708989722864, 42.931366491193309 ], [ -0.546968773755356, 42.931366491193309 ], [ -0.546968773755356, 42.930108205255365 ], [ -0.545488341820339, 42.930108205255365 ], [ -0.545488341820339, 42.930527636757596 ], [ -0.544748125852831, 42.930527636757596 ], [ -0.544748125852831, 42.930947065403579 ], [ -0.544007909885323, 42.930947065403579 ], [ -0.544007909885323, 42.931366491193309 ], [ -0.543267693917814, 42.931366491193309 ], [ -0.543267693917814, 42.931785914126777 ], [ -0.542527477950306, 42.931785914126777 ], [ -0.542527477950306, 42.932205334203992 ], [ -0.541787261982798, 42.932205334203992 ], [ -0.541787261982798, 42.932624751424939 ], [ -0.541047046015289, 42.932624751424939 ], [ -0.541047046015289, 42.933463577298021 ], [ -0.540306830047781, 42.933463577298021 ], [ -0.540306830047781, 42.933882985950156 ], [ -0.539566614080273, 42.933882985950156 ], [ -0.539566614080273, 42.934302391746016 ], [ -0.538826398112764, 42.934302391746016 ], [ -0.538826398112764, 42.934721794685593 ], [ -0.538086182145256, 42.934721794685593 ], [ -0.538086182145256, 42.935141194768889 ], [ -0.537345966177748, 42.935141194768889 ], [ -0.537345966177748, 42.935560591995902 ], [ -0.536605750210239, 42.935560591995902 ], [ -0.536605750210239, 42.935979986366618 ], [ -0.535865534242731, 42.935979986366618 ], [ -0.535865534242731, 42.936399377881052 ], [ -0.535125318275223, 42.936399377881052 ], [ -0.535125318275223, 42.936818766539197 ], [ -0.532904670372698, 42.936818766539197 ], [ -0.532904670372698, 42.936399377881052 ], [ -0.532164454405189, 42.936399377881052 ], [ -0.532164454405189, 42.935979986366618 ], [ -0.531424238437681, 42.935979986366618 ] ] ], [ [ [ -2.521864975067592, 42.976647663917568 ], [ -2.521124759100084, 42.976647663917568 ], [ -2.521124759100084, 42.975809426467968 ], [ -2.520384543132576, 42.975809426467968 ], [ -2.520384543132576, 42.974971177592067 ], [ -2.519644327165067, 42.974971177592067 ], [ -2.519644327165067, 42.969103115526337 ], [ -2.520384543132576, 42.969103115526337 ], [ -2.520384543132576, 42.967845600813369 ], [ -2.521124759100084, 42.967845600813369 ], [ -2.521124759100084, 42.966168874538184 ], [ -2.521864975067592, 42.966168874538184 ], [ -2.521864975067592, 42.964492102558864 ], [ -2.522605191035101, 42.964492102558864 ], [ -2.522605191035101, 42.964072902422792 ], [ -2.523345407002609, 42.964072902422792 ], [ -2.523345407002609, 42.963653699430232 ], [ -2.524085622970117, 42.963653699430232 ], [ -2.524085622970117, 42.963234493581176 ], [ -2.524825838937625, 42.963234493581176 ], [ -2.524825838937625, 42.962815284875639 ], [ -2.525566054905134, 42.962815284875639 ], [ -2.525566054905134, 42.96239607331362 ], [ -2.52704648684015, 42.96239607331362 ], [ -2.52704648684015, 42.961976858895113 ], [ -2.527786702807659, 42.961976858895113 ], [ -2.527786702807659, 42.96239607331362 ], [ -2.530007350710184, 42.96239607331362 ], [ -2.530007350710184, 42.962815284875639 ], [ -2.532227998612709, 42.962815284875639 ], [ -2.532227998612709, 42.963234493581176 ], [ -2.533708430547726, 42.963234493581176 ], [ -2.533708430547726, 42.964492102558864 ], [ -2.534448646515234, 42.964492102558864 ], [ -2.534448646515234, 42.965749685828101 ], [ -2.535188862482742, 42.965749685828101 ], [ -2.535188862482742, 42.9670072433888 ], [ -2.535929078450251, 42.9670072433888 ], [ -2.535929078450251, 42.96826477524089 ], [ -2.536669294417759, 42.96826477524089 ], [ -2.536669294417759, 42.973713782853956 ], [ -2.535929078450251, 42.973713782853956 ], [ -2.535929078450251, 42.974132917289893 ], [ -2.535188862482742, 42.974132917289893 ], [ -2.535188862482742, 42.974971177592067 ], [ -2.534448646515234, 42.974971177592067 ], [ -2.534448646515234, 42.975809426467968 ], [ -2.528526918775167, 42.975809426467968 ], [ -2.528526918775167, 42.976647663917568 ], [ -2.527786702807659, 42.976647663917568 ], [ -2.527786702807659, 42.977485889940844 ], [ -2.522605191035101, 42.977485889940844 ], [ -2.522605191035101, 42.977066778357489 ], [ -2.521864975067592, 42.977066778357489 ], [ -2.521864975067592, 42.976647663917568 ] ] ], [ [ [ -5.333945435631755, 43.147409146457775 ], [ -5.333945435631755, 43.146573240453911 ], [ -5.333205219664247, 43.146573240453911 ], [ -5.333205219664247, 43.145737323019119 ], [ -5.332465003696738, 43.145737323019119 ], [ -5.332465003696738, 43.144901394153443 ], [ -5.33172478772923, 43.144901394153443 ], [ -5.33172478772923, 43.144065453856889 ], [ -5.330984571761722, 43.144065453856889 ], [ -5.330984571761722, 43.143229502129465 ], [ -5.330244355794213, 43.143229502129465 ], [ -5.330244355794213, 43.142393538971227 ], [ -5.329504139826704, 43.142393538971227 ], [ -5.329504139826704, 43.141557564382175 ], [ -5.328763923859197, 43.141557564382175 ], [ -5.328763923859197, 43.140721578362331 ], [ -5.328023707891688, 43.140721578362331 ], [ -5.328023707891688, 43.137795537275743 ], [ -5.327283491924181, 43.137795537275743 ], [ -5.327283491924181, 43.132361089475339 ], [ -5.328023707891688, 43.132361089475339 ], [ -5.328023707891688, 43.131943035025614 ], [ -5.328763923859197, 43.131943035025614 ], [ -5.328763923859197, 43.131106917553268 ], [ -5.329504139826704, 43.131106917553268 ], [ -5.329504139826704, 43.130688854530653 ], [ -5.330244355794213, 43.130688854530653 ], [ -5.330244355794213, 43.130270788650407 ], [ -5.330984571761722, 43.130270788650407 ], [ -5.330984571761722, 43.129852719912542 ], [ -5.33172478772923, 43.129852719912542 ], [ -5.33172478772923, 43.129434648317059 ], [ -5.332465003696738, 43.129434648317059 ], [ -5.332465003696738, 43.129016573863943 ], [ -5.335425867566772, 43.129016573863943 ], [ -5.335425867566772, 43.128598496553224 ], [ -5.338386731436805, 43.128598496553224 ], [ -5.338386731436805, 43.129016573863943 ], [ -5.339126947404313, 43.129016573863943 ], [ -5.339126947404313, 43.129434648317059 ], [ -5.339867163371822, 43.129434648317059 ], [ -5.339867163371822, 43.129852719912542 ], [ -5.341347595306839, 43.129852719912542 ], [ -5.341347595306839, 43.130270788650407 ], [ -5.342087811274347, 43.130270788650407 ], [ -5.342087811274347, 43.130688854530653 ], [ -5.342828027241855, 43.130688854530653 ], [ -5.342828027241855, 43.131106917553268 ], [ -5.343568243209364, 43.131106917553268 ], [ -5.343568243209364, 43.131524977718264 ], [ -5.344308459176871, 43.131524977718264 ], [ -5.344308459176871, 43.131943035025614 ], [ -5.345788891111889, 43.131943035025614 ], [ -5.345788891111889, 43.132361089475339 ], [ -5.347269323046905, 43.132361089475339 ], [ -5.347269323046905, 43.131943035025614 ], [ -5.350230186916939, 43.131943035025614 ], [ -5.350230186916939, 43.132361089475339 ], [ -5.350970402884446, 43.132361089475339 ], [ -5.350970402884446, 43.132779141067431 ], [ -5.352450834819463, 43.132779141067431 ], [ -5.352450834819463, 43.133197189801876 ], [ -5.353191050786971, 43.133197189801876 ], [ -5.353191050786971, 43.135287390609392 ], [ -5.35393126675448, 43.135287390609392 ], [ -5.35393126675448, 43.139885580911724 ], [ -5.353191050786971, 43.139885580911724 ], [ -5.353191050786971, 43.140721578362331 ], [ -5.352450834819463, 43.140721578362331 ], [ -5.352450834819463, 43.141557564382175 ], [ -5.351710618851955, 43.141557564382175 ], [ -5.351710618851955, 43.141975553105553 ], [ -5.350970402884446, 43.141975553105553 ], [ -5.350970402884446, 43.142393538971227 ], [ -5.348749754981922, 43.142393538971227 ], [ -5.348749754981922, 43.142811521979205 ], [ -5.346529107079396, 43.142811521979205 ], [ -5.346529107079396, 43.143229502129465 ], [ -5.345788891111889, 43.143229502129465 ], [ -5.345788891111889, 43.143647479422029 ], [ -5.34504867514438, 43.143647479422029 ], [ -5.34504867514438, 43.144065453856889 ], [ -5.344308459176871, 43.144065453856889 ], [ -5.344308459176871, 43.144901394153443 ], [ -5.343568243209364, 43.144901394153443 ], [ -5.343568243209364, 43.145737323019119 ], [ -5.342828027241855, 43.145737323019119 ], [ -5.342828027241855, 43.146573240453911 ], [ -5.342087811274347, 43.146573240453911 ], [ -5.342087811274347, 43.146991194884706 ], [ -5.341347595306839, 43.146991194884706 ], [ -5.341347595306839, 43.147827095173113 ], [ -5.34060737933933, 43.147827095173113 ], [ -5.34060737933933, 43.148662984030565 ], [ -5.335425867566772, 43.148662984030565 ], [ -5.335425867566772, 43.148245041030705 ], [ -5.334685651599263, 43.148245041030705 ], [ -5.334685651599263, 43.147409146457775 ], [ -5.333945435631755, 43.147409146457775 ] ] ], [ [ [ -5.72255881857363, 43.536112471851069 ], [ -5.72255881857363, 43.535281900557365 ], [ -5.721818602606122, 43.535281900557365 ], [ -5.721818602606122, 43.534451317823752 ], [ -5.721078386638613, 43.534451317823752 ], [ -5.721078386638613, 43.533620723650237 ], [ -5.720338170671106, 43.533620723650237 ], [ -5.720338170671106, 43.532790118036843 ], [ -5.719597954703597, 43.532790118036843 ], [ -5.719597954703597, 43.531959500983589 ], [ -5.718857738736089, 43.531959500983589 ], [ -5.718857738736089, 43.531128872490477 ], [ -5.718117522768581, 43.531128872490477 ], [ -5.718117522768581, 43.530713553953994 ], [ -5.717377306801072, 43.530713553953994 ], [ -5.717377306801072, 43.529052251208505 ], [ -5.718117522768581, 43.529052251208505 ], [ -5.718117522768581, 43.526144861296039 ], [ -5.718857738736089, 43.526144861296039 ], [ -5.718857738736089, 43.523237331246925 ], [ -5.719597954703597, 43.523237331246925 ], [ -5.719597954703597, 43.520745051096618 ], [ -5.720338170671106, 43.520745051096618 ], [ -5.720338170671106, 43.519914268167263 ], [ -5.721078386638613, 43.519914268167263 ], [ -5.721078386638613, 43.519498872412733 ], [ -5.721818602606122, 43.519498872412733 ], [ -5.721818602606122, 43.518668072323983 ], [ -5.72255881857363, 43.518668072323983 ], [ -5.72255881857363, 43.517837260795666 ], [ -5.723299034541139, 43.517837260795666 ], [ -5.723299034541139, 43.517006437827789 ], [ -5.724039250508648, 43.517006437827789 ], [ -5.724039250508648, 43.516591022054023 ], [ -5.726259898411173, 43.516591022054023 ], [ -5.726259898411173, 43.516175603420372 ], [ -5.727740330346189, 43.516175603420372 ], [ -5.727740330346189, 43.515760181926844 ], [ -5.729220762281205, 43.515760181926844 ], [ -5.729220762281205, 43.51534475757343 ], [ -5.730701194216222, 43.51534475757343 ], [ -5.730701194216222, 43.514929330360154 ], [ -5.733662058086256, 43.514929330360154 ], [ -5.733662058086256, 43.51534475757343 ], [ -5.734402274053765, 43.51534475757343 ], [ -5.734402274053765, 43.515760181926844 ], [ -5.735142490021273, 43.515760181926844 ], [ -5.735142490021273, 43.516175603420372 ], [ -5.73588270598878, 43.516175603420372 ], [ -5.73588270598878, 43.516591022054023 ], [ -5.73662292195629, 43.516591022054023 ], [ -5.73662292195629, 43.517006437827789 ], [ -5.737363137923798, 43.517006437827789 ], [ -5.737363137923798, 43.51742185074167 ], [ -5.738103353891305, 43.51742185074167 ], [ -5.738103353891305, 43.517837260795666 ], [ -5.738843569858814, 43.517837260795666 ], [ -5.738843569858814, 43.518252667989771 ], [ -5.739583785826321, 43.518252667989771 ], [ -5.739583785826321, 43.518668072323983 ], [ -5.74032400179383, 43.518668072323983 ], [ -5.74032400179383, 43.519083473798304 ], [ -5.741064217761339, 43.519083473798304 ], [ -5.741064217761339, 43.519498872412733 ], [ -5.741804433728848, 43.519498872412733 ], [ -5.741804433728848, 43.519914268167263 ], [ -5.742544649696356, 43.519914268167263 ], [ -5.742544649696356, 43.520329661061893 ], [ -5.743284865663864, 43.520329661061893 ], [ -5.743284865663864, 43.521575822586357 ], [ -5.744025081631372, 43.521575822586357 ], [ -5.744025081631372, 43.523237331246925 ], [ -5.744765297598882, 43.523237331246925 ], [ -5.744765297598882, 43.524898794148825 ], [ -5.744025081631372, 43.524898794148825 ], [ -5.744025081631372, 43.527390902703871 ], [ -5.743284865663864, 43.527390902703871 ], [ -5.743284865663864, 43.529467581184797 ], [ -5.742544649696356, 43.529467581184797 ], [ -5.742544649696356, 43.530298232557548 ], [ -5.741804433728848, 43.530298232557548 ], [ -5.741804433728848, 43.531128872490477 ], [ -5.741064217761339, 43.531128872490477 ], [ -5.741064217761339, 43.531959500983589 ], [ -5.74032400179383, 43.531959500983589 ], [ -5.74032400179383, 43.532790118036843 ], [ -5.739583785826321, 43.532790118036843 ], [ -5.739583785826321, 43.53403602216698 ], [ -5.738843569858814, 43.53403602216698 ], [ -5.738843569858814, 43.534451317823752 ], [ -5.738103353891305, 43.534451317823752 ], [ -5.738103353891305, 43.534866610620547 ], [ -5.73588270598878, 43.534866610620547 ], [ -5.73588270598878, 43.535281900557365 ], [ -5.734402274053765, 43.535281900557365 ], [ -5.734402274053765, 43.535697187634213 ], [ -5.732921842118747, 43.535697187634213 ], [ -5.732921842118747, 43.536112471851069 ], [ -5.730701194216222, 43.536112471851069 ], [ -5.730701194216222, 43.536527753207956 ], [ -5.729220762281205, 43.536527753207956 ], [ -5.729220762281205, 43.536943031704851 ], [ -5.727740330346189, 43.536943031704851 ], [ -5.727740330346189, 43.537358307341755 ], [ -5.726259898411173, 43.537358307341755 ], [ -5.726259898411173, 43.537773580118674 ], [ -5.724779466476156, 43.537773580118674 ], [ -5.724779466476156, 43.537358307341755 ], [ -5.724039250508648, 43.537358307341755 ], [ -5.724039250508648, 43.536943031704851 ], [ -5.723299034541139, 43.536943031704851 ], [ -5.723299034541139, 43.536112471851069 ], [ -5.72255881857363, 43.536112471851069 ] ] ], [ [ [ -5.83877272547244, 43.550230433520795 ], [ -5.83877272547244, 43.549815246544526 ], [ -5.836552077569914, 43.549815246544526 ], [ -5.836552077569914, 43.549400056708208 ], [ -5.835071645634897, 43.549400056708208 ], [ -5.835071645634897, 43.548984864011857 ], [ -5.832850997732372, 43.548984864011857 ], [ -5.832850997732372, 43.548569668455436 ], [ -5.831370565797356, 43.548569668455436 ], [ -5.831370565797356, 43.54815447003898 ], [ -5.829149917894831, 43.54815447003898 ], [ -5.829149917894831, 43.54773926876247 ], [ -5.827669485959815, 43.54773926876247 ], [ -5.827669485959815, 43.547324064625933 ], [ -5.82544883805729, 43.547324064625933 ], [ -5.82544883805729, 43.546908857629347 ], [ -5.823228190154764, 43.546908857629347 ], [ -5.823228190154764, 43.546493647772721 ], [ -5.822487974187256, 43.546493647772721 ], [ -5.822487974187256, 43.54607843505606 ], [ -5.821747758219748, 43.54607843505606 ], [ -5.821747758219748, 43.545248001042651 ], [ -5.821007542252239, 43.545248001042651 ], [ -5.821007542252239, 43.544417555589114 ], [ -5.82026732628473, 43.544417555589114 ], [ -5.82026732628473, 43.543171865958641 ], [ -5.819527110317222, 43.543171865958641 ], [ -5.819527110317222, 43.542341391904877 ], [ -5.818786894349714, 43.542341391904877 ], [ -5.818786894349714, 43.541510906411077 ], [ -5.818046678382206, 43.541510906411077 ], [ -5.818046678382206, 43.540265156720295 ], [ -5.817306462414698, 43.540265156720295 ], [ -5.817306462414698, 43.539434642626411 ], [ -5.816566246447189, 43.539434642626411 ], [ -5.816566246447189, 43.53860411709254 ], [ -5.815826030479681, 43.53860411709254 ], [ -5.815826030479681, 43.537358307341755 ], [ -5.815085814512173, 43.537358307341755 ], [ -5.815085814512173, 43.536527753207956 ], [ -5.815826030479681, 43.536527753207956 ], [ -5.815826030479681, 43.535281900557365 ], [ -5.816566246447189, 43.535281900557365 ], [ -5.816566246447189, 43.53403602216698 ], [ -5.817306462414698, 43.53403602216698 ], [ -5.817306462414698, 43.533205422273518 ], [ -5.818046678382206, 43.533205422273518 ], [ -5.818046678382206, 43.531959500983589 ], [ -5.821007542252239, 43.531959500983589 ], [ -5.821007542252239, 43.53237481094019 ], [ -5.823968406122273, 43.53237481094019 ], [ -5.823968406122273, 43.531959500983589 ], [ -5.82544883805729, 43.531959500983589 ], [ -5.82544883805729, 43.531544188167018 ], [ -5.826189054024797, 43.531544188167018 ], [ -5.826189054024797, 43.531128872490477 ], [ -5.827669485959815, 43.531128872490477 ], [ -5.827669485959815, 43.530713553953994 ], [ -5.829149917894831, 43.530713553953994 ], [ -5.829149917894831, 43.531128872490477 ], [ -5.831370565797356, 43.531128872490477 ], [ -5.831370565797356, 43.531544188167018 ], [ -5.832850997732372, 43.531544188167018 ], [ -5.832850997732372, 43.531959500983589 ], [ -5.835071645634897, 43.531959500983589 ], [ -5.835071645634897, 43.53237481094019 ], [ -5.837292293537423, 43.53237481094019 ], [ -5.837292293537423, 43.532790118036843 ], [ -5.839512941439948, 43.532790118036843 ], [ -5.839512941439948, 43.533205422273518 ], [ -5.841733589342473, 43.533205422273518 ], [ -5.841733589342473, 43.532790118036843 ], [ -5.842473805309981, 43.532790118036843 ], [ -5.842473805309981, 43.53237481094019 ], [ -5.843954237244998, 43.53237481094019 ], [ -5.843954237244998, 43.531959500983589 ], [ -5.846174885147523, 43.531959500983589 ], [ -5.846174885147523, 43.53237481094019 ], [ -5.846915101115031, 43.53237481094019 ], [ -5.846915101115031, 43.533205422273518 ], [ -5.847655317082539, 43.533205422273518 ], [ -5.847655317082539, 43.533620723650237 ], [ -5.848395533050048, 43.533620723650237 ], [ -5.848395533050048, 43.53403602216698 ], [ -5.849135749017555, 43.53403602216698 ], [ -5.849135749017555, 43.534451317823752 ], [ -5.849875964985064, 43.534451317823752 ], [ -5.849875964985064, 43.535281900557365 ], [ -5.850616180952573, 43.535281900557365 ], [ -5.850616180952573, 43.539019381289471 ], [ -5.85135639692008, 43.539019381289471 ], [ -5.85135639692008, 43.542756630361758 ], [ -5.852096612887589, 43.542756630361758 ], [ -5.852096612887589, 43.546493647772721 ], [ -5.85135639692008, 43.546493647772721 ], [ -5.85135639692008, 43.54815447003898 ], [ -5.850616180952573, 43.54815447003898 ], [ -5.850616180952573, 43.549815246544526 ], [ -5.849875964985064, 43.549815246544526 ], [ -5.849875964985064, 43.550230433520795 ], [ -5.849135749017555, 43.550230433520795 ], [ -5.849135749017555, 43.550645617637002 ], [ -5.847655317082539, 43.550645617637002 ], [ -5.847655317082539, 43.551060798893154 ], [ -5.846915101115031, 43.551060798893154 ], [ -5.846915101115031, 43.551475977289243 ], [ -5.844694453212505, 43.551475977289243 ], [ -5.844694453212505, 43.551060798893154 ], [ -5.842473805309981, 43.551060798893154 ], [ -5.842473805309981, 43.550645617637002 ], [ -5.840253157407456, 43.550645617637002 ], [ -5.840253157407456, 43.550230433520795 ], [ -5.83877272547244, 43.550230433520795 ] ] ], [ [ [ 1.243613651647304, 36.133242452754182 ], [ 1.244353867614813, 36.133242452754182 ], [ 1.244353867614813, 36.132779789514281 ], [ 1.245094083582321, 36.132779789514281 ], [ 1.245094083582321, 36.132317123546741 ], [ 1.245834299549829, 36.132317123546741 ], [ 1.245834299549829, 36.131854454851599 ], [ 1.246574515517338, 36.131854454851599 ], [ 1.246574515517338, 36.131391783428839 ], [ 1.247314731484846, 36.131391783428839 ], [ 1.247314731484846, 36.130929109278505 ], [ 1.248054947452355, 36.130929109278505 ], [ 1.248054947452355, 36.130466432400581 ], [ 1.248795163419863, 36.130466432400581 ], [ 1.248795163419863, 36.129541070462068 ], [ 1.249535379387371, 36.129541070462068 ], [ 1.249535379387371, 36.127690313854742 ], [ 1.25027559535488, 36.127690313854742 ], [ 1.25027559535488, 36.125839513607794 ], [ 1.249535379387371, 36.125839513607794 ], [ 1.249535379387371, 36.124914097119721 ], [ 1.248795163419863, 36.124914097119721 ], [ 1.248795163419863, 36.123525951932208 ], [ 1.248054947452355, 36.123525951932208 ], [ 1.248054947452355, 36.122600508170429 ], [ 1.247314731484846, 36.122600508170429 ], [ 1.247314731484846, 36.121212322072857 ], [ 1.245834299549829, 36.121212322072857 ], [ 1.245834299549829, 36.120749587919107 ], [ 1.244353867614813, 36.120749587919107 ], [ 1.244353867614813, 36.120286851038067 ], [ 1.242873435679796, 36.120286851038067 ], [ 1.242873435679796, 36.119824111429786 ], [ 1.24139300374478, 36.119824111429786 ], [ 1.24139300374478, 36.119361369094264 ], [ 1.238432139874746, 36.119361369094264 ], [ 1.238432139874746, 36.119824111429786 ], [ 1.236951707939729, 36.119824111429786 ], [ 1.236951707939729, 36.120286851038067 ], [ 1.236211491972221, 36.120286851038067 ], [ 1.236211491972221, 36.120749587919107 ], [ 1.235471276004713, 36.120749587919107 ], [ 1.235471276004713, 36.122137782198543 ], [ 1.234731060037205, 36.122137782198543 ], [ 1.234731060037205, 36.123525951932208 ], [ 1.233990844069696, 36.123525951932208 ], [ 1.233990844069696, 36.125376806727459 ], [ 1.234731060037205, 36.125376806727459 ], [ 1.234731060037205, 36.127690313854742 ], [ 1.235471276004713, 36.127690313854742 ], [ 1.235471276004713, 36.129541070462068 ], [ 1.236211491972221, 36.129541070462068 ], [ 1.236211491972221, 36.131391783428839 ], [ 1.236951707939729, 36.131391783428839 ], [ 1.236951707939729, 36.132779789514281 ], [ 1.237691923907238, 36.132779789514281 ], [ 1.237691923907238, 36.133242452754182 ], [ 1.238432139874746, 36.133242452754182 ], [ 1.238432139874746, 36.13370511326643 ], [ 1.239912571809763, 36.13370511326643 ], [ 1.239912571809763, 36.134167771051025 ], [ 1.240652787777271, 36.134167771051025 ], [ 1.240652787777271, 36.13463042610794 ], [ 1.24139300374478, 36.13463042610794 ], [ 1.24139300374478, 36.134167771051025 ], [ 1.242873435679796, 36.134167771051025 ], [ 1.242873435679796, 36.13370511326643 ], [ 1.243613651647304, 36.13370511326643 ], [ 1.243613651647304, 36.133242452754182 ] ] ], [ [ [ 3.743322973922949, 36.186892875113685 ], [ 3.744063189890458, 36.186892875113685 ], [ 3.744063189890458, 36.186430528374551 ], [ 3.744803405857966, 36.186430528374551 ], [ 3.744803405857966, 36.185968178906165 ], [ 3.745543621825474, 36.185968178906165 ], [ 3.745543621825474, 36.186430528374551 ], [ 3.747024053760491, 36.186430528374551 ], [ 3.747024053760491, 36.186892875113685 ], [ 3.749244701663016, 36.186892875113685 ], [ 3.749244701663016, 36.187355219123539 ], [ 3.751465349565541, 36.187355219123539 ], [ 3.751465349565541, 36.187817560404099 ], [ 3.752945781500558, 36.187817560404099 ], [ 3.752945781500558, 36.187355219123539 ], [ 3.753685997468065, 36.187355219123539 ], [ 3.753685997468065, 36.186892875113685 ], [ 3.754426213435575, 36.186892875113685 ], [ 3.754426213435575, 36.185968178906165 ], [ 3.755166429403083, 36.185968178906165 ], [ 3.755166429403083, 36.185043471781654 ], [ 3.755906645370591, 36.185043471781654 ], [ 3.755906645370591, 36.184118753740272 ], [ 3.756646861338099, 36.184118753740272 ], [ 3.756646861338099, 36.183656390625785 ], [ 3.757387077305608, 36.183656390625785 ], [ 3.757387077305608, 36.181344534115965 ], [ 3.756646861338099, 36.181344534115965 ], [ 3.756646861338099, 36.175795800126778 ], [ 3.755906645370591, 36.175795800126778 ], [ 3.755906645370591, 36.173483711649958 ], [ 3.755166429403083, 36.173483711649958 ], [ 3.755166429403083, 36.173021285767938 ], [ 3.754426213435575, 36.173021285767938 ], [ 3.754426213435575, 36.17209642581733 ], [ 3.753685997468065, 36.17209642581733 ], [ 3.753685997468065, 36.171171554951435 ], [ 3.751465349565541, 36.171171554951435 ], [ 3.751465349565541, 36.170709115425268 ], [ 3.747764269728, 36.170709115425268 ], [ 3.747764269728, 36.171171554951435 ], [ 3.747024053760491, 36.171171554951435 ], [ 3.747024053760491, 36.171633991748799 ], [ 3.745543621825474, 36.171633991748799 ], [ 3.745543621825474, 36.17209642581733 ], [ 3.744803405857966, 36.17209642581733 ], [ 3.744803405857966, 36.172558857157064 ], [ 3.743322973922949, 36.172558857157064 ], [ 3.743322973922949, 36.173021285767938 ], [ 3.742582757955441, 36.173021285767938 ], [ 3.742582757955441, 36.173483711649958 ], [ 3.741102326020424, 36.173483711649958 ], [ 3.741102326020424, 36.174408555227394 ], [ 3.740362110052916, 36.174408555227394 ], [ 3.740362110052916, 36.176258209635364 ], [ 3.739621894085408, 36.176258209635364 ], [ 3.739621894085408, 36.177645421787389 ], [ 3.738881678117899, 36.177645421787389 ], [ 3.738881678117899, 36.178107820380092 ], [ 3.738141462150391, 36.178107820380092 ], [ 3.738141462150391, 36.178570216243784 ], [ 3.737401246182882, 36.178570216243784 ], [ 3.737401246182882, 36.17903260937846 ], [ 3.735920814247866, 36.17903260937846 ], [ 3.735920814247866, 36.182269284907314 ], [ 3.735180598280357, 36.182269284907314 ], [ 3.735180598280357, 36.185505826708528 ], [ 3.735920814247866, 36.185505826708528 ], [ 3.735920814247866, 36.185968178906165 ], [ 3.736661030215375, 36.185968178906165 ], [ 3.736661030215375, 36.186430528374551 ], [ 3.737401246182882, 36.186430528374551 ], [ 3.737401246182882, 36.186892875113685 ], [ 3.738141462150391, 36.186892875113685 ], [ 3.738141462150391, 36.187355219123539 ], [ 3.738881678117899, 36.187355219123539 ], [ 3.738881678117899, 36.187817560404099 ], [ 3.739621894085408, 36.187817560404099 ], [ 3.739621894085408, 36.188279898955365 ], [ 3.741842541987933, 36.188279898955365 ], [ 3.741842541987933, 36.187817560404099 ], [ 3.742582757955441, 36.187817560404099 ], [ 3.742582757955441, 36.187355219123539 ], [ 3.743322973922949, 36.187355219123539 ], [ 3.743322973922949, 36.186892875113685 ] ] ], [ [ [ 3.141527392338674, 36.604196059893432 ], [ 3.142267608306182, 36.604196059893432 ], [ 3.142267608306182, 36.603736188775677 ], [ 3.14300782427369, 36.603736188775677 ], [ 3.14300782427369, 36.602816438315351 ], [ 3.143748040241198, 36.602816438315351 ], [ 3.143748040241198, 36.601896676888721 ], [ 3.144488256208707, 36.601896676888721 ], [ 3.144488256208707, 36.598677425537396 ], [ 3.145228472176215, 36.598677425537396 ], [ 3.145228472176215, 36.595458039854627 ], [ 3.144488256208707, 36.595458039854627 ], [ 3.144488256208707, 36.594538190701364 ], [ 3.143748040241198, 36.594538190701364 ], [ 3.143748040241198, 36.593618330582743 ], [ 3.14300782427369, 36.593618330582743 ], [ 3.14300782427369, 36.593158396411461 ], [ 3.142267608306182, 36.593158396411461 ], [ 3.142267608306182, 36.592238519845012 ], [ 3.141527392338674, 36.592238519845012 ], [ 3.141527392338674, 36.591778577449873 ], [ 3.135605664598607, 36.591778577449873 ], [ 3.135605664598607, 36.592238519845012 ], [ 3.13412523266359, 36.592238519845012 ], [ 3.13412523266359, 36.592698459498877 ], [ 3.133385016696082, 36.592698459498877 ], [ 3.133385016696082, 36.593158396411461 ], [ 3.132644800728573, 36.593158396411461 ], [ 3.132644800728573, 36.593618330582743 ], [ 3.131904584761065, 36.593618330582743 ], [ 3.131904584761065, 36.594078262012708 ], [ 3.131164368793557, 36.594078262012708 ], [ 3.131164368793557, 36.594538190701364 ], [ 3.130424152826048, 36.594538190701364 ], [ 3.130424152826048, 36.594998116648675 ], [ 3.12968393685854, 36.594998116648675 ], [ 3.12968393685854, 36.595458039854627 ], [ 3.128943720891032, 36.595458039854627 ], [ 3.128943720891032, 36.601896676888721 ], [ 3.12968393685854, 36.601896676888721 ], [ 3.12968393685854, 36.602816438315351 ], [ 3.130424152826048, 36.602816438315351 ], [ 3.130424152826048, 36.603736188775677 ], [ 3.131164368793557, 36.603736188775677 ], [ 3.131164368793557, 36.604196059893432 ], [ 3.131904584761065, 36.604196059893432 ], [ 3.131904584761065, 36.604655928269572 ], [ 3.133385016696082, 36.604655928269572 ], [ 3.133385016696082, 36.605115793904091 ], [ 3.135605664598607, 36.605115793904091 ], [ 3.135605664598607, 36.605575656796958 ], [ 3.13856652846864, 36.605575656796958 ], [ 3.13856652846864, 36.606035516948175 ], [ 3.140046960403657, 36.606035516948175 ], [ 3.140046960403657, 36.605575656796958 ], [ 3.140787176371165, 36.605575656796958 ], [ 3.140787176371165, 36.605115793904091 ], [ 3.141527392338674, 36.605115793904091 ], [ 3.141527392338674, 36.604196059893432 ] ] ], [ [ [ 2.88985396338584, 36.610633967666281 ], [ 2.88985396338584, 36.61017413493235 ], [ 2.890594179353348, 36.61017413493235 ], [ 2.890594179353348, 36.606495374357721 ], [ 2.891334395320857, 36.606495374357721 ], [ 2.891334395320857, 36.605115793904091 ], [ 2.892814827255873, 36.605115793904091 ], [ 2.892814827255873, 36.605575656796958 ], [ 2.893555043223381, 36.605575656796958 ], [ 2.893555043223381, 36.606035516948175 ], [ 2.895035475158398, 36.606035516948175 ], [ 2.895035475158398, 36.605575656796958 ], [ 2.895775691125907, 36.605575656796958 ], [ 2.895775691125907, 36.605115793904091 ], [ 2.896515907093415, 36.605115793904091 ], [ 2.896515907093415, 36.604655928269572 ], [ 2.897256123060923, 36.604655928269572 ], [ 2.897256123060923, 36.604196059893432 ], [ 2.897996339028431, 36.604196059893432 ], [ 2.897996339028431, 36.603736188775677 ], [ 2.89873655499594, 36.603736188775677 ], [ 2.89873655499594, 36.603276314916315 ], [ 2.899476770963448, 36.603276314916315 ], [ 2.899476770963448, 36.602816438315351 ], [ 2.900216986930956, 36.602816438315351 ], [ 2.900216986930956, 36.602356558972815 ], [ 2.901697418865973, 36.602356558972815 ], [ 2.901697418865973, 36.601896676888721 ], [ 2.902437634833482, 36.601896676888721 ], [ 2.902437634833482, 36.600057121136963 ], [ 2.90317785080099, 36.600057121136963 ], [ 2.90317785080099, 36.598217521521264 ], [ 2.903918066768498, 36.598217521521264 ], [ 2.903918066768498, 36.597757614763687 ], [ 2.90317785080099, 36.597757614763687 ], [ 2.90317785080099, 36.596377878042439 ], [ 2.902437634833482, 36.596377878042439 ], [ 2.902437634833482, 36.595458039854627 ], [ 2.901697418865973, 36.595458039854627 ], [ 2.901697418865973, 36.594078262012708 ], [ 2.900957202898465, 36.594078262012708 ], [ 2.900957202898465, 36.593158396411461 ], [ 2.900216986930956, 36.593158396411461 ], [ 2.900216986930956, 36.592698459498877 ], [ 2.899476770963448, 36.592698459498877 ], [ 2.899476770963448, 36.593158396411461 ], [ 2.896515907093415, 36.593158396411461 ], [ 2.896515907093415, 36.593618330582743 ], [ 2.89429525919089, 36.593618330582743 ], [ 2.89429525919089, 36.594078262012708 ], [ 2.891334395320857, 36.594078262012708 ], [ 2.891334395320857, 36.594538190701364 ], [ 2.889113747418332, 36.594538190701364 ], [ 2.889113747418332, 36.596377878042439 ], [ 2.888373531450823, 36.596377878042439 ], [ 2.888373531450823, 36.598217521521264 ], [ 2.887633315483315, 36.598217521521264 ], [ 2.887633315483315, 36.596377878042439 ], [ 2.886893099515807, 36.596377878042439 ], [ 2.886893099515807, 36.594078262012708 ], [ 2.886152883548299, 36.594078262012708 ], [ 2.886152883548299, 36.592238519845012 ], [ 2.88541266758079, 36.592238519845012 ], [ 2.88541266758079, 36.591318632313481 ], [ 2.884672451613281, 36.591318632313481 ], [ 2.884672451613281, 36.590858684435844 ], [ 2.883932235645773, 36.590858684435844 ], [ 2.883932235645773, 36.590398733816969 ], [ 2.883192019678265, 36.590398733816969 ], [ 2.883192019678265, 36.58993878045689 ], [ 2.882451803710757, 36.58993878045689 ], [ 2.882451803710757, 36.589478824355602 ], [ 2.88097137177574, 36.589478824355602 ], [ 2.88097137177574, 36.589018865513104 ], [ 2.880231155808231, 36.589018865513104 ], [ 2.880231155808231, 36.588558903929453 ], [ 2.879490939840723, 36.588558903929453 ], [ 2.879490939840723, 36.588098939604613 ], [ 2.878010507905707, 36.588098939604613 ], [ 2.878010507905707, 36.588558903929453 ], [ 2.875049644035673, 36.588558903929453 ], [ 2.875049644035673, 36.589018865513104 ], [ 2.874309428068165, 36.589018865513104 ], [ 2.874309428068165, 36.589478824355602 ], [ 2.873569212100656, 36.589478824355602 ], [ 2.873569212100656, 36.58993878045689 ], [ 2.872828996133148, 36.58993878045689 ], [ 2.872828996133148, 36.590398733816969 ], [ 2.87208878016564, 36.590398733816969 ], [ 2.87208878016564, 36.590858684435844 ], [ 2.871348564198132, 36.590858684435844 ], [ 2.871348564198132, 36.591318632313481 ], [ 2.870608348230624, 36.591318632313481 ], [ 2.870608348230624, 36.591778577449873 ], [ 2.869868132263115, 36.591778577449873 ], [ 2.869868132263115, 36.592698459498877 ], [ 2.869127916295606, 36.592698459498877 ], [ 2.869127916295606, 36.594998116648675 ], [ 2.868387700328098, 36.594998116648675 ], [ 2.868387700328098, 36.597297705264687 ], [ 2.86764748436059, 36.597297705264687 ], [ 2.86764748436059, 36.600976904495894 ], [ 2.868387700328098, 36.600976904495894 ], [ 2.868387700328098, 36.602816438315351 ], [ 2.869127916295606, 36.602816438315351 ], [ 2.869127916295606, 36.604655928269572 ], [ 2.869868132263115, 36.604655928269572 ], [ 2.869868132263115, 36.605115793904091 ], [ 2.870608348230624, 36.605115793904091 ], [ 2.870608348230624, 36.605575656796958 ], [ 2.87208878016564, 36.605575656796958 ], [ 2.87208878016564, 36.606035516948175 ], [ 2.873569212100656, 36.606035516948175 ], [ 2.873569212100656, 36.606495374357721 ], [ 2.87653007597069, 36.606495374357721 ], [ 2.87653007597069, 36.606035516948175 ], [ 2.878010507905707, 36.606035516948175 ], [ 2.878010507905707, 36.605575656796958 ], [ 2.878750723873215, 36.605575656796958 ], [ 2.878750723873215, 36.605115793904091 ], [ 2.880231155808231, 36.605115793904091 ], [ 2.880231155808231, 36.604655928269572 ], [ 2.88097137177574, 36.604655928269572 ], [ 2.88097137177574, 36.605575656796958 ], [ 2.880231155808231, 36.605575656796958 ], [ 2.880231155808231, 36.607415080951746 ], [ 2.88097137177574, 36.607415080951746 ], [ 2.88097137177574, 36.608794620279923 ], [ 2.881711587743248, 36.608794620279923 ], [ 2.881711587743248, 36.61017413493235 ], [ 2.882451803710757, 36.61017413493235 ], [ 2.882451803710757, 36.610633967666281 ], [ 2.883192019678265, 36.610633967666281 ], [ 2.883192019678265, 36.611093797658391 ], [ 2.884672451613281, 36.611093797658391 ], [ 2.884672451613281, 36.611553624908673 ], [ 2.88541266758079, 36.611553624908673 ], [ 2.88541266758079, 36.612013449417155 ], [ 2.886893099515807, 36.612013449417155 ], [ 2.886893099515807, 36.611553624908673 ], [ 2.887633315483315, 36.611553624908673 ], [ 2.887633315483315, 36.611093797658391 ], [ 2.889113747418332, 36.611093797658391 ], [ 2.889113747418332, 36.610633967666281 ], [ 2.88985396338584, 36.610633967666281 ] ], [ [ 2.887633315483315, 36.598677425537396 ], [ 2.888373531450823, 36.598677425537396 ], [ 2.888373531450823, 36.600976904495894 ], [ 2.889113747418332, 36.600976904495894 ], [ 2.889113747418332, 36.601896676888721 ], [ 2.888373531450823, 36.601896676888721 ], [ 2.888373531450823, 36.601436792063076 ], [ 2.886152883548299, 36.601436792063076 ], [ 2.886152883548299, 36.600517014187183 ], [ 2.886893099515807, 36.600517014187183 ], [ 2.886893099515807, 36.598217521521264 ], [ 2.887633315483315, 36.598217521521264 ], [ 2.887633315483315, 36.598677425537396 ] ] ], [ [ [ 3.128943720891032, 36.68692818727758 ], [ 3.128943720891032, 36.68600942970653 ], [ 3.12968393685854, 36.68600942970653 ], [ 3.12968393685854, 36.685090661159613 ], [ 3.130424152826048, 36.685090661159613 ], [ 3.130424152826048, 36.684171881636921 ], [ 3.131164368793557, 36.684171881636921 ], [ 3.131164368793557, 36.683253091138575 ], [ 3.131904584761065, 36.683253091138575 ], [ 3.131904584761065, 36.682334289664659 ], [ 3.132644800728573, 36.682334289664659 ], [ 3.132644800728573, 36.681874884811897 ], [ 3.133385016696082, 36.681874884811897 ], [ 3.133385016696082, 36.680956066874856 ], [ 3.13412523266359, 36.680956066874856 ], [ 3.13412523266359, 36.675902372040525 ], [ 3.133385016696082, 36.675902372040525 ], [ 3.133385016696082, 36.675442928775055 ], [ 3.132644800728573, 36.675442928775055 ], [ 3.132644800728573, 36.674983482765938 ], [ 3.131904584761065, 36.674983482765938 ], [ 3.131904584761065, 36.67452403401316 ], [ 3.131164368793557, 36.67452403401316 ], [ 3.131164368793557, 36.674064582516735 ], [ 3.130424152826048, 36.674064582516735 ], [ 3.130424152826048, 36.673605128276698 ], [ 3.12968393685854, 36.673605128276698 ], [ 3.12968393685854, 36.673145671293035 ], [ 3.128203504923524, 36.673145671293035 ], [ 3.128203504923524, 36.672686211565782 ], [ 3.127463288956015, 36.672686211565782 ], [ 3.127463288956015, 36.672226749094932 ], [ 3.123762209118474, 36.672226749094932 ], [ 3.123762209118474, 36.672686211565782 ], [ 3.121541561215949, 36.672686211565782 ], [ 3.121541561215949, 36.673145671293035 ], [ 3.119320913313424, 36.673145671293035 ], [ 3.119320913313424, 36.673605128276698 ], [ 3.118580697345915, 36.673605128276698 ], [ 3.118580697345915, 36.674064582516735 ], [ 3.117840481378407, 36.674064582516735 ], [ 3.117840481378407, 36.67452403401316 ], [ 3.117100265410898, 36.67452403401316 ], [ 3.117100265410898, 36.674983482765938 ], [ 3.11636004944339, 36.674983482765938 ], [ 3.11636004944339, 36.675442928775055 ], [ 3.115619833475882, 36.675442928775055 ], [ 3.115619833475882, 36.675902372040525 ], [ 3.114879617508374, 36.675902372040525 ], [ 3.114879617508374, 36.676361812562291 ], [ 3.114139401540865, 36.676361812562291 ], [ 3.114139401540865, 36.676821250340389 ], [ 3.113399185573357, 36.676821250340389 ], [ 3.113399185573357, 36.677280685374775 ], [ 3.11191875363834, 36.677280685374775 ], [ 3.11191875363834, 36.677740117665422 ], [ 3.111178537670832, 36.677740117665422 ], [ 3.111178537670832, 36.681415477215303 ], [ 3.110438321703324, 36.681415477215303 ], [ 3.110438321703324, 36.684171881636921 ], [ 3.111178537670832, 36.684171881636921 ], [ 3.111178537670832, 36.684631272770233 ], [ 3.11191875363834, 36.684631272770233 ], [ 3.11191875363834, 36.685090661159613 ], [ 3.112658969605848, 36.685090661159613 ], [ 3.112658969605848, 36.68600942970653 ], [ 3.113399185573357, 36.68600942970653 ], [ 3.113399185573357, 36.686468809864046 ], [ 3.114139401540865, 36.686468809864046 ], [ 3.114139401540865, 36.68692818727758 ], [ 3.114879617508374, 36.68692818727758 ], [ 3.114879617508374, 36.687387561947112 ], [ 3.115619833475882, 36.687387561947112 ], [ 3.115619833475882, 36.687846933872635 ], [ 3.11636004944339, 36.687846933872635 ], [ 3.11636004944339, 36.688306303054155 ], [ 3.117100265410898, 36.688306303054155 ], [ 3.117100265410898, 36.688765669491623 ], [ 3.117840481378407, 36.688765669491623 ], [ 3.117840481378407, 36.689225033185046 ], [ 3.124502425085982, 36.689225033185046 ], [ 3.124502425085982, 36.688765669491623 ], [ 3.127463288956015, 36.688765669491623 ], [ 3.127463288956015, 36.687846933872635 ], [ 3.128203504923524, 36.687846933872635 ], [ 3.128203504923524, 36.68692818727758 ], [ 3.128943720891032, 36.68692818727758 ] ] ], [ [ [ 4.658970125730759, 36.715404227373774 ], [ 4.658970125730759, 36.714485810106872 ], [ 4.659710341698267, 36.714485810106872 ], [ 4.659710341698267, 36.71310816362071 ], [ 4.660450557665776, 36.71310816362071 ], [ 4.660450557665776, 36.710352796540683 ], [ 4.659710341698267, 36.710352796540683 ], [ 4.659710341698267, 36.708515830260559 ], [ 4.658970125730759, 36.708515830260559 ], [ 4.658970125730759, 36.706678820066635 ], [ 4.65822990976325, 36.706678820066635 ], [ 4.65822990976325, 36.705301033603284 ], [ 4.657489693795742, 36.705301033603284 ], [ 4.657489693795742, 36.703463946562266 ], [ 4.656749477828233, 36.703463946562266 ], [ 4.656749477828233, 36.702545386574911 ], [ 4.654528829925709, 36.702545386574911 ], [ 4.654528829925709, 36.702086102464563 ], [ 4.652308182023184, 36.702086102464563 ], [ 4.652308182023184, 36.701626815609785 ], [ 4.650087534120659, 36.701626815609785 ], [ 4.650087534120659, 36.702086102464563 ], [ 4.649347318153151, 36.702086102464563 ], [ 4.649347318153151, 36.703004667940817 ], [ 4.648607102185641, 36.703004667940817 ], [ 4.648607102185641, 36.703923222439265 ], [ 4.647866886218133, 36.703923222439265 ], [ 4.647866886218133, 36.704382495571764 ], [ 4.647126670250625, 36.704382495571764 ], [ 4.647126670250625, 36.704841765959777 ], [ 4.645646238315608, 36.704841765959777 ], [ 4.645646238315608, 36.705301033603284 ], [ 4.644165806380592, 36.705301033603284 ], [ 4.644165806380592, 36.705760298502277 ], [ 4.642685374445576, 36.705760298502277 ], [ 4.642685374445576, 36.707597330652767 ], [ 4.641945158478067, 36.707597330652767 ], [ 4.641945158478067, 36.709434318889897 ], [ 4.641204942510559, 36.709434318889897 ], [ 4.641204942510559, 36.710352796540683 ], [ 4.641945158478067, 36.710352796540683 ], [ 4.641945158478067, 36.712189718906195 ], [ 4.642685374445576, 36.712189718906195 ], [ 4.642685374445576, 36.713567381860862 ], [ 4.643425590413083, 36.713567381860862 ], [ 4.643425590413083, 36.714026597356259 ], [ 4.644906022348101, 36.714026597356259 ], [ 4.644906022348101, 36.714485810106872 ], [ 4.646386454283117, 36.714485810106872 ], [ 4.646386454283117, 36.714945020112729 ], [ 4.648607102185641, 36.714945020112729 ], [ 4.648607102185641, 36.715404227373774 ], [ 4.650087534120659, 36.715404227373774 ], [ 4.650087534120659, 36.715863431890021 ], [ 4.651567966055675, 36.715863431890021 ], [ 4.651567966055675, 36.716322633661434 ], [ 4.653048397990692, 36.716322633661434 ], [ 4.653048397990692, 36.716781832688035 ], [ 4.656009261860725, 36.716781832688035 ], [ 4.656009261860725, 36.716322633661434 ], [ 4.657489693795742, 36.716322633661434 ], [ 4.657489693795742, 36.715863431890021 ], [ 4.65822990976325, 36.715863431890021 ], [ 4.65822990976325, 36.715404227373774 ], [ 4.658970125730759, 36.715404227373774 ] ] ], [ [ [ 1.18365615827913, 41.175690096388287 ], [ 1.18365615827913, 41.175258913308078 ], [ 1.185136590214146, 41.175258913308078 ], [ 1.185136590214146, 41.174827727389626 ], [ 1.185876806181654, 41.174827727389626 ], [ 1.185876806181654, 41.174396538632941 ], [ 1.187357238116671, 41.174396538632941 ], [ 1.187357238116671, 41.173965347038035 ], [ 1.188097454084179, 41.173965347038035 ], [ 1.188097454084179, 41.173534152604915 ], [ 1.188837670051688, 41.173534152604915 ], [ 1.188837670051688, 41.171378137866199 ], [ 1.189577886019196, 41.171378137866199 ], [ 1.189577886019196, 41.16922205217287 ], [ 1.190318101986705, 41.16922205217287 ], [ 1.190318101986705, 41.167065895525631 ], [ 1.191058317954213, 41.167065895525631 ], [ 1.191058317954213, 41.165772167479723 ], [ 1.190318101986705, 41.165772167479723 ], [ 1.190318101986705, 41.164047157018338 ], [ 1.189577886019196, 41.164047157018338 ], [ 1.189577886019196, 41.162322101147552 ], [ 1.188097454084179, 41.162322101147552 ], [ 1.188097454084179, 41.161890830084687 ], [ 1.187357238116671, 41.161890830084687 ], [ 1.187357238116671, 41.16145955618375 ], [ 1.185876806181654, 41.16145955618375 ], [ 1.185876806181654, 41.161028279444778 ], [ 1.184396374246638, 41.161028279444778 ], [ 1.184396374246638, 41.16145955618375 ], [ 1.182915942311621, 41.16145955618375 ], [ 1.182915942311621, 41.161890830084687 ], [ 1.182175726344113, 41.161890830084687 ], [ 1.182175726344113, 41.162322101147552 ], [ 1.181435510376605, 41.162322101147552 ], [ 1.181435510376605, 41.162753369372361 ], [ 1.179955078441588, 41.162753369372361 ], [ 1.179955078441588, 41.163184634759098 ], [ 1.179214862474079, 41.163184634759098 ], [ 1.179214862474079, 41.16361589730775 ], [ 1.178474646506571, 41.16361589730775 ], [ 1.178474646506571, 41.164047157018338 ], [ 1.176994214571554, 41.164047157018338 ], [ 1.176994214571554, 41.164478413890819 ], [ 1.176253998604046, 41.164478413890819 ], [ 1.176253998604046, 41.16490966792523 ], [ 1.175513782636538, 41.16490966792523 ], [ 1.175513782636538, 41.165340919121533 ], [ 1.17477356666903, 41.165340919121533 ], [ 1.17477356666903, 41.167065895525631 ], [ 1.174033350701521, 41.167065895525631 ], [ 1.174033350701521, 41.168790826519711 ], [ 1.173293134734013, 41.168790826519711 ], [ 1.173293134734013, 41.16922205217287 ], [ 1.174033350701521, 41.16922205217287 ], [ 1.174033350701521, 41.170515712103381 ], [ 1.17477356666903, 41.170515712103381 ], [ 1.17477356666903, 41.172240552276278 ], [ 1.175513782636538, 41.172240552276278 ], [ 1.175513782636538, 41.173534152604915 ], [ 1.176253998604046, 41.173534152604915 ], [ 1.176253998604046, 41.175258913308078 ], [ 1.177734430539063, 41.175258913308078 ], [ 1.177734430539063, 41.175690096388287 ], [ 1.178474646506571, 41.175690096388287 ], [ 1.178474646506571, 41.176121276630262 ], [ 1.179214862474079, 41.176121276630262 ], [ 1.179214862474079, 41.176552454033988 ], [ 1.182175726344113, 41.176552454033988 ], [ 1.182175726344113, 41.176121276630262 ], [ 1.182915942311621, 41.176121276630262 ], [ 1.182915942311621, 41.175690096388287 ], [ 1.18365615827913, 41.175690096388287 ] ] ], [ [ [ 0.627753966680371, 41.524444540055811 ], [ 0.629974614582895, 41.524444540055811 ], [ 0.629974614582895, 41.524015660613983 ], [ 0.632195262485421, 41.524015660613983 ], [ 0.632195262485421, 41.523586778329495 ], [ 0.632935478452929, 41.523586778329495 ], [ 0.632935478452929, 41.522729005232527 ], [ 0.633675694420437, 41.522729005232527 ], [ 0.633675694420437, 41.521013424926842 ], [ 0.634415910387945, 41.521013424926842 ], [ 0.634415910387945, 41.518011049950822 ], [ 0.633675694420437, 41.518011049950822 ], [ 0.633675694420437, 41.51415064888657 ], [ 0.632935478452929, 41.51415064888657 ], [ 0.632935478452929, 41.510718987980589 ], [ 0.632195262485421, 41.510718987980589 ], [ 0.632195262485421, 41.510290017576011 ], [ 0.631455046517912, 41.510290017576011 ], [ 0.631455046517912, 41.509861044328936 ], [ 0.629974614582895, 41.509861044328936 ], [ 0.629974614582895, 41.509432068239363 ], [ 0.629234398615387, 41.509432068239363 ], [ 0.629234398615387, 41.509003089307306 ], [ 0.627753966680371, 41.509003089307306 ], [ 0.627753966680371, 41.508574107532752 ], [ 0.626273534745354, 41.508574107532752 ], [ 0.626273534745354, 41.508145122915721 ], [ 0.624793102810337, 41.508145122915721 ], [ 0.624793102810337, 41.508574107532752 ], [ 0.621832238940304, 41.508574107532752 ], [ 0.621832238940304, 41.509003089307306 ], [ 0.61887137507027, 41.509003089307306 ], [ 0.61887137507027, 41.509432068239363 ], [ 0.618131159102762, 41.509432068239363 ], [ 0.618131159102762, 41.510718987980589 ], [ 0.617390943135254, 41.510718987980589 ], [ 0.617390943135254, 41.511576920262215 ], [ 0.616650727167745, 41.511576920262215 ], [ 0.616650727167745, 41.512863797365782 ], [ 0.615910511200237, 41.512863797365782 ], [ 0.615910511200237, 41.513721701222174 ], [ 0.615170295232729, 41.513721701222174 ], [ 0.615170295232729, 41.515008535687706 ], [ 0.615910511200237, 41.515008535687706 ], [ 0.615910511200237, 41.517582127869545 ], [ 0.616650727167745, 41.517582127869545 ], [ 0.616650727167745, 41.520584522743839 ], [ 0.617390943135254, 41.520584522743839 ], [ 0.617390943135254, 41.523586778329495 ], [ 0.618131159102762, 41.523586778329495 ], [ 0.618131159102762, 41.524444540055811 ], [ 0.61887137507027, 41.524444540055811 ], [ 0.61887137507027, 41.524873416654962 ], [ 0.620351807005287, 41.524873416654962 ], [ 0.620351807005287, 41.525302290411432 ], [ 0.621092022972796, 41.525302290411432 ], [ 0.621092022972796, 41.525731161325233 ], [ 0.62331267087532, 41.525731161325233 ], [ 0.62331267087532, 41.525302290411432 ], [ 0.625533318777845, 41.525302290411432 ], [ 0.625533318777845, 41.524873416654962 ], [ 0.627753966680371, 41.524873416654962 ], [ 0.627753966680371, 41.524444540055811 ] ] ], [ [ [ 0.456764078185945, 42.914587231755199 ], [ 0.458244510120962, 42.914587231755199 ], [ 0.458244510120962, 42.914167691717637 ], [ 0.459724942055978, 42.914167691717637 ], [ 0.459724942055978, 42.913748148823942 ], [ 0.461205373990995, 42.913748148823942 ], [ 0.461205373990995, 42.913328603074113 ], [ 0.461945589958504, 42.913328603074113 ], [ 0.461945589958504, 42.912909054468159 ], [ 0.46342602189352, 42.912909054468159 ], [ 0.46342602189352, 42.912489503006078 ], [ 0.464906453828537, 42.912489503006078 ], [ 0.464906453828537, 42.912069948687886 ], [ 0.466386885763553, 42.912069948687886 ], [ 0.466386885763553, 42.911650391513561 ], [ 0.467127101731062, 42.911650391513561 ], [ 0.467127101731062, 42.911230831483131 ], [ 0.46786731769857, 42.911230831483131 ], [ 0.46786731769857, 42.9095525628003 ], [ 0.468607533666079, 42.9095525628003 ], [ 0.468607533666079, 42.907454662684536 ], [ 0.469347749633587, 42.907454662684536 ], [ 0.469347749633587, 42.900321268205431 ], [ 0.468607533666079, 42.900321268205431 ], [ 0.468607533666079, 42.896544431089147 ], [ 0.469347749633587, 42.896544431089147 ], [ 0.469347749633587, 42.894446088286458 ], [ 0.470087965601095, 42.894446088286458 ], [ 0.470087965601095, 42.892347674084029 ], [ 0.470828181568604, 42.892347674084029 ], [ 0.470828181568604, 42.889409774249799 ], [ 0.470087965601095, 42.889409774249799 ], [ 0.470087965601095, 42.887730911513515 ], [ 0.469347749633587, 42.887730911513515 ], [ 0.469347749633587, 42.886891463009704 ], [ 0.468607533666079, 42.886891463009704 ], [ 0.468607533666079, 42.886471734473915 ], [ 0.466386885763553, 42.886471734473915 ], [ 0.466386885763553, 42.886052003082177 ], [ 0.464166237861029, 42.886052003082177 ], [ 0.464166237861029, 42.885632268834527 ], [ 0.462685805926012, 42.885632268834527 ], [ 0.462685805926012, 42.885212531730936 ], [ 0.460465158023487, 42.885212531730936 ], [ 0.460465158023487, 42.884792791771424 ], [ 0.45898472608847, 42.884792791771424 ], [ 0.45898472608847, 42.884373048956007 ], [ 0.456764078185945, 42.884373048956007 ], [ 0.456764078185945, 42.884792791771424 ], [ 0.456023862218437, 42.884792791771424 ], [ 0.456023862218437, 42.885632268834527 ], [ 0.455283646250928, 42.885632268834527 ], [ 0.455283646250928, 42.886052003082177 ], [ 0.45454343028342, 42.886052003082177 ], [ 0.45454343028342, 42.886471734473915 ], [ 0.453803214315912, 42.886471734473915 ], [ 0.453803214315912, 42.886891463009704 ], [ 0.453062998348404, 42.886891463009704 ], [ 0.453062998348404, 42.88731118868958 ], [ 0.452322782380895, 42.88731118868958 ], [ 0.452322782380895, 42.888150631481501 ], [ 0.451582566413387, 42.888150631481501 ], [ 0.451582566413387, 42.888570348593547 ], [ 0.450842350445879, 42.888570348593547 ], [ 0.450842350445879, 42.888990062849651 ], [ 0.45010213447837, 42.888990062849651 ], [ 0.45010213447837, 42.889409774249799 ], [ 0.449361918510862, 42.889409774249799 ], [ 0.449361918510862, 42.889829482793999 ], [ 0.448621702543353, 42.889829482793999 ], [ 0.448621702543353, 42.890668891314533 ], [ 0.447881486575845, 42.890668891314533 ], [ 0.447881486575845, 42.891088591290853 ], [ 0.447141270608337, 42.891088591290853 ], [ 0.447141270608337, 42.891508288411217 ], [ 0.446401054640829, 42.891508288411217 ], [ 0.446401054640829, 42.893606731173428 ], [ 0.44566083867332, 42.893606731173428 ], [ 0.44566083867332, 42.894865762558986 ], [ 0.44121954286827, 42.894865762558986 ], [ 0.44121954286827, 42.895285433975523 ], [ 0.440479326900762, 42.895285433975523 ], [ 0.440479326900762, 42.89570510253607 ], [ 0.439739110933254, 42.89570510253607 ], [ 0.439739110933254, 42.896544431089147 ], [ 0.438998894965745, 42.896544431089147 ], [ 0.438998894965745, 42.897383748218211 ], [ 0.438258678998237, 42.897383748218211 ], [ 0.438258678998237, 42.900321268205431 ], [ 0.437518463030728, 42.900321268205431 ], [ 0.437518463030728, 42.904097873983098 ], [ 0.43677824706322, 42.904097873983098 ], [ 0.43677824706322, 42.904517482567016 ], [ 0.437518463030728, 42.904517482567016 ], [ 0.437518463030728, 42.906615482645627 ], [ 0.438258678998237, 42.906615482645627 ], [ 0.438258678998237, 42.908293831299119 ], [ 0.439739110933254, 42.908293831299119 ], [ 0.439739110933254, 42.908713411322275 ], [ 0.441959758835779, 42.908713411322275 ], [ 0.441959758835779, 42.909132988489333 ], [ 0.444180406738303, 42.909132988489333 ], [ 0.444180406738303, 42.909972134255163 ], [ 0.444920622705812, 42.909972134255163 ], [ 0.444920622705812, 42.911230831483131 ], [ 0.44566083867332, 42.911230831483131 ], [ 0.44566083867332, 42.912489503006078 ], [ 0.446401054640829, 42.912489503006078 ], [ 0.446401054640829, 42.913748148823942 ], [ 0.447881486575845, 42.913748148823942 ], [ 0.447881486575845, 42.914167691717637 ], [ 0.448621702543353, 42.914167691717637 ], [ 0.448621702543353, 42.914587231755199 ], [ 0.45010213447837, 42.914587231755199 ], [ 0.45010213447837, 42.915006768936635 ], [ 0.451582566413387, 42.915006768936635 ], [ 0.451582566413387, 42.91542630326191 ], [ 0.452322782380895, 42.91542630326191 ], [ 0.452322782380895, 42.915845834731059 ], [ 0.453803214315912, 42.915845834731059 ], [ 0.453803214315912, 42.91542630326191 ], [ 0.455283646250928, 42.91542630326191 ], [ 0.455283646250928, 42.915006768936635 ], [ 0.456764078185945, 42.915006768936635 ], [ 0.456764078185945, 42.914587231755199 ] ] ] ] } }
]
}
