{
"type": "FeatureCollection",
"name": "spain_fires_modis_ba",
"crs": { "type": "name", "properties": { "name": "urn:ogc:def:crs:OGC:1.3:CRS84" } },
"features": [
{ "type": "Feature", "properties": { }, "geometry": { "type": "Polygon", "coordinates": [ [ [ -6.304368569035181, 43.100162535607993 ], [ -6.299927273230131, 43.100162535607993 ], [ -6.299927273230131, 43.099325983791424 ], [ -6.299187057262623, 43.099325983791424 ], [ -6.299187057262623, 43.098489420545178 ], [ -6.299927273230131, 43.098489420545178 ], [ -6.299927273230131, 43.097652845869277 ], [ -6.30066748919764, 43.097652845869277 ], [ -6.30066748919764, 43.097234554245205 ], [ -6.303628353067674, 43.097234554245205 ], [ -6.303628353067674, 43.097652845869277 ], [ -6.304368569035181, 43.097652845869277 ], [ -6.304368569035181, 43.098071134635937 ], [ -6.30510878500269, 43.098071134635937 ], [ -6.30510878500269, 43.099744261128421 ], [ -6.304368569035181, 43.099744261128421 ], [ -6.304368569035181, 43.100162535607993 ] ] ] } }
]
}
