{
"type": "FeatureCollection",
"name": "spain_fires_nrt_ba",
"crs": { "type": "name", "properties": { "name": "urn:ogc:def:crs:OGC:1.3:CRS84" } },
"features": [
{ "type": "Feature", "properties": { }, "geometry": { "type": "MultiPolygon", "coordinates": [ [ [ [ -0.390042988643589, 35.46418848049013 ], [ -0.390042988643589, 35.463255325707053 ], [ -0.389302772676081, 35.463255325707053 ], [ -0.389302772676081, 35.462322160097955 ], [ -0.388562556708572, 35.462322160097955 ], [ -0.388562556708572, 35.461388983662978 ], [ -0.387822340741064, 35.461388983662978 ], [ -0.387822340741064, 35.455789697716206 ], [ -0.388562556708572, 35.455789697716206 ], [ -0.388562556708572, 35.454856445503403 ], [ -0.389302772676081, 35.454856445503403 ], [ -0.389302772676081, 35.454389815337642 ], [ -0.390042988643589, 35.454389815337642 ], [ -0.390042988643589, 35.453923182465687 ], [ -0.390783204611098, 35.453923182465687 ], [ -0.390783204611098, 35.453456546887523 ], [ -0.391523420578606, 35.453456546887523 ], [ -0.391523420578606, 35.452523267612655 ], [ -0.392263636546114, 35.452523267612655 ], [ -0.392263636546114, 35.452056623916008 ], [ -0.394484284448639, 35.452056623916008 ], [ -0.394484284448639, 35.451589977513187 ], [ -0.398925580253689, 35.451589977513187 ], [ -0.398925580253689, 35.452056623916008 ], [ -0.399665796221198, 35.452056623916008 ], [ -0.399665796221198, 35.452523267612655 ], [ -0.400406012188706, 35.452523267612655 ], [ -0.400406012188706, 35.452989908603179 ], [ -0.401146228156214, 35.452989908603179 ], [ -0.401146228156214, 35.453923182465687 ], [ -0.401886444123722, 35.453923182465687 ], [ -0.401886444123722, 35.454856445503403 ], [ -0.402626660091231, 35.454856445503403 ], [ -0.402626660091231, 35.455789697716206 ], [ -0.403366876058739, 35.455789697716206 ], [ -0.403366876058739, 35.45625631976322 ], [ -0.404107092026248, 35.45625631976322 ], [ -0.404107092026248, 35.460455796402229 ], [ -0.403366876058739, 35.460455796402229 ], [ -0.403366876058739, 35.461388983662978 ], [ -0.402626660091231, 35.461388983662978 ], [ -0.402626660091231, 35.461855573233692 ], [ -0.401886444123722, 35.461855573233692 ], [ -0.401886444123722, 35.462322160097955 ], [ -0.401146228156214, 35.462322160097955 ], [ -0.401146228156214, 35.462788744255754 ], [ -0.400406012188706, 35.462788744255754 ], [ -0.400406012188706, 35.463255325707053 ], [ -0.399665796221198, 35.463255325707053 ], [ -0.399665796221198, 35.463721904451859 ], [ -0.398925580253689, 35.463721904451859 ], [ -0.398925580253689, 35.46418848049013 ], [ -0.398185364286181, 35.46418848049013 ], [ -0.398185364286181, 35.464655053821886 ], [ -0.397445148318673, 35.464655053821886 ], [ -0.397445148318673, 35.465121624447079 ], [ -0.396704932351164, 35.465121624447079 ], [ -0.396704932351164, 35.465588192365715 ], [ -0.391523420578606, 35.465588192365715 ], [ -0.391523420578606, 35.465121624447079 ], [ -0.390783204611098, 35.465121624447079 ], [ -0.390783204611098, 35.46418848049013 ], [ -0.390042988643589, 35.46418848049013 ] ] ], [ [ [ -0.336007223015481, 35.811499036806339 ], [ -0.335267007047972, 35.811499036806339 ], [ -0.335267007047972, 35.80220746476764 ], [ -0.336007223015481, 35.80220746476764 ], [ -0.336007223015481, 35.801742857632192 ], [ -0.336747438982989, 35.801742857632192 ], [ -0.336747438982989, 35.800813635209181 ], [ -0.337487654950497, 35.800813635209181 ], [ -0.337487654950497, 35.800349019921647 ], [ -0.338227870918006, 35.800349019921647 ], [ -0.338227870918006, 35.799419781194644 ], [ -0.344889814625581, 35.799419781194644 ], [ -0.344889814625581, 35.799884401916799 ], [ -0.345630030593089, 35.799884401916799 ], [ -0.345630030593089, 35.800349019921647 ], [ -0.347110462528106, 35.800349019921647 ], [ -0.347110462528106, 35.800813635209181 ], [ -0.347850678495614, 35.800813635209181 ], [ -0.347850678495614, 35.801278247779365 ], [ -0.348590894463122, 35.801278247779365 ], [ -0.348590894463122, 35.801742857632192 ], [ -0.349331110430631, 35.801742857632192 ], [ -0.349331110430631, 35.80220746476764 ], [ -0.350071326398139, 35.80220746476764 ], [ -0.350071326398139, 35.802672069185711 ], [ -0.350811542365647, 35.802672069185711 ], [ -0.350811542365647, 35.804065866135467 ], [ -0.351551758333156, 35.804065866135467 ], [ -0.351551758333156, 35.804995050514783 ], [ -0.352291974300664, 35.804995050514783 ], [ -0.352291974300664, 35.806388806702657 ], [ -0.353032190268173, 35.806388806702657 ], [ -0.353032190268173, 35.810569928518746 ], [ -0.352291974300664, 35.810569928518746 ], [ -0.352291974300664, 35.811499036806339 ], [ -0.351551758333156, 35.811499036806339 ], [ -0.351551758333156, 35.811963586873631 ], [ -0.350811542365647, 35.811963586873631 ], [ -0.350811542365647, 35.812892678855093 ], [ -0.350071326398139, 35.812892678855093 ], [ -0.350071326398139, 35.813357220769255 ], [ -0.347850678495614, 35.813357220769255 ], [ -0.347850678495614, 35.813821759965677 ], [ -0.337487654950497, 35.813821759965677 ], [ -0.337487654950497, 35.812892678855093 ], [ -0.336747438982989, 35.812892678855093 ], [ -0.336747438982989, 35.812428134223211 ], [ -0.336007223015481, 35.812428134223211 ], [ -0.336007223015481, 35.811499036806339 ] ] ], [ [ [ -7.871405772250324, 37.460708980702009 ], [ -7.871405772250324, 37.460254267059653 ], [ -7.870665556282817, 37.460254267059653 ], [ -7.870665556282817, 37.459799550652178 ], [ -7.86992534031531, 37.459799550652178 ], [ -7.86992534031531, 37.459344831479605 ], [ -7.8691851243478, 37.459344831479605 ], [ -7.8691851243478, 37.458890109541947 ], [ -7.868444908380293, 37.458890109541947 ], [ -7.868444908380293, 37.458435384839206 ], [ -7.866964476445275, 37.458435384839206 ], [ -7.866964476445275, 37.457980657371415 ], [ -7.866224260477767, 37.457980657371415 ], [ -7.866224260477767, 37.457525927138562 ], [ -7.86548404451026, 37.457525927138562 ], [ -7.86548404451026, 37.457071194140674 ], [ -7.864743828542751, 37.457071194140674 ], [ -7.864743828542751, 37.456616458377752 ], [ -7.864003612575242, 37.456616458377752 ], [ -7.864003612575242, 37.456161719849817 ], [ -7.863263396607733, 37.456161719849817 ], [ -7.863263396607733, 37.455706978556883 ], [ -7.861782964672718, 37.455706978556883 ], [ -7.861782964672718, 37.45525223449895 ], [ -7.861042748705209, 37.45525223449895 ], [ -7.861042748705209, 37.454797487676046 ], [ -7.8603025327377, 37.454797487676046 ], [ -7.8603025327377, 37.454342738088158 ], [ -7.859562316770193, 37.454342738088158 ], [ -7.859562316770193, 37.453887985735321 ], [ -7.858822100802684, 37.453887985735321 ], [ -7.858822100802684, 37.452068948674636 ], [ -7.858081884835176, 37.452068948674636 ], [ -7.858081884835176, 37.450249867375589 ], [ -7.857341668867667, 37.450249867375589 ], [ -7.857341668867667, 37.449795090138664 ], [ -7.858081884835176, 37.449795090138664 ], [ -7.858081884835176, 37.447975953542731 ], [ -7.858822100802684, 37.447975953542731 ], [ -7.858822100802684, 37.447066368655967 ], [ -7.858081884835176, 37.447066368655967 ], [ -7.858081884835176, 37.446611572065422 ], [ -7.857341668867667, 37.446611572065422 ], [ -7.857341668867667, 37.446156772710133 ], [ -7.85660145290016, 37.446156772710133 ], [ -7.85660145290016, 37.444792358055828 ], [ -7.85586123693265, 37.444792358055828 ], [ -7.85586123693265, 37.442973099810885 ], [ -7.855121020965142, 37.442973099810885 ], [ -7.855121020965142, 37.441608627098212 ], [ -7.85586123693265, 37.441608627098212 ], [ -7.85586123693265, 37.440244129503903 ], [ -7.85660145290016, 37.440244129503903 ], [ -7.85660145290016, 37.439334450618077 ], [ -7.857341668867667, 37.439334450618077 ], [ -7.857341668867667, 37.437969911555093 ], [ -7.858081884835176, 37.437969911555093 ], [ -7.858081884835176, 37.436605347611334 ], [ -7.858822100802684, 37.436605347611334 ], [ -7.858822100802684, 37.435695624493015 ], [ -7.859562316770193, 37.435695624493015 ], [ -7.859562316770193, 37.434785890316803 ], [ -7.8603025327377, 37.434785890316803 ], [ -7.8603025327377, 37.434331019082009 ], [ -7.861042748705209, 37.434331019082009 ], [ -7.861042748705209, 37.433876145082792 ], [ -7.862523180640224, 37.433876145082792 ], [ -7.862523180640224, 37.433421268319151 ], [ -7.863263396607733, 37.433421268319151 ], [ -7.863263396607733, 37.432966388791094 ], [ -7.864743828542751, 37.432966388791094 ], [ -7.864743828542751, 37.433421268319151 ], [ -7.867704692412784, 37.433421268319151 ], [ -7.867704692412784, 37.433876145082792 ], [ -7.870665556282817, 37.433876145082792 ], [ -7.870665556282817, 37.434331019082009 ], [ -7.872886204185342, 37.434331019082009 ], [ -7.872886204185342, 37.435240758787131 ], [ -7.873626420152851, 37.435240758787131 ], [ -7.873626420152851, 37.437515059671689 ], [ -7.874366636120359, 37.437515059671689 ], [ -7.874366636120359, 37.439334450618077 ], [ -7.875106852087868, 37.439334450618077 ], [ -7.875106852087868, 37.440698964799942 ], [ -7.875847068055377, 37.440698964799942 ], [ -7.875847068055377, 37.441153797331388 ], [ -7.876587284022884, 37.441153797331388 ], [ -7.876587284022884, 37.441608627098212 ], [ -7.877327499990392, 37.441608627098212 ], [ -7.877327499990392, 37.442063454100413 ], [ -7.878067715957901, 37.442063454100413 ], [ -7.878067715957901, 37.442518278337978 ], [ -7.878807931925408, 37.442518278337978 ], [ -7.878807931925408, 37.443427918519149 ], [ -7.879548147892917, 37.443427918519149 ], [ -7.879548147892917, 37.444792358055828 ], [ -7.880288363860426, 37.444792358055828 ], [ -7.880288363860426, 37.445701970590093 ], [ -7.881028579827934, 37.445701970590093 ], [ -7.881028579827934, 37.447066368655967 ], [ -7.881768795795442, 37.447066368655967 ], [ -7.881768795795442, 37.447975953542731 ], [ -7.88250901176295, 37.447975953542731 ], [ -7.88250901176295, 37.449340310136911 ], [ -7.883249227730459, 37.449340310136911 ], [ -7.883249227730459, 37.451614182497188 ], [ -7.883989443697968, 37.451614182497188 ], [ -7.883989443697968, 37.454342738088158 ], [ -7.884729659665477, 37.454342738088158 ], [ -7.884729659665477, 37.456161719849817 ], [ -7.883989443697968, 37.456161719849817 ], [ -7.883989443697968, 37.457071194140674 ], [ -7.883249227730459, 37.457071194140674 ], [ -7.883249227730459, 37.458435384839206 ], [ -7.88250901176295, 37.458435384839206 ], [ -7.88250901176295, 37.459344831479605 ], [ -7.881768795795442, 37.459344831479605 ], [ -7.881768795795442, 37.460254267059653 ], [ -7.881028579827934, 37.460254267059653 ], [ -7.881028579827934, 37.460708980702009 ], [ -7.878807931925408, 37.460708980702009 ], [ -7.878807931925408, 37.461163691579245 ], [ -7.876587284022884, 37.461163691579245 ], [ -7.876587284022884, 37.461618399691353 ], [ -7.873626420152851, 37.461618399691353 ], [ -7.873626420152851, 37.461163691579245 ], [ -7.872886204185342, 37.461163691579245 ], [ -7.872886204185342, 37.460708980702009 ], [ -7.871405772250324, 37.460708980702009 ] ] ], [ [ [ -9.074996935418877, 38.634476522015348 ], [ -9.074996935418877, 38.63402904099862 ], [ -9.073516503483861, 38.63402904099862 ], [ -9.073516503483861, 38.633581557188585 ], [ -9.072036071548842, 38.633581557188585 ], [ -9.072036071548842, 38.63313407058525 ], [ -9.071295855581335, 38.63313407058525 ], [ -9.071295855581335, 38.632239088998723 ], [ -9.070555639613827, 38.632239088998723 ], [ -9.070555639613827, 38.630449092306549 ], [ -9.069815423646318, 38.630449092306549 ], [ -9.069815423646318, 38.628211533593785 ], [ -9.070555639613827, 38.628211533593785 ], [ -9.070555639613827, 38.626421436346277 ], [ -9.071295855581335, 38.626421436346277 ], [ -9.071295855581335, 38.625078834082657 ], [ -9.070555639613827, 38.625078834082657 ], [ -9.070555639613827, 38.624631294408552 ], [ -9.069815423646318, 38.624631294408552 ], [ -9.069815423646318, 38.624183751941345 ], [ -9.069075207678809, 38.624183751941345 ], [ -9.069075207678809, 38.623736206681045 ], [ -9.068334991711302, 38.623736206681045 ], [ -9.068334991711302, 38.623288658627672 ], [ -9.067594775743792, 38.623288658627672 ], [ -9.067594775743792, 38.62284110778122 ], [ -9.066854559776285, 38.62284110778122 ], [ -9.066854559776285, 38.620603311653277 ], [ -9.067594775743792, 38.620603311653277 ], [ -9.067594775743792, 38.617022692612515 ], [ -9.068334991711302, 38.617022692612515 ], [ -9.068334991711302, 38.616575102664122 ], [ -9.069075207678809, 38.616575102664122 ], [ -9.069075207678809, 38.616127509922805 ], [ -9.071295855581335, 38.616127509922805 ], [ -9.071295855581335, 38.615679914388586 ], [ -9.073516503483861, 38.615679914388586 ], [ -9.073516503483861, 38.615232316061451 ], [ -9.074256719451368, 38.615232316061451 ], [ -9.074256719451368, 38.615679914388586 ], [ -9.074996935418877, 38.615679914388586 ], [ -9.074996935418877, 38.616127509922805 ], [ -9.075737151386386, 38.616127509922805 ], [ -9.075737151386386, 38.617022692612515 ], [ -9.076477367353894, 38.617022692612515 ], [ -9.076477367353894, 38.617917864130504 ], [ -9.077217583321403, 38.617917864130504 ], [ -9.077217583321403, 38.618365445700064 ], [ -9.07795779928891, 38.618365445700064 ], [ -9.07795779928891, 38.618813024476673 ], [ -9.080178447191436, 38.618813024476673 ], [ -9.080178447191436, 38.619260600460301 ], [ -9.081658879126453, 38.619260600460301 ], [ -9.081658879126453, 38.619708173650963 ], [ -9.08239909509396, 38.619708173650963 ], [ -9.08239909509396, 38.620155744048631 ], [ -9.083139311061469, 38.620155744048631 ], [ -9.083139311061469, 38.622393554141716 ], [ -9.083879527028976, 38.622393554141716 ], [ -9.083879527028976, 38.624183751941345 ], [ -9.084619742996486, 38.624183751941345 ], [ -9.084619742996486, 38.625973905051538 ], [ -9.085359958963995, 38.625973905051538 ], [ -9.085359958963995, 38.627316490556346 ], [ -9.084619742996486, 38.627316490556346 ], [ -9.084619742996486, 38.630001586150428 ], [ -9.083879527028976, 38.630001586150428 ], [ -9.083879527028976, 38.632686581188629 ], [ -9.083139311061469, 38.632686581188629 ], [ -9.083139311061469, 38.63402904099862 ], [ -9.081658879126453, 38.63402904099862 ], [ -9.081658879126453, 38.634476522015348 ], [ -9.080918663158945, 38.634476522015348 ], [ -9.080918663158945, 38.634924000238762 ], [ -9.079438231223927, 38.634924000238762 ], [ -9.079438231223927, 38.635371475668855 ], [ -9.078698015256419, 38.635371475668855 ], [ -9.078698015256419, 38.634924000238762 ], [ -9.076477367353894, 38.634924000238762 ], [ -9.076477367353894, 38.634476522015348 ], [ -9.074996935418877, 38.634476522015348 ] ] ], [ [ [ -0.743866221112573, 41.658116097930872 ], [ -0.743866221112573, 41.657688105650976 ], [ -0.743126005145065, 41.657688105650976 ], [ -0.743126005145065, 41.656832112558433 ], [ -0.742385789177556, 41.656832112558433 ], [ -0.742385789177556, 41.656404111745786 ], [ -0.741645573210048, 41.656404111745786 ], [ -0.741645573210048, 41.656832112558433 ], [ -0.74090535724254, 41.656832112558433 ], [ -0.74090535724254, 41.657260110526828 ], [ -0.739424925307523, 41.657260110526828 ], [ -0.739424925307523, 41.657688105650976 ], [ -0.738684709340015, 41.657688105650976 ], [ -0.738684709340015, 41.657260110526828 ], [ -0.737204277404998, 41.657260110526828 ], [ -0.737204277404998, 41.656832112558433 ], [ -0.73646406143749, 41.656832112558433 ], [ -0.73646406143749, 41.656404111745786 ], [ -0.734983629502473, 41.656404111745786 ], [ -0.734983629502473, 41.655548101587804 ], [ -0.734243413534964, 41.655548101587804 ], [ -0.734243413534964, 41.652123947187128 ], [ -0.733503197567456, 41.652123947187128 ], [ -0.733503197567456, 41.649127662766567 ], [ -0.732762981599948, 41.649127662766567 ], [ -0.732762981599948, 41.64570316706542 ], [ -0.73202276563244, 41.64570316706542 ], [ -0.73202276563244, 41.644847014698897 ], [ -0.732762981599948, 41.644847014698897 ], [ -0.732762981599948, 41.643990850955952 ], [ -0.733503197567456, 41.643990850955952 ], [ -0.733503197567456, 41.642706584010881 ], [ -0.734243413534964, 41.642706584010881 ], [ -0.734243413534964, 41.641850391827084 ], [ -0.734983629502473, 41.641850391827084 ], [ -0.734983629502473, 41.6405660822209 ], [ -0.735723845469981, 41.6405660822209 ], [ -0.735723845469981, 41.639709861596501 ], [ -0.73646406143749, 41.639709861596501 ], [ -0.73646406143749, 41.638425509329593 ], [ -0.737204277404998, 41.638425509329593 ], [ -0.737204277404998, 41.63756926026484 ], [ -0.737944493372506, 41.63756926026484 ], [ -0.737944493372506, 41.636712999824013 ], [ -0.740165141275031, 41.636712999824013 ], [ -0.740165141275031, 41.636284865337586 ], [ -0.742385789177556, 41.636284865337586 ], [ -0.742385789177556, 41.635856728007148 ], [ -0.744606437080081, 41.635856728007148 ], [ -0.744606437080081, 41.636284865337586 ], [ -0.74534665304759, 41.636284865337586 ], [ -0.74534665304759, 41.637141131466429 ], [ -0.746086869015098, 41.637141131466429 ], [ -0.746086869015098, 41.63756926026484 ], [ -0.746827084982606, 41.63756926026484 ], [ -0.746827084982606, 41.637997386219226 ], [ -0.747567300950115, 41.637997386219226 ], [ -0.747567300950115, 41.638853629595928 ], [ -0.748307516917623, 41.638853629595928 ], [ -0.748307516917623, 41.639281747018231 ], [ -0.749047732885131, 41.639281747018231 ], [ -0.749047732885131, 41.63542858783272 ], [ -0.74978794885264, 41.63542858783272 ], [ -0.74978794885264, 41.634572298951888 ], [ -0.750528164820148, 41.634572298951888 ], [ -0.750528164820148, 41.634144150245497 ], [ -0.751268380787656, 41.634144150245497 ], [ -0.751268380787656, 41.633287844300781 ], [ -0.756449892560215, 41.633287844300781 ], [ -0.756449892560215, 41.633715998695116 ], [ -0.757190108527723, 41.633715998695116 ], [ -0.757190108527723, 41.634144150245497 ], [ -0.757930324495231, 41.634144150245497 ], [ -0.757930324495231, 41.635000444814295 ], [ -0.75867054046274, 41.635000444814295 ], [ -0.75867054046274, 41.635856728007148 ], [ -0.759410756430248, 41.635856728007148 ], [ -0.759410756430248, 41.6405660822209 ], [ -0.75867054046274, 41.6405660822209 ], [ -0.75867054046274, 41.641422291469091 ], [ -0.757930324495231, 41.641422291469091 ], [ -0.757930324495231, 41.642278489341024 ], [ -0.757190108527723, 41.642278489341024 ], [ -0.757190108527723, 41.642706584010881 ], [ -0.756449892560215, 41.642706584010881 ], [ -0.756449892560215, 41.643134675836656 ], [ -0.751268380787656, 41.643134675836656 ], [ -0.751268380787656, 41.64527509230421 ], [ -0.752008596755165, 41.64527509230421 ], [ -0.752008596755165, 41.648271555906099 ], [ -0.751268380787656, 41.648271555906099 ], [ -0.751268380787656, 41.650411801726115 ], [ -0.750528164820148, 41.650411801726115 ], [ -0.750528164820148, 41.650839842357641 ], [ -0.751268380787656, 41.650839842357641 ], [ -0.751268380787656, 41.65512009224247 ], [ -0.752008596755165, 41.65512009224247 ], [ -0.752008596755165, 41.655548101587804 ], [ -0.751268380787656, 41.655548101587804 ], [ -0.751268380787656, 41.656404111745786 ], [ -0.750528164820148, 41.656404111745786 ], [ -0.750528164820148, 41.656832112558433 ], [ -0.74978794885264, 41.656832112558433 ], [ -0.74978794885264, 41.657260110526828 ], [ -0.749047732885131, 41.657260110526828 ], [ -0.749047732885131, 41.657688105650976 ], [ -0.748307516917623, 41.657688105650976 ], [ -0.748307516917623, 41.658116097930872 ], [ -0.747567300950115, 41.658116097930872 ], [ -0.747567300950115, 41.658544087366508 ], [ -0.746827084982606, 41.658544087366508 ], [ -0.746827084982606, 41.658972073957891 ], [ -0.74534665304759, 41.658972073957891 ], [ -0.74534665304759, 41.658544087366508 ], [ -0.744606437080081, 41.658544087366508 ], [ -0.744606437080081, 41.658116097930872 ], [ -0.743866221112573, 41.658116097930872 ] ], [ [ -0.751268380787656, 41.642278489341024 ], [ -0.750528164820148, 41.642278489341024 ], [ -0.750528164820148, 41.643134675836656 ], [ -0.751268380787656, 41.643134675836656 ], [ -0.751268380787656, 41.642278489341024 ] ] ], [ [ [ -5.725519682443664, 43.537358307341755 ], [ -5.725519682443664, 43.536943031704851 ], [ -5.724039250508648, 43.536943031704851 ], [ -5.724039250508648, 43.536527753207956 ], [ -5.72255881857363, 43.536527753207956 ], [ -5.72255881857363, 43.535697187634213 ], [ -5.721818602606122, 43.535697187634213 ], [ -5.721818602606122, 43.534451317823752 ], [ -5.721078386638613, 43.534451317823752 ], [ -5.721078386638613, 43.533205422273518 ], [ -5.720338170671106, 43.533205422273518 ], [ -5.720338170671106, 43.53237481094019 ], [ -5.719597954703597, 43.53237481094019 ], [ -5.719597954703597, 43.531128872490477 ], [ -5.718857738736089, 43.531128872490477 ], [ -5.718857738736089, 43.529882908301154 ], [ -5.718117522768581, 43.529882908301154 ], [ -5.718117522768581, 43.529052251208505 ], [ -5.717377306801072, 43.529052251208505 ], [ -5.717377306801072, 43.527806244119944 ], [ -5.716637090833564, 43.527806244119944 ], [ -5.716637090833564, 43.526560211291923 ], [ -5.715896874866057, 43.526560211291923 ], [ -5.715896874866057, 43.525729508440229 ], [ -5.715156658898548, 43.525729508440229 ], [ -5.715156658898548, 43.523652701262279 ], [ -5.715896874866057, 43.523652701262279 ], [ -5.715896874866057, 43.522406582636464 ], [ -5.716637090833564, 43.522406582636464 ], [ -5.716637090833564, 43.521160438271444 ], [ -5.717377306801072, 43.521160438271444 ], [ -5.717377306801072, 43.520329661061893 ], [ -5.718117522768581, 43.520329661061893 ], [ -5.718117522768581, 43.519498872412733 ], [ -5.718857738736089, 43.519498872412733 ], [ -5.718857738736089, 43.519083473798304 ], [ -5.720338170671106, 43.519083473798304 ], [ -5.720338170671106, 43.518668072323983 ], [ -5.721078386638613, 43.518668072323983 ], [ -5.721078386638613, 43.518252667989771 ], [ -5.72255881857363, 43.518252667989771 ], [ -5.72255881857363, 43.517837260795666 ], [ -5.723299034541139, 43.517837260795666 ], [ -5.723299034541139, 43.51742185074167 ], [ -5.724039250508648, 43.51742185074167 ], [ -5.724039250508648, 43.517006437827789 ], [ -5.725519682443664, 43.517006437827789 ], [ -5.725519682443664, 43.516591022054023 ], [ -5.726259898411173, 43.516591022054023 ], [ -5.726259898411173, 43.516175603420372 ], [ -5.727740330346189, 43.516175603420372 ], [ -5.727740330346189, 43.515760181926844 ], [ -5.728480546313697, 43.515760181926844 ], [ -5.728480546313697, 43.51534475757343 ], [ -5.729220762281205, 43.51534475757343 ], [ -5.729220762281205, 43.514929330360154 ], [ -5.730701194216222, 43.514929330360154 ], [ -5.730701194216222, 43.514513900287 ], [ -5.73144141018373, 43.514513900287 ], [ -5.73144141018373, 43.514929330360154 ], [ -5.732921842118747, 43.514929330360154 ], [ -5.732921842118747, 43.51534475757343 ], [ -5.733662058086256, 43.51534475757343 ], [ -5.733662058086256, 43.515760181926844 ], [ -5.735142490021273, 43.515760181926844 ], [ -5.735142490021273, 43.516175603420372 ], [ -5.73662292195629, 43.516175603420372 ], [ -5.73662292195629, 43.516591022054023 ], [ -5.737363137923798, 43.516591022054023 ], [ -5.737363137923798, 43.517006437827789 ], [ -5.738843569858814, 43.517006437827789 ], [ -5.738843569858814, 43.51742185074167 ], [ -5.74032400179383, 43.51742185074167 ], [ -5.74032400179383, 43.517837260795666 ], [ -5.741804433728848, 43.517837260795666 ], [ -5.741804433728848, 43.518668072323983 ], [ -5.742544649696356, 43.518668072323983 ], [ -5.742544649696356, 43.519083473798304 ], [ -5.743284865663864, 43.519083473798304 ], [ -5.743284865663864, 43.519914268167263 ], [ -5.744025081631372, 43.519914268167263 ], [ -5.744025081631372, 43.520745051096618 ], [ -5.744765297598882, 43.520745051096618 ], [ -5.744765297598882, 43.524068068417712 ], [ -5.744025081631372, 43.524068068417712 ], [ -5.744025081631372, 43.527806244119944 ], [ -5.743284865663864, 43.527806244119944 ], [ -5.743284865663864, 43.529052251208505 ], [ -5.742544649696356, 43.529052251208505 ], [ -5.742544649696356, 43.530298232557548 ], [ -5.741804433728848, 43.530298232557548 ], [ -5.741804433728848, 43.531544188167018 ], [ -5.741064217761339, 43.531544188167018 ], [ -5.741064217761339, 43.532790118036843 ], [ -5.74032400179383, 43.532790118036843 ], [ -5.74032400179383, 43.533620723650237 ], [ -5.739583785826321, 43.533620723650237 ], [ -5.739583785826321, 43.53403602216698 ], [ -5.738843569858814, 43.53403602216698 ], [ -5.738843569858814, 43.534451317823752 ], [ -5.737363137923798, 43.534451317823752 ], [ -5.737363137923798, 43.534866610620547 ], [ -5.73662292195629, 43.534866610620547 ], [ -5.73662292195629, 43.535281900557365 ], [ -5.73588270598878, 43.535281900557365 ], [ -5.73588270598878, 43.535697187634213 ], [ -5.735142490021273, 43.535697187634213 ], [ -5.735142490021273, 43.536112471851069 ], [ -5.734402274053765, 43.536112471851069 ], [ -5.734402274053765, 43.536527753207956 ], [ -5.733662058086256, 43.536527753207956 ], [ -5.733662058086256, 43.536943031704851 ], [ -5.732921842118747, 43.536943031704851 ], [ -5.732921842118747, 43.537358307341755 ], [ -5.732181626151239, 43.537358307341755 ], [ -5.732181626151239, 43.537773580118674 ], [ -5.73144141018373, 43.537773580118674 ], [ -5.73144141018373, 43.538188850035603 ], [ -5.729220762281205, 43.538188850035603 ], [ -5.729220762281205, 43.537773580118674 ], [ -5.727000114378681, 43.537773580118674 ], [ -5.727000114378681, 43.537358307341755 ], [ -5.725519682443664, 43.537358307341755 ] ] ], [ [ [ -5.840253157407456, 43.550645617637002 ], [ -5.840253157407456, 43.550230433520795 ], [ -5.83877272547244, 43.550230433520795 ], [ -5.83877272547244, 43.549815246544526 ], [ -5.836552077569914, 43.549815246544526 ], [ -5.836552077569914, 43.549400056708208 ], [ -5.835071645634897, 43.549400056708208 ], [ -5.835071645634897, 43.548984864011857 ], [ -5.832850997732372, 43.548984864011857 ], [ -5.832850997732372, 43.548569668455436 ], [ -5.831370565797356, 43.548569668455436 ], [ -5.831370565797356, 43.54815447003898 ], [ -5.829149917894831, 43.54815447003898 ], [ -5.829149917894831, 43.54773926876247 ], [ -5.827669485959815, 43.54773926876247 ], [ -5.827669485959815, 43.547324064625933 ], [ -5.82544883805729, 43.547324064625933 ], [ -5.82544883805729, 43.546908857629347 ], [ -5.823228190154764, 43.546908857629347 ], [ -5.823228190154764, 43.546493647772721 ], [ -5.822487974187256, 43.546493647772721 ], [ -5.822487974187256, 43.54607843505606 ], [ -5.821747758219748, 43.54607843505606 ], [ -5.821747758219748, 43.545248001042651 ], [ -5.821007542252239, 43.545248001042651 ], [ -5.821007542252239, 43.544417555589114 ], [ -5.82026732628473, 43.544417555589114 ], [ -5.82026732628473, 43.543171865958641 ], [ -5.819527110317222, 43.543171865958641 ], [ -5.819527110317222, 43.542341391904877 ], [ -5.818786894349714, 43.542341391904877 ], [ -5.818786894349714, 43.541510906411077 ], [ -5.818046678382206, 43.541510906411077 ], [ -5.818046678382206, 43.540265156720295 ], [ -5.817306462414698, 43.540265156720295 ], [ -5.817306462414698, 43.539434642626411 ], [ -5.816566246447189, 43.539434642626411 ], [ -5.816566246447189, 43.53860411709254 ], [ -5.815826030479681, 43.53860411709254 ], [ -5.815826030479681, 43.537358307341755 ], [ -5.815085814512173, 43.537358307341755 ], [ -5.815085814512173, 43.536527753207956 ], [ -5.815826030479681, 43.536527753207956 ], [ -5.815826030479681, 43.535281900557365 ], [ -5.816566246447189, 43.535281900557365 ], [ -5.816566246447189, 43.53403602216698 ], [ -5.817306462414698, 43.53403602216698 ], [ -5.817306462414698, 43.533205422273518 ], [ -5.818046678382206, 43.533205422273518 ], [ -5.818046678382206, 43.531959500983589 ], [ -5.821007542252239, 43.531959500983589 ], [ -5.821007542252239, 43.53237481094019 ], [ -5.823968406122273, 43.53237481094019 ], [ -5.823968406122273, 43.531959500983589 ], [ -5.82544883805729, 43.531959500983589 ], [ -5.82544883805729, 43.531544188167018 ], [ -5.826189054024797, 43.531544188167018 ], [ -5.826189054024797, 43.531128872490477 ], [ -5.827669485959815, 43.531128872490477 ], [ -5.827669485959815, 43.530713553953994 ], [ -5.829149917894831, 43.530713553953994 ], [ -5.829149917894831, 43.531128872490477 ], [ -5.831370565797356, 43.531128872490477 ], [ -5.831370565797356, 43.531544188167018 ], [ -5.832850997732372, 43.531544188167018 ], [ -5.832850997732372, 43.531959500983589 ], [ -5.835071645634897, 43.531959500983589 ], [ -5.835071645634897, 43.53237481094019 ], [ -5.837292293537423, 43.53237481094019 ], [ -5.837292293537423, 43.532790118036843 ], [ -5.839512941439948, 43.532790118036843 ], [ -5.839512941439948, 43.533205422273518 ], [ -5.841733589342473, 43.533205422273518 ], [ -5.841733589342473, 43.532790118036843 ], [ -5.842473805309981, 43.532790118036843 ], [ -5.842473805309981, 43.53237481094019 ], [ -5.843954237244998, 43.53237481094019 ], [ -5.843954237244998, 43.531959500983589 ], [ -5.846174885147523, 43.531959500983589 ], [ -5.846174885147523, 43.53237481094019 ], [ -5.846915101115031, 43.53237481094019 ], [ -5.846915101115031, 43.533205422273518 ], [ -5.847655317082539, 43.533205422273518 ], [ -5.847655317082539, 43.533620723650237 ], [ -5.848395533050048, 43.533620723650237 ], [ -5.848395533050048, 43.53403602216698 ], [ -5.849135749017555, 43.53403602216698 ], [ -5.849135749017555, 43.534451317823752 ], [ -5.849875964985064, 43.534451317823752 ], [ -5.849875964985064, 43.535281900557365 ], [ -5.850616180952573, 43.535281900557365 ], [ -5.850616180952573, 43.539019381289471 ], [ -5.85135639692008, 43.539019381289471 ], [ -5.85135639692008, 43.542756630361758 ], [ -5.852096612887589, 43.542756630361758 ], [ -5.852096612887589, 43.546493647772721 ], [ -5.85135639692008, 43.546493647772721 ], [ -5.85135639692008, 43.54815447003898 ], [ -5.850616180952573, 43.54815447003898 ], [ -5.850616180952573, 43.549815246544526 ], [ -5.849875964985064, 43.549815246544526 ], [ -5.849875964985064, 43.550230433520795 ], [ -5.849135749017555, 43.550230433520795 ], [ -5.849135749017555, 43.550645617637002 ], [ -5.847655317082539, 43.550645617637002 ], [ -5.847655317082539, 43.551060798893154 ], [ -5.846915101115031, 43.551060798893154 ], [ -5.846915101115031, 43.551475977289243 ], [ -5.844694453212505, 43.551475977289243 ], [ -5.844694453212505, 43.551060798893154 ], [ -5.842473805309981, 43.551060798893154 ], [ -5.842473805309981, 43.550645617637002 ], [ -5.840253157407456, 43.550645617637002 ] ] ], [ [ [ 0.541888914449404, 35.790591471203676 ], [ 0.541888914449404, 35.790126796138338 ], [ 0.54336934638442, 35.790126796138338 ], [ 0.54336934638442, 35.789662118356006 ], [ 0.544109562351929, 35.789662118356006 ], [ 0.544109562351929, 35.789197437856686 ], [ 0.544849778319437, 35.789197437856686 ], [ 0.544849778319437, 35.788732754640378 ], [ 0.546330210254454, 35.788732754640378 ], [ 0.546330210254454, 35.787803380056921 ], [ 0.547070426221962, 35.787803380056921 ], [ 0.547070426221962, 35.786409297804781 ], [ 0.54781064218947, 35.786409297804781 ], [ 0.54781064218947, 35.782691625590473 ], [ 0.547070426221962, 35.782691625590473 ], [ 0.547070426221962, 35.78083272428038 ], [ 0.546330210254454, 35.78083272428038 ], [ 0.546330210254454, 35.77897377950292 ], [ 0.545589994286945, 35.77897377950292 ], [ 0.545589994286945, 35.777579542394932 ], [ 0.544109562351929, 35.777579542394932 ], [ 0.544109562351929, 35.777114791259052 ], [ 0.54336934638442, 35.777114791259052 ], [ 0.54336934638442, 35.776650037406554 ], [ 0.541888914449404, 35.776650037406554 ], [ 0.541888914449404, 35.776185280837481 ], [ 0.540408482514387, 35.776185280837481 ], [ 0.540408482514387, 35.775720521551847 ], [ 0.53892805057937, 35.775720521551847 ], [ 0.53892805057937, 35.776185280837481 ], [ 0.538187834611862, 35.776185280837481 ], [ 0.538187834611862, 35.776650037406554 ], [ 0.536707402676845, 35.776650037406554 ], [ 0.536707402676845, 35.777114791259052 ], [ 0.535226970741829, 35.777114791259052 ], [ 0.535226970741829, 35.777579542394932 ], [ 0.53448675477432, 35.777579542394932 ], [ 0.53448675477432, 35.778044290814222 ], [ 0.533746538806812, 35.778044290814222 ], [ 0.533746538806812, 35.779903257325017 ], [ 0.533006322839304, 35.779903257325017 ], [ 0.533006322839304, 35.784550483432255 ], [ 0.533746538806812, 35.784550483432255 ], [ 0.533746538806812, 35.788268068707133 ], [ 0.53448675477432, 35.788268068707133 ], [ 0.53448675477432, 35.788732754640378 ], [ 0.535226970741829, 35.788732754640378 ], [ 0.535226970741829, 35.789197437856686 ], [ 0.535967186709337, 35.789197437856686 ], [ 0.535967186709337, 35.789662118356006 ], [ 0.536707402676845, 35.789662118356006 ], [ 0.536707402676845, 35.790126796138338 ], [ 0.537447618644354, 35.790126796138338 ], [ 0.537447618644354, 35.790591471203676 ], [ 0.538187834611862, 35.790591471203676 ], [ 0.538187834611862, 35.791056143551991 ], [ 0.53892805057937, 35.791056143551991 ], [ 0.53892805057937, 35.791520813183269 ], [ 0.539668266546879, 35.791520813183269 ], [ 0.539668266546879, 35.791056143551991 ], [ 0.541148698481895, 35.791056143551991 ], [ 0.541148698481895, 35.790591471203676 ], [ 0.541888914449404, 35.790591471203676 ] ] ], [ [ [ -0.276049729647306, 35.824505411354338 ], [ -0.276049729647306, 35.824040934669902 ], [ -0.274569297712289, 35.824040934669902 ], [ -0.274569297712289, 35.8235764552674 ], [ -0.272348649809764, 35.8235764552674 ], [ -0.272348649809764, 35.82311197314683 ], [ -0.270128001907239, 35.82311197314683 ], [ -0.270128001907239, 35.822647488308213 ], [ -0.267167138037206, 35.822647488308213 ], [ -0.267167138037206, 35.822183000751579 ], [ -0.264946490134681, 35.822183000751579 ], [ -0.264946490134681, 35.821718510476927 ], [ -0.262725842232156, 35.821718510476927 ], [ -0.262725842232156, 35.821254017484272 ], [ -0.260505194329631, 35.821254017484272 ], [ -0.260505194329631, 35.820789521773627 ], [ -0.259764978362122, 35.820789521773627 ], [ -0.259764978362122, 35.819860522198454 ], [ -0.259024762394614, 35.819860522198454 ], [ -0.259024762394614, 35.81939601833394 ], [ -0.258284546427106, 35.81939601833394 ], [ -0.258284546427106, 35.818467002451158 ], [ -0.257544330459597, 35.818467002451158 ], [ -0.257544330459597, 35.818002490432896 ], [ -0.256804114492089, 35.818002490432896 ], [ -0.256804114492089, 35.81753797569678 ], [ -0.253103034654547, 35.81753797569678 ], [ -0.253103034654547, 35.817073458242774 ], [ -0.252362818687039, 35.817073458242774 ], [ -0.252362818687039, 35.816608938070921 ], [ -0.251622602719531, 35.816608938070921 ], [ -0.251622602719531, 35.816144415181228 ], [ -0.250882386752022, 35.816144415181228 ], [ -0.250882386752022, 35.815215361248384 ], [ -0.250142170784514, 35.815215361248384 ], [ -0.250142170784514, 35.814750830205249 ], [ -0.249401954817006, 35.814750830205249 ], [ -0.249401954817006, 35.814286296444358 ], [ -0.248661738849497, 35.814286296444358 ], [ -0.248661738849497, 35.813821759965677 ], [ -0.247921522881989, 35.813821759965677 ], [ -0.247921522881989, 35.814286296444358 ], [ -0.247181306914481, 35.814286296444358 ], [ -0.247181306914481, 35.815215361248384 ], [ -0.246441090946972, 35.815215361248384 ], [ -0.246441090946972, 35.816144415181228 ], [ -0.245700874979464, 35.816144415181228 ], [ -0.245700874979464, 35.817073458242774 ], [ -0.234597635466839, 35.817073458242774 ], [ -0.234597635466839, 35.816608938070921 ], [ -0.233857419499331, 35.816608938070921 ], [ -0.233857419499331, 35.816144415181228 ], [ -0.233117203531822, 35.816144415181228 ], [ -0.233117203531822, 35.815679889573708 ], [ -0.232376987564314, 35.815679889573708 ], [ -0.232376987564314, 35.815215361248384 ], [ -0.230896555629297, 35.815215361248384 ], [ -0.230896555629297, 35.814750830205249 ], [ -0.230156339661789, 35.814750830205249 ], [ -0.230156339661789, 35.814286296444358 ], [ -0.229416123694281, 35.814286296444358 ], [ -0.229416123694281, 35.813357220769255 ], [ -0.228675907726772, 35.813357220769255 ], [ -0.228675907726772, 35.811499036806339 ], [ -0.227935691759264, 35.811499036806339 ], [ -0.227935691759264, 35.809176245705025 ], [ -0.227195475791756, 35.809176245705025 ], [ -0.227195475791756, 35.80731796390701 ], [ -0.227935691759264, 35.80731796390701 ], [ -0.227935691759264, 35.805924224024189 ], [ -0.228675907726772, 35.805924224024189 ], [ -0.228675907726772, 35.804530459683846 ], [ -0.229416123694281, 35.804530459683846 ], [ -0.229416123694281, 35.803601269869652 ], [ -0.230156339661789, 35.803601269869652 ], [ -0.230156339661789, 35.803136670886389 ], [ -0.230896555629297, 35.803136670886389 ], [ -0.230896555629297, 35.802672069185711 ], [ -0.231636771596806, 35.802672069185711 ], [ -0.231636771596806, 35.80220746476764 ], [ -0.232376987564314, 35.80220746476764 ], [ -0.232376987564314, 35.801742857632192 ], [ -0.237558499336872, 35.801742857632192 ], [ -0.237558499336872, 35.80220746476764 ], [ -0.238298715304381, 35.80220746476764 ], [ -0.238298715304381, 35.802672069185711 ], [ -0.239038931271889, 35.802672069185711 ], [ -0.239038931271889, 35.800813635209181 ], [ -0.239779147239397, 35.800813635209181 ], [ -0.239779147239397, 35.799884401916799 ], [ -0.240519363206906, 35.799884401916799 ], [ -0.240519363206906, 35.799419781194644 ], [ -0.241259579174414, 35.799419781194644 ], [ -0.241259579174414, 35.798955157755167 ], [ -0.242740011109431, 35.798955157755167 ], [ -0.242740011109431, 35.798490531598425 ], [ -0.245700874979464, 35.798490531598425 ], [ -0.245700874979464, 35.798955157755167 ], [ -0.247921522881989, 35.798955157755167 ], [ -0.247921522881989, 35.799419781194644 ], [ -0.249401954817006, 35.799419781194644 ], [ -0.249401954817006, 35.799884401916799 ], [ -0.250882386752022, 35.799884401916799 ], [ -0.250882386752022, 35.799419781194644 ], [ -0.252362818687039, 35.799419781194644 ], [ -0.252362818687039, 35.798955157755167 ], [ -0.253843250622056, 35.798955157755167 ], [ -0.253843250622056, 35.798490531598425 ], [ -0.255323682557072, 35.798490531598425 ], [ -0.255323682557072, 35.798025902724412 ], [ -0.261245410297139, 35.798025902724412 ], [ -0.261245410297139, 35.798490531598425 ], [ -0.266426922069697, 35.798490531598425 ], [ -0.266426922069697, 35.799419781194644 ], [ -0.267167138037206, 35.799419781194644 ], [ -0.267167138037206, 35.799884401916799 ], [ -0.267907354004714, 35.799884401916799 ], [ -0.267907354004714, 35.800349019921647 ], [ -0.268647569972222, 35.800349019921647 ], [ -0.268647569972222, 35.801278247779365 ], [ -0.269387785939731, 35.801278247779365 ], [ -0.269387785939731, 35.801742857632192 ], [ -0.270128001907239, 35.801742857632192 ], [ -0.270128001907239, 35.80220746476764 ], [ -0.270868217874747, 35.80220746476764 ], [ -0.270868217874747, 35.803136670886389 ], [ -0.271608433842256, 35.803136670886389 ], [ -0.271608433842256, 35.803601269869652 ], [ -0.272348649809764, 35.803601269869652 ], [ -0.272348649809764, 35.804530459683846 ], [ -0.273088865777272, 35.804530459683846 ], [ -0.273088865777272, 35.804995050514783 ], [ -0.273829081744781, 35.804995050514783 ], [ -0.273829081744781, 35.804065866135467 ], [ -0.274569297712289, 35.804065866135467 ], [ -0.274569297712289, 35.803136670886389 ], [ -0.275309513679797, 35.803136670886389 ], [ -0.275309513679797, 35.80220746476764 ], [ -0.276049729647306, 35.80220746476764 ], [ -0.276049729647306, 35.801742857632192 ], [ -0.276789945614814, 35.801742857632192 ], [ -0.276789945614814, 35.801278247779365 ], [ -0.278270377549831, 35.801278247779365 ], [ -0.278270377549831, 35.800813635209181 ], [ -0.279010593517339, 35.800813635209181 ], [ -0.279010593517339, 35.800349019921647 ], [ -0.280491025452356, 35.800349019921647 ], [ -0.280491025452356, 35.800813635209181 ], [ -0.281231241419864, 35.800813635209181 ], [ -0.281231241419864, 35.801278247779365 ], [ -0.282711673354881, 35.801278247779365 ], [ -0.282711673354881, 35.801742857632192 ], [ -0.283451889322389, 35.801742857632192 ], [ -0.283451889322389, 35.80220746476764 ], [ -0.284192105289897, 35.80220746476764 ], [ -0.284192105289897, 35.804065866135467 ], [ -0.284932321257406, 35.804065866135467 ], [ -0.284932321257406, 35.806388806702657 ], [ -0.285672537224914, 35.806388806702657 ], [ -0.285672537224914, 35.808711679331893 ], [ -0.286412753192422, 35.808711679331893 ], [ -0.286412753192422, 35.811034484021377 ], [ -0.287152969159931, 35.811034484021377 ], [ -0.287152969159931, 35.821254017484272 ], [ -0.286412753192422, 35.821254017484272 ], [ -0.286412753192422, 35.822183000751579 ], [ -0.285672537224914, 35.822183000751579 ], [ -0.285672537224914, 35.822647488308213 ], [ -0.284932321257406, 35.822647488308213 ], [ -0.284932321257406, 35.82311197314683 ], [ -0.284192105289897, 35.82311197314683 ], [ -0.284192105289897, 35.8235764552674 ], [ -0.283451889322389, 35.8235764552674 ], [ -0.283451889322389, 35.824040934669902 ], [ -0.282711673354881, 35.824040934669902 ], [ -0.282711673354881, 35.824505411354338 ], [ -0.281971457387372, 35.824505411354338 ], [ -0.281971457387372, 35.824969885320684 ], [ -0.281231241419864, 35.824969885320684 ], [ -0.281231241419864, 35.82543435656892 ], [ -0.280491025452356, 35.82543435656892 ], [ -0.280491025452356, 35.825898825099053 ], [ -0.278270377549831, 35.825898825099053 ], [ -0.278270377549831, 35.82543435656892 ], [ -0.277530161582322, 35.82543435656892 ], [ -0.277530161582322, 35.824969885320684 ], [ -0.276789945614814, 35.824969885320684 ], [ -0.276789945614814, 35.824505411354338 ], [ -0.276049729647306, 35.824505411354338 ] ] ], [ [ [ 1.247314731484846, 36.13370511326643 ], [ 1.247314731484846, 36.131854454851599 ], [ 1.248054947452355, 36.131854454851599 ], [ 1.248054947452355, 36.130466432400581 ], [ 1.248795163419863, 36.130466432400581 ], [ 1.248795163419863, 36.129078385401499 ], [ 1.249535379387371, 36.129078385401499 ], [ 1.249535379387371, 36.127690313854742 ], [ 1.25027559535488, 36.127690313854742 ], [ 1.25027559535488, 36.125839513607794 ], [ 1.249535379387371, 36.125839513607794 ], [ 1.249535379387371, 36.123988669722088 ], [ 1.248795163419863, 36.123988669722088 ], [ 1.248795163419863, 36.122600508170429 ], [ 1.248054947452355, 36.122600508170429 ], [ 1.248054947452355, 36.122137782198543 ], [ 1.247314731484846, 36.122137782198543 ], [ 1.247314731484846, 36.121675053499345 ], [ 1.246574515517338, 36.121675053499345 ], [ 1.246574515517338, 36.120749587919107 ], [ 1.245834299549829, 36.120749587919107 ], [ 1.245834299549829, 36.120286851038067 ], [ 1.244353867614813, 36.120286851038067 ], [ 1.244353867614813, 36.119824111429786 ], [ 1.242133219712288, 36.119824111429786 ], [ 1.242133219712288, 36.119361369094264 ], [ 1.238432139874746, 36.119361369094264 ], [ 1.238432139874746, 36.119824111429786 ], [ 1.236951707939729, 36.119824111429786 ], [ 1.236951707939729, 36.120286851038067 ], [ 1.236211491972221, 36.120286851038067 ], [ 1.236211491972221, 36.120749587919107 ], [ 1.235471276004713, 36.120749587919107 ], [ 1.235471276004713, 36.122137782198543 ], [ 1.234731060037205, 36.122137782198543 ], [ 1.234731060037205, 36.123988669722088 ], [ 1.233990844069696, 36.123988669722088 ], [ 1.233990844069696, 36.125839513607794 ], [ 1.233250628102188, 36.125839513607794 ], [ 1.233250628102188, 36.127227617884188 ], [ 1.233990844069696, 36.127227617884188 ], [ 1.233990844069696, 36.129078385401499 ], [ 1.234731060037205, 36.129078385401499 ], [ 1.234731060037205, 36.130466432400581 ], [ 1.235471276004713, 36.130466432400581 ], [ 1.235471276004713, 36.130929109278505 ], [ 1.236211491972221, 36.130929109278505 ], [ 1.236211491972221, 36.131854454851599 ], [ 1.236951707939729, 36.131854454851599 ], [ 1.236951707939729, 36.132317123546741 ], [ 1.237691923907238, 36.132317123546741 ], [ 1.237691923907238, 36.133242452754182 ], [ 1.238432139874746, 36.133242452754182 ], [ 1.238432139874746, 36.13370511326643 ], [ 1.239172355842254, 36.13370511326643 ], [ 1.239172355842254, 36.134167771051025 ], [ 1.239912571809763, 36.134167771051025 ], [ 1.239912571809763, 36.135093078437173 ], [ 1.242133219712288, 36.135093078437173 ], [ 1.242133219712288, 36.13463042610794 ], [ 1.244353867614813, 36.13463042610794 ], [ 1.244353867614813, 36.134167771051025 ], [ 1.246574515517338, 36.134167771051025 ], [ 1.246574515517338, 36.13370511326643 ], [ 1.247314731484846, 36.13370511326643 ] ] ], [ [ [ 2.926864761761257, 36.147121081532141 ], [ 2.929085409663781, 36.147121081532141 ], [ 2.929085409663781, 36.146658500127771 ], [ 2.930565841598798, 36.146658500127771 ], [ 2.930565841598798, 36.146195915995342 ], [ 2.932046273533815, 36.146195915995342 ], [ 2.932046273533815, 36.14573332913487 ], [ 2.933526705468831, 36.14573332913487 ], [ 2.933526705468831, 36.14480814722986 ], [ 2.93426692143634, 36.14480814722986 ], [ 2.93426692143634, 36.143882954412867 ], [ 2.935007137403848, 36.143882954412867 ], [ 2.935007137403848, 36.142957750683983 ], [ 2.935747353371357, 36.142957750683983 ], [ 2.935747353371357, 36.142495144727611 ], [ 2.936487569338865, 36.142495144727611 ], [ 2.936487569338865, 36.137868935130264 ], [ 2.937227785306373, 36.137868935130264 ], [ 2.937227785306373, 36.135555728038689 ], [ 2.936487569338865, 36.135555728038689 ], [ 2.936487569338865, 36.135093078437173 ], [ 2.935747353371357, 36.135093078437173 ], [ 2.935747353371357, 36.134167771051025 ], [ 2.935007137403848, 36.134167771051025 ], [ 2.935007137403848, 36.133242452754182 ], [ 2.93426692143634, 36.133242452754182 ], [ 2.93426692143634, 36.132779789514281 ], [ 2.932786489501323, 36.132779789514281 ], [ 2.932786489501323, 36.132317123546741 ], [ 2.930565841598798, 36.132317123546741 ], [ 2.930565841598798, 36.131854454851599 ], [ 2.929085409663781, 36.131854454851599 ], [ 2.929085409663781, 36.132317123546741 ], [ 2.927604977728765, 36.132317123546741 ], [ 2.927604977728765, 36.132779789514281 ], [ 2.926124545793748, 36.132779789514281 ], [ 2.926124545793748, 36.133242452754182 ], [ 2.924644113858732, 36.133242452754182 ], [ 2.924644113858732, 36.13370511326643 ], [ 2.923163681923715, 36.13370511326643 ], [ 2.923163681923715, 36.134167771051025 ], [ 2.922423465956207, 36.134167771051025 ], [ 2.922423465956207, 36.13463042610794 ], [ 2.921683249988698, 36.13463042610794 ], [ 2.921683249988698, 36.136018374912496 ], [ 2.92094303402119, 36.136018374912496 ], [ 2.92094303402119, 36.137868935130264 ], [ 2.920202818053682, 36.137868935130264 ], [ 2.920202818053682, 36.139719451703449 ], [ 2.919462602086173, 36.139719451703449 ], [ 2.919462602086173, 36.141569924631128 ], [ 2.918722386118665, 36.141569924631128 ], [ 2.918722386118665, 36.143420353912397 ], [ 2.917982170151157, 36.143420353912397 ], [ 2.917982170151157, 36.143882954412867 ], [ 2.918722386118665, 36.143882954412867 ], [ 2.918722386118665, 36.14480814722986 ], [ 2.919462602086173, 36.14480814722986 ], [ 2.919462602086173, 36.146195915995342 ], [ 2.920202818053682, 36.146195915995342 ], [ 2.920202818053682, 36.147121081532141 ], [ 2.92094303402119, 36.147121081532141 ], [ 2.92094303402119, 36.148046236156667 ], [ 2.921683249988698, 36.148046236156667 ], [ 2.921683249988698, 36.148508809376793 ], [ 2.923903897891223, 36.148508809376793 ], [ 2.923903897891223, 36.148046236156667 ], [ 2.92538432982624, 36.148046236156667 ], [ 2.92538432982624, 36.147583660208454 ], [ 2.926864761761257, 36.147583660208454 ], [ 2.926864761761257, 36.147121081532141 ] ] ], [ [ [ 3.743322973922949, 36.186892875113685 ], [ 3.744063189890458, 36.186892875113685 ], [ 3.744063189890458, 36.186430528374551 ], [ 3.744803405857966, 36.186430528374551 ], [ 3.744803405857966, 36.185968178906165 ], [ 3.745543621825474, 36.185968178906165 ], [ 3.745543621825474, 36.186430528374551 ], [ 3.747024053760491, 36.186430528374551 ], [ 3.747024053760491, 36.186892875113685 ], [ 3.749244701663016, 36.186892875113685 ], [ 3.749244701663016, 36.187355219123539 ], [ 3.751465349565541, 36.187355219123539 ], [ 3.751465349565541, 36.187817560404099 ], [ 3.752945781500558, 36.187817560404099 ], [ 3.752945781500558, 36.187355219123539 ], [ 3.753685997468065, 36.187355219123539 ], [ 3.753685997468065, 36.186892875113685 ], [ 3.754426213435575, 36.186892875113685 ], [ 3.754426213435575, 36.185968178906165 ], [ 3.755166429403083, 36.185968178906165 ], [ 3.755166429403083, 36.185043471781654 ], [ 3.755906645370591, 36.185043471781654 ], [ 3.755906645370591, 36.184118753740272 ], [ 3.756646861338099, 36.184118753740272 ], [ 3.756646861338099, 36.183656390625785 ], [ 3.757387077305608, 36.183656390625785 ], [ 3.757387077305608, 36.181344534115965 ], [ 3.756646861338099, 36.181344534115965 ], [ 3.756646861338099, 36.175795800126778 ], [ 3.755906645370591, 36.175795800126778 ], [ 3.755906645370591, 36.173483711649958 ], [ 3.755166429403083, 36.173483711649958 ], [ 3.755166429403083, 36.173021285767938 ], [ 3.754426213435575, 36.173021285767938 ], [ 3.754426213435575, 36.17209642581733 ], [ 3.753685997468065, 36.17209642581733 ], [ 3.753685997468065, 36.171171554951435 ], [ 3.751465349565541, 36.171171554951435 ], [ 3.751465349565541, 36.170709115425268 ], [ 3.747764269728, 36.170709115425268 ], [ 3.747764269728, 36.171171554951435 ], [ 3.747024053760491, 36.171171554951435 ], [ 3.747024053760491, 36.171633991748799 ], [ 3.745543621825474, 36.171633991748799 ], [ 3.745543621825474, 36.17209642581733 ], [ 3.744803405857966, 36.17209642581733 ], [ 3.744803405857966, 36.172558857157064 ], [ 3.743322973922949, 36.172558857157064 ], [ 3.743322973922949, 36.173021285767938 ], [ 3.742582757955441, 36.173021285767938 ], [ 3.742582757955441, 36.173483711649958 ], [ 3.741102326020424, 36.173483711649958 ], [ 3.741102326020424, 36.174408555227394 ], [ 3.740362110052916, 36.174408555227394 ], [ 3.740362110052916, 36.176258209635364 ], [ 3.739621894085408, 36.176258209635364 ], [ 3.739621894085408, 36.177645421787389 ], [ 3.738881678117899, 36.177645421787389 ], [ 3.738881678117899, 36.178107820380092 ], [ 3.738141462150391, 36.178107820380092 ], [ 3.738141462150391, 36.178570216243784 ], [ 3.737401246182882, 36.178570216243784 ], [ 3.737401246182882, 36.17903260937846 ], [ 3.735920814247866, 36.17903260937846 ], [ 3.735920814247866, 36.182269284907314 ], [ 3.735180598280357, 36.182269284907314 ], [ 3.735180598280357, 36.185505826708528 ], [ 3.735920814247866, 36.185505826708528 ], [ 3.735920814247866, 36.185968178906165 ], [ 3.736661030215375, 36.185968178906165 ], [ 3.736661030215375, 36.186430528374551 ], [ 3.737401246182882, 36.186430528374551 ], [ 3.737401246182882, 36.186892875113685 ], [ 3.738141462150391, 36.186892875113685 ], [ 3.738141462150391, 36.187355219123539 ], [ 3.738881678117899, 36.187355219123539 ], [ 3.738881678117899, 36.187817560404099 ], [ 3.739621894085408, 36.187817560404099 ], [ 3.739621894085408, 36.188279898955365 ], [ 3.741842541987933, 36.188279898955365 ], [ 3.741842541987933, 36.187817560404099 ], [ 3.742582757955441, 36.187817560404099 ], [ 3.742582757955441, 36.187355219123539 ], [ 3.743322973922949, 36.187355219123539 ], [ 3.743322973922949, 36.186892875113685 ] ] ], [ [ [ 2.88985396338584, 36.610633967666281 ], [ 2.88985396338584, 36.61017413493235 ], [ 2.890594179353348, 36.61017413493235 ], [ 2.890594179353348, 36.606495374357721 ], [ 2.891334395320857, 36.606495374357721 ], [ 2.891334395320857, 36.605115793904091 ], [ 2.892814827255873, 36.605115793904091 ], [ 2.892814827255873, 36.605575656796958 ], [ 2.893555043223381, 36.605575656796958 ], [ 2.893555043223381, 36.606035516948175 ], [ 2.895035475158398, 36.606035516948175 ], [ 2.895035475158398, 36.605575656796958 ], [ 2.895775691125907, 36.605575656796958 ], [ 2.895775691125907, 36.605115793904091 ], [ 2.896515907093415, 36.605115793904091 ], [ 2.896515907093415, 36.604655928269572 ], [ 2.897256123060923, 36.604655928269572 ], [ 2.897256123060923, 36.604196059893432 ], [ 2.897996339028431, 36.604196059893432 ], [ 2.897996339028431, 36.603736188775677 ], [ 2.89873655499594, 36.603736188775677 ], [ 2.89873655499594, 36.603276314916315 ], [ 2.899476770963448, 36.603276314916315 ], [ 2.899476770963448, 36.602816438315351 ], [ 2.900216986930956, 36.602816438315351 ], [ 2.900216986930956, 36.602356558972815 ], [ 2.901697418865973, 36.602356558972815 ], [ 2.901697418865973, 36.601896676888721 ], [ 2.902437634833482, 36.601896676888721 ], [ 2.902437634833482, 36.600057121136963 ], [ 2.90317785080099, 36.600057121136963 ], [ 2.90317785080099, 36.598217521521264 ], [ 2.903918066768498, 36.598217521521264 ], [ 2.903918066768498, 36.597757614763687 ], [ 2.90317785080099, 36.597757614763687 ], [ 2.90317785080099, 36.596377878042439 ], [ 2.902437634833482, 36.596377878042439 ], [ 2.902437634833482, 36.595458039854627 ], [ 2.901697418865973, 36.595458039854627 ], [ 2.901697418865973, 36.594078262012708 ], [ 2.900957202898465, 36.594078262012708 ], [ 2.900957202898465, 36.593158396411461 ], [ 2.900216986930956, 36.593158396411461 ], [ 2.900216986930956, 36.592698459498877 ], [ 2.899476770963448, 36.592698459498877 ], [ 2.899476770963448, 36.593158396411461 ], [ 2.896515907093415, 36.593158396411461 ], [ 2.896515907093415, 36.593618330582743 ], [ 2.89429525919089, 36.593618330582743 ], [ 2.89429525919089, 36.594078262012708 ], [ 2.891334395320857, 36.594078262012708 ], [ 2.891334395320857, 36.594538190701364 ], [ 2.889113747418332, 36.594538190701364 ], [ 2.889113747418332, 36.596377878042439 ], [ 2.888373531450823, 36.596377878042439 ], [ 2.888373531450823, 36.598217521521264 ], [ 2.887633315483315, 36.598217521521264 ], [ 2.887633315483315, 36.596377878042439 ], [ 2.886893099515807, 36.596377878042439 ], [ 2.886893099515807, 36.594078262012708 ], [ 2.886152883548299, 36.594078262012708 ], [ 2.886152883548299, 36.592238519845012 ], [ 2.88541266758079, 36.592238519845012 ], [ 2.88541266758079, 36.591318632313481 ], [ 2.884672451613281, 36.591318632313481 ], [ 2.884672451613281, 36.590858684435844 ], [ 2.883932235645773, 36.590858684435844 ], [ 2.883932235645773, 36.590398733816969 ], [ 2.883192019678265, 36.590398733816969 ], [ 2.883192019678265, 36.58993878045689 ], [ 2.882451803710757, 36.58993878045689 ], [ 2.882451803710757, 36.589478824355602 ], [ 2.88097137177574, 36.589478824355602 ], [ 2.88097137177574, 36.589018865513104 ], [ 2.880231155808231, 36.589018865513104 ], [ 2.880231155808231, 36.588558903929453 ], [ 2.879490939840723, 36.588558903929453 ], [ 2.879490939840723, 36.588098939604613 ], [ 2.878010507905707, 36.588098939604613 ], [ 2.878010507905707, 36.588558903929453 ], [ 2.875049644035673, 36.588558903929453 ], [ 2.875049644035673, 36.589018865513104 ], [ 2.874309428068165, 36.589018865513104 ], [ 2.874309428068165, 36.589478824355602 ], [ 2.873569212100656, 36.589478824355602 ], [ 2.873569212100656, 36.58993878045689 ], [ 2.872828996133148, 36.58993878045689 ], [ 2.872828996133148, 36.590398733816969 ], [ 2.87208878016564, 36.590398733816969 ], [ 2.87208878016564, 36.590858684435844 ], [ 2.871348564198132, 36.590858684435844 ], [ 2.871348564198132, 36.591318632313481 ], [ 2.870608348230624, 36.591318632313481 ], [ 2.870608348230624, 36.591778577449873 ], [ 2.869868132263115, 36.591778577449873 ], [ 2.869868132263115, 36.592698459498877 ], [ 2.869127916295606, 36.592698459498877 ], [ 2.869127916295606, 36.594998116648675 ], [ 2.868387700328098, 36.594998116648675 ], [ 2.868387700328098, 36.597297705264687 ], [ 2.86764748436059, 36.597297705264687 ], [ 2.86764748436059, 36.600976904495894 ], [ 2.868387700328098, 36.600976904495894 ], [ 2.868387700328098, 36.602816438315351 ], [ 2.869127916295606, 36.602816438315351 ], [ 2.869127916295606, 36.604655928269572 ], [ 2.869868132263115, 36.604655928269572 ], [ 2.869868132263115, 36.605115793904091 ], [ 2.870608348230624, 36.605115793904091 ], [ 2.870608348230624, 36.605575656796958 ], [ 2.87208878016564, 36.605575656796958 ], [ 2.87208878016564, 36.606035516948175 ], [ 2.873569212100656, 36.606035516948175 ], [ 2.873569212100656, 36.606495374357721 ], [ 2.87653007597069, 36.606495374357721 ], [ 2.87653007597069, 36.606035516948175 ], [ 2.878010507905707, 36.606035516948175 ], [ 2.878010507905707, 36.605575656796958 ], [ 2.878750723873215, 36.605575656796958 ], [ 2.878750723873215, 36.605115793904091 ], [ 2.880231155808231, 36.605115793904091 ], [ 2.880231155808231, 36.604655928269572 ], [ 2.88097137177574, 36.604655928269572 ], [ 2.88097137177574, 36.605575656796958 ], [ 2.880231155808231, 36.605575656796958 ], [ 2.880231155808231, 36.607415080951746 ], [ 2.88097137177574, 36.607415080951746 ], [ 2.88097137177574, 36.608794620279923 ], [ 2.881711587743248, 36.608794620279923 ], [ 2.881711587743248, 36.61017413493235 ], [ 2.882451803710757, 36.61017413493235 ], [ 2.882451803710757, 36.610633967666281 ], [ 2.883192019678265, 36.610633967666281 ], [ 2.883192019678265, 36.611093797658391 ], [ 2.884672451613281, 36.611093797658391 ], [ 2.884672451613281, 36.611553624908673 ], [ 2.88541266758079, 36.611553624908673 ], [ 2.88541266758079, 36.612013449417155 ], [ 2.886893099515807, 36.612013449417155 ], [ 2.886893099515807, 36.611553624908673 ], [ 2.887633315483315, 36.611553624908673 ], [ 2.887633315483315, 36.611093797658391 ], [ 2.889113747418332, 36.611093797658391 ], [ 2.889113747418332, 36.610633967666281 ], [ 2.88985396338584, 36.610633967666281 ] ], [ [ 2.887633315483315, 36.598677425537396 ], [ 2.888373531450823, 36.598677425537396 ], [ 2.888373531450823, 36.600976904495894 ], [ 2.889113747418332, 36.600976904495894 ], [ 2.889113747418332, 36.601896676888721 ], [ 2.888373531450823, 36.601896676888721 ], [ 2.888373531450823, 36.601436792063076 ], [ 2.886152883548299, 36.601436792063076 ], [ 2.886152883548299, 36.600517014187183 ], [ 2.886893099515807, 36.600517014187183 ], [ 2.886893099515807, 36.598217521521264 ], [ 2.887633315483315, 36.598217521521264 ], [ 2.887633315483315, 36.598677425537396 ] ] ], [ [ [ 3.127463288956015, 36.687387561947112 ], [ 3.128203504923524, 36.687387561947112 ], [ 3.128203504923524, 36.68692818727758 ], [ 3.128943720891032, 36.68692818727758 ], [ 3.128943720891032, 36.68600942970653 ], [ 3.12968393685854, 36.68600942970653 ], [ 3.12968393685854, 36.685090661159613 ], [ 3.130424152826048, 36.685090661159613 ], [ 3.130424152826048, 36.684171881636921 ], [ 3.131164368793557, 36.684171881636921 ], [ 3.131164368793557, 36.683253091138575 ], [ 3.131904584761065, 36.683253091138575 ], [ 3.131904584761065, 36.682334289664659 ], [ 3.132644800728573, 36.682334289664659 ], [ 3.132644800728573, 36.681415477215303 ], [ 3.133385016696082, 36.681415477215303 ], [ 3.133385016696082, 36.680956066874856 ], [ 3.13412523266359, 36.680956066874856 ], [ 3.13412523266359, 36.675902372040525 ], [ 3.133385016696082, 36.675902372040525 ], [ 3.133385016696082, 36.674983482765938 ], [ 3.132644800728573, 36.674983482765938 ], [ 3.132644800728573, 36.67452403401316 ], [ 3.131904584761065, 36.67452403401316 ], [ 3.131904584761065, 36.673605128276698 ], [ 3.131164368793557, 36.673605128276698 ], [ 3.131164368793557, 36.673145671293035 ], [ 3.12968393685854, 36.673145671293035 ], [ 3.12968393685854, 36.672686211565782 ], [ 3.128203504923524, 36.672686211565782 ], [ 3.128203504923524, 36.672226749094932 ], [ 3.125982857020999, 36.672226749094932 ], [ 3.125982857020999, 36.671767283880513 ], [ 3.123762209118474, 36.671767283880513 ], [ 3.123762209118474, 36.672226749094932 ], [ 3.122281777183456, 36.672226749094932 ], [ 3.122281777183456, 36.672686211565782 ], [ 3.121541561215949, 36.672686211565782 ], [ 3.121541561215949, 36.673145671293035 ], [ 3.120801345248441, 36.673145671293035 ], [ 3.120801345248441, 36.673605128276698 ], [ 3.120061129280932, 36.673605128276698 ], [ 3.120061129280932, 36.674064582516735 ], [ 3.118580697345915, 36.674064582516735 ], [ 3.118580697345915, 36.67452403401316 ], [ 3.117840481378407, 36.67452403401316 ], [ 3.117840481378407, 36.674983482765938 ], [ 3.117100265410898, 36.674983482765938 ], [ 3.117100265410898, 36.675442928775055 ], [ 3.11636004944339, 36.675442928775055 ], [ 3.11636004944339, 36.675902372040525 ], [ 3.114879617508374, 36.675902372040525 ], [ 3.114879617508374, 36.676361812562291 ], [ 3.114139401540865, 36.676361812562291 ], [ 3.114139401540865, 36.676821250340389 ], [ 3.113399185573357, 36.676821250340389 ], [ 3.113399185573357, 36.677280685374775 ], [ 3.112658969605848, 36.677280685374775 ], [ 3.112658969605848, 36.677740117665422 ], [ 3.111178537670832, 36.677740117665422 ], [ 3.111178537670832, 36.681415477215303 ], [ 3.110438321703324, 36.681415477215303 ], [ 3.110438321703324, 36.684171881636921 ], [ 3.111178537670832, 36.684171881636921 ], [ 3.111178537670832, 36.684631272770233 ], [ 3.11191875363834, 36.684631272770233 ], [ 3.11191875363834, 36.685090661159613 ], [ 3.112658969605848, 36.685090661159613 ], [ 3.112658969605848, 36.68600942970653 ], [ 3.113399185573357, 36.68600942970653 ], [ 3.113399185573357, 36.686468809864046 ], [ 3.114139401540865, 36.686468809864046 ], [ 3.114139401540865, 36.68692818727758 ], [ 3.114879617508374, 36.68692818727758 ], [ 3.114879617508374, 36.687387561947112 ], [ 3.115619833475882, 36.687387561947112 ], [ 3.115619833475882, 36.687846933872635 ], [ 3.11636004944339, 36.687846933872635 ], [ 3.11636004944339, 36.688306303054155 ], [ 3.117100265410898, 36.688306303054155 ], [ 3.117100265410898, 36.688765669491623 ], [ 3.117840481378407, 36.688765669491623 ], [ 3.117840481378407, 36.689225033185046 ], [ 3.118580697345915, 36.689225033185046 ], [ 3.118580697345915, 36.689684394134424 ], [ 3.119320913313424, 36.689684394134424 ], [ 3.119320913313424, 36.689225033185046 ], [ 3.126723072988507, 36.689225033185046 ], [ 3.126723072988507, 36.688306303054155 ], [ 3.127463288956015, 36.688306303054155 ], [ 3.127463288956015, 36.687387561947112 ] ] ] ] } }
]
}
